{"type":"FeatureCollection","features":[{"type":"Feature","properties":{"code":"150002"},"geometry":{"type":"Polygon","coordinates":[[[-73.35718934547066,5.544531569372111],[-73.36003915557626,5.537875873000019],[-73.36298064927553,5.536256872047545],[-73.36819258924345,5.518141458719185],[-73.37000874879743,5.5177421648828044],[-73.3739215807446,5.508428791008043],[-73.37403245918944,5.509887921599386],[-73.37623578518554,5.5100944318287475],[-73.37603826971451,5.511805201735569],[-73.37829984566645,5.511743459188949],[-73.37526372805632,5.514293093662843],[-73.37411954667346,5.518403621058496],[-73.37527106290838,5.521230034096789],[-73.37425775494978,5.525329436829679],[-73.37220369195859,5.5256579244555155],[-73.37155365355176,5.528600197714184],[-73.37312094441444,5.529550591730185],[-73.37109561816408,5.5314456040289315],[-73.37407032747137,5.534239895722067],[-73.37299678363445,5.535829896652388],[-73.37479033596497,5.53682341840539],[-73.37318714320247,5.538946560852082],[-73.37422415573269,5.542402845567892],[-73.36224483773424,5.554401637125409],[-73.35718934547066,5.544531569372111]]]}}]}