{"type":"FeatureCollection","features":[{"type":"Feature","properties":{"code":"150268"},"geometry":{"type":"Polygon","coordinates":[[[-73.07974006993254,5.619495950924772],[-73.08908704199598,5.589760919425714],[-73.08675611507971,5.585968592145377],[-73.09504940047435,5.579966596463919],[-73.09850994191373,5.56927740715463],[-73.1034633612573,5.560236200307941],[-73.10588763887256,5.548455704930973],[-73.11130690153942,5.538017010280669],[-73.12591339754925,5.5479887889421775],[-73.13205491894189,5.546264168999926],[-73.13559164020393,5.547078434250352],[-73.14265116481545,5.556275871799983],[-73.15318197191999,5.565149407549029],[-73.1577644752416,5.568109234264625],[-73.16469182647751,5.569380089941035],[-73.17226292822266,5.578251699417251],[-73.178671642067,5.582785545066429],[-73.18353353619705,5.589395101393336],[-73.18522671048083,5.6093429586345565],[-73.19008752166093,5.620978887903561],[-73.18560744401503,5.630599241585799],[-73.18347001855864,5.6454328166753385],[-73.18308215071869,5.642878536726585],[-73.17358625195101,5.630551385070078],[-73.16553008323501,5.624054777442723],[-73.16255456454343,5.624437763266087],[-73.16328865550042,5.626090149519598],[-73.15895431535859,5.628228446066828],[-73.15821449391984,5.626643837260588],[-73.15488828455699,5.628341805114985],[-73.15465930902928,5.626174824277484],[-73.15175792664513,5.626763563396423],[-73.1483523677997,5.6251453327473655],[-73.14269373205127,5.6299938550678235],[-73.13542922958982,5.629518741363654],[-73.12985195907129,5.632820015109246],[-73.11663748057941,5.625565043224583],[-73.11131932512501,5.624961741359584],[-73.10677441446279,5.6281695523059625],[-73.10421862270351,5.6278386529824616],[-73.09756650428295,5.622179921588895],[-73.08854335791534,5.619784474302719],[-73.07974006993254,5.619495950924772]]]}}]}