{"type":"FeatureCollection","features":[{"type":"Feature","properties":{"code":"150267"},"geometry":{"type":"Polygon","coordinates":[[[-73.18347001855864,5.6454328166753385],[-73.18560744401503,5.630599241585799],[-73.19008752166093,5.620978887903561],[-73.18522671048083,5.6093429586345565],[-73.18244423353542,5.5872492694477955],[-73.16507868233003,5.569673350325218],[-73.1561661027892,5.567306600699112],[-73.14372791636458,5.557309022528557],[-73.13559164020393,5.547078434250352],[-73.13205491894189,5.546264168999926],[-73.12591339754925,5.5479887889421775],[-73.11130690153942,5.538017010280669],[-73.11522213387138,5.532227864148183],[-73.11673021112756,5.523863456811114],[-73.12739926456078,5.515482162447938],[-73.13693560888743,5.504233779116362],[-73.14163756375069,5.510166876348194],[-73.14692744834872,5.51382012528984],[-73.16612374242294,5.522162913736679],[-73.17736846449912,5.5240244049799685],[-73.19542841392251,5.537561132565372],[-73.1977762381494,5.542799007796759],[-73.20467447006382,5.542208837085809],[-73.21044153553538,5.550251926069848],[-73.21608442068663,5.544394516036789],[-73.2197096929064,5.546824144638492],[-73.21859043479952,5.548563057874844],[-73.22088265628162,5.550835900414597],[-73.22803317954407,5.553981517328111],[-73.23113369719624,5.563717282829771],[-73.24009602867238,5.566122837649004],[-73.24674704460256,5.570931266137848],[-73.2424137380454,5.575980655623482],[-73.23305928714797,5.5966934025897785],[-73.22330586637361,5.607353071485022],[-73.21102130560712,5.625838944206862],[-73.2096821726604,5.631145604759183],[-73.201646631416,5.636866004651495],[-73.19588371056778,5.645157583859998],[-73.1902798229284,5.645989903418865],[-73.18696050618729,5.6497811806593745],[-73.18347001855864,5.6454328166753385]],[[-73.18288042686083,5.568180590691895],[-73.18210651666641,5.569588351607933],[-73.18383831719433,5.5701679941528255],[-73.18413906052632,5.573282519192048],[-73.18632051566385,5.571807025051783],[-73.18443047485624,5.5681768553886855],[-73.18600302620234,5.56827511175851],[-73.18598141759657,5.566387344837267],[-73.1873582131368,5.565453092226619],[-73.18832273589612,5.567493116977403],[-73.19016504668645,5.567321876155859],[-73.18803135756167,5.565574970892612],[-73.18888326895052,5.5642143434972695],[-73.1872836130018,5.561267676732143],[-73.18366549771349,5.560148903021627],[-73.1800038659369,5.562183648776966],[-73.18288042686083,5.568180590691895]]]}}]}