{"type":"FeatureCollection","features":[{"type":"Feature","properties":{"code":"150462"},"geometry":{"type":"MultiPolygon","coordinates":[[[[-73.040156140141,5.809289676024264],[-73.0393876076725,5.809943801461657],[-73.03959137504563,5.8089643004655045],[-73.040156140141,5.809289676024264]]],[[[-73.01408171506137,5.839707018456352],[-73.02112512089326,5.83552686447382],[-73.02077313644122,5.831257762554628],[-73.02343399285974,5.827099234661375],[-73.01724180113263,5.826002691764359],[-73.01866872707501,5.825107941630847],[-73.02193563541385,5.826367469012894],[-73.02157284305935,5.821324674929144],[-73.01648531378294,5.819355748466535],[-73.02020144272859,5.81775725774321],[-73.01295460068206,5.81524569004074],[-73.01279312183686,5.81174641231388],[-73.00940176372575,5.810734132797791],[-73.00929715569498,5.808752862968106],[-73.01456056304028,5.809784406241022],[-73.0179093426027,5.802839237238516],[-73.02309615771992,5.798992857076257],[-73.03870225563492,5.803383114666303],[-73.0403612887124,5.80634827797013],[-73.0369943005752,5.808027143533195],[-73.03541335816658,5.810430284597828],[-73.03614238815794,5.812310950123447],[-73.03127100047499,5.813382003072604],[-73.02361425209381,5.832970761096476],[-73.01835450394691,5.83976656836353],[-73.01408171506137,5.839707018456352]]]]}}]}