{"type":"FeatureCollection","features":[{"type":"Feature","properties":{"code":"150427"},"geometry":{"type":"Polygon","coordinates":[[[-73.1302634553781,5.854206930797318],[-73.13442996604226,5.845481511339813],[-73.13282740885722,5.844131616770596],[-73.13431011855022,5.840915335571651],[-73.13201669996101,5.834988140571454],[-73.13795925783558,5.819659163692165],[-73.14591770702873,5.809352598194437],[-73.1586858167849,5.799512590787515],[-73.16261634514245,5.791132889481787],[-73.17193275395113,5.789185888385248],[-73.16937865089449,5.783073024543398],[-73.17362455217881,5.772042251421226],[-73.17162885844283,5.768889172128809],[-73.17428288703144,5.759673188675208],[-73.16701971228929,5.750944312622437],[-73.16815557357222,5.747679848891437],[-73.16706360518754,5.741819111846837],[-73.16079997784306,5.740433596142509],[-73.15934927019595,5.741593136285928],[-73.15502568242056,5.73859673918281],[-73.15570015662166,5.734577703062087],[-73.15831086926829,5.732658316675668],[-73.15482061920989,5.729317459205959],[-73.15561486171293,5.727208760205997],[-73.17581692526215,5.7236321723981405],[-73.1805792651279,5.725301084694479],[-73.1781477400782,5.720948201734018],[-73.1794711573948,5.718866179504516],[-73.18246015176868,5.718117017750842],[-73.19217293672227,5.724656957775267],[-73.19106743197722,5.728674918145089],[-73.19872768940428,5.732619197807537],[-73.20143782775989,5.737909375511663],[-73.21997123818022,5.729042747811036],[-73.22729845918025,5.722479197831717],[-73.22606413686748,5.721646645844828],[-73.23035017312117,5.713631819489649],[-73.24235555082458,5.709095784286376],[-73.24396229479913,5.70682782684861],[-73.24828640810858,5.708088326108793],[-73.25181959461372,5.704690313974538],[-73.25438299479072,5.706378045740564],[-73.25633333112637,5.704385996804831],[-73.26301199673367,5.7035320244172],[-73.26842091018347,5.704543334111975],[-73.27039145130078,5.708238598015839],[-73.27288834107168,5.709123710614506],[-73.29434769822575,5.697167240495048],[-73.29333257917983,5.703511051388887],[-73.30105782286125,5.709714189858175],[-73.30060983432855,5.7130737896643495],[-73.30226226274823,5.71519750701043],[-73.30950014808883,5.718141393895451],[-73.31166931745207,5.725405017038554],[-73.31372051828771,5.725556951937165],[-73.31662614813945,5.728927847127466],[-73.31953060453827,5.7355831598905525],[-73.30454851206463,5.74304613118926],[-73.28651427164732,5.743169665647713],[-73.27741606337412,5.744868372952283],[-73.26593744878653,5.740084607543508],[-73.26035045125866,5.739423682044162],[-73.24768540584108,5.746155780382537],[-73.23448795012973,5.743702925435002],[-73.22120025887182,5.747146730000793],[-73.21563207464294,5.7598667898940334],[-73.21297190213869,5.7734573482177325],[-73.21742802735832,5.778077477108923],[-73.22023097339525,5.7955047389792185],[-73.20805334802498,5.803674664750645],[-73.2015948524205,5.813029022059823],[-73.1880061802604,5.82146416670173],[-73.1729335941011,5.817461738899226],[-73.15762775203632,5.817184914054906],[-73.15219784910317,5.825298745486066],[-73.15064656183455,5.836847365127426],[-73.13827764307052,5.844000199300183],[-73.1302634553781,5.854206930797318]]]}}]}