{"type":"FeatureCollection","features":[{"type":"Feature","properties":{"code":"150467"},"geometry":{"type":"Polygon","coordinates":[[[-72.992170335823,5.805144851099101],[-72.99407659002696,5.807584544039287],[-73.00918369174565,5.808492672153079],[-73.00940176372575,5.810734132797791],[-73.01279312183686,5.81174641231388],[-73.01285772448216,5.815165316229411],[-73.02020144272859,5.81775725774321],[-73.01648531378294,5.819355748466535],[-73.02157284305935,5.821324674929144],[-73.02185521635107,5.822923815628144],[-73.02193563541385,5.826367469012894],[-73.01866872707501,5.825107941630847],[-73.01724180113263,5.826002691764359],[-73.02342062105015,5.827048364809059],[-73.02077313644122,5.831257762554628],[-73.02112512089326,5.83552686447382],[-73.0141379554405,5.839142064127543],[-73.01263484967546,5.833987480398889],[-73.01423614804685,5.83163867503788],[-73.01238195566009,5.831071217479973],[-73.01308907674047,5.829519730693505],[-73.01142313767144,5.8290701645299805],[-73.01076556078095,5.8259067555608794],[-72.99920703518126,5.831503748521584],[-72.99632247194603,5.817458432456533],[-72.99216946576064,5.814626714711721],[-72.992170335823,5.805144851099101]]]}}]}