{"type":"FeatureCollection","features":[{"type":"Feature","properties":{"code":"150440"},"geometry":{"type":"Polygon","coordinates":[[[-73.11306623038826,5.769178380449546],[-73.11800427143078,5.769198536894464],[-73.11989552168683,5.778366503395318],[-73.12219559635605,5.778584644281068],[-73.12243536538796,5.776085627691032],[-73.12404478228461,5.777842774184819],[-73.12794003917753,5.777689425177755],[-73.12829915896378,5.779941445870293],[-73.1264697232453,5.779968433230408],[-73.12817375273988,5.784692989146492],[-73.12395073944379,5.785727842975859],[-73.12082974652952,5.788481849547111],[-73.11503918834546,5.787258176756609],[-73.11238595679981,5.7911775783945245],[-73.10984655430053,5.781054346145481],[-73.1067782083872,5.781312574692208],[-73.10647683359156,5.779996565247075],[-73.10248943750491,5.782832560284305],[-73.10045414153285,5.778967891328762],[-73.11391145484379,5.7780865932234065],[-73.11048323940969,5.775889421427337],[-73.11280494222501,5.7747186764025855],[-73.10969597591759,5.773200522466652],[-73.11276333041229,5.772039531190785],[-73.11306623038826,5.769178380449546]]]}}]}