{"type":"FeatureCollection","features":[{"type":"Feature","properties":{"code":"150477"},"geometry":{"type":"Polygon","coordinates":[[[-73.01487536312464,5.840595827277468],[-73.01890152120978,5.839325694596198],[-73.02338751651388,5.833297046826829],[-73.02303154581864,5.83712970448056],[-73.02130711613825,5.837194315353315],[-73.01969090432192,5.842074602149353],[-73.02230036741088,5.842464995844182],[-73.02311349931767,5.845160778170623],[-73.02138953860702,5.849725561427647],[-73.02462152926546,5.848034190003602],[-73.02672783405126,5.850766352455707],[-73.02854138958878,5.85019898025854],[-73.0278996445424,5.846975696394452],[-73.03034314374838,5.838503757164574],[-73.03286446519974,5.8413094265172845],[-73.03350445058095,5.846701479680348],[-73.03501800326512,5.846026105592102],[-73.03525423445478,5.849451019725734],[-73.03820108222578,5.849926658964023],[-73.03821773785239,5.845216122776321],[-73.04060144443872,5.843872242538907],[-73.03799411125419,5.843467349861498],[-73.03783025053616,5.839968072134695],[-73.04246640256179,5.839880597956267],[-73.04406483980608,5.838431340413024],[-73.04178102275625,5.836996313428983],[-73.04166979155565,5.833680284618538],[-73.04386687387722,5.831264646948853],[-73.04638695811224,5.83185805005462],[-73.0451811689087,5.830895159433624],[-73.04665847722157,5.828995897610355],[-73.04888716563869,5.831542806711582],[-73.05097921723961,5.831168555450574],[-73.0549760924809,5.836319548886422],[-73.06014825023533,5.849960860848398],[-73.06792267095267,5.848769030695166],[-73.07140211105178,5.849323409549584],[-73.07188262922136,5.851348386129416],[-73.06607710822709,5.858401413041122],[-73.06401302306358,5.883367487675173],[-73.06107148925508,5.894063350547981],[-73.0615493242181,5.900940821293261],[-73.05898251886794,5.90658764126556],[-73.04974522608535,5.9150290964307715],[-73.02150903025796,5.927642459526453],[-73.02668711081287,5.9127485416005925],[-73.02275806444095,5.907866553760641],[-73.01645986908659,5.894406891486938],[-73.01699877090948,5.88820792335207],[-73.01301842171102,5.884516029654378],[-73.01093158328518,5.873312270443705],[-73.0081458081246,5.8676437688462215],[-73.0126459136601,5.86145803573811],[-73.01164757982451,5.852915603972633],[-73.01269921475051,5.849443524436651],[-73.01419571174392,5.849415857276028],[-73.01487536312464,5.840595827277468]]]}}]}