{"type":"FeatureCollection","features":[{"type":"Feature","properties":{"code":"150480"},"geometry":{"type":"Polygon","coordinates":[[[-72.98360872566144,5.865293971038113],[-72.99044030833,5.867690408714452],[-72.98343023946234,5.882860747306722],[-72.97834945059816,5.883336729016321],[-72.97911687337717,5.879916444930927],[-72.97683468023808,5.878238915314739],[-72.9738678302885,5.879513285179144],[-72.97704470157015,5.87629315040607],[-72.97660058718037,5.8727434892802535],[-72.98292517854048,5.870222258331864],[-72.98027911935293,5.866299708631345],[-72.98304007202489,5.86804486451382],[-72.98360872566144,5.865293971038113]]]}}]}