{"type":"FeatureCollection","features":[{"type":"Feature","properties":{"code":"150601"},"geometry":{"type":"Polygon","coordinates":[[[-72.9221076244433,5.866113968827165],[-72.91953306052272,5.862943927432298],[-72.91762586837922,5.86429193172421],[-72.91779626176412,5.862780291943125],[-72.91432877011027,5.86284539029765],[-72.9153916942497,5.860272252826917],[-72.91389540294483,5.8595143585678215],[-72.91410681267428,5.85430831671772],[-72.91835019838828,5.85439597293049],[-72.92227017698247,5.859032909657742],[-72.9244269638977,5.864416219002578],[-72.92286441004131,5.863864086266631],[-72.9221076244433,5.866113968827165]]]}}]}