{"type":"FeatureCollection","features":[{"type":"Feature","properties":{"code":"150627"},"geometry":{"type":"Polygon","coordinates":[[[-72.91404663747409,5.946445508034856],[-72.92810007926352,5.92418465271578],[-72.93145750699904,5.9232626786803735],[-72.93176191981394,5.926676259377416],[-72.93569323184471,5.9260541565547555],[-72.93825508113036,5.9288968179563994],[-72.94110051624153,5.929419141285905],[-72.94615445452843,5.925616972839123],[-72.9500886533973,5.929174260894683],[-72.95147751256826,5.926662559494616],[-72.95540685204628,5.9286742794504335],[-72.95987803057903,5.927317034602481],[-72.96356254108792,5.929862744539719],[-72.96709497888685,5.92666030206334],[-72.97210064722412,5.926103012716624],[-72.97906113384954,5.929163024131697],[-72.98471996808735,5.929182885413638],[-73.00275175052701,5.938574748993005],[-73.00441764742988,5.943494046670708],[-73.00384586527122,5.946495785504283],[-73.00089174949693,5.9483479703712305],[-73.00160720404699,5.950753180662218],[-73.00538696067446,5.959070497673224],[-73.01115057983515,5.96305756774359],[-73.00353134595167,5.971759491403304],[-72.99658413754764,5.9852826312061325],[-72.99373059419571,5.9853739569017534],[-72.98941941457934,5.990505461351859],[-72.98213991228374,6.010668285705208],[-72.97769199712076,6.012464153059852],[-72.97259610454978,6.012015320175863],[-72.96774356821817,6.006823827702078],[-72.96418815089959,6.006060525892224],[-72.95894614852841,6.002044642976273],[-72.95793937940732,5.996463149672763],[-72.95227835561536,5.993727919376624],[-72.9474564771553,5.982043834315107],[-72.93991821975044,5.976722310711466],[-72.93680548420116,5.976525974863989],[-72.93058695611802,5.969036160187102],[-72.92649027567245,5.967630757489758],[-72.92538351211374,5.963072956328972],[-72.91700617314046,5.954445005454318],[-72.91683853906682,5.94989595942468],[-72.91404663747409,5.946445508034856]],[[-72.94371162895231,5.956853683653435],[-72.94371460629338,5.960688469154718],[-72.9460795736286,5.958901215006165],[-72.94639682757679,5.96004835727507],[-72.94947169792943,5.956558091790043],[-72.95248416753225,5.95664911306676],[-72.95518777322093,5.953742226458246],[-72.95125663396851,5.954906339057118],[-72.94770428449397,5.952437665635216],[-72.94400466719293,5.953492651226895],[-72.94522581310014,5.956403561102547],[-72.94492441876406,5.957831577193929],[-72.94371162895231,5.956853683653435]]]}}]}