{"type":"FeatureCollection","features":[{"type":"Feature","properties":{"code":"150607"},"geometry":{"type":"Polygon","coordinates":[[[-72.87280063555738,5.874824173506056],[-72.88225371100702,5.869333042247547],[-72.89274715068109,5.866857495744284],[-72.89218750928632,5.860588053585786],[-72.89576643268714,5.853439814494209],[-72.89319479571401,5.846388183178988],[-72.89983291188969,5.8365261856141615],[-72.8964298768422,5.827185495277604],[-72.89577352379831,5.819997775306149],[-72.89771188289234,5.815283645740294],[-72.8962319386813,5.812319672344472],[-72.89769696739052,5.807832828575272],[-72.89599539895886,5.804559868880688],[-72.89678841864372,5.800353009331218],[-72.90678317888177,5.800637163885369],[-72.91287979127497,5.797961241812345],[-72.91759434353071,5.800661746746869],[-72.92407957761219,5.801076252276516],[-72.92793316098584,5.800487418540854],[-72.9292604719858,5.798677384390544],[-72.93293857118402,5.798921067674655],[-72.93743971853178,5.800626506135529],[-72.9389501992581,5.803659409862746],[-72.94578605613378,5.8059729828399895],[-72.9452139726414,5.812151349214332],[-72.94866251935571,5.827907722121722],[-72.97151325227958,5.849003091871111],[-72.97500369259984,5.855807585363721],[-72.97425961443759,5.859558313172613],[-72.96780527991154,5.864215229452725],[-72.95591832736409,5.887790790151826],[-72.95240102103992,5.888651604767517],[-72.95011220267412,5.891454189821104],[-72.95271392878999,5.8980062963205455],[-72.94878487419061,5.90439007968979],[-72.94500035176054,5.90773561657295],[-72.9417668811733,5.90842806486387],[-72.93925525793492,5.911773058729409],[-72.93116714785117,5.9119304135201105],[-72.93033569012715,5.923765510967257],[-72.92718455047736,5.924820144831585],[-72.92475791155806,5.929706208389291],[-72.91839571211193,5.91833866765063],[-72.90733254099354,5.9152505139344385],[-72.9062258206294,5.912893039831374],[-72.90696607195707,5.905988517962555],[-72.90386140968155,5.8995075837991635],[-72.89700198707408,5.893033361251753],[-72.89526955302551,5.887749836542298],[-72.89202717304079,5.885623982092625],[-72.87962945274398,5.886365897440328],[-72.87493476999771,5.884554975744095],[-72.87294587529522,5.882304578962362],[-72.87280063555738,5.874824173506056]],[[-72.91953306052272,5.862943927432298],[-72.9221076244433,5.866113968827165],[-72.92286441004131,5.863864086266631],[-72.9244269638977,5.864416219002578],[-72.92227017698247,5.859032909657742],[-72.91835019838828,5.85439597293049],[-72.91410681267428,5.85430831671772],[-72.91389540294483,5.8595143585678215],[-72.9153916942497,5.860272252826917],[-72.91432877011027,5.86284539029765],[-72.91779626176412,5.862780291943125],[-72.91762586837922,5.86429193172421],[-72.91953306052272,5.862943927432298]]]}}]}