{"type":"FeatureCollection","features":[{"type":"Feature","properties":{"code":"150687"},"geometry":{"type":"Polygon","coordinates":[[[-72.70165941246506,6.018361405984592],[-72.70456634432503,6.008781694293816],[-72.7173007026546,5.997007161826559],[-72.72399162112606,5.996141237908432],[-72.72676937443504,5.993403284296448],[-72.73701583055293,5.992029547344316],[-72.74025752250964,5.989043125105184],[-72.74558408342472,5.990369870461734],[-72.74424303551797,5.991549998995993],[-72.74526781163911,5.99193825353035],[-72.74716687600142,5.990945633721424],[-72.74743325084131,5.993110531962884],[-72.74911654693472,5.993643672450787],[-72.74943520984914,5.990137645055711],[-72.75362296196505,5.9899970446221005],[-72.75484177125088,5.987420903070699],[-72.75261633888283,5.984375364927132],[-72.75308274784948,5.982401224261025],[-72.76263596686096,5.9753649105687145],[-72.76843409541038,5.965873974036185],[-72.77810118769133,5.957758317119556],[-72.77925332510551,5.954500840627077],[-72.79447437208461,5.964217787687517],[-72.81544052934447,5.9653512537278175],[-72.81837807485289,5.977858809628742],[-72.8127554212229,5.981997701469027],[-72.81061961556344,5.986469320175161],[-72.80082989282505,5.990955112876122],[-72.79665612958428,5.994685850847816],[-72.79181151123163,6.005746756307303],[-72.79599217635018,6.015009476302737],[-72.79569445046855,6.019212587179197],[-72.80777222435466,6.013555587682845],[-72.81379984470988,6.015074849251448],[-72.81262483781938,6.0242877916005],[-72.81406714514804,6.026367064803139],[-72.81226606461831,6.03003331634352],[-72.81466108921461,6.0418446588254255],[-72.81359375511357,6.045970299183864],[-72.81138161536506,6.047721241083934],[-72.81018360324384,6.057991823434861],[-72.81177051267599,6.064874235846446],[-72.81087721367487,6.067916505599669],[-72.81258654684751,6.070252964508256],[-72.81225027905407,6.075496802649354],[-72.81426478197534,6.081550720279836],[-72.81049558025347,6.0953432976243676],[-72.80638034053425,6.094242444524809],[-72.80505605315523,6.090653138996743],[-72.80277426625094,6.0907279725881835],[-72.79950937160254,6.092620975310297],[-72.79523555324602,6.099972106570419],[-72.78366971233464,6.093774147337683],[-72.77917624231031,6.085920801884583],[-72.77355355371327,6.083381554680102],[-72.76915106588478,6.081865653033219],[-72.75313667217608,6.082182464751156],[-72.74860429000057,6.077522352071696],[-72.71903984831897,6.065816225430126],[-72.71567543334498,6.062844843134371],[-72.71494285831227,6.0578878571521955],[-72.72017837223962,6.038959613250654],[-72.72002147407738,6.0348922722133125],[-72.71468722349755,6.0320109146334175],[-72.7113951008335,6.023246142851406],[-72.70443728610178,6.018360518438669],[-72.70165941246506,6.018361405984592]]]}}]}