{"type":"FeatureCollection","features":[{"type":"Feature","properties":{"code":"150847"},"geometry":{"type":"Polygon","coordinates":[[[-72.55496087212549,6.178563672217479],[-72.54225459439044,6.168253936031476],[-72.53734022603777,6.166078640236208],[-72.52990323011176,6.165410784062715],[-72.52278314154876,6.152282840781254],[-72.51655040450379,6.149510852921026],[-72.51651644738871,6.139164875449069],[-72.5143047385576,6.1332316229224375],[-72.51420738927413,6.13038660124522],[-72.51673583166149,6.126431679259554],[-72.52792674356823,6.12233481780811],[-72.53081317548344,6.111352728069505],[-72.52867072608535,6.103871305483551],[-72.53001008323258,6.101115085704009],[-72.5303505727826,6.089815563068214],[-72.5352038681047,6.0788157656062936],[-72.53886123595862,6.076688361293748],[-72.5404908062149,6.070469712882868],[-72.54227608369689,6.070627334040182],[-72.55098154005668,6.084915222671498],[-72.55896975957546,6.089070003948677],[-72.56074722192278,6.100052395020953],[-72.56367700474709,6.106328446979489],[-72.5615942759776,6.113915782689787],[-72.56329520780332,6.11602001824923],[-72.57892112586251,6.117711420526575],[-72.58376571850408,6.11388989884847],[-72.59046530468913,6.112901465829054],[-72.58983935034917,6.108122556725846],[-72.59613389370418,6.11021796927696],[-72.59862824013675,6.113682543239406],[-72.60289299380094,6.1063642223809325],[-72.60969886540647,6.103131975640338],[-72.61745817007568,6.102545217301667],[-72.62519440780761,6.109245467860603],[-72.63931756565847,6.1086337996156885],[-72.64307050770412,6.113542318187342],[-72.65627739526178,6.116256730750024],[-72.65445422172985,6.1196429723596],[-72.65344685816899,6.130816977699794],[-72.6485053996119,6.143250560815659],[-72.64853300609445,6.150468972597196],[-72.64230729228342,6.1627735324568675],[-72.64413104380009,6.166830559244261],[-72.63853052636682,6.170774848162694],[-72.63820253856409,6.176821605776354],[-72.63521917079925,6.1794632951116455],[-72.63525765203298,6.18898797381479],[-72.6331291699127,6.1931901889178675],[-72.63425106391776,6.1970758339870144],[-72.63213719493723,6.200046415125996],[-72.63451789949988,6.207290409415236],[-72.61584800447287,6.206075181166227],[-72.61480267698488,6.204359257733927],[-72.6055782747008,6.200993463618488],[-72.5977351149424,6.202789667273805],[-72.59647574388367,6.204560159866162],[-72.59141019036696,6.200299568308878],[-72.58755702145567,6.2001621776443585],[-72.56444638876599,6.1880480945951035],[-72.559790204737,6.188670136739688],[-72.55578621267341,6.1838608813831115],[-72.55496087212549,6.178563672217479]],[[-72.56760978745064,6.148283406774908],[-72.57155979348101,6.147832174534528],[-72.5736348798942,6.144600282606575],[-72.56770070074083,6.143677237962493],[-72.56896910666711,6.14437949862355],[-72.56760978745064,6.148283406774908]]]}}]}