{"type":"FeatureCollection","features":[{"type":"Feature","properties":{"code":"151207"},"geometry":{"type":"Polygon","coordinates":[[[-72.5536867933103,6.486640863793468],[-72.55467902642482,6.479442209421109],[-72.55303942782558,6.460426336046396],[-72.55493835746188,6.454385799481486],[-72.55531271876623,6.444792731407745],[-72.55049038264923,6.437668807782643],[-72.54788135870524,6.426266844044392],[-72.53999282406289,6.424697426362627],[-72.52969197979087,6.418920675019422],[-72.52481728155146,6.411744509599657],[-72.51527272408288,6.407389032907133],[-72.51072480728317,6.402414857536655],[-72.50568195766351,6.399749791702902],[-72.50087501013189,6.39862997412331],[-72.50115054016709,6.401586647634133],[-72.49894534549088,6.402106378260044],[-72.49290216377187,6.398622330738476],[-72.48433416595384,6.391691019998916],[-72.48574585963405,6.3891723488439425],[-72.48204579598894,6.376811179394224],[-72.47837537411414,6.373129908479314],[-72.50206282113174,6.367208762777977],[-72.50858695810842,6.36977613480002],[-72.5091614029048,6.3610092948200645],[-72.51757760363552,6.349044242347759],[-72.52043776398665,6.351841485670889],[-72.52682439099942,6.366114579128123],[-72.53867400799811,6.354468052787411],[-72.55786200459812,6.350323662893459],[-72.56354525817511,6.346019506511027],[-72.57532532263468,6.355530700275892],[-72.58554955719501,6.35798522232875],[-72.5882811601744,6.360883519385368],[-72.59176724092686,6.372796450390808],[-72.59728327386404,6.379553612901816],[-72.59742810016797,6.391224144119349],[-72.60115191877833,6.39363262794285],[-72.61288638415351,6.409834818340812],[-72.62037920599636,6.411630246550487],[-72.62435417026978,6.418762579750137],[-72.62526345126764,6.423143759278048],[-72.62303008138025,6.431140913905438],[-72.62391883877916,6.436772907850411],[-72.62284324937008,6.440559574583119],[-72.61895326221662,6.441814179839241],[-72.61636054834247,6.444738913010781],[-72.60466894947996,6.448849982395586],[-72.60184760563482,6.451700372542746],[-72.60092534774924,6.458700080880476],[-72.59146500841007,6.463422663215397],[-72.58760186977702,6.4717306831060455],[-72.58521056711419,6.472110033385036],[-72.5827901667272,6.476214270826233],[-72.57224348561238,6.4789359987005355],[-72.56819948610644,6.483528420321818],[-72.56066867976762,6.486535775479979],[-72.55879148420706,6.485318705290467],[-72.5536867933103,6.486640863793468]],[[-72.55375303117916,6.4048033936891215],[-72.55908033771505,6.40390879679353],[-72.55926797396728,6.402499158969931],[-72.55299305226708,6.398602954881426],[-72.5497526890581,6.400664328042012],[-72.55311690657118,6.401871488159429],[-72.55375303117916,6.4048033936891215]]]}}]}