{"type":"FeatureCollection","features":[{"type":"Feature","properties":{"code":"151227"},"geometry":{"type":"Polygon","coordinates":[[[-72.5421056327192,6.488826938694785],[-72.53150049698849,6.4867059868306],[-72.52439715764035,6.480084362759158],[-72.52078824074192,6.480062976297006],[-72.5183089897887,6.477436055396254],[-72.5099163805009,6.477438287116513],[-72.49957035160679,6.475173483911931],[-72.47134856734448,6.452739970577511],[-72.4720124599005,6.447224937286421],[-72.47474343347307,6.446200487181557],[-72.47738357191702,6.441291399881209],[-72.48107661232814,6.4397275481303495],[-72.48576111863571,6.430853363434096],[-72.4873556107745,6.417915206878149],[-72.48568451818,6.407117078766589],[-72.49580130517978,6.4005125669501695],[-72.50040241302656,6.40208827458639],[-72.50087501013189,6.39862997412331],[-72.50568195766351,6.399749791702902],[-72.51072480728317,6.402414857536655],[-72.51527272408288,6.407389032907133],[-72.52481728155146,6.411744509599657],[-72.52969197979087,6.418920675019422],[-72.53999282406289,6.424697426362627],[-72.54822532953312,6.426827191979157],[-72.55049038264923,6.437668807782643],[-72.55531271876623,6.444792731407745],[-72.55493835746188,6.454385799481486],[-72.55303942782558,6.460426336046396],[-72.5542446431582,6.484515380611583],[-72.5536867933103,6.486640863793468],[-72.5421056327192,6.488826938694785]],[[-72.49882603381741,6.461888549908451],[-72.50341655796228,6.461048449153509],[-72.50419934670094,6.458413930119434],[-72.49961858453253,6.457481266452476],[-72.49857278601786,6.459948026971347],[-72.49742051079232,6.459081139402542],[-72.49567931544198,6.460527390808238],[-72.49882603381741,6.461888549908451]]]}}]}