{"type":"FeatureCollection","features":[{"type":"Feature","properties":{"code":"151448"},"geometry":{"type":"Polygon","coordinates":[[[-72.21730304809739,6.66776452021179],[-72.21254539175885,6.665600861243604],[-72.21051339605879,6.660806406203278],[-72.2111698540038,6.653311529532289],[-72.22233170109655,6.637078307938225],[-72.22855135840956,6.6321806003543315],[-72.23306962829679,6.619877702457757],[-72.22773856074662,6.608439567367725],[-72.22113061290372,6.603079982134943],[-72.22278930865212,6.599199446368232],[-72.22033611020476,6.5940173826554656],[-72.22322777483555,6.5908065696853555],[-72.2250331223733,6.57966416941224],[-72.23125352633559,6.5643919687307175],[-72.22909512887935,6.554631883648824],[-72.22620131480369,6.552364690343836],[-72.22492494256164,6.5159655539266055],[-72.21998122245952,6.506577857596312],[-72.20894312374128,6.506602694483149],[-72.20356326584954,6.502139011239478],[-72.19595298764352,6.500813175026053],[-72.1820879832631,6.504125848028536],[-72.1747977471129,6.499348286185011],[-72.17799626916644,6.4962082783970345],[-72.17579136451104,6.492049365866194],[-72.17663824270221,6.486415373657451],[-72.17278521468751,6.480817841792884],[-72.1760658126247,6.469800861113356],[-72.17566929866848,6.463180407409482],[-72.18072801612777,6.459850934798453],[-72.18355047171929,6.460134866180567],[-72.20143529177989,6.468880889455534],[-72.213458638431,6.465670544426757],[-72.2139853089871,6.459445347922326],[-72.21694568386255,6.454779064587797],[-72.21722078195188,6.44965003045661],[-72.21562554624916,6.446096838687652],[-72.21840364305791,6.440268578829318],[-72.23567631870475,6.420953974784595],[-72.2407805817694,6.422334767880841],[-72.24635873777692,6.420713303808554],[-72.24900609691588,6.423517793537712],[-72.24848647119103,6.429543156461648],[-72.25745952932266,6.438071026509476],[-72.26176965787073,6.436403043925168],[-72.26718730793971,6.428481224769143],[-72.2763807592462,6.424274865042776],[-72.2821564584927,6.415272855225851],[-72.28249283838642,6.4075983713534015],[-72.2866204780371,6.403121952905963],[-72.28634597335912,6.396677896634458],[-72.2809968545858,6.392979584426996],[-72.28071544083099,6.383672517990192],[-72.28266038607092,6.380022298840174],[-72.29383830463485,6.3744630836584975],[-72.29584499036451,6.36892405371816],[-72.30207790738689,6.363897653008166],[-72.30382473140315,6.359337105905865],[-72.31328563021503,6.358062434707733],[-72.32283846047528,6.366256587499549],[-72.32025177018897,6.371405290593941],[-72.32363879547177,6.374651462446252],[-72.32730854474516,6.38675057857148],[-72.3316278840245,6.393510195974784],[-72.33158917036275,6.403225247615694],[-72.33409129799139,6.406711310884589],[-72.34169791802736,6.407992377966707],[-72.34137080954298,6.403202008928531],[-72.34501016936838,6.402392953767901],[-72.35044945581109,6.405699078676832],[-72.35218194025327,6.4103857395714385],[-72.35426453121147,6.408054054693025],[-72.3588574012337,6.406835732888965],[-72.35740795034332,6.402585007180733],[-72.3644574106163,6.401974812693993],[-72.37315543956419,6.404188899284179],[-72.37699316743954,6.407927840113359],[-72.38327217514188,6.410142797794379],[-72.38665182443492,6.416853896364955],[-72.39538754991491,6.417014912410991],[-72.40030873478457,6.413511624786793],[-72.41454550982269,6.418683135650895],[-72.41632385148841,6.421289833257902],[-72.42213774811853,6.423699558411556],[-72.43091169772157,6.439997175933968],[-72.43402386454216,6.454552554236841],[-72.43694667658309,6.459247530089215],[-72.44151650537913,6.457961818560648],[-72.44385903004172,6.462587104062607],[-72.44050209390167,6.478986413981261],[-72.43716693091818,6.484739039091437],[-72.43636578653741,6.4955988953514066],[-72.43333738018936,6.497978694884637],[-72.43149068309168,6.506552801651253],[-72.42875233352936,6.508294006257586],[-72.42673744288527,6.513676810637094],[-72.42201427433815,6.5195161787031],[-72.41109658361313,6.516908619261244],[-72.40819733833257,6.521487306032668],[-72.40168140318497,6.517391435999855],[-72.3954411451399,6.5264996870142795],[-72.39270181341499,6.516667752881119],[-72.38913815004423,6.524285565457035],[-72.38671296739955,6.525557508197153],[-72.38376784741195,6.53059905580858],[-72.3815465565819,6.545400203077008],[-72.38283642096133,6.553166469273606],[-72.38007463525093,6.553710730310513],[-72.37421488962485,6.550983771777567],[-72.36643230410237,6.552599994906757],[-72.35548371382191,6.552052915937395],[-72.3597341124854,6.570038316647867],[-72.37028591215864,6.5839780466333195],[-72.37479577144296,6.586551820710042],[-72.37798349690695,6.5942679133099205],[-72.37818179707966,6.598814598035517],[-72.3868106087607,6.607220700489165],[-72.38778018117279,6.61149475127371],[-72.38495733785845,6.614263369956234],[-72.36951508934862,6.616949115712146],[-72.36493728909466,6.6210661829737205],[-72.3569712921618,6.623761432566937],[-72.35565872388531,6.627557569198359],[-72.34715192971004,6.630094800655513],[-72.34170453605498,6.638832810306326],[-72.34242853593395,6.6480858464869925],[-72.320847333024,6.639991572947224],[-72.31717452927631,6.635728706475106],[-72.3160957516954,6.6314593340756005],[-72.29543880802021,6.615943058273274],[-72.2922794912239,6.6177710716557385],[-72.28928549142029,6.628230381436367],[-72.27044642068427,6.639171126757276],[-72.240179451975,6.6382431322193725],[-72.23943439679232,6.639786107615521],[-72.24240318227072,6.647502819337831],[-72.24109514222664,6.653098300488011],[-72.23885509980414,6.65565757249675],[-72.22697540600399,6.6605203675424605],[-72.22623490887855,6.664044875021148],[-72.22104444793263,6.666831123265297],[-72.21730304809739,6.66776452021179]],[[-72.41163211831525,6.466556876758261],[-72.41446771637374,6.46464200626292],[-72.41455774417494,6.4614494718017],[-72.41211105885401,6.459430811915809],[-72.40957732410146,6.462767574127383],[-72.41163211831525,6.466556876758261]]]}}]}