{"type":"FeatureCollection","features":[{"type":"Feature","properties":{"code":"151607"},"geometry":{"type":"Polygon","coordinates":[[[-72.39678515496104,6.271568065806832],[-72.38841556118837,6.2615792767060725],[-72.39141395655531,6.249788854801864],[-72.39829633399984,6.236156734030658],[-72.39747203629264,6.219948650657102],[-72.40920480473767,6.195077882819646],[-72.41186131495812,6.191553458644762],[-72.41662997871697,6.18946706039236],[-72.41453281678514,6.186444891548206],[-72.40914631618318,6.1865285152377965],[-72.40332579329794,6.190268497879288],[-72.3945547233339,6.18765660046688],[-72.39898147829206,6.176488113749258],[-72.40857315076931,6.168535604840031],[-72.41161634612081,6.16367606584339],[-72.42638831647503,6.165687105998643],[-72.43246275873281,6.165071602691626],[-72.44284238170178,6.157343667576129],[-72.45828127440365,6.1536617055477905],[-72.47659945443058,6.139629122629572],[-72.48419203416933,6.138131477894319],[-72.496691462289,6.141864091745106],[-72.5063219070492,6.148816837283675],[-72.50909986810359,6.154289154214723],[-72.50795498018067,6.165888998521041],[-72.51078043471057,6.169106212517363],[-72.51282542992402,6.1700274203631125],[-72.52966024205472,6.164348469789672],[-72.54255875729382,6.1684124282795665],[-72.55244232952583,6.177050856926655],[-72.54116930368309,6.19940325391434],[-72.53092310467588,6.2102542357437756],[-72.5252608590942,6.2259529284525],[-72.5231013231521,6.228101315049287],[-72.51871455918126,6.228932376822911],[-72.51954680983448,6.23500361342542],[-72.51567851870436,6.237642916774064],[-72.51213030459718,6.247302123986174],[-72.49893883133598,6.254359528977659],[-72.49903762866654,6.260175441355102],[-72.4964305947588,6.264964328407643],[-72.49871649954696,6.2694622618725475],[-72.49535554836734,6.273970948732426],[-72.49810702908371,6.281933403709218],[-72.49645143717487,6.290941592408785],[-72.49558888243445,6.293118559423135],[-72.49265879107736,6.293778549039814],[-72.48212211259448,6.30294709044],[-72.47017479355657,6.307320256343871],[-72.4644526792506,6.3044778109151025],[-72.45252686700258,6.303383128470671],[-72.45441207104506,6.298866118425508],[-72.45037574886248,6.297215196674131],[-72.4426922352647,6.2843546577034886],[-72.43972450702523,6.2837114872357915],[-72.43693965437757,6.287041497722271],[-72.43409350347042,6.286870968582889],[-72.42960037797434,6.281543033668584],[-72.42694568604026,6.281188921368994],[-72.42403016462833,6.277982170746839],[-72.42026946709768,6.278528404336498],[-72.4185223345487,6.276494773412821],[-72.41547008581767,6.276898585197159],[-72.40095126658946,6.2709826177039645],[-72.39678515496104,6.271568065806832]],[[-72.4717628569012,6.190512033067705],[-72.47559673223083,6.190249553968101],[-72.47604138655288,6.18664077693785],[-72.47084899624878,6.1831667166215425],[-72.46626270414492,6.186536592625373],[-72.46857212632818,6.190160509357952],[-72.47106659617378,6.188938389515613],[-72.4717628569012,6.190512033067705]]]}}]}