{"type":"FeatureCollection","features":[{"type":"Feature","properties":{"code":"151827"},"geometry":{"type":"Polygon","coordinates":[[[-72.38178118442971,5.818666233293641],[-72.37759214264685,5.81533409495961],[-72.36698628392111,5.811219837402973],[-72.35010221864968,5.812743320728089],[-72.34876694544772,5.811116783348837],[-72.3500260408839,5.807397833385323],[-72.34833186489709,5.8058244346025845],[-72.34139689187367,5.803000006458319],[-72.33733038696005,5.804708227884646],[-72.33432395225799,5.803970199021251],[-72.33079164404273,5.801828421196092],[-72.32858748295132,5.795195181894826],[-72.32220822370067,5.795509829769685],[-72.32009448430392,5.7942432133333455],[-72.31307597500853,5.781403832510648],[-72.30487397211493,5.779007691025811],[-72.29719884032369,5.7712186756807],[-72.29634450695272,5.767441410969468],[-72.30056380242911,5.760033720513036],[-72.29756502139622,5.755091607866518],[-72.29471112117477,5.753301838147593],[-72.29223984887858,5.753689034414549],[-72.29011116004136,5.750393700952941],[-72.28657100172438,5.7503130422630875],[-72.28619698391987,5.748755422873899],[-72.28039065456977,5.749966701903645],[-72.28084148571759,5.748671797127372],[-72.27615665236539,5.74235518853817],[-72.27675928471427,5.737570287728829],[-72.27395138878353,5.735536383239435],[-72.27678905195455,5.731247373758492],[-72.27410413409484,5.728147450546089],[-72.26884763891167,5.72866925451217],[-72.26871789266039,5.724326538734374],[-72.26520067889606,5.7197116343311905],[-72.2656734148411,5.7177849377753205],[-72.26180520084421,5.715270505860417],[-72.25902839575923,5.707707873339416],[-72.24805565456307,5.695554429738081],[-72.25447362027631,5.687617073900981],[-72.25664708030172,5.6875943700039215],[-72.25610590459235,5.683993227102462],[-72.2595014957729,5.680528931847903],[-72.26425423409933,5.668586225374668],[-72.26802343582119,5.667489723615404],[-72.27442523647494,5.672824294040822],[-72.27995691716507,5.674744126771316],[-72.28333662713624,5.67305995547332],[-72.28611309592048,5.662930337624687],[-72.29016533222256,5.661837327427747],[-72.28618235535345,5.6529108649413615],[-72.2800865780556,5.652923609401057],[-72.28145230549745,5.648970906794375],[-72.28011685643179,5.64498317749235],[-72.28470957835827,5.629817850500501],[-72.28449668252938,5.625277571943343],[-72.2797507926017,5.622187503267128],[-72.27910173018682,5.616434804109133],[-72.28117766815035,5.616889744913237],[-72.29055429741072,5.612965376926354],[-72.29600237292317,5.6085034955140145],[-72.30171660216035,5.608849680578658],[-72.30497459595944,5.604742539844267],[-72.3055237163872,5.599923279798816],[-72.29988548390992,5.584549730220829],[-72.29797833393258,5.574189224969871],[-72.3058520394622,5.561273230321717],[-72.30509710506067,5.549042936353203],[-72.30896552577451,5.541249760958124],[-72.3057989707998,5.535296267654246],[-72.30440250321107,5.521486862933216],[-72.30763725729457,5.517765852999332],[-72.31081145462565,5.507447612622116],[-72.30975096172426,5.503462964533924],[-72.31807538013084,5.497762831129876],[-72.32919924478449,5.497474729413341],[-72.34529775377831,5.506540200304357],[-72.34693806817359,5.512074449015415],[-72.35200391376793,5.5164605825509625],[-72.35652797378657,5.517947040916965],[-72.3576346591837,5.5216674574394915],[-72.36096137762564,5.52428367533895],[-72.36176995044673,5.52816140962824],[-72.36667617559152,5.528933741163428],[-72.36904826386274,5.534172960569151],[-72.37567844457595,5.538185009451411],[-72.37558758270791,5.544304060403476],[-72.38278153401257,5.554685614787445],[-72.38389546684408,5.559877142228288],[-72.3964232707213,5.570428200394474],[-72.39851442552037,5.568733076183662],[-72.40341206419862,5.569823815579468],[-72.40618970540731,5.566614998816306],[-72.40902047184284,5.567852780809744],[-72.41018680176381,5.56438315719447],[-72.41314709539233,5.565976623976098],[-72.42115093386764,5.563060990463953],[-72.42257049513307,5.560027026412513],[-72.42104443761639,5.558006617145907],[-72.42550788534669,5.555761204196585],[-72.42523255380092,5.546742960414463],[-72.4271861297305,5.5478109064387695],[-72.42762121439489,5.545471940187326],[-72.43554060128434,5.537464411660267],[-72.43710460524471,5.533420994252765],[-72.44039313350214,5.531630257797872],[-72.44410105959031,5.522103054268314],[-72.45521027716552,5.538314946993012],[-72.46263387454246,5.54324587635557],[-72.46339664156221,5.549700867027923],[-72.45718598106436,5.557676789459492],[-72.45966571435713,5.564526001689671],[-72.47772458802962,5.568280718827111],[-72.48944338919677,5.575675080668532],[-72.49344183178448,5.584703810450549],[-72.50210876371597,5.593160990501872],[-72.50546557952822,5.594670557971256],[-72.51032604412313,5.5927084696229485],[-72.51801664883209,5.597780968212021],[-72.51308827000696,5.615021893781375],[-72.5107078750055,5.615677644157984],[-72.50035386745435,5.627078918839686],[-72.49626389965317,5.635107221905628],[-72.49194632620964,5.637609530540146],[-72.49164063092695,5.64714635823475],[-72.48831452337987,5.657012741078518],[-72.48943432450443,5.664302954602931],[-72.48409512711612,5.662952395659829],[-72.47466523070392,5.664904800193369],[-72.47850259759593,5.670983076484902],[-72.47035364588123,5.679278120516244],[-72.46680633680342,5.692663810004888],[-72.4681791430151,5.69779982931766],[-72.46373142736996,5.708392635050984],[-72.46297597566189,5.714302166550908],[-72.45813877546516,5.710779586373519],[-72.45864178978638,5.708029570159226],[-72.45458367696375,5.700751747310278],[-72.4552471478583,5.6973336332386],[-72.44625957017524,5.6890007198967965],[-72.44801395838618,5.6799991152861935],[-72.44467993286014,5.687437109829943],[-72.43904207987816,5.688309229085803],[-72.43656963515753,5.687251700155798],[-72.42676596365322,5.690426328404271],[-72.41010976113472,5.684682484136317],[-72.40853810350518,5.693037868947158],[-72.4115218939599,5.698378393026303],[-72.41217073320274,5.7037517017960795],[-72.40900366194984,5.712995034621599],[-72.41134585853928,5.719434230473723],[-72.41621356028423,5.725151993439454],[-72.41402439285628,5.7324322033034605],[-72.41796793204014,5.74956018428702],[-72.43117528445379,5.761698453218969],[-72.43525654957443,5.771152735031706],[-72.42372041831055,5.7816417719433275],[-72.42370561593742,5.784788440953548],[-72.42165368182225,5.786285178602498],[-72.42000614776055,5.791232797530256],[-72.41017066344381,5.789361690349381],[-72.40548582906308,5.791019134483236],[-72.39994705726184,5.79056330510474],[-72.39298121142247,5.787019691220962],[-72.3962392741272,5.7949971737998],[-72.39636898643988,5.801849048667691],[-72.39182886729128,5.808428246399899],[-72.39106535876448,5.81892347864931],[-72.38178118442971,5.818666233293641]],[[-72.4217247543994,5.629991404289285],[-72.42333620144154,5.626158755891538],[-72.42413121527647,5.627312520301871],[-72.42461686023199,5.627132526406001],[-72.42440974527847,5.624692626748811],[-72.42087899618213,5.625855990641583],[-72.4217247543994,5.629991404289285]]]}}]}