{"type":"FeatureCollection","features":[{"type":"Feature","properties":{"code":"151807"},"geometry":{"type":"Polygon","coordinates":[[[-72.39106535876448,5.81892347864931],[-72.39182886729128,5.808428246399899],[-72.39636898643988,5.801849048667691],[-72.3962392741272,5.7949971737998],[-72.39298121142247,5.787019691220962],[-72.39994705726184,5.79056330510474],[-72.40548582906308,5.791019134483236],[-72.41017066344381,5.789361690349381],[-72.42000614776055,5.791232797530256],[-72.42165368182225,5.786285178602498],[-72.42370561593742,5.784788440953548],[-72.42372041831055,5.7816417719433275],[-72.43525654957443,5.771152735031706],[-72.43117528445379,5.761698453218969],[-72.41796793204014,5.74956018428702],[-72.41402439285628,5.7324322033034605],[-72.41621356028423,5.725151993439454],[-72.41134585853928,5.719434230473723],[-72.40900366194984,5.712995034621599],[-72.41217073320274,5.7037517017960795],[-72.4115218939599,5.698378393026303],[-72.40853810350518,5.693037868947158],[-72.41010976113472,5.684682484136317],[-72.42676596365322,5.690426328404271],[-72.43656963515753,5.687251700155798],[-72.43904207987816,5.688309229085803],[-72.44467993286014,5.687437109829943],[-72.44801395838618,5.6799991152861935],[-72.44625957017524,5.6890007198967965],[-72.4552471478583,5.6973336332386],[-72.45458367696375,5.700751747310278],[-72.45864178978638,5.708029570159226],[-72.45813877546516,5.710779586373519],[-72.46280759185362,5.714415809449235],[-72.4681791430151,5.69779982931766],[-72.46680633680342,5.692663810004888],[-72.47035364588123,5.679278120516244],[-72.47850259759593,5.670983076484902],[-72.47466523070392,5.664904800193369],[-72.48409512711612,5.662952395659829],[-72.48943432450443,5.664302954602931],[-72.48831452337987,5.657012741078518],[-72.49164063092695,5.64714635823475],[-72.49194632620964,5.637609530540146],[-72.49626389965317,5.635107221905628],[-72.50035386745435,5.627078918839686],[-72.5107078750055,5.615677644157984],[-72.51308827000696,5.615021893781375],[-72.51592638055047,5.607251018105444],[-72.54046312979824,5.621671031775577],[-72.54642953005572,5.629023533949578],[-72.5438576596261,5.637698151432005],[-72.5458038863054,5.6379100650983105],[-72.54895487066045,5.644077746983328],[-72.54821453294358,5.649388819554076],[-72.54940472067409,5.651877859223191],[-72.5490999808145,5.658379921709638],[-72.5423087326331,5.6664139367453],[-72.54318608974671,5.671179007126],[-72.53984474068153,5.675955434597427],[-72.5488548330282,5.679473198578535],[-72.55561514874398,5.6930889558008175],[-72.5592619442088,5.693563001981602],[-72.56433528817757,5.698067965879545],[-72.5673494855638,5.707502016171077],[-72.56976755138629,5.710276778769185],[-72.58127367989658,5.708609718697858],[-72.5767103477719,5.737194895925086],[-72.58129613491053,5.74281522218962],[-72.5715914407142,5.739146420111808],[-72.56795978392324,5.739650951385727],[-72.55820893939739,5.750446606093021],[-72.55528595560656,5.766072800803272],[-72.5398207872268,5.7795248968253645],[-72.53670068391529,5.785756908818371],[-72.51952664721887,5.791174395364976],[-72.51225466592342,5.791439059904917],[-72.51352146439405,5.793607247105513],[-72.507601128077,5.795728508530885],[-72.50530453777111,5.798210095077081],[-72.50448055065351,5.803472319713478],[-72.48690933665546,5.817685408692],[-72.48053822781185,5.8429399809929805],[-72.47779183891436,5.845030541352287],[-72.47187113235799,5.845396225687068],[-72.47172587513666,5.847271451780216],[-72.46853727035432,5.848474685304097],[-72.46800259131635,5.8504007575953665],[-72.46548542785814,5.849989026803655],[-72.462715111217,5.8469788866231625],[-72.45800804602283,5.8516261180600395],[-72.44602976675128,5.850213994490844],[-72.4343864213833,5.848515622458592],[-72.42838203868672,5.843045161866257],[-72.417441110303,5.84389755765153],[-72.40851423541119,5.842056453224245],[-72.40684390180729,5.837299284367418],[-72.40205204152744,5.835496402006413],[-72.39106535876448,5.81892347864931]],[[-72.47984139012817,5.7263413121360145],[-72.4866153717881,5.7233769510173715],[-72.48603748787997,5.721236180037408],[-72.48011229525736,5.721817393014021],[-72.47984139012817,5.7263413121360145]]]}}]}