{"type":"FeatureCollection","features":[{"type":"Feature","properties":{"code":"152027"},"geometry":{"type":"Polygon","coordinates":[[[-72.63920417267167,5.816797753783419],[-72.63054540863072,5.811548237611191],[-72.62977034658064,5.80897935789244],[-72.62491423332602,5.807100814043736],[-72.6259973190526,5.794807103224173],[-72.62396850432526,5.7843212801954],[-72.62619623937616,5.777030678948108],[-72.6341382396597,5.781757388422875],[-72.64595680283651,5.7830145534724124],[-72.65669134954624,5.787383074929835],[-72.65878296200219,5.783393764911693],[-72.66236875231368,5.7855825199342235],[-72.66758680123019,5.781563681274463],[-72.67898598200293,5.784614749353466],[-72.68433384710482,5.7832911345758475],[-72.69757949974633,5.774572701328395],[-72.70824570953596,5.771437881004431],[-72.71327322199238,5.77332359309753],[-72.71817170193657,5.77114762572927],[-72.71942992628192,5.772943993935428],[-72.73266824715671,5.7723167386157],[-72.73954990880526,5.773608842942963],[-72.7490795939666,5.772052582126321],[-72.7553585749294,5.768603664144337],[-72.76568944766609,5.766476026375358],[-72.76960298409637,5.7671551789614455],[-72.7736545652806,5.773095032032188],[-72.776324852517,5.769310959031486],[-72.78245183893154,5.7671473555992065],[-72.79079003435407,5.7735523094577275],[-72.79600173263805,5.772009155112528],[-72.80008366933163,5.775627800048767],[-72.8013502436018,5.780387115265114],[-72.80575224086323,5.784210997218793],[-72.8060265038572,5.786704543523058],[-72.81284718709196,5.788763007219757],[-72.82476490858267,5.795816362204562],[-72.832059068241,5.797663231052184],[-72.83574431922852,5.806906374644257],[-72.82590990346358,5.808186466762891],[-72.82211021664858,5.812951451782794],[-72.81827236741702,5.823655979283842],[-72.81007049410721,5.8304507262266725],[-72.81029139533268,5.833069590308753],[-72.80332602360534,5.832902396408485],[-72.80210429971339,5.8431945122888465],[-72.79856491684211,5.846428585543379],[-72.79824423715189,5.853938261502208],[-72.79107245701107,5.851171235877132],[-72.78934791625886,5.847353316833164],[-72.78588373927516,5.844835480773497],[-72.7754243163659,5.847743747551874],[-72.76907585176963,5.8394490665606895],[-72.76004975891419,5.832657799867377],[-72.75777679501829,5.827998935717119],[-72.7532594661559,5.826237861601385],[-72.75193965970101,5.820791328752705],[-72.74818592472616,5.818721266281273],[-72.72907438254299,5.8250367466690705],[-72.72108630186398,5.829396377240926],[-72.71337949815694,5.830799263339429],[-72.70432298808561,5.837801410114366],[-72.70237767569165,5.837796645340177],[-72.68762266126924,5.831515812152361],[-72.68647066989388,5.824175777786991],[-72.68921701456833,5.8177832917371575],[-72.67417151244274,5.810174922320471],[-72.6609265745688,5.809593713457616],[-72.6446744954527,5.816695320908536],[-72.63920417267167,5.816797753783419]],[[-72.80517524964318,5.806199350237478],[-72.80784160000161,5.803504839065965],[-72.81035505283927,5.803857607191162],[-72.81000467481448,5.8021569612724875],[-72.80723385115118,5.799796297969181],[-72.80246670845884,5.799021269857747],[-72.80213666788478,5.803749181581736],[-72.80413872459468,5.803749065367754],[-72.80517524964318,5.806199350237478]]]}}]}