{"type":"FeatureCollection","features":[{"type":"Feature","properties":{"code":"152257"},"geometry":{"type":"Polygon","coordinates":[[[-72.94746425732296,5.71445190366785],[-72.96477190104389,5.680238059507246],[-72.96561699900099,5.671980634874785],[-72.96953838450457,5.662022615745684],[-72.967082148038,5.653319210100335],[-72.96355722506854,5.648950110658177],[-72.96801263552061,5.643983792588585],[-72.97179655425487,5.645645544868103],[-72.9799530526808,5.63896834376294],[-72.98925345275325,5.643808042046544],[-72.9922439897909,5.6413207167910855],[-72.99062708686114,5.637859426645548],[-72.99270996989702,5.6358347123185695],[-72.99746022042098,5.6371681075845],[-72.99966939619816,5.635169595915954],[-72.99778611328634,5.63298150526731],[-73.00002546459541,5.629894704981439],[-73.00488353291934,5.630871109337193],[-73.00430555542289,5.640267247123688],[-73.00817649170716,5.643557387979001],[-73.0135148529717,5.6418913193261915],[-73.02875664775019,5.627069897341926],[-73.03120619728344,5.626824551066193],[-73.04173838661472,5.631809376987405],[-73.04986872557674,5.630548998054962],[-73.05565619534792,5.631708598876571],[-73.05962100889371,5.639124966302575],[-73.06235263758413,5.640835185992671],[-73.06363933127528,5.6458449742706875],[-73.07135615612628,5.639667796775882],[-73.07334901444625,5.625586782442554],[-73.07895121235453,5.634827736480531],[-73.08257139172701,5.636161932903178],[-73.08649245018586,5.642993816905346],[-73.0924015589959,5.647095159280866],[-73.09640186409302,5.647869351268525],[-73.10411490633237,5.656093189025228],[-73.1024707229364,5.659025512102573],[-73.10488881446992,5.6594760172341125],[-73.10547460710109,5.661340688421717],[-73.10102471115778,5.659502263087177],[-73.09861272857279,5.662107789298204],[-73.09908123350533,5.663933832184796],[-73.07866075036242,5.671847406317113],[-73.07551214376656,5.6782240553806105],[-73.04554805137906,5.694513341490165],[-73.03907214012895,5.700662195677978],[-73.0371788792678,5.706931172980433],[-73.03853196303731,5.708645822172457],[-73.03776848947757,5.710312563426669],[-73.032435729111,5.714957994060683],[-73.02984568713055,5.719640018736413],[-73.02650538913355,5.718108169031439],[-73.00755723252803,5.719233707836793],[-73.00556281508915,5.719636830564582],[-73.00661939579521,5.720564413725526],[-73.00389483250484,5.723460393701089],[-72.9995345992657,5.720743214628044],[-72.99221268605748,5.719237559353985],[-72.9877274363742,5.72062136887223],[-72.98008173140875,5.71913417825516],[-72.97199335495839,5.720442059919037],[-72.96356736654019,5.708054928466424],[-72.95996557469152,5.7113418729223895],[-72.95821531362043,5.709546315128989],[-72.952523443752,5.7136288730018805],[-72.94746425732296,5.71445190366785]],[[-72.98962558953639,5.671358382927906],[-72.99393571602764,5.674457306494162],[-72.99672333210037,5.6696734094447265],[-72.99997842877684,5.669887805771282],[-72.99774512985198,5.666548138209578],[-72.99436477093354,5.666748802771622],[-72.99416852867432,5.663967845864192],[-72.99245248080047,5.663408575737208],[-72.991723936234,5.666637354569673],[-72.98824257706116,5.667002213065132],[-72.99111540268188,5.669871753840482],[-72.98962558953639,5.671358382927906]]]}}]}