{"type":"FeatureCollection","features":[{"type":"Feature","properties":{"code":"152219"},"geometry":{"type":"Polygon","coordinates":[[[-72.94962918641767,5.709228095473293],[-72.94663611838297,5.708219956466735],[-72.94733442776783,5.701687899454271],[-72.95286319179496,5.687421306782198],[-72.95059800600978,5.685526276999894],[-72.94787242250447,5.684650247605589],[-72.94301236311588,5.689850767747771],[-72.94367011587002,5.691837161278102],[-72.9394667180581,5.695157168104174],[-72.93854890510107,5.700006958494214],[-72.93246032073023,5.702118317046541],[-72.92994934849594,5.704700197307147],[-72.92965573329906,5.701464038371228],[-72.92712502936655,5.701481776947787],[-72.92762493881986,5.698087621473007],[-72.92501977050682,5.689965378410477],[-72.9206060973375,5.681600249106793],[-72.92377356248386,5.665067874152896],[-72.91695252340804,5.6520734751609325],[-72.90839897829267,5.64820991795176],[-72.89397931737835,5.6381891504592545],[-72.8651589600297,5.644760500146674],[-72.85845108974019,5.639767152550746],[-72.85564112458309,5.635328463545591],[-72.86623351174029,5.632822161468766],[-72.87003623760296,5.6298211188907885],[-72.87584325086732,5.617395563797231],[-72.87866576816532,5.604661276430193],[-72.88050066697042,5.60643022738725],[-72.88274410119635,5.605964712137109],[-72.88389574804347,5.608756165328884],[-72.89714844963004,5.6178794274903225],[-72.9040836468539,5.6173148310595025],[-72.90944703012491,5.619237757345104],[-72.91661987778912,5.618311862886799],[-72.92570096146596,5.626512935039955],[-72.92709470676738,5.63100926619137],[-72.9340149874609,5.631250097604436],[-72.93938449716404,5.626317401377605],[-72.94785536887059,5.633014196369629],[-72.95317330012455,5.635874718732509],[-72.95634669629891,5.6358413046351075],[-72.95834609551332,5.637974344812619],[-72.96177137782934,5.643080120716206],[-72.9620305360881,5.647353671677706],[-72.967082148038,5.653319210100335],[-72.96953838450457,5.662022615745684],[-72.96561699900099,5.671980634874785],[-72.96477190104389,5.680238059507246],[-72.94962918641767,5.709228095473293]]]}}]}