{"type":"FeatureCollection","features":[{"type":"Feature","properties":{"code":"152247"},"geometry":{"type":"Polygon","coordinates":[[[-72.9234286526879,5.624060894618822],[-72.92513804551027,5.622807074064383],[-72.92363085579996,5.611355203096025],[-72.92925421596999,5.6147634677737415],[-72.94381890990519,5.610442130230638],[-72.9453144411911,5.611163796573578],[-72.9492209379323,5.607610317869103],[-72.95118956614652,5.601635705498154],[-72.95718659856442,5.596102792733859],[-72.96927984742513,5.590272843144476],[-72.98601158081908,5.592771429845527],[-72.99225243433239,5.5912200633868565],[-73.0029274671304,5.596662796140436],[-73.00340118523809,5.612493193254977],[-72.99523708559349,5.6266445263170795],[-72.99546350132778,5.628650973448089],[-73.00002546459541,5.629894704981439],[-72.99778611328634,5.63298150526731],[-72.99966939619816,5.635169595915954],[-72.99746022042098,5.6371681075845],[-72.99270996989702,5.6358347123185695],[-72.99062708686114,5.637859426645548],[-72.9922439897909,5.6413207167910855],[-72.98925345275325,5.643808042046544],[-72.9799530526808,5.63896834376294],[-72.97179655425487,5.645645544868103],[-72.96801263552061,5.643983792588585],[-72.96351146246178,5.649270988837827],[-72.96172531388896,5.64297833370324],[-72.95634669629891,5.6358413046351075],[-72.95031975677256,5.6344350401029715],[-72.93938449716404,5.626317401377605],[-72.9340149874609,5.631250097604436],[-72.92709470676738,5.63100926619137],[-72.9234286526879,5.624060894618822]],[[-72.97981845732306,5.618958985659106],[-72.98308319153438,5.619353627849932],[-72.98153141986933,5.61413507088281],[-72.98244934081282,5.6108335513395104],[-72.98090392903629,5.609659783722236],[-72.9771560500132,5.611194774290652],[-72.97630862263372,5.615132806164809],[-72.97890827849488,5.613635054471558],[-72.97981845732306,5.618958985659106]]]}}]}