{"type":"FeatureCollection","features":[{"type":"Feature","properties":{"code":"152267"},"geometry":{"type":"Polygon","coordinates":[[[-73.00941334090317,5.755627763747896],[-73.00504679405537,5.741923734275815],[-73.00223669417232,5.743614608962162],[-72.99945487131629,5.740904317368631],[-72.9960393602326,5.74455670036167],[-72.99274562599913,5.745477436152271],[-72.99327552792158,5.744019681616976],[-72.99189137490356,5.745556812374332],[-72.97999677177228,5.743773331581394],[-72.96290646983726,5.732132738325561],[-72.9544230007383,5.732133098280428],[-72.9528131601233,5.728577979210172],[-72.94414171847143,5.725050369948804],[-72.94691469877864,5.714908409761506],[-72.952523443752,5.7136288730018805],[-72.95821531362043,5.709546315128989],[-72.95996557469152,5.7113418729223895],[-72.96356736654019,5.708054928466424],[-72.97199335495839,5.720442059919037],[-72.98008173140875,5.71913417825516],[-72.9877274363742,5.72062136887223],[-72.99221268605748,5.719237559353985],[-72.9995345992657,5.720743214628044],[-73.00389483250484,5.723460393701089],[-73.00661939579521,5.720564413725526],[-73.00556281508915,5.719636830564582],[-73.00755723252803,5.719233707836793],[-73.02650538913355,5.718108169031439],[-73.02971358780275,5.719684979157989],[-73.032435729111,5.714957994060683],[-73.03776848947757,5.710312563426669],[-73.03853196303731,5.708645822172457],[-73.0371788792678,5.706931172980433],[-73.03907214012895,5.700662195677978],[-73.0465806518909,5.693734254116066],[-73.05988982628458,5.687112577594064],[-73.06057041766172,5.689519924988588],[-73.05668542771048,5.698067294306611],[-73.05755379006581,5.7001969560504335],[-73.05632201006296,5.703639023576841],[-73.06123480181327,5.706227291493974],[-73.06509115066882,5.717157235083107],[-73.06702425339313,5.727207898371148],[-73.06702124622723,5.743598789459327],[-73.06642800870071,5.749180773329897],[-73.06188670067257,5.753434566882163],[-73.05888546988962,5.762149562046318],[-73.05289828686574,5.772176926997531],[-73.05139453523884,5.77340121788194],[-73.0449279591615,5.760606009693902],[-73.04079225549299,5.757655573686918],[-73.03384192473749,5.756244894051008],[-73.02752565347737,5.7524439062562465],[-73.01962875759739,5.756537382074896],[-73.01315914967148,5.757588782515995],[-73.00941334090317,5.755627763747896]]]}}]}