{"type":"FeatureCollection","features":[{"type":"Feature","properties":{"code":"152287"},"geometry":{"type":"Polygon","coordinates":[[[-72.94578605613378,5.8059729828399895],[-72.9389501992581,5.803659409862746],[-72.93591361576358,5.799755472914967],[-72.92717253724027,5.7987439955840046],[-72.92262761732206,5.7944763016026855],[-72.91860152300035,5.778877930376325],[-72.91375993443938,5.769355183088237],[-72.9105108027295,5.758154875330661],[-72.91419551687,5.756656034516766],[-72.92045621006793,5.758464551714326],[-72.92368393371834,5.756995180920796],[-72.92620862023364,5.757800434957915],[-72.93215245337689,5.753389149832117],[-72.94756472587261,5.748548003501412],[-72.9472976228954,5.746114290954438],[-72.95223367081638,5.747984286388942],[-72.95169999965213,5.74625186159642],[-72.95884091520458,5.744036189147835],[-72.95804724040181,5.746577427417037],[-72.96032875991108,5.750015263930891],[-72.96341087358434,5.7502382940323855],[-72.96446413756325,5.752854357665456],[-72.96653150242997,5.752713736662997],[-72.96692871469867,5.754432314505493],[-72.96962213777795,5.753802431515112],[-72.97143014589653,5.755912543595116],[-72.97240654202471,5.767927795375215],[-72.9741459118896,5.769384543065257],[-72.97554999612356,5.775575903810818],[-72.98040113685863,5.7760351280780355],[-72.98658387205683,5.7858408770362075],[-72.978906424213,5.788077237634468],[-72.98146218100521,5.797440891035592],[-72.97767847824383,5.799242885850731],[-72.97792194555507,5.801119377956638],[-72.97505387545255,5.80323618519742],[-72.96776708252793,5.801778694971858],[-72.9521492377425,5.80371981132032],[-72.94578605613378,5.8059729828399895]],[[-72.94130778340451,5.776272154253775],[-72.9438922625394,5.773838776979062],[-72.94109947751457,5.7649353012114375],[-72.93787036443831,5.765998920578056],[-72.93730010540298,5.764293022403422],[-72.93545854331882,5.764549762793763],[-72.93265250372679,5.756983175911273],[-72.92955101625336,5.758698799038427],[-72.93107040637722,5.7646126150298755],[-72.93597841998354,5.76683116197529],[-72.93775546066945,5.76938357427241],[-72.9356101419167,5.770722447023218],[-72.93496334310385,5.77432622582279],[-72.94130778340451,5.776272154253775]]]}}]}