{"type":"FeatureCollection","features":[{"type":"Feature","properties":{"code":"152288"},"geometry":{"type":"Polygon","coordinates":[[[-72.89678841864372,5.800353009331218],[-72.89915398350405,5.799052684662911],[-72.89769686454628,5.7970685639905355],[-72.89208198285638,5.796540337400984],[-72.88567241849006,5.793482350989166],[-72.87787482284904,5.79532371355549],[-72.87048962134509,5.790554799885115],[-72.87341443987737,5.788633424490854],[-72.87561638673208,5.782280978793551],[-72.87418988245116,5.77548380164103],[-72.87678754107691,5.7753796800635655],[-72.87282340836009,5.772850013829611],[-72.8752531408345,5.7699790815715915],[-72.88262039395954,5.769769787348366],[-72.89007749182304,5.763854629239404],[-72.9105108027295,5.758154875330661],[-72.91375993443938,5.769355183088237],[-72.91880366132051,5.779490189975661],[-72.92156620190775,5.792680980351008],[-72.92535983633849,5.797516347863223],[-72.92877593774818,5.799173651100375],[-72.92679606660033,5.8008749881324775],[-72.91805229355765,5.800753099182032],[-72.91287979127497,5.797961241812345],[-72.90678317888177,5.800637163885369],[-72.89678841864372,5.800353009331218]]]}}]}