{"type":"FeatureCollection","features":[{"type":"Feature","properties":{"code":"152268"},"geometry":{"type":"Polygon","coordinates":[[[-73.01292757835489,5.809260349985834],[-73.00612514483265,5.807530760609325],[-73.00316015533559,5.809008989378299],[-73.00179153694188,5.807718014280908],[-72.99407659002696,5.807584544039287],[-72.99213923880654,5.805131806334202],[-72.992731279226,5.803576743653082],[-72.99028106531881,5.799662862694561],[-72.9912849650853,5.7969343697253635],[-72.98884710688651,5.794820820590473],[-72.9892394083422,5.790911290972247],[-72.98703261032409,5.790135141858457],[-72.98616071526868,5.783502927914412],[-72.98366151664436,5.782223299623354],[-72.98040113685863,5.7760351280780355],[-72.97554999612356,5.775575903810818],[-72.9741459118896,5.769384543065257],[-72.97240654202471,5.767927795375215],[-72.97149869056199,5.7560607123372165],[-72.96970554549466,5.753852329489234],[-72.96687459393951,5.754414125471101],[-72.96341087358434,5.7502382940323855],[-72.96032875991108,5.750015263930891],[-72.95804724040181,5.746577427417037],[-72.95884091520458,5.744036189147835],[-72.95169999965213,5.74625186159642],[-72.95223367081638,5.747984286388942],[-72.94752683907865,5.74602660903065],[-72.94756472587261,5.748548003501412],[-72.9454852891476,5.748848047492459],[-72.94413848710502,5.74093317238038],[-72.94234567730996,5.741472056719772],[-72.94217009954633,5.738979785684251],[-72.94542773030514,5.735434269181781],[-72.94681717568835,5.72888680610032],[-72.9450746587894,5.7258637682222115],[-72.9528131601233,5.728577979210172],[-72.95541512792323,5.732517030270856],[-72.96290646983726,5.732132738325561],[-72.97999677177228,5.743773331581394],[-72.99275162696125,5.745720940487445],[-72.9915254468279,5.747323320780367],[-72.99434863775576,5.751692753437851],[-72.99570556584342,5.750929752961667],[-72.99700771702561,5.752763401180687],[-73.00024833323147,5.750787780585711],[-73.0075266857283,5.750748147496381],[-73.00941334090317,5.755627763747896],[-73.01417332563562,5.757700308879578],[-73.02857828290723,5.75250348290291],[-73.03384192473749,5.756244894051008],[-73.04079225549299,5.757655573686918],[-73.0449279591615,5.760606009693902],[-73.05139453523884,5.77340121788194],[-73.04538599146383,5.772485388790585],[-73.04460287259508,5.770051314231864],[-73.04239129334775,5.770591422417851],[-73.04103515921776,5.775438469951723],[-73.03661321531365,5.777145949870942],[-73.03395063933925,5.780580115873477],[-73.02871495263355,5.778683081656709],[-73.02260054612793,5.782109639241526],[-73.02098656397493,5.787758539753042],[-73.01665878118257,5.791538692330789],[-73.01763222156694,5.7941523175266525],[-73.0161611435588,5.795755494862533],[-73.01770979595767,5.798529534465615],[-73.01600695122886,5.7991513092151195],[-73.0146383060956,5.807741631434908],[-73.01292757835489,5.809260349985834]]]}}]}