{"type":"FeatureCollection","features":[{"type":"Feature","properties":{"code":"152260"},"geometry":{"type":"Polygon","coordinates":[[[-72.9915254468279,5.747323320780367],[-72.99327552792158,5.744019681616976],[-72.99274562599913,5.745477436152271],[-72.9960393602326,5.74455670036167],[-72.99945487131629,5.740904317368631],[-73.00223669417232,5.743614608962162],[-73.00504679405537,5.741923734275815],[-73.00762082524273,5.750944080194415],[-73.00024833323147,5.750787780585711],[-72.99700771702561,5.752763401180687],[-72.99570556584342,5.750929752961667],[-72.99434863775576,5.751692753437851],[-72.9915254468279,5.747323320780367]]]}}]}