{"type":"FeatureCollection","features":[{"type":"Feature","properties":{"code":"152280"},"geometry":{"type":"Polygon","coordinates":[[[-72.94130778340451,5.776272154253775],[-72.93496334310385,5.77432622582279],[-72.9356101419167,5.770722447023218],[-72.93775546066945,5.76938357427241],[-72.93597841998354,5.76683116197529],[-72.93107040637722,5.7646126150298755],[-72.92955101625336,5.758698799038427],[-72.93265250372679,5.756983175911273],[-72.93545854331882,5.764549762793763],[-72.93730010540298,5.764293022403422],[-72.93787036443831,5.765998920578056],[-72.94109947751457,5.7649353012114375],[-72.9438922625394,5.773838776979062],[-72.94130778340451,5.776272154253775]]]}}]}