{"type":"FeatureCollection","features":[{"type":"Feature","properties":{"code":"152217"},"geometry":{"type":"Polygon","coordinates":[[[-72.87096297744097,5.74184069679842],[-72.8727258780707,5.732474785965962],[-72.87999631670237,5.727091592835166],[-72.87127419648846,5.721888037759072],[-72.87136796987733,5.717220100688962],[-72.87545695551597,5.705741225905456],[-72.87169581884035,5.694294456012017],[-72.8720927040643,5.689007562124857],[-72.86290847171654,5.678210485081593],[-72.85869533969617,5.677995917005148],[-72.85383906291918,5.683679023514799],[-72.85264914155528,5.683015389097875],[-72.8525307575369,5.676037465229626],[-72.85453368533763,5.670011995347636],[-72.86344919079744,5.657696016690693],[-72.86561522855311,5.650503235753547],[-72.8651589600297,5.644760500146674],[-72.89397931737835,5.6381891504592545],[-72.90839897829267,5.64820991795176],[-72.91656843817964,5.651786701163644],[-72.91930883742793,5.654990208078118],[-72.92395868213725,5.666818086887247],[-72.920644887104,5.68196384158955],[-72.92489672044479,5.689649248549983],[-72.92607305299771,5.695349372698047],[-72.92075139158277,5.691009521132685],[-72.91886819917386,5.691161633951879],[-72.92033384083487,5.6969155682693895],[-72.91822687784583,5.7004035866075355],[-72.91740229526005,5.709243416181494],[-72.92041749023554,5.714600100177961],[-72.91155911887142,5.728220300271914],[-72.90005857686094,5.7370783106526915],[-72.90382156061929,5.738670468226985],[-72.90139897479196,5.739808091231964],[-72.89985990644891,5.743112732098325],[-72.89818597740998,5.74275334080329],[-72.89780832508956,5.746052126746406],[-72.89929323873486,5.747090643888043],[-72.88560736333011,5.758322409645416],[-72.88555509479596,5.7601045483208395],[-72.89097328582568,5.757926811003017],[-72.89003511896283,5.759801946593257],[-72.89171579664162,5.759559082977773],[-72.89288668564825,5.762911246116062],[-72.8955591819792,5.758251716563564],[-72.90474771938733,5.7584685225309045],[-72.90523799850484,5.760284123640588],[-72.89007749182304,5.763854629239404],[-72.88243780221791,5.769152337199614],[-72.88236088294502,5.7676344547724625],[-72.87743296897594,5.764136552073296],[-72.87602156943029,5.74748268617617],[-72.87096297744097,5.74184069679842]]]}}]}