{"type":"FeatureCollection","features":[{"type":"Feature","properties":{"code":"152448"},"geometry":{"type":"Polygon","coordinates":[[[-72.98828279327739,5.577671714400992],[-72.99368073633082,5.565864223436336],[-73.00136306104906,5.5586811489397405],[-73.00676831530035,5.548743598902149],[-73.01892424978945,5.5397360128698665],[-73.02839455885038,5.527716956880909],[-73.02550318938262,5.513681365768321],[-73.02545028424254,5.492370151645275],[-73.01747726510422,5.483182520295031],[-73.01349074010841,5.473816872743896],[-73.01603295231263,5.4596489766150285],[-73.01525161573477,5.454735357996924],[-73.00385007365799,5.437415644474584],[-72.99319433238475,5.431083228723821],[-72.99596535248054,5.418035119321303],[-73.00425671674458,5.412011480067065],[-73.00674986709845,5.401243199414296],[-73.0124188428079,5.39663873987331],[-73.0078857540924,5.392079578083099],[-73.00907704534177,5.386658025074723],[-73.01598486748264,5.384799712747281],[-73.02420857462715,5.377736922830763],[-73.02991318895522,5.376474209333821],[-73.02844739302788,5.388202868122505],[-73.03756894797476,5.403448980302699],[-73.04442423521493,5.407997087364322],[-73.04491001592487,5.410797363564427],[-73.04842602229769,5.413553083520867],[-73.0566194428385,5.414526523905238],[-73.06380216560774,5.4177234950674915],[-73.06018449357816,5.4284281346687635],[-73.06192334613644,5.440564689186999],[-73.06504142444459,5.448065317936994],[-73.061391475775,5.459025289990848],[-73.05819158383605,5.463868330712614],[-73.06115412563986,5.475975330878271],[-73.05861179310784,5.4807358267465816],[-73.05939000939111,5.484042933818159],[-73.05769541071442,5.488353923172667],[-73.05165246142343,5.495538249283811],[-73.04865042125618,5.50189141797614],[-73.04494636931099,5.5123741217387305],[-73.04607830194351,5.517197422534821],[-73.0438893659151,5.524794013199369],[-73.03440468539839,5.544703374808648],[-73.02339577182198,5.562486114750186],[-73.01711816074459,5.568984558147406],[-73.01257501694658,5.571262648829304],[-73.00846460165121,5.577474429301105],[-73.01174056954017,5.577969748815406],[-73.01266070780571,5.581819247215321],[-73.0105655194551,5.584002659478983],[-73.00033313345932,5.585944741534945],[-72.99122943124615,5.58139940818279],[-72.98828279327739,5.577671714400992]]]}}]}