{"type":"FeatureCollection","features":[{"type":"Feature","properties":{"code":"152447"},"geometry":{"type":"Polygon","coordinates":[[[-72.92360829794177,5.564855040560701],[-72.91784865988205,5.55756231043739],[-72.9170855308505,5.552725016652403],[-72.91951180775806,5.543449208697496],[-72.92483756237425,5.534275092110363],[-72.95742318148143,5.4991463300584655],[-72.95754500152623,5.495533492737138],[-72.96277933582996,5.488236946063694],[-72.96296263411165,5.481254135036522],[-72.96873077739099,5.470592914221527],[-72.97095826355877,5.469314320543674],[-72.97892431191372,5.470888632583353],[-72.98985665897305,5.463057449038104],[-72.99210853876895,5.4569767775039395],[-72.990689004243,5.448669825136676],[-72.98733918492519,5.442654715784613],[-72.98777498230027,5.439265037120151],[-72.99228331537591,5.434439512831318],[-72.99319433238475,5.431083228723821],[-73.00127240589791,5.435354746454436],[-73.01299362904723,5.450198242928991],[-73.0156647380092,5.456088237106371],[-73.01349074010841,5.473816872743896],[-73.01747726510422,5.483182520295031],[-73.02552181344817,5.49264367313225],[-73.02550318938262,5.513681365768321],[-73.02861787177358,5.524631579959532],[-73.02753909419266,5.529893388076744],[-73.01862437549141,5.540009278274624],[-73.01218313509548,5.543509875493214],[-73.00676831530035,5.548743598902149],[-73.00136306104906,5.5586811489397405],[-72.99368073633082,5.565864223436336],[-72.99043648766605,5.574501560905901],[-72.98693856131268,5.579165149721064],[-72.96840219617695,5.564574013500248],[-72.9505715997197,5.557978513925605],[-72.94993118753484,5.554283982272864],[-72.92360829794177,5.564855040560701]],[[-72.98063906909226,5.562323364750057],[-72.98599660155378,5.564358291511269],[-72.98750916076244,5.5631464128995844],[-72.99031289972856,5.557887127551851],[-72.98669179784315,5.556204473206549],[-72.9850943530459,5.558801981679721],[-72.98301091156571,5.559031598955528],[-72.98063906909226,5.562323364750057]]]}}]}