{"type":"FeatureCollection","features":[{"type":"Feature","properties":{"code":"152420"},"geometry":{"type":"Polygon","coordinates":[[[-72.88398766817892,5.527214623388659],[-72.88208837858775,5.52316757043684],[-72.87956304312524,5.5241974445475535],[-72.88139987745916,5.520771673721299],[-72.87884816861668,5.5214655433198345],[-72.88005822482825,5.5181768906207935],[-72.87795954491526,5.516014364996295],[-72.87958772985945,5.5139089806665424],[-72.88228056158431,5.514804380775729],[-72.88930868578882,5.511082756861697],[-72.89331906139512,5.511172162455125],[-72.88838588282874,5.514938917512268],[-72.88911351619515,5.517520564316442],[-72.88728256455244,5.520161200526616],[-72.88876585531551,5.521241221494506],[-72.88398766817892,5.527214623388659]]]}}]}