{"type":"FeatureCollection","features":[{"type":"Feature","properties":{"code":"152687"},"geometry":{"type":"Polygon","coordinates":[[[-73.04417674360809,5.360413951202531],[-73.04390018821573,5.35390025600276],[-73.0312125911106,5.356479174348976],[-73.02694126364185,5.35976514589828],[-73.01674035312936,5.358186723173844],[-73.01403498777552,5.356391829754273],[-73.01832370415036,5.343051989261539],[-73.02236952091431,5.336414708181223],[-73.03281785412793,5.328227550855388],[-73.04054347627618,5.327085623818505],[-73.04614415723177,5.321605788972647],[-73.0389750572121,5.31168205400337],[-73.0467344996926,5.306366303047582],[-73.0580302572003,5.306153415446204],[-73.0624282044551,5.301644461191302],[-73.07318488736155,5.2952335619066275],[-73.1027591774087,5.280976063751723],[-73.11259812551987,5.269756132282453],[-73.11565979169899,5.270108995024373],[-73.12022894069452,5.266757073570091],[-73.12668848942411,5.25398324258822],[-73.13561450145272,5.2472302421840595],[-73.13709539388776,5.243098164803939],[-73.14313031207115,5.238707317916294],[-73.14826889940485,5.228952190955795],[-73.15420665856664,5.234502457659062],[-73.15910708638097,5.235591316033549],[-73.16152148991961,5.239037518927319],[-73.16843790161244,5.240064855870344],[-73.17380172402841,5.236507921599014],[-73.18477247518831,5.237482154912584],[-73.19160909928206,5.239956951681279],[-73.19598122337362,5.236015256494852],[-73.20725692933758,5.235846855203079],[-73.21472702054388,5.231972618646807],[-73.21263617530599,5.228315664226784],[-73.21430720825083,5.2158717936003995],[-73.22221906694102,5.199447831914597],[-73.21869886555118,5.184913770139758],[-73.2123550279178,5.1785011728964605],[-73.21282069846274,5.17183565592677],[-73.2159719676963,5.168220939640946],[-73.20884643250173,5.158972609613272],[-73.20739270843268,5.152839075105192],[-73.20889842438481,5.151444158407799],[-73.22980295634045,5.147438175279547],[-73.22464627458908,5.1407689363763325],[-73.2271418284131,5.13164887164271],[-73.2297498362559,5.129416801706611],[-73.23403570898722,5.128709291874941],[-73.23211702091322,5.131158265480451],[-73.23615909826015,5.138215256009573],[-73.23033069133453,5.143277725227165],[-73.23703796409893,5.146220819182986],[-73.24277393358255,5.145967313244341],[-73.24563764411721,5.149113162585877],[-73.2519718483295,5.1517673639528425],[-73.26586211125823,5.154702514218627],[-73.25973447898184,5.157878547319626],[-73.25680430020714,5.166828608448043],[-73.26023255575052,5.18426154423571],[-73.26326633056857,5.214804906871848],[-73.26296011695081,5.217947731563925],[-73.25625818694527,5.2200943687799395],[-73.25550161423484,5.228757862628072],[-73.25688588140991,5.231519743983654],[-73.27083171108796,5.239905209709718],[-73.27765298876244,5.247739881732002],[-73.27744148853003,5.258554649015082],[-73.28369068271218,5.266308697314514],[-73.28547790806437,5.274188873804519],[-73.28948106503259,5.276511011651053],[-73.28525717961719,5.286365968498444],[-73.27924077751294,5.291455657504173],[-73.27481451620719,5.298014425225745],[-73.27044630431095,5.2997594813493265],[-73.26669861760661,5.298622043464036],[-73.26110948297514,5.3010288725235455],[-73.257423895687,5.292189946950543],[-73.24871286414032,5.291873161972148],[-73.23779475175388,5.293585397409629],[-73.233326071308,5.302007508599502],[-73.22881718595875,5.302661363556524],[-73.22704543558115,5.302099447246917],[-73.22573773492314,5.295345593235481],[-73.20154191539876,5.315914685293933],[-73.19112815225196,5.317114731674394],[-73.188138890483,5.320272790685522],[-73.18521332118769,5.320713851629421],[-73.18430503880757,5.3218823093979495],[-73.18778588992978,5.322667220841993],[-73.18842158876254,5.325191933068368],[-73.18480267643127,5.329400170730821],[-73.17083745958337,5.339302993349861],[-73.17233948754063,5.344630824391459],[-73.16468350329222,5.344253249204257],[-73.15686013591005,5.350976471055219],[-73.15684499620778,5.361053441902925],[-73.15179131605993,5.361515949987108],[-73.1480954237777,5.359682754282801],[-73.13336683621424,5.368023681248701],[-73.13089448713873,5.36691335927884],[-73.1252865330377,5.355418336919342],[-73.11175778410939,5.345790364534935],[-73.10748468977636,5.346879868771339],[-73.0905850292026,5.361053682558463],[-73.07666517695418,5.368235956926753],[-73.07062394310532,5.3678609415329674],[-73.06599205705925,5.3648774698954185],[-73.05939816905408,5.352388137995945],[-73.04417674360809,5.360413951202531]],[[-73.16798794052698,5.281925346021353],[-73.17374984116026,5.288586563072897],[-73.17608829936108,5.286848690620332],[-73.17221007861849,5.281473996538466],[-73.16798794052698,5.281925346021353]]]}}]}