{"type":"FeatureCollection","features":[{"type":"Feature","properties":{"code":"152607"},"geometry":{"type":"Polygon","coordinates":[[[-73.01032356806815,5.214299445885899],[-73.0185761333097,5.205287879781054],[-73.03128756354175,5.182967811883941],[-73.03500627182132,5.173499691348695],[-73.04983430257721,5.164498336649615],[-73.05462403398104,5.163801993646871],[-73.0565436435395,5.161756057408468],[-73.06302514643158,5.161190100348222],[-73.06404266072008,5.1635605945335215],[-73.07306903845404,5.1690168801026175],[-73.06954752682839,5.174644160695493],[-73.0580463780368,5.179938724706915],[-73.06079171586606,5.185322838293814],[-73.07387612826102,5.19748776754119],[-73.07779028587055,5.1967299894960775],[-73.07898766035743,5.200905700606995],[-73.08422240706665,5.202002382343721],[-73.0863229464037,5.206102681878463],[-73.08989818180959,5.206555867131215],[-73.09117866267951,5.204509964831459],[-73.09417785097565,5.205666333258193],[-73.09251316866334,5.208289170213675],[-73.09506524671667,5.2098935621401665],[-73.09787709495203,5.20829758904415],[-73.10202108786723,5.209295016821841],[-73.10519483782582,5.22501679395134],[-73.10116015395215,5.2328439274899665],[-73.10154850721699,5.240473381006723],[-73.0864262154023,5.250667639553001],[-73.08322258301791,5.255305367152573],[-73.0732348624689,5.260100534903586],[-73.06663499509892,5.273224884806893],[-73.06703231843937,5.279881216756451],[-73.06379052466684,5.293878936501756],[-73.06369570020973,5.300848641057428],[-73.0580302572003,5.306153415446204],[-73.0467344996926,5.306366303047582],[-73.0389750572121,5.31168205400337],[-73.0284884247991,5.300139856985538],[-73.02869036051607,5.283402324204189],[-73.02023498949512,5.278408382168493],[-73.01949081774455,5.2744695902753165],[-73.0162024941472,5.271568467058671],[-73.01208721946085,5.262410419885953],[-73.00019355529759,5.258163080838926],[-72.99742706446261,5.254799422798612],[-72.99553337268406,5.247441018392976],[-73.00430430586522,5.236337616660137],[-73.00408261171054,5.230835576711854],[-73.01032356806815,5.214299445885899]],[[-73.07530911995735,5.227653493283526],[-73.07815271107103,5.227563636203797],[-73.07712731274216,5.225870993624767],[-73.0830465239431,5.223002119280181],[-73.07860638072026,5.223179099839456],[-73.07633756864675,5.2206185659317725],[-73.07445724456403,5.222703072878346],[-73.07530911995735,5.227653493283526]]]}}]}