{"type":"FeatureCollection","features":[{"type":"Feature","properties":{"code":"152627"},"geometry":{"type":"Polygon","coordinates":[[[-72.93717026350657,5.207089107378124],[-72.94006793218477,5.199916801703125],[-72.94614090994042,5.195333720396775],[-72.94638321408314,5.192221725326078],[-72.94907041611367,5.190440918483716],[-72.94854066537232,5.182187630247029],[-72.95052655188044,5.176036398300141],[-72.95427075833533,5.174406622355377],[-72.95807647593728,5.165360848195519],[-72.96229030627012,5.1632910695742],[-72.96061051099502,5.160210697054083],[-72.9632645478112,5.156028144743573],[-72.97062133241991,5.154383108768741],[-72.97402008503275,5.150347571287796],[-72.97350071641858,5.146288269585568],[-72.9694042005238,5.141907417102345],[-72.96796168647819,5.137195535711896],[-72.96564299494253,5.1365958961307],[-72.96494860803745,5.132731810302062],[-72.96279628456267,5.133701097835512],[-72.95729547668856,5.131243525422121],[-72.94997884453272,5.123046054874749],[-72.94250232556067,5.119949741495589],[-72.9374435957601,5.114314852484938],[-72.93463638374362,5.105822448277365],[-72.92702067330418,5.098154340748522],[-72.92482697250159,5.097733381742103],[-72.90951079973172,5.103395869007727],[-72.9062357379006,5.098283940960982],[-72.9067457127208,5.089925273361587],[-72.90325161114521,5.067676723357238],[-72.91085632650561,5.062955250711809],[-72.92949715877552,5.045888455887507],[-72.93027113581871,5.040925086362563],[-72.92490857118793,5.030890068770589],[-72.9481565410631,5.014909865633399],[-72.95711163538925,5.003552552755593],[-72.96173140535399,4.994012889644921],[-72.96879054224263,4.98796891499677],[-72.97059069203192,4.979640397218304],[-72.97401642274895,4.974295417926157],[-72.97945214975203,4.980660003358878],[-72.98858400249384,4.986511443283177],[-72.98896165481426,4.989161757137424],[-72.99779445395512,4.991963394995423],[-73.00015442717353,4.99116768696183],[-73.00429543966226,4.996998299896632],[-73.01078575733516,4.99757852659684],[-73.01631649905727,5.00267392037324],[-73.0198442924098,5.001724070403384],[-73.01846664326229,4.999937852924859],[-73.01891377921618,4.996606800626182],[-73.0214117879325,4.9947912612230425],[-73.02354636254626,4.988378646496187],[-73.03059378855994,4.982294872150987],[-73.0307791642955,4.986194312748069],[-73.02753505241355,4.98950339340081],[-73.0290834795835,4.993035993693695],[-73.02619919299934,4.998235293074629],[-73.02787602430311,5.003922252129996],[-73.02674537619532,5.00832927230465],[-73.02734648850617,5.024920212946256],[-73.03514164571004,5.024437740735891],[-73.04261869124463,5.019879216580023],[-73.04626556384267,5.019940944728432],[-73.05664311244306,5.009781049532023],[-73.06311043311274,5.008632150683297],[-73.06569780422802,5.010944018502869],[-73.06389802364959,5.016758914779132],[-73.05910577667532,5.023717056555597],[-73.06475197032614,5.026426230232062],[-73.06995539684692,5.031567686920425],[-73.07974406851707,5.034267047198398],[-73.08616329098709,5.0397188271608115],[-73.08467646238176,5.040627497263813],[-73.08687091291898,5.043534333478647],[-73.0843894724116,5.045525347801174],[-73.08395396094352,5.048047293517129],[-73.0797571739601,5.049979130228735],[-73.076352682638,5.059240368238477],[-73.0734600379015,5.062508925170675],[-73.07254966161236,5.066675674433441],[-73.07493099455337,5.069726397984198],[-73.07283548841406,5.07640826101931],[-73.0677059740002,5.080755999710334],[-73.07080682795305,5.0893356641802825],[-73.07125945270468,5.096136769983218],[-73.08051502913838,5.09795164604094],[-73.08536660079085,5.100685221573087],[-73.091325858515,5.100701213854222],[-73.09803214911682,5.105347610195793],[-73.105395249391,5.114757654582036],[-73.1107367463768,5.114923995903439],[-73.10299450254053,5.131689006612021],[-73.09629365754188,5.1380055822911],[-73.09046701748048,5.148942564540846],[-73.08930790002688,5.154959078745378],[-73.09109619393081,5.163375072759152],[-73.08537077112527,5.157855669615799],[-73.07591735114733,5.16422033321021],[-73.07306903845404,5.1690168801026175],[-73.06404266072008,5.1635605945335215],[-73.06398187976725,5.1613837560744855],[-73.0565436435395,5.161756057408468],[-73.03628534886712,5.172350138410536],[-73.0185761333097,5.205287879781054],[-73.01032356806815,5.214299445885899],[-72.99232887949324,5.207903452847063],[-72.98837296711747,5.204092461391895],[-72.9864583115666,5.199157110754925],[-72.98264757002295,5.1961860647599],[-72.97358024690698,5.197784072115212],[-72.97122958006497,5.201164764249029],[-72.9652261455924,5.20405866677072],[-72.96051387750754,5.20860593873698],[-72.9505602004628,5.213436468455541],[-72.94771338621024,5.213618949125419],[-72.94221088963349,5.208682702715009],[-72.93717026350657,5.207089107378124]],[[-73.04970709966426,5.101555785823848],[-73.05423423986826,5.102821828389267],[-73.05260384480113,5.095767132315359],[-73.04970709966426,5.101555785823848]]]}}]}