{"type":"FeatureCollection","features":[{"type":"Feature","properties":{"code":"152667"},"geometry":{"type":"Polygon","coordinates":[[[-73.15420665856664,5.234502457659062],[-73.14399216027158,5.22355453998],[-73.14121696675602,5.2230423920607905],[-73.13904193012826,5.218975214545765],[-73.13626586655039,5.2181214581310655],[-73.12936442898064,5.208887379231328],[-73.12345770718565,5.20770525551859],[-73.11863547391289,5.202857216566144],[-73.11495411763724,5.202493299095579],[-73.10333239013096,5.192207473169674],[-73.10453885502125,5.184726249073094],[-73.09814611905983,5.1699762503648685],[-73.09402597572671,5.1684734459335],[-73.09109619393081,5.163375072759152],[-73.08930790002688,5.154959078745378],[-73.09046701748048,5.148942564540846],[-73.09629365754188,5.1380055822911],[-73.10299450254053,5.131689006612021],[-73.11149774653228,5.113338336029017],[-73.12746809307635,5.0955749740014085],[-73.13618627538386,5.089709577083738],[-73.13991537607501,5.084740940904624],[-73.14451464815193,5.085161305471331],[-73.15279577632754,5.076545168315818],[-73.16494149015489,5.075992876171313],[-73.17601576022491,5.066213916083882],[-73.1828884003757,5.066637167488693],[-73.19018283565669,5.063603530481942],[-73.19441162468598,5.063752880904531],[-73.20471600165803,5.069484800381474],[-73.2181621861925,5.0716718307058954],[-73.23055722739656,5.077883163805154],[-73.24856376465772,5.069045462078805],[-73.25163290967083,5.075080673368291],[-73.2519675062452,5.0807219644336215],[-73.2502391139758,5.086339345238798],[-73.25414920306673,5.089960058372924],[-73.25616850572919,5.096630021299632],[-73.25038451723594,5.101255487807521],[-73.2502379076127,5.103947557456479],[-73.24170628066435,5.108949117165878],[-73.23866973110842,5.1139837896390645],[-73.23982552257888,5.11627858736972],[-73.2366473009522,5.126142592454357],[-73.2271418284131,5.13164887164271],[-73.22464627458908,5.1407689363763325],[-73.22980295634045,5.147438175279547],[-73.20889842438481,5.151444158407799],[-73.20739270843268,5.152839075105192],[-73.20884643250173,5.158972609613272],[-73.2159719676963,5.168220939640946],[-73.21282069846274,5.17183565592677],[-73.2123550279178,5.1785011728964605],[-73.21869886555118,5.184913770139758],[-73.22221906694102,5.199447831914597],[-73.21430720825083,5.2158717936003995],[-73.21263617530599,5.228315664226784],[-73.21487164013087,5.231742239295045],[-73.20725692933758,5.235846855203079],[-73.19598122337362,5.236015256494852],[-73.19160909928206,5.239956951681279],[-73.18477247518831,5.237482154912584],[-73.17380172402841,5.236507921599014],[-73.16869718945492,5.2400765225222585],[-73.16152148991961,5.239037518927319],[-73.15910708638097,5.235591316033549],[-73.15420665856664,5.234502457659062]],[[-73.14083891334303,5.194387947173027],[-73.14129128201245,5.198743485572095],[-73.14344997257484,5.199759256650566],[-73.14391899789928,5.1975571133633025],[-73.14625568820742,5.199738892460232],[-73.14846188355818,5.19910390428123],[-73.14898230118371,5.194077233090809],[-73.14468842408428,5.192469701329344],[-73.14335000179136,5.192575564060007],[-73.14348900505371,5.194146951209177],[-73.1384384688547,5.193073543126673],[-73.14083891334303,5.194387947173027]]]}}]}