{"type":"FeatureCollection","features":[{"type":"Feature","properties":{"code":"152847"},"geometry":{"type":"Polygon","coordinates":[[[-73.2212232846714,4.9651433861136525],[-73.22700719603142,4.964900547180832],[-73.23318912904443,4.957452815343345],[-73.24068056351831,4.952562168017323],[-73.25315752222582,4.938585300972534],[-73.2620722121307,4.931626047449754],[-73.2739494880625,4.931112176889258],[-73.28125905481824,4.928005445387441],[-73.28573795386899,4.919050058983601],[-73.29159704437711,4.914009829835493],[-73.29360352544671,4.908701609135846],[-73.2987916148042,4.90300718050247],[-73.30014331943232,4.908326688358784],[-73.3042710794108,4.910324181869214],[-73.30453750978654,4.913800646684081],[-73.31190218769154,4.919378055013908],[-73.32358056798239,4.912270115442425],[-73.32446191545301,4.910188583779984],[-73.32311680211302,4.904832361554213],[-73.32873926650961,4.90246683886005],[-73.33176577743814,4.898712044589445],[-73.334651822659,4.899657369412239],[-73.3371918885037,4.8985610064926846],[-73.3416330221167,4.893380757980992],[-73.34606489254793,4.894536825074056],[-73.35397684688331,4.893399920950401],[-73.35738192441761,4.909453691666272],[-73.3618159916021,4.91710374694361],[-73.3765320506788,4.9282488880160145],[-73.37315692550436,4.93243472311508],[-73.37288143866374,4.937160743533298],[-73.36911464041208,4.939741118154075],[-73.36308901934905,4.940545597773962],[-73.35665360610852,4.946152164506088],[-73.35386813228155,4.964346686661486],[-73.35059238962145,4.971095388175854],[-73.34574970165545,4.975090643620206],[-73.3449616452342,4.978367575159837],[-73.35142784490154,4.984078755064957],[-73.35599422841517,4.9936567523420194],[-73.35598463818866,5.002376874292111],[-73.36385232013049,5.012024052840559],[-73.36738115632375,5.013141803250733],[-73.36309025965073,5.020415007364306],[-73.358391390115,5.02347232220319],[-73.34316907712315,5.026190560572047],[-73.34037256605109,5.030333279246918],[-73.34004525084976,5.035705088547502],[-73.33602417224216,5.039240533512384],[-73.33130167526804,5.040086208425805],[-73.32628817431254,5.038180410850316],[-73.32078722862707,5.038690533766271],[-73.31052515869487,5.043173543501723],[-73.30489087235156,5.040584216288835],[-73.29937216032158,5.041371005668907],[-73.29671768333202,5.039592164180192],[-73.28957583806755,5.039018365245738],[-73.28564135432009,5.031386533969851],[-73.28392995397797,5.016009468146876],[-73.26358937979029,5.038877718532206],[-73.25595722969723,5.04464933383349],[-73.25246054158868,5.060032181560302],[-73.24816392471837,5.068805337205731],[-73.24397316955032,5.0679420584417585],[-73.24160167571887,5.063552469339356],[-73.23498393710327,5.062906395578409],[-73.23154631553388,5.059337088115171],[-73.2323900086385,5.0571398638684855],[-73.22777087630811,5.047795692254056],[-73.23005987465137,5.041852461778092],[-73.22703391496805,5.038183090971529],[-73.22990682903486,5.031283299938252],[-73.2271009426808,5.030001319599194],[-73.22328421251638,5.024310035943017],[-73.22244792111252,5.019152173539624],[-73.21573441907174,5.017989333124092],[-73.21445302494493,5.015382980045274],[-73.21641943069488,5.00961456937091],[-73.21322114106937,5.0051475529450045],[-73.21411036435273,5.000879800342432],[-73.21217618382065,5.000168576804867],[-73.2138109837071,4.997987094927851],[-73.2125541724418,4.995558241771789],[-73.21503003776223,4.993125829176165],[-73.21664112484956,4.993545014119263],[-73.22078545406544,4.984662186392029],[-73.21973615370399,4.982985795261698],[-73.22237911008045,4.981139597987067],[-73.2210080100549,4.979925050567033],[-73.22341142674219,4.9724414147727884],[-73.2212232846714,4.9651433861136525]],[[-73.32207044515405,4.973969393420134],[-73.32283347339819,4.972677257211217],[-73.32164093876185,4.972024747456999],[-73.32369825985893,4.9712640013268015],[-73.32277785831212,4.970498744447696],[-73.31532948575494,4.971438211261955],[-73.31541385609387,4.973670355245872],[-73.32207044515405,4.973969393420134]]]}}]}