{"type":"FeatureCollection","features":[{"type":"Feature","properties":{"code":"152807"},"geometry":{"type":"Polygon","coordinates":[[[-73.0289643314324,4.992141256929983],[-73.02753505241355,4.98950339340081],[-73.03104522443198,4.985432424018256],[-73.02928993119161,4.970231446066464],[-73.0335183232421,4.963683095439137],[-73.03564915741038,4.963057520594475],[-73.03551859149042,4.958665976422822],[-73.03864361589939,4.954264865678908],[-73.03919112475774,4.945726009808027],[-73.0410143414843,4.944330274470417],[-73.03920610093769,4.938304635923885],[-73.04279387305792,4.93696138406483],[-73.04909921197407,4.922011980636626],[-73.0481251164718,4.904054498026767],[-73.04191819539096,4.889756977002833],[-73.04150199293116,4.878334040236325],[-73.04572504222278,4.8724906838702395],[-73.05188747699401,4.870134088057114],[-73.05061660383416,4.8641409596070275],[-73.05190588200134,4.860986295484736],[-73.06157867802449,4.855175949038141],[-73.06098835304715,4.849110398694393],[-73.06669409454827,4.8422936965606596],[-73.06918821883721,4.827398525991782],[-73.07174480249722,4.825788396384496],[-73.07490658447023,4.819463944892561],[-73.0776993036747,4.808925484118788],[-73.07018429421299,4.8021721299304545],[-73.07214407473623,4.795674091739613],[-73.0637861044209,4.789980153673298],[-73.06079710901861,4.783937601361117],[-73.06020446696033,4.77864793170761],[-73.05495873339964,4.774276962556996],[-73.0535785511982,4.768286522455639],[-73.04582308056274,4.7577945472837655],[-73.0449916660333,4.750263915780181],[-73.05076093854257,4.735702014066362],[-73.0557024906879,4.736837324104101],[-73.06085961364113,4.732321856722706],[-73.06397544274552,4.731655103039657],[-73.06668961465266,4.733727930992984],[-73.06672326220655,4.740022103080264],[-73.06909837409876,4.7405533975139065],[-73.07224416379063,4.738674499880915],[-73.07885001155381,4.725510384219206],[-73.0717334289514,4.718735196196178],[-73.08036723886306,4.709142576523334],[-73.07992084441628,4.7030478513221965],[-73.0847502202223,4.698216898913756],[-73.08481240499924,4.694078712585053],[-73.09029178321663,4.692344857228932],[-73.09119436185455,4.677745431761423],[-73.09904153768099,4.671062775797168],[-73.10107003359116,4.664729596942038],[-73.10527859932677,4.659691840169728],[-73.11256816596085,4.6610203400492765],[-73.12148751676722,4.671607554140621],[-73.12559035038436,4.666404497859162],[-73.1333027025388,4.665045134419643],[-73.14285921050947,4.6576080263934045],[-73.14886965896,4.655221617060079],[-73.15427721897942,4.657284106080795],[-73.15983275027997,4.662535155660805],[-73.18077485946833,4.667682325347357],[-73.18808290927137,4.671595551187977],[-73.19360773950586,4.672018509486691],[-73.19933572107641,4.674851364688948],[-73.2035821304114,4.678805795079029],[-73.20802297914582,4.680441740650451],[-73.20903776189101,4.685139783318448],[-73.2065126187473,4.691088528303169],[-73.1988291144055,4.704205589634341],[-73.1923292754118,4.711118951995104],[-73.18629433048886,4.714705957925673],[-73.18450125432724,4.7188024738204035],[-73.17636724382544,4.723412361480996],[-73.17027660256952,4.734997245034037],[-73.17626869743486,4.735970349117679],[-73.17944203293115,4.740495467403662],[-73.18202881886259,4.741238012158192],[-73.18185276595847,4.7440876947369475],[-73.17901466364248,4.746866085680267],[-73.17900033435285,4.750095169960105],[-73.17989962094629,4.7523035702916445],[-73.18748905159401,4.756363259716693],[-73.18869103556023,4.759070632590351],[-73.18773613799448,4.7613293186187775],[-73.19074571767379,4.765407189879113],[-73.19194190328113,4.772634416441463],[-73.19739783609441,4.77381859909616],[-73.20196100469667,4.778030671820716],[-73.20755515504226,4.779559134864542],[-73.21237024475329,4.777052156072557],[-73.21954410954714,4.779380480000839],[-73.23013197772792,4.777933442865049],[-73.24077864505284,4.783689988398066],[-73.23810584121759,4.790409496543134],[-73.23577941270884,4.790277767454711],[-73.23091207297568,4.795811679865096],[-73.22847764463273,4.7964557203951586],[-73.22692933676211,4.794830165178496],[-73.22221363882142,4.7988603948675745],[-73.22129034632269,4.797481453996284],[-73.21934564585212,4.799311702184298],[-73.21713978680202,4.798254388198757],[-73.21388203571541,4.801330194434058],[-73.21120426861654,4.801022740514668],[-73.2081293674106,4.810004294609882],[-73.20555836704341,4.811664729454549],[-73.20571891926187,4.813873447574792],[-73.20313928511973,4.81257825072089],[-73.19929897173989,4.814712824306241],[-73.20506745131996,4.817567375531837],[-73.20560413890615,4.827829600758832],[-73.2095399832831,4.833883191344569],[-73.21400750056046,4.834779565388828],[-73.21688592810762,4.842193176588864],[-73.22323646090177,4.844809877856278],[-73.22832545159503,4.850687424793875],[-73.20740471961284,4.8620027062544295],[-73.20047501221518,4.862831200007065],[-73.18550489492617,4.872766619111815],[-73.17812559565391,4.883642071702525],[-73.17428899598002,4.894373008579009],[-73.16906066778057,4.897567876576261],[-73.16304178507295,4.906968822331578],[-73.15762434994843,4.911542736101296],[-73.1416838950862,4.916348795058525],[-73.14117221305139,4.922831048713647],[-73.13584171937214,4.930292566823084],[-73.13179368734302,4.934452810158518],[-73.12214871377535,4.939910905786405],[-73.11648483914075,4.946991376686697],[-73.11477622176409,4.95258462200286],[-73.10553796430241,4.956314317133774],[-73.08815947529018,4.968611630587475],[-73.07691151464849,4.979068183113725],[-73.06187234567193,4.987191508097737],[-73.0563907089948,4.997438939179119],[-73.05047767976185,4.990840070426827],[-73.04251971290819,4.98830777652222],[-73.03846090280149,4.989450177671131],[-73.0363085782983,4.987932303471553],[-73.0289643314324,4.992141256929983]],[[-73.1679149828147,4.82178044790254],[-73.17139648699793,4.818837823944932],[-73.17215939799962,4.816463175880301],[-73.16705035062034,4.817359162201683],[-73.16760985420382,4.820176435471353],[-73.16541465804579,4.820674053554683],[-73.1679149828147,4.82178044790254]]]}}]}