{"type":"FeatureCollection","features":[{"type":"Feature","properties":{"code":"152860"},"geometry":{"type":"Polygon","coordinates":[[[-73.36403982165672,5.091609750107011],[-73.36135111192948,5.090933104863836],[-73.36302592748586,5.087994088682592],[-73.35873741782797,5.086592183718267],[-73.36056762076453,5.083819419383929],[-73.35797317190787,5.082777517637965],[-73.3641987921306,5.073034717589508],[-73.36584771150439,5.075500747914134],[-73.36759015024177,5.074622247172442],[-73.36806078096492,5.0767578934232915],[-73.36991359523876,5.0754113968281445],[-73.37138526357285,5.076856412045913],[-73.36950742215038,5.081869449173837],[-73.36994291819184,5.085737737218608],[-73.36403982165672,5.091609750107011]]]}}]}