{"type":"FeatureCollection","features":[{"type":"Feature","properties":{"code":"152827"},"geometry":{"type":"Polygon","coordinates":[[[-73.2212232846714,4.9651433861136525],[-73.21688713447065,4.960490140344916],[-73.21823004180146,4.956481770201606],[-73.21709411161288,4.952119787581694],[-73.21079108155021,4.9478318559084755],[-73.21328276637354,4.938286799645255],[-73.21123315962376,4.936368921983956],[-73.21056682863059,4.931420396998362],[-73.21334134131718,4.927892000978488],[-73.21641082263102,4.9271816742427745],[-73.2180841551733,4.920281995309779],[-73.22000915891277,4.918317286489923],[-73.21865341353407,4.914887480055256],[-73.21515776826618,4.9149343708634206],[-73.21544223340999,4.910189962921436],[-73.21272440847503,4.910043456142432],[-73.21313153801492,4.905433138592855],[-73.20357916644008,4.9088424625663265],[-73.19729466171248,4.913101977344297],[-73.19175588168366,4.90985758983976],[-73.18636194441382,4.902823123230235],[-73.1799835284861,4.900624149602834],[-73.17418463271855,4.8932149421936515],[-73.1767959922555,4.890331283987905],[-73.17893994112285,4.88221737645199],[-73.18631817184337,4.872122905626441],[-73.20047501221518,4.862831200007065],[-73.20740471961284,4.8620027062544295],[-73.22832545159503,4.850687424793875],[-73.22323646090177,4.844809877856278],[-73.21688592810762,4.842193176588864],[-73.21400750056046,4.834779565388828],[-73.2095399832831,4.833883191344569],[-73.20560413890615,4.827829600758832],[-73.20506745131996,4.817567375531837],[-73.19929897173989,4.814712824306241],[-73.20313928511973,4.81257825072089],[-73.20571891926187,4.813873447574792],[-73.20555836704341,4.811664729454549],[-73.2081293674106,4.810004294609882],[-73.21120426861654,4.801022740514668],[-73.21388203571541,4.801330194434058],[-73.21713978680202,4.798254388198757],[-73.21934564585212,4.799311702184298],[-73.22129034632269,4.797481453996284],[-73.22221363882142,4.7988603948675745],[-73.22692933676211,4.794830165178496],[-73.22847764463273,4.7964557203951586],[-73.23091207297568,4.795811679865096],[-73.23577941270884,4.790277767454711],[-73.23810584121759,4.790409496543134],[-73.24090439477652,4.784048442782023],[-73.23066250391497,4.778038072493132],[-73.21930526817039,4.7793677622806285],[-73.21237024475329,4.777052156072557],[-73.20801244172378,4.779659207463794],[-73.20196100469667,4.778030671820716],[-73.19739783609441,4.77381859909616],[-73.19194190328113,4.772634416441463],[-73.19074571767379,4.765407189879113],[-73.18773613799448,4.7613293186187775],[-73.18869103556023,4.759070632590351],[-73.18748905159401,4.756363259716693],[-73.17989962094629,4.7523035702916445],[-73.17900033435285,4.750095169960105],[-73.17901466364248,4.746866085680267],[-73.18185276595847,4.7440876947369475],[-73.18202881886259,4.741238012158192],[-73.17944203293115,4.740495467403662],[-73.17626869743486,4.735970349117679],[-73.17027660256952,4.734997245034037],[-73.17636724382544,4.723412361480996],[-73.18463095841236,4.718687925892652],[-73.18629433048886,4.714705957925673],[-73.1923292754118,4.711118951995104],[-73.2011341050299,4.701425829834022],[-73.20896190191394,4.685449366113858],[-73.20802297914582,4.680441740650451],[-73.21893711248816,4.67624564375194],[-73.22332947530003,4.677948677714198],[-73.2271310832457,4.686559697339703],[-73.234666057862,4.695185399010597],[-73.2285205625675,4.709324238552995],[-73.22816629600152,4.715322081383533],[-73.21974192738031,4.725344965410727],[-73.22053021622958,4.7301608295389315],[-73.22308023431253,4.733368271274458],[-73.23215783773992,4.734619368513165],[-73.23573531309364,4.736943039767482],[-73.24714928801205,4.732820725392173],[-73.25079744513476,4.736369044400476],[-73.25541659597712,4.734385869895277],[-73.25551451398934,4.7391918774304145],[-73.26232422785614,4.73685072265323],[-73.26861396221398,4.740774521911362],[-73.27809882373651,4.72813674461878],[-73.28189218563006,4.726061426806041],[-73.28326050371857,4.722538811661593],[-73.29173857040905,4.7240670433058085],[-73.29642164615302,4.728213698858667],[-73.30200598207165,4.728388976317149],[-73.30648532129578,4.7314485825259],[-73.30989773985283,4.736586680320954],[-73.3058345341828,4.746251685892048],[-73.31042182079062,4.752646868518184],[-73.30993021498222,4.758062054438824],[-73.31350901805524,4.764662370209749],[-73.31342849717669,4.77020969865282],[-73.32070761174947,4.77559567474907],[-73.32092772930179,4.779306078355262],[-73.3240508397792,4.779367744797128],[-73.32546919159626,4.782573652096403],[-73.33003615309457,4.783179996094361],[-73.33325892170893,4.787978764422633],[-73.34101498369881,4.791270078730861],[-73.34013011484109,4.796855025544346],[-73.33069596993283,4.808319356093762],[-73.33440178874224,4.8155725096920605],[-73.3388132466464,4.819504511807736],[-73.33971269779067,4.82338181517963],[-73.32786722541533,4.847709398759491],[-73.31998104282104,4.853489277596395],[-73.30585696348572,4.872819006945235],[-73.29852024687591,4.879544667233461],[-73.30041921147927,4.898797692253936],[-73.29159704437711,4.914009829835493],[-73.285928706302,4.918792581199966],[-73.28103007106301,4.928188839314259],[-73.2739494880625,4.931112176889258],[-73.2620722121307,4.931626047449754],[-73.25315752222582,4.938585300972534],[-73.24068056351831,4.952562168017323],[-73.23318912904443,4.957452815343345],[-73.22700719603142,4.964900547180832],[-73.2212232846714,4.9651433861136525]],[[-73.25936759651148,4.8639716399160875],[-73.26124627817148,4.864626658041573],[-73.26139416820564,4.862987014190878],[-73.26608820097624,4.862660285201798],[-73.26525606756547,4.858135373632763],[-73.26687528346247,4.851557326727686],[-73.26387706190229,4.851197557994226],[-73.25967641517411,4.853846927738289],[-73.26152896719503,4.855325706723988],[-73.26078155687895,4.857477089173813],[-73.2593055125219,4.856589078424122],[-73.25846372409279,4.858018214489448],[-73.26081354246975,4.860396868337716],[-73.25936759651148,4.8639716399160875]]]}}]}