{"type":"FeatureCollection","features":[{"type":"Feature","properties":{"code":"153047"},"geometry":{"type":"Polygon","coordinates":[[[-73.46605776521648,4.982773502100088],[-73.47009288000754,4.980071866907281],[-73.46923034275062,4.976787516183322],[-73.47145825880739,4.969724003271722],[-73.46515087843284,4.963803390303667],[-73.46241705298917,4.956524870170654],[-73.46571303539798,4.943705138770724],[-73.46301267650233,4.941359494841947],[-73.45601064182762,4.940219230796629],[-73.45131825147973,4.936249668931737],[-73.44922196886625,4.932778194119919],[-73.44947487213761,4.926333439535995],[-73.44540177490745,4.921869352114356],[-73.44880107053797,4.916664701747038],[-73.44907006070719,4.9098571075002155],[-73.45077455917158,4.90923648666319],[-73.44668472918164,4.909441714424702],[-73.43696823874961,4.906038671149702],[-73.43238737168002,4.907117620480506],[-73.42965937030635,4.904508484436235],[-73.43473983932489,4.89832331080089],[-73.44883121110286,4.889432781067626],[-73.45236351006207,4.8827327979037705],[-73.46777368042126,4.891423907490434],[-73.47581043625627,4.890567660187969],[-73.48401085329152,4.891912747816889],[-73.49504739083397,4.883325862651986],[-73.5035763715997,4.8839091571962285],[-73.50895043216099,4.880068964144186],[-73.52047024409899,4.88062294499133],[-73.52423064749507,4.888870089312377],[-73.535094494112,4.892542415862749],[-73.53952236698717,4.897890202802955],[-73.54234919037407,4.914155629046036],[-73.54883738842693,4.925118238026528],[-73.54505982032515,4.93629865467733],[-73.544484539405,4.943927902505607],[-73.54087787068192,4.949793049511754],[-73.53270404402804,4.954751275795672],[-73.52994532616168,4.966694235265777],[-73.5187260395258,4.979464164336719],[-73.51715805240758,4.990311638148739],[-73.51196988591693,4.991867002163474],[-73.50800088558162,4.996387080052671],[-73.50052282394586,4.992328312112136],[-73.50030096626881,4.989573540379695],[-73.49811723518798,4.987666458279534],[-73.49370516433214,4.98846222699126],[-73.4889695629434,4.98555984496096],[-73.4776133607835,4.986644214183855],[-73.47453291935773,4.983139125756793],[-73.46605776521648,4.982773502100088]],[[-73.48845890729422,4.964270425591792],[-73.48898714005446,4.9714199852036245],[-73.49137485242443,4.97022361550512],[-73.49224752498242,4.965360823544756],[-73.49065374246891,4.962214286175197],[-73.48845890729422,4.964270425591792]]]}}]}