{"type":"FeatureCollection","features":[{"type":"Feature","properties":{"code":"153267"},"geometry":{"type":"Polygon","coordinates":[[[-73.37676558323528,5.347275799600595],[-73.38526072412844,5.337418469107888],[-73.39619494809534,5.319203397642582],[-73.39696477228767,5.321313086004238],[-73.39902747008222,5.320003086777206],[-73.39850496780372,5.317336184145063],[-73.40271226341281,5.312131415506826],[-73.39513813290444,5.313025002471875],[-73.3944055187909,5.3075893526018945],[-73.40652682047818,5.277039833708841],[-73.40879444881432,5.2545241231345585],[-73.41565306100915,5.254891843785572],[-73.42916330105743,5.252163816700772],[-73.44323611253327,5.244571698732784],[-73.44690870647867,5.244280408844418],[-73.45090191120863,5.25482106739986],[-73.44704158125211,5.260069652831589],[-73.44576750243687,5.271138469070934],[-73.45026946842489,5.275980726119542],[-73.43231034030697,5.295387461130417],[-73.43608515115432,5.298373086326649],[-73.4425935889559,5.298486075135486],[-73.44376100388376,5.300357932050929],[-73.45023031561817,5.302397948574196],[-73.45174951548017,5.304315352123467],[-73.45142126131083,5.314428882045775],[-73.44826240114304,5.318087818274591],[-73.44702626979989,5.324614221938532],[-73.43601610666582,5.334373924439831],[-73.43580217622372,5.3362149517338935],[-73.43191352398867,5.338759662025041],[-73.42908179801628,5.344209167072563],[-73.4234941443421,5.349443216497775],[-73.41768658086102,5.362963107450696],[-73.42050495970636,5.370118602204229],[-73.41183287527787,5.373034347816599],[-73.4080930736423,5.371183343601672],[-73.4052543079809,5.368347713661535],[-73.40669523616816,5.363497012071377],[-73.401997571967,5.354951382878141],[-73.39442759019579,5.355713797142073],[-73.39031932948745,5.359753323951566],[-73.38444321208499,5.358443452251379],[-73.38135017326681,5.356232493154835],[-73.37676558323528,5.347275799600595]]]}}]}