{"type":"FeatureCollection","features":[{"type":"Feature","properties":{"code":"153260"},"geometry":{"type":"Polygon","coordinates":[[[-73.39619494809534,5.319203397642582],[-73.39331316371181,5.319577432930657],[-73.39392171577589,5.312737620665075],[-73.3962226759341,5.312242881192333],[-73.39696543974685,5.313543516450295],[-73.40271226341281,5.312131415506826],[-73.39850496780372,5.317336184145063],[-73.39899584547476,5.320043840868891],[-73.39696477228767,5.321313086004238],[-73.39619494809534,5.319203397642582]]]}}]}