{"type":"FeatureCollection","features":[{"type":"Feature","properties":{"code":"153217"},"geometry":{"type":"Polygon","coordinates":[[[-73.36952276959812,5.144539145971862],[-73.36302131080743,5.1346791908938485],[-73.36545734146381,5.128665443199736],[-73.36396851356625,5.120295160370574],[-73.37603604210801,5.102731511595721],[-73.37436581134835,5.098285406491527],[-73.3771093391187,5.095344009465862],[-73.37711198427286,5.092910502607424],[-73.38388173594876,5.084899614158644],[-73.39138398346728,5.089619861929009],[-73.39773203462966,5.101813432272081],[-73.40178378859218,5.102482339513813],[-73.41039734127162,5.109863155738822],[-73.41850799173005,5.113183360025857],[-73.4201482629307,5.117485819478077],[-73.4197515679686,5.121789562426613],[-73.42850975669006,5.132605328327315],[-73.42995243528651,5.138445910983933],[-73.43356458355129,5.140463783082851],[-73.43841930018101,5.150132745072256],[-73.43831987447209,5.157068156212176],[-73.43565871157767,5.165473733131705],[-73.42315727388132,5.18516530352565],[-73.41660189282095,5.1890342240625955],[-73.41210690584387,5.195466474842419],[-73.40725623099326,5.198088105434806],[-73.3987196315253,5.212508170527087],[-73.39532267148775,5.213537566412015],[-73.39202121673628,5.217207230324675],[-73.3869886895942,5.214471069288095],[-73.38816353296232,5.210323095271917],[-73.3869203269631,5.2058808324289885],[-73.38093377231758,5.196613805316304],[-73.3808341224082,5.18985800446319],[-73.38327303990275,5.18441272117218],[-73.38536211004879,5.1833672466169105],[-73.38408285302552,5.181011443732984],[-73.38522577970849,5.178133860537116],[-73.38406412920102,5.1661888760637],[-73.38570450427437,5.163027016957528],[-73.38229852273906,5.160159144315969],[-73.3799502593672,5.160156534128873],[-73.37623680642895,5.155029983686347],[-73.3720666622774,5.155132718923312],[-73.36952276959812,5.144539145971862]],[[-73.39809102586054,5.1427065097403215],[-73.40027473637252,5.140571503180695],[-73.39444694239864,5.136922313501714],[-73.39457530848006,5.139171709608888],[-73.39809102586054,5.1427065097403215]]]}}]}