{"type":"FeatureCollection","features":[{"type":"Feature","properties":{"code":"153468"},"geometry":{"type":"Polygon","coordinates":[[[-73.23827810533948,5.533816858233308],[-73.24010713790847,5.524096121362163],[-73.2379587975916,5.5226251441413865],[-73.23073439204705,5.521828289394364],[-73.21833411092837,5.5241054256816255],[-73.20875390867053,5.51992350894858],[-73.20572251161161,5.514984412723948],[-73.2010949954178,5.511591916126974],[-73.19722435532503,5.504002319899996],[-73.19471416984925,5.4911955561317995],[-73.18259223669827,5.476884214897268],[-73.17691453671091,5.47490629881861],[-73.16922003729013,5.477596534754582],[-73.16692291116567,5.475957954313458],[-73.17111700465813,5.471519756903831],[-73.17853244134363,5.467159273753111],[-73.18709553554777,5.466099530586348],[-73.19542157272286,5.458274904390578],[-73.20571640266303,5.455238372318149],[-73.21421020349561,5.44419589757706],[-73.21454728067329,5.441148163708704],[-73.21838676718534,5.44560225672592],[-73.2266174368857,5.448926700252969],[-73.23253241398874,5.455710832640591],[-73.2448054798532,5.4574584310740875],[-73.24702356502792,5.455306141537903],[-73.24843128583467,5.458824102979975],[-73.26288368001747,5.470069711573672],[-73.26509185614856,5.470226428729973],[-73.26691660628285,5.474519331894328],[-73.27283929567636,5.475258602087877],[-73.27593113635902,5.474047321001251],[-73.27559011304737,5.48292311623851],[-73.27765930545644,5.485001027783255],[-73.28309352476282,5.487594327869601],[-73.28727356047449,5.485069253631536],[-73.2877779703922,5.496827905917826],[-73.2786775766786,5.506235210533191],[-73.28057334488261,5.514056812079502],[-73.28432780388101,5.516165235456924],[-73.28471769980956,5.524048108523175],[-73.27755544201801,5.523744161592731],[-73.27194267994815,5.531949317691101],[-73.26640562256057,5.530897398914988],[-73.25953637627009,5.538891140141629],[-73.25509464924573,5.54024238814128],[-73.2478523858253,5.533306158361086],[-73.24491768396041,5.532259934071249],[-73.23827810533948,5.533816858233308]],[[-73.24663330503063,5.513777349280133],[-73.2498715218801,5.516650264375357],[-73.24714759725254,5.5097929397906],[-73.25030046777113,5.505355665922366],[-73.24989333823123,5.50462515497378],[-73.2462729490565,5.509159675281239],[-73.24430502532539,5.506058891262455],[-73.24432238440664,5.5087875354127505],[-73.24221081810896,5.50830189971316],[-73.24021635850397,5.511314540037461],[-73.24255667510045,5.513923074442857],[-73.24663330503063,5.513777349280133]]]}}]}