{"type":"FeatureCollection","features":[{"type":"Feature","properties":{"code":"153407"},"geometry":{"type":"Polygon","coordinates":[[[-73.31825626964087,5.451326171834751],[-73.31522462369884,5.4441734425631125],[-73.3225189468796,5.432051579346194],[-73.32377503412141,5.425972354830662],[-73.33108784047107,5.4149727208911145],[-73.3327871175328,5.415207640816561],[-73.32323681312744,5.41350829484918],[-73.32068029734461,5.411583790932752],[-73.3227981217151,5.39082903928869],[-73.3160981118117,5.385459831947628],[-73.31155715653938,5.377932225093502],[-73.30382157392535,5.371240332686966],[-73.30310564629167,5.368439771608223],[-73.29959653356906,5.3655542529499485],[-73.2984044154519,5.361231776920988],[-73.29225842959028,5.360423653529267],[-73.289662838134,5.354021938236258],[-73.29003509730182,5.351298504175816],[-73.28695891568498,5.349176351090819],[-73.30156402843966,5.343528216768959],[-73.32936261888995,5.347692732254586],[-73.33303195472945,5.350566971983767],[-73.33624304023681,5.350065655621165],[-73.33942573353153,5.353510066968056],[-73.34501388702881,5.354997438590999],[-73.34977656216688,5.358418826195248],[-73.35491477926126,5.359020585396479],[-73.36346990303588,5.363512219650943],[-73.36605144082517,5.362365760267835],[-73.36331147146586,5.370733354748268],[-73.36508120609608,5.373342974160494],[-73.36370275579185,5.380391986032578],[-73.3544362099903,5.399285900522841],[-73.35409816710501,5.403783981054971],[-73.3469974739395,5.412347376592777],[-73.34867053085918,5.424081583828865],[-73.35210419703867,5.431570795838468],[-73.3488192004528,5.430789891206416],[-73.34134437841095,5.435982271226123],[-73.3390918702367,5.4324734166425515],[-73.33691859944474,5.432402934391405],[-73.33206146186131,5.440277122260568],[-73.32423057964974,5.446814934437441],[-73.321794617899,5.451442468114749],[-73.31825626964087,5.451326171834751]],[[-73.33552743347718,5.404635746404949],[-73.33812015969261,5.402137858016374],[-73.33920608289219,5.398823959110473],[-73.3339850453217,5.3980996743528635],[-73.33230609851171,5.401099321334357],[-73.33337262322846,5.4038647230486845],[-73.33552743347718,5.404635746404949]]]}}]}