{"type":"FeatureCollection","features":[{"type":"Feature","properties":{"code":"153457"},"geometry":{"type":"Polygon","coordinates":[[[-73.21454728067329,5.441148163708704],[-73.21528225094863,5.436665611630133],[-73.21348116116292,5.434289516546869],[-73.21251582901937,5.4255853611668385],[-73.22046337775026,5.414407427176286],[-73.22357273692279,5.406320480261002],[-73.22872305055813,5.408028753109477],[-73.23606938310547,5.407121280113529],[-73.24322592069973,5.408921508064452],[-73.25759292535713,5.406935008604535],[-73.26269497829884,5.408571730650067],[-73.26832694653274,5.4128765071832845],[-73.27365532984794,5.412297030217701],[-73.2764979470266,5.416944985678128],[-73.28286925435964,5.419193599140556],[-73.28666692439884,5.417159614432649],[-73.29037207986283,5.418615716260831],[-73.2948649554474,5.41793889926771],[-73.30262980033643,5.4223490212249885],[-73.31195053477438,5.423698046760364],[-73.31500653114989,5.422144345737138],[-73.31860835693715,5.426231684839308],[-73.31122865245851,5.432655535300626],[-73.30889771731466,5.4386237106498925],[-73.31303505003609,5.443620212479004],[-73.3146632843455,5.450143875343656],[-73.30990736401793,5.465835917114646],[-73.30313151264949,5.472434648055582],[-73.2949862067635,5.476480490530548],[-73.28877036702909,5.485027153308579],[-73.28745190474854,5.48581659709879],[-73.28693488921084,5.4844426441737255],[-73.28309352476282,5.487594327869601],[-73.27584753118134,5.483573360333878],[-73.27593113635902,5.474047321001251],[-73.27283929567636,5.475258602087877],[-73.26691660628285,5.474519331894328],[-73.26509185614856,5.470226428729973],[-73.26288368001747,5.470069711573672],[-73.24843128583467,5.458824102979975],[-73.24702356502792,5.455306141537903],[-73.2448054798532,5.4574584310740875],[-73.23253241398874,5.455710832640591],[-73.2266174368857,5.448926700252969],[-73.21838676718534,5.44560225672592],[-73.21454728067329,5.441148163708704]],[[-73.29469328782221,5.439711076754293],[-73.29894367620125,5.439832603692935],[-73.30003009511012,5.4382494686448695],[-73.29940071914189,5.434583306578929],[-73.29669776342888,5.432707278300654],[-73.29257011040846,5.436498160619237],[-73.29425828646163,5.437117431111233],[-73.29469328782221,5.439711076754293]]]}}]}