{"type":"FeatureCollection","features":[{"type":"Feature","properties":{"code":"153668"},"geometry":{"type":"Polygon","coordinates":[[[-73.48964332134847,5.547495930490811],[-73.49161349222646,5.535574408905006],[-73.47968295942735,5.527457806849725],[-73.48522445043062,5.514031391037349],[-73.48386486587594,5.498581877609581],[-73.4906022144134,5.49592320971675],[-73.49178238819911,5.494169329556371],[-73.4885083064737,5.4908070239179665],[-73.49276682366246,5.490421297295313],[-73.49123591189704,5.48731488255379],[-73.49400645171022,5.485014127055649],[-73.51919266960766,5.474368380186775],[-73.51964765977704,5.470299711430073],[-73.53013628736852,5.447070418071064],[-73.52275711665158,5.421999145080122],[-73.53050707792045,5.424525436994202],[-73.53761054685236,5.419242015128987],[-73.54112118372677,5.42091123801498],[-73.55405635882789,5.406826527459259],[-73.56164973560954,5.404534012871011],[-73.56703957145061,5.40613210661553],[-73.5706242510442,5.400029419212387],[-73.58671180609679,5.391292925485857],[-73.59633568630841,5.379520486927561],[-73.59486565114099,5.384472371834875],[-73.58991772985115,5.3904263217671655],[-73.59284548767215,5.398926411525736],[-73.60477069725283,5.403775916008726],[-73.6119842146764,5.405360593720616],[-73.61737710087795,5.404446908931902],[-73.61269715262767,5.408101045419414],[-73.6088116885644,5.413973439860001],[-73.6035948120724,5.414704049539068],[-73.59363247554165,5.423159937866615],[-73.60061671713231,5.431095853884187],[-73.5976707785045,5.43522368276831],[-73.59978239005369,5.437818317773065],[-73.59968570411559,5.450176023428355],[-73.60356355153357,5.454391809858862],[-73.59311969924403,5.466006463737472],[-73.57640480145409,5.4672292047590645],[-73.5704297242271,5.472936757347441],[-73.57088626940157,5.478581925641038],[-73.56666002268219,5.475658709422191],[-73.55514063343406,5.480287510140727],[-73.551841461825,5.482704584544592],[-73.55226280855425,5.488394929232754],[-73.54588107589939,5.49303707707827],[-73.54744184335112,5.494712460334938],[-73.55476230028472,5.494959711286185],[-73.5596499239897,5.502717929920095],[-73.56348028513128,5.504438205721158],[-73.57359813142682,5.502311747575732],[-73.57391075532678,5.5034502293302126],[-73.5598615445499,5.516177841076853],[-73.55235579004238,5.519783673676159],[-73.53952726134514,5.530217272393827],[-73.5261685756717,5.5328860005113825],[-73.5234319754901,5.535205079769867],[-73.51755314505624,5.533681613928309],[-73.51287158523655,5.540542492810459],[-73.51000184288648,5.541639519075375],[-73.50860154949157,5.546681550054814],[-73.4988187214318,5.559417218620126],[-73.49033523484928,5.5516346248701325],[-73.48964332134847,5.547495930490811]]]}}]}