{"type":"FeatureCollection","features":[{"type":"Feature","properties":{"code":"153608"},"geometry":{"type":"Polygon","coordinates":[[[-73.35210419703867,5.431570795838468],[-73.34867053085918,5.424081583828865],[-73.3469974739395,5.412347376592777],[-73.35409816710501,5.403783981054971],[-73.3544362099903,5.399285900522841],[-73.35989876083119,5.3900694172461385],[-73.36344152316457,5.378135668507241],[-73.36133451183878,5.385680350592509],[-73.36259705255736,5.38682599442069],[-73.36061458356369,5.391029771727915],[-73.36382256420308,5.391751422644177],[-73.36512088135157,5.387075264204611],[-73.36747833180044,5.386650773526526],[-73.36582366651834,5.38523649845564],[-73.36814762470812,5.382825235780388],[-73.36630057691156,5.380832210852702],[-73.36839440360427,5.379369582528341],[-73.36616689378229,5.37862604326989],[-73.37676558323528,5.347275799600595],[-73.3834941046506,5.358060336844289],[-73.39031932948745,5.359753323951566],[-73.39423802664226,5.355805148548825],[-73.40112416921488,5.354449704503736],[-73.4062534851393,5.362183125331626],[-73.40510619888846,5.367652430982957],[-73.40728967080173,5.37057437193306],[-73.41183287527787,5.373034347816599],[-73.41944405337108,5.370891699929075],[-73.42191554986772,5.3725139024231225],[-73.42225622967959,5.375370901341967],[-73.41722481428388,5.380127114775632],[-73.41835620287026,5.379889859257219],[-73.41945514306678,5.3835961346951535],[-73.41895631656348,5.3891147778194295],[-73.42612361578028,5.401459602232194],[-73.42595839443277,5.408289306964662],[-73.42271010296042,5.412640087788645],[-73.41906516897654,5.413508691827985],[-73.41557376294872,5.417359137423489],[-73.4109526488096,5.416730133751514],[-73.40702020754895,5.418535333193574],[-73.4064788498053,5.417511831312709],[-73.39249587381198,5.421750450195589],[-73.38832846943126,5.41886914506631],[-73.38513072282342,5.405562013159454],[-73.36558391805522,5.416868092116317],[-73.35210419703867,5.431570795838468]]]}}]}