{"type":"FeatureCollection","features":[{"type":"Feature","properties":{"code":"153607"},"geometry":{"type":"Polygon","coordinates":[[[-73.36375079022815,5.378290304095913],[-73.36508120609608,5.373342974160494],[-73.36359361027269,5.368638158170086],[-73.36605144082517,5.362365760267835],[-73.36346990303588,5.363512219650943],[-73.35491477926126,5.359020585396479],[-73.34977656216688,5.358418826195248],[-73.34501388702881,5.354997438590999],[-73.33942573353153,5.353510066968056],[-73.33591734483247,5.34991153219687],[-73.33320892911809,5.3506180423823935],[-73.32956774277875,5.347778887969696],[-73.32631823671579,5.3474120754334535],[-73.32649637427289,5.345598224732953],[-73.32977190198847,5.344960259212826],[-73.33843767075143,5.338707988959129],[-73.33703111414161,5.336055046405761],[-73.33349816829207,5.33621090172727],[-73.32652802253449,5.328015861389531],[-73.32428022771234,5.327443449824045],[-73.32269039750344,5.323236142902033],[-73.32884079435502,5.321530971836296],[-73.33117324645161,5.31829221094074],[-73.33432230144842,5.318622679346845],[-73.33965580229363,5.315818844735588],[-73.34635251192492,5.3170592759969395],[-73.3537515603789,5.326033368741662],[-73.35629480616791,5.33241111206803],[-73.37372934529742,5.338412839325997],[-73.37777091356526,5.341360724795493],[-73.37425053116954,5.3460970512362564],[-73.37676558323528,5.347275799600595],[-73.36616689378229,5.37862604326989],[-73.36375079022815,5.378290304095913]]]}}]}