{"type":"FeatureCollection","features":[{"type":"Feature","properties":{"code":"153630"},"geometry":{"type":"Polygon","coordinates":[[[-73.49060702341063,5.330203939696901],[-73.48938188097577,5.326508653167309],[-73.48730630708087,5.3272473926844555],[-73.48540626055598,5.325555498811582],[-73.48730208429589,5.323111736324336],[-73.48678744960262,5.321120713774235],[-73.49232326154635,5.320394489374053],[-73.49288941503914,5.317871968758766],[-73.49835871966206,5.318633003881303],[-73.49902385251971,5.320539772306461],[-73.49564124645445,5.320369875659253],[-73.49256075463501,5.323343637771018],[-73.49382002182108,5.32704655740099],[-73.49060702341063,5.330203939696901]]]}}]}