{"type":"FeatureCollection","features":[{"type":"Feature","properties":{"code":"153601"},"geometry":{"type":"Polygon","coordinates":[[[-73.36375079022815,5.378290304095913],[-73.36839440360427,5.379369582528341],[-73.36629233085944,5.380917465652203],[-73.36814762470812,5.382825235780388],[-73.36582366651834,5.38523649845564],[-73.36747833180044,5.386650773526526],[-73.36512088135157,5.387075264204611],[-73.36547326072554,5.388714149064697],[-73.3627615272556,5.391979045769972],[-73.36061458356369,5.391029771727915],[-73.36375079022815,5.378290304095913]]]}}]}