{"type":"FeatureCollection","features":[{"type":"Feature","properties":{"code":"153887"},"geometry":{"type":"Polygon","coordinates":[[[-73.51693743606069,5.600552835744452],[-73.50784389280273,5.594865222599651],[-73.51299885088446,5.5912907708669195],[-73.51240534699133,5.585534716929374],[-73.50862719267735,5.580822223615542],[-73.50283753438049,5.577379329221401],[-73.50190718470924,5.570098162905765],[-73.49861089993829,5.564264853394661],[-73.49989506880308,5.561580538202293],[-73.4988187214318,5.559417218620126],[-73.50860154949157,5.546681550054814],[-73.51000184288648,5.541639519075375],[-73.51287158523655,5.540542492810459],[-73.51755314505624,5.533681613928309],[-73.5234319754901,5.535205079769867],[-73.5261685756717,5.5328860005113825],[-73.53952726134514,5.530217272393827],[-73.54722306174568,5.5249762347017395],[-73.55664728938268,5.533397519023822],[-73.56550340434393,5.549401417476645],[-73.56888430319464,5.549410008056952],[-73.57175114225146,5.551659543003893],[-73.56943563888763,5.556317812714326],[-73.57461330189483,5.5607101333600895],[-73.57818535838493,5.566866605221662],[-73.57547768314919,5.582860421852445],[-73.58048975456961,5.589916792230724],[-73.57894921966755,5.602511572398555],[-73.58113927464137,5.607567062605199],[-73.5789964200369,5.615911426625985],[-73.58041502382241,5.625973525166387],[-73.58235950009254,5.629233259090199],[-73.57372266655983,5.632018275260236],[-73.56053490700458,5.63150703237045],[-73.56524460809698,5.624700006852379],[-73.56342883626581,5.622643515708376],[-73.56289601768037,5.6165913813972566],[-73.55835672437115,5.610735754683503],[-73.5512133282154,5.608980737065679],[-73.55171987523664,5.603992025688683],[-73.54770238897885,5.598984529809059],[-73.54358256446284,5.597380266437881],[-73.54018936955339,5.5981864347603505],[-73.52777608789279,5.609996648012327],[-73.52105772543274,5.607506997448354],[-73.51693743606069,5.600552835744452]],[[-73.54322278441651,5.587575747496942],[-73.546571285271,5.585065117734018],[-73.54351298004201,5.577660154707075],[-73.5398692225964,5.579480774616286],[-73.53880092073098,5.581759790896456],[-73.5408887104661,5.587308107672754],[-73.54322278441651,5.587575747496942]]]}}]}