{"type":"FeatureCollection","features":[{"type":"Feature","properties":{"code":"153808"},"geometry":{"type":"Polygon","coordinates":[[[-73.56567603767667,5.475909286356568],[-73.56821865303039,5.475912095033095],[-73.57088626940157,5.478581925641038],[-73.5704297242271,5.472936757347441],[-73.57679975629145,5.467000092448529],[-73.58445148278781,5.46729583652143],[-73.59428426230073,5.465359752342238],[-73.60356355153357,5.454391809858862],[-73.59968570411559,5.450176023428355],[-73.59978239005369,5.437818317773065],[-73.5976707785045,5.43522368276831],[-73.60061671713231,5.431095853884187],[-73.59363247554165,5.423159937866615],[-73.6035948120724,5.414704049539068],[-73.6088116885644,5.413973439860001],[-73.61269715262767,5.408101045419414],[-73.61742450899277,5.404394959214926],[-73.62703088922649,5.412685239500547],[-73.63175494531947,5.413400864772143],[-73.63806460986484,5.417432861325494],[-73.64200457315411,5.417751085094949],[-73.64786818675242,5.414805155723116],[-73.65134035164914,5.415529915621107],[-73.65372261533065,5.41763965643338],[-73.65537620794726,5.426269745440038],[-73.66470980511576,5.430053020369314],[-73.66263738956786,5.438878019802132],[-73.64541992071543,5.4601458675894605],[-73.64136517501356,5.469769609989783],[-73.63023007256857,5.474827972636433],[-73.62466091954684,5.479383743651681],[-73.61365188050041,5.498051017178739],[-73.61581512397782,5.501308045270264],[-73.61662987773843,5.511150433521607],[-73.58693968119098,5.499204893689239],[-73.57801068153691,5.493500610519618],[-73.56827312757372,5.48381681838913],[-73.56567603767667,5.475909286356568]]]}}]}