{"type":"FeatureCollection","features":[{"type":"Feature","properties":{"code":"154007"},"geometry":{"type":"Polygon","coordinates":[[[-73.42385417635683,5.708057022375385],[-73.43273071310114,5.693340721614732],[-73.43719270661376,5.6908760580901685],[-73.44060873500405,5.685309851556269],[-73.45003646963005,5.679688033021591],[-73.4528644654414,5.67618385785147],[-73.46445151180905,5.680795322114477],[-73.47552466087672,5.677206076236075],[-73.47900241844383,5.678072120482],[-73.48069606889652,5.67368384984286],[-73.48399824767154,5.670792600702896],[-73.48202981691827,5.669231893929236],[-73.48230773294011,5.659030191516024],[-73.4895031826855,5.646500396574083],[-73.48868630416263,5.642064295130297],[-73.48346603175344,5.636357777155126],[-73.4873079916697,5.627215395218798],[-73.5060682302298,5.614631394157016],[-73.51693743606069,5.600552835744452],[-73.52105772543274,5.607506997448354],[-73.52777608789279,5.609996648012327],[-73.54018936955339,5.5981864347603505],[-73.54358256446284,5.597380266437881],[-73.54770238897885,5.598984529809059],[-73.55171987523664,5.603992025688683],[-73.5512133282154,5.608980737065679],[-73.55835672437115,5.610735754683503],[-73.56289601768037,5.6165913813972566],[-73.56342883626581,5.622643515708376],[-73.56524460809698,5.624700006852379],[-73.56053490700458,5.63150703237045],[-73.57372266655983,5.632018275260236],[-73.58235950009254,5.629233259090199],[-73.57921011805098,5.635108781024485],[-73.57989579301955,5.636800303629627],[-73.57266543073592,5.646339475144714],[-73.57672625761842,5.650106927485865],[-73.57322035055108,5.6530449296228085],[-73.57711642916956,5.655588123989617],[-73.57403222261576,5.657505838128543],[-73.57443688800737,5.6605557512666],[-73.57633400861329,5.66136105775422],[-73.5773224066657,5.666587327011769],[-73.5797800140461,5.667769502146655],[-73.57679708439775,5.671238073665165],[-73.57907774310064,5.6736306515967385],[-73.57704484339962,5.676982504145371],[-73.57765869194264,5.679546585151343],[-73.57538834748982,5.687410399120836],[-73.57610267281001,5.692515476711947],[-73.57443989517333,5.6919963405258045],[-73.57404201955922,5.689483339174444],[-73.56933573906667,5.687478521096409],[-73.56869748044045,5.683204271822433],[-73.56416539959861,5.677546462941848],[-73.54534161460373,5.679564998386184],[-73.54135814613909,5.6781506688078025],[-73.52651431336386,5.695796381125035],[-73.52514874430221,5.701897535120395],[-73.52186648748722,5.701679588610261],[-73.51887240849351,5.7056474010944385],[-73.5211319913239,5.7085770707900565],[-73.51952148942036,5.708855806480585],[-73.51895724677377,5.711214184584605],[-73.52037653961577,5.712619389820986],[-73.519858550143,5.714993631650827],[-73.52265636219488,5.717992776752396],[-73.52219885131291,5.721989048297928],[-73.51820099390898,5.721828040479409],[-73.51437619047078,5.724709897882349],[-73.50856059588205,5.725524725690832],[-73.505271031983,5.717818482484972],[-73.50310816080179,5.7163921406979625],[-73.4873601984973,5.722863924808223],[-73.47800483434293,5.722511699700647],[-73.47560834421603,5.716890510572796],[-73.46677520054692,5.721117438121098],[-73.46353813658152,5.726031815729755],[-73.45858095210991,5.727109265591366],[-73.45547856474923,5.725355084097373],[-73.4515082284671,5.725884240399012],[-73.44644956757219,5.716637496229623],[-73.43357506955124,5.709135032738175],[-73.4288366234905,5.704477452084234],[-73.42385417635683,5.708057022375385]],[[-73.52981478903808,5.6407872924530125],[-73.53338663572589,5.644015846056561],[-73.53298442419816,5.635692013862183],[-73.5347692327104,5.635335149450384],[-73.53378309208932,5.632628863640491],[-73.53578264968388,5.6333957536863295],[-73.5380152451541,5.629174851782693],[-73.5319519059617,5.6329567928220285],[-73.52867204953162,5.631423200935387],[-73.52798617401675,5.62795741546762],[-73.52272986806702,5.630081648063424],[-73.52149971711708,5.6280661197849895],[-73.52005291549466,5.628400743098837],[-73.52175981331544,5.633680175635504],[-73.51549069408793,5.639960447293674],[-73.52160838646739,5.642757265870102],[-73.52981478903808,5.6407872924530125]]]}}]}