{"type":"FeatureCollection","features":[{"type":"Feature","properties":{"code":"154227"},"geometry":{"type":"Polygon","coordinates":[[[-73.50013638255564,5.778809847481568],[-73.49932470795193,5.774107669446266],[-73.5093597152595,5.757015428897091],[-73.50812419583963,5.753472996693745],[-73.50055754827906,5.751395774205491],[-73.49378030028566,5.745513608532576],[-73.49882798358516,5.739897848552744],[-73.50084781178174,5.732207148198654],[-73.50645877304873,5.725072756057159],[-73.51437619047078,5.724709897882349],[-73.51820099390898,5.721828040479409],[-73.52274437939099,5.721480951413753],[-73.52265636219488,5.717992776752396],[-73.51897962362614,5.711408633240069],[-73.51952148942036,5.708855806480585],[-73.5211319913239,5.7085770707900565],[-73.51887240849351,5.7056474010944385],[-73.52186648748722,5.701679588610261],[-73.52514874430221,5.701897535120395],[-73.52651431336386,5.695796381125035],[-73.54087550217884,5.678498353341695],[-73.54534161460373,5.679564998386184],[-73.56430863181663,5.677626837781531],[-73.56869748044045,5.683204271822433],[-73.56920161473556,5.687308862019393],[-73.57404201955922,5.689483339174444],[-73.57460345352928,5.691585333757644],[-73.5688824591972,5.703659557460185],[-73.56951859820339,5.706528833925745],[-73.56489065109218,5.708195282073859],[-73.56513844403264,5.711225843009004],[-73.56775939379611,5.711624933213727],[-73.56776155661072,5.716802872871995],[-73.56634283249747,5.71837609064886],[-73.56836801168049,5.720040582699255],[-73.5684078710272,5.724711035339794],[-73.57349624156961,5.7257091017802395],[-73.57219944960133,5.731032805682048],[-73.57536805529048,5.735000721010465],[-73.57216907660847,5.7411410802630485],[-73.57869644597997,5.744673404933337],[-73.58125583008893,5.748555983186918],[-73.5796611487167,5.753874913058496],[-73.58201199759304,5.771731238062273],[-73.5786681926071,5.7717000556850735],[-73.57822787214178,5.7770358314451755],[-73.57323418824518,5.773093412235198],[-73.5674252805897,5.77472826354375],[-73.57080153499402,5.780144319526812],[-73.57792851720723,5.78502340407357],[-73.58299513927568,5.785723012381368],[-73.5809692453251,5.7922928080921],[-73.5828750686116,5.795252498024865],[-73.57694640910927,5.801858380755107],[-73.57673994927364,5.80558480132504],[-73.5682877921356,5.801925201750862],[-73.56386584720309,5.795877461974612],[-73.55519493519904,5.794701886355426],[-73.54876866378402,5.788857901610925],[-73.54287740770764,5.786651646610551],[-73.54161279879116,5.788496224088192],[-73.53735362854144,5.789663139192953],[-73.53535586660746,5.787535139412228],[-73.5274629549138,5.788171235223842],[-73.52363231814968,5.799450215748777],[-73.52018364185165,5.798878632079493],[-73.51141187254672,5.790337311031919],[-73.50812091305113,5.790449290938682],[-73.50763501098498,5.7888177995517935],[-73.50513472735378,5.788232032631754],[-73.50312740193283,5.785669692778981],[-73.50330232560708,5.782316504283472],[-73.50013638255564,5.778809847481568]],[[-73.54699244482373,5.751319070905595],[-73.54907499258735,5.754039485458804],[-73.55223023777967,5.75212536366962],[-73.54820274477612,5.750020186056815],[-73.54699244482373,5.751319070905595]]]}}]}