{"type":"FeatureCollection","features":[{"type":"Feature","properties":{"code":"154260"},"geometry":{"type":"Polygon","coordinates":[[[-73.57479041820852,5.88603879204129],[-73.56920386393938,5.885502755459186],[-73.5708653159137,5.881671227035383],[-73.56498288078882,5.879877168711118],[-73.56637618797367,5.878520665370274],[-73.5653628162516,5.8722649724598455],[-73.57102588355883,5.871760875188613],[-73.57267811348908,5.862712180252004],[-73.57428992254302,5.8614149203423835],[-73.57719100667885,5.863770593642585],[-73.57657959554456,5.865602600467355],[-73.57815601691988,5.867628260961453],[-73.57629818796039,5.870622523017914],[-73.57855513386409,5.870962415042811],[-73.57776008403368,5.8736554370295835],[-73.57950389471335,5.874104702887905],[-73.57696654087158,5.876525962024402],[-73.5774982919337,5.879343243521589],[-73.57869732221297,5.881579024078235],[-73.58333222056717,5.881745429163118],[-73.58078061045518,5.8860082051323275],[-73.57392323136298,5.89051295100046],[-73.57286295237765,5.889571688525621],[-73.57454801636374,5.88864056752243],[-73.57479041820852,5.88603879204129]]]}}]}