{"type":"FeatureCollection","features":[{"type":"Feature","properties":{"code":"154247"},"geometry":{"type":"Polygon","coordinates":[[[-73.58248593064513,5.789839131418944],[-73.5826107485999,5.7852151726078205],[-73.57784278315353,5.784983767898893],[-73.57049817427583,5.7798942516715215],[-73.56744147958784,5.775542091706143],[-73.56823630007557,5.773910644542298],[-73.57323418824518,5.773093412235198],[-73.57822787214178,5.7770358314451755],[-73.57859926844634,5.771797206479164],[-73.5820618606001,5.771496206036602],[-73.5796611487167,5.753874913058496],[-73.58114784876665,5.748154617038892],[-73.57869644597997,5.744673404933337],[-73.57216907660847,5.7411410802630485],[-73.57536805529048,5.735000721010465],[-73.57219944960133,5.731032805682048],[-73.57349624156961,5.7257091017802395],[-73.5682467089423,5.724482568891119],[-73.56836801168049,5.720040582699255],[-73.56634283249747,5.71837609064886],[-73.56776155661072,5.716802872871995],[-73.56770779786336,5.7112790155441076],[-73.56479412044894,5.710143843317667],[-73.56531790828058,5.707386373980512],[-73.56965876360579,5.706257681970385],[-73.5688824591972,5.703659557460185],[-73.57348964205397,5.692189919118903],[-73.57623493566018,5.69223641397673],[-73.57538834748982,5.687410399120836],[-73.5777277785973,5.675348678193984],[-73.5811089623266,5.677197399266561],[-73.59055414447994,5.677454163311097],[-73.5977356269475,5.680746027836108],[-73.60564624533606,5.681105249438133],[-73.60691826418088,5.683434737563346],[-73.62025066080668,5.688163454557866],[-73.62254287303278,5.694663440618854],[-73.63346709539621,5.6943114654228],[-73.63856819188635,5.703609986530751],[-73.65314521581894,5.7048214054286746],[-73.65190386204466,5.714064212720018],[-73.6486634556411,5.713468373233923],[-73.64360814644033,5.716380758924572],[-73.6386832746042,5.724232664558201],[-73.63912075142593,5.728373348973776],[-73.63743242522014,5.729298882448745],[-73.63598850735053,5.737371612174627],[-73.6313551136077,5.741537706319491],[-73.6303291990007,5.7560320280469455],[-73.62591384638478,5.769565119059564],[-73.62654652982405,5.77858774914904],[-73.62024537872588,5.7819114347139475],[-73.61271323952553,5.78343684739724],[-73.59317880794936,5.795497698261727],[-73.58248593064513,5.789839131418944]],[[-73.60038315372253,5.716164548425468],[-73.60145005690612,5.717626951520913],[-73.60598297181485,5.713831684951856],[-73.60382906248174,5.708620499860729],[-73.60269863137535,5.712160281767751],[-73.60002166954695,5.711481253623219],[-73.59823107707405,5.716633790751246],[-73.60038315372253,5.716164548425468]]]}}]}