{"type":"FeatureCollection","features":[{"type":"Feature","properties":{"code":"154267"},"geometry":{"type":"Polygon","coordinates":[[[-73.58124989289024,5.885019676467721],[-73.5832951020198,5.881472547367423],[-73.57869732221297,5.881579024078235],[-73.57681140545986,5.877423347027616],[-73.57950389471335,5.874104702887905],[-73.57776008403368,5.8736554370295835],[-73.57855513386409,5.870962415042811],[-73.57629818796039,5.870622523017914],[-73.57815601691988,5.867628260961453],[-73.57657959554456,5.865602600467355],[-73.57719100667885,5.863770593642585],[-73.57428992254302,5.8614149203423835],[-73.5730137559895,5.862244544353416],[-73.57102588355883,5.871760875188613],[-73.56639297935465,5.871432847276594],[-73.56544273754815,5.874583758612175],[-73.55743602560449,5.870511265077823],[-73.54853388989744,5.863365916938108],[-73.55042236850085,5.859298191263235],[-73.54893480764451,5.858738987985021],[-73.54935186988223,5.853148016555224],[-73.54636092455291,5.850579538957504],[-73.54646611879593,5.847818109088166],[-73.53738697681854,5.847822400778796],[-73.5315307412668,5.842802612954188],[-73.5215632316702,5.846637851998651],[-73.52009088867777,5.841804695637904],[-73.52279647926053,5.835879514328155],[-73.52172413664442,5.834427794693568],[-73.51587538712579,5.834664253169024],[-73.51259244948187,5.832498694667493],[-73.51392574498891,5.831504989851737],[-73.51103920920093,5.827621791447314],[-73.49861630234687,5.816743642280301],[-73.49700398318544,5.811910001523131],[-73.48665573079859,5.80343676851254],[-73.48659721653308,5.80219339899088],[-73.49192360055605,5.79941281129436],[-73.49371388449623,5.7925188021649205],[-73.49965271220975,5.785848442259407],[-73.49744152068524,5.782611163349543],[-73.50013638255564,5.778809847481568],[-73.50330232560708,5.782316504283472],[-73.50312740193283,5.785669692778981],[-73.50513472735378,5.788232032631754],[-73.50763501098498,5.7888177995517935],[-73.50812091305113,5.790449290938682],[-73.51141187254672,5.790337311031919],[-73.52018364185165,5.798878632079493],[-73.52363231814968,5.799450215748777],[-73.5274629549138,5.788171235223842],[-73.53535586660746,5.787535139412228],[-73.53735362854144,5.789663139192953],[-73.54161279879116,5.788496224088192],[-73.54287740770764,5.786651646610551],[-73.54876866378402,5.788857901610925],[-73.55519493519904,5.794701886355426],[-73.56398652979044,5.7959465229182],[-73.5682877921356,5.801925201750862],[-73.57599032163552,5.805854273833802],[-73.57993907399452,5.797163508775441],[-73.5828750686116,5.795252498024865],[-73.5809692453251,5.7922928080921],[-73.58302356542691,5.789342277468393],[-73.58553084658098,5.79110095737002],[-73.58499271094774,5.792169755973191],[-73.58821028489893,5.79217369387959],[-73.5885821985101,5.7940604920079295],[-73.59317880794936,5.795497698261727],[-73.61271323952553,5.78343684739724],[-73.62024537872588,5.7819114347139475],[-73.62654652982405,5.77858774914904],[-73.62890627884195,5.787203748493198],[-73.62628920630681,5.80119375594802],[-73.62433116693671,5.803903783231817],[-73.62229536394244,5.818990626689811],[-73.6077917533222,5.848047841549601],[-73.60025099783047,5.869136275482674],[-73.61138363612719,5.881325892492669],[-73.6174504010616,5.885768532773966],[-73.62128523489969,5.886651085579217],[-73.63131894122745,5.894994149648653],[-73.63247867986036,5.9056504843332505],[-73.6364672144328,5.910742336153589],[-73.63283523059715,5.91144472742684],[-73.6310023454825,5.915232023566375],[-73.62699008165578,5.915743050483286],[-73.6218977649794,5.924141544519159],[-73.61395023784576,5.926227142643256],[-73.59909336647632,5.913013897253961],[-73.58124989289024,5.885019676467721]]]}}]}