{"type":"FeatureCollection","features":[{"type":"Feature","properties":{"code":"154268"},"geometry":{"type":"Polygon","coordinates":[[[-73.56002454343314,5.952096621754663],[-73.53786475007502,5.948305741492959],[-73.53489665673845,5.944359790611429],[-73.54536575832032,5.927563190262447],[-73.55089648255887,5.915073224842388],[-73.55468893633764,5.911822747929705],[-73.55523809687469,5.907616346037116],[-73.56181412803238,5.903070853276404],[-73.563958402916,5.893735570490662],[-73.56704828544406,5.889536024195934],[-73.57093932777957,5.885635496535087],[-73.57479041820852,5.88603879204129],[-73.57454801636374,5.88864056752243],[-73.57286295237765,5.889571688525621],[-73.57392323136298,5.89051295100046],[-73.58124989289024,5.885019676467721],[-73.59909336647632,5.913013897253961],[-73.61395023784576,5.926227142643256],[-73.60508969646793,5.934167823435075],[-73.59622501663739,5.954488562051836],[-73.59090713680564,5.960410010115254],[-73.5895627649727,5.960222308042717],[-73.58856733545883,5.952319514044859],[-73.5847645807998,5.953018018833859],[-73.58305690239115,5.955134653296284],[-73.58110994448919,5.9546965902623015],[-73.5793455701014,5.957069737829329],[-73.57754254992903,5.956007892526088],[-73.57551166700381,5.957221095771729],[-73.57433090494897,5.955912257656223],[-73.56948812236624,5.956904697487687],[-73.5643112605157,5.955404496044366],[-73.56002454343314,5.952096621754663]]]}}]}