{"type":"FeatureCollection","features":[{"type":"Feature","properties":{"code":"154269"},"geometry":{"type":"Polygon","coordinates":[[[-73.46366965072548,5.8481960534862765],[-73.46220136391037,5.842957868693702],[-73.46329247971619,5.83601802805191],[-73.47121534274135,5.821555681630798],[-73.47713491286868,5.827898415745381],[-73.48438394755465,5.828016909807047],[-73.49262800757663,5.83073600178318],[-73.4915305329107,5.8387271071116515],[-73.49412916547152,5.838265279856444],[-73.49410933915664,5.839965202780036],[-73.50003113997582,5.843489937544518],[-73.5012932076109,5.842168795142811],[-73.5030924102046,5.844259425436178],[-73.50536977686295,5.843424210811634],[-73.51313139038564,5.846990269424964],[-73.50620883374876,5.835204501223188],[-73.50773771125489,5.8323091156873375],[-73.51259244948187,5.832498694667493],[-73.51587538712579,5.834664253169024],[-73.52172413664442,5.834427794693568],[-73.52279647926053,5.835879514328155],[-73.52009088867777,5.841804695637904],[-73.5215632316702,5.846637851998651],[-73.5315307412668,5.842802612954188],[-73.53738697681854,5.847822400778796],[-73.54646611879593,5.847818109088166],[-73.54636092455291,5.850579538957504],[-73.54935186988223,5.853148016555224],[-73.54893480764451,5.858738987985021],[-73.55042236850085,5.859298191263235],[-73.54853388989744,5.863365916938108],[-73.55743602560449,5.870511265077823],[-73.56544273754815,5.874583758612175],[-73.56637618797367,5.878520665370274],[-73.5652375097867,5.880462929460521],[-73.5708653159137,5.881671227035383],[-73.56920386393938,5.885502755459186],[-73.57093932777957,5.885635496535087],[-73.563958402916,5.893735570490662],[-73.56181412803238,5.903070853276404],[-73.55523809687469,5.907616346037116],[-73.55468893633764,5.911822747929705],[-73.55089648255887,5.915073224842388],[-73.5355864927854,5.94394844548566],[-73.5320244091024,5.944401605027338],[-73.52793815500712,5.9407500797553325],[-73.53041178037978,5.938181147586022],[-73.52698037060321,5.934486203527797],[-73.52804482712207,5.925448356602885],[-73.53226779928048,5.91858944204597],[-73.53685593023954,5.915673300483206],[-73.54159827923968,5.914296702403931],[-73.54482392646463,5.91598283905563],[-73.54243587265177,5.9119544276529155],[-73.53225930434525,5.904309360321804],[-73.52933294212079,5.903714201664684],[-73.52455262096595,5.893426066885297],[-73.52148920540611,5.892240721062137],[-73.51245433993603,5.894310275482951],[-73.51066607174317,5.888351733554828],[-73.5065656868477,5.8912885293286195],[-73.5075590399361,5.883541451812562],[-73.50402112259542,5.881772295167025],[-73.50552650224682,5.878830587551704],[-73.50406576419982,5.875686883541277],[-73.49715822693747,5.87109867442058],[-73.4905644592601,5.870926715746123],[-73.48427500052492,5.863732593719988],[-73.48197794536293,5.8554169129610045],[-73.47968446609565,5.85435426547258],[-73.47882146295422,5.850780521308309],[-73.47609861510603,5.849147728941659],[-73.47518962618585,5.84637642191035],[-73.46366965072548,5.8481960534862765]]]}}]}