{"type":"FeatureCollection","features":[{"type":"Feature","properties":{"code":"154447"},"geometry":{"type":"Polygon","coordinates":[[[-73.44622797729022,6.054756879089496],[-73.44905817808228,6.052573466825891],[-73.45631667443945,6.03909888185126],[-73.46351737952614,6.033459149904786],[-73.4722761894269,6.0225946666819254],[-73.48537114027243,6.001336194176588],[-73.4918847737656,6.001874484076211],[-73.49533380384787,6.003998589145112],[-73.49375894879051,6.009178096149753],[-73.49898641515517,6.013241387180528],[-73.50199986383524,6.019509718621066],[-73.50513548531592,6.021352011927888],[-73.50804912879175,6.026003922778216],[-73.51445167095255,6.026217448013938],[-73.51658039167148,6.029579034771075],[-73.51198763272106,6.031611005788477],[-73.50037255923786,6.0439694694059085],[-73.49622709976364,6.044870654504223],[-73.49036938325469,6.0500074214946835],[-73.4841061282064,6.052665925865199],[-73.4781061842678,6.057562739732532],[-73.47884908692026,6.060101194007814],[-73.46711873634365,6.067129982586152],[-73.46518119897519,6.06433630795857],[-73.463468931656,6.064741837241911],[-73.46256774861456,6.062669102876782],[-73.45761121514704,6.060686494014931],[-73.44819379991327,6.063885716437824],[-73.44622797729022,6.054756879089496]]]}}]}