{"type":"FeatureCollection","features":[{"type":"Feature","properties":{"code":"154427"},"geometry":{"type":"Polygon","coordinates":[[[-73.41434356366204,6.074596267526715],[-73.41393855888435,6.070768153532072],[-73.41812942615269,6.070153919323047],[-73.41886845363376,6.068751039395238],[-73.4071811546894,6.056880226196256],[-73.41020026391709,6.05142594711856],[-73.40744104622763,6.050330695945377],[-73.4064666401357,6.047625915775313],[-73.40325692451381,6.04746594257],[-73.39863503492904,6.044393782163411],[-73.38929088902563,6.031151186053023],[-73.38754802862684,6.022882302514006],[-73.38251932934782,6.0212076432808885],[-73.38262776729852,6.017635052000628],[-73.37851855939465,6.0138626384527925],[-73.37568687558849,6.006130328342863],[-73.3713549564003,6.006188015740577],[-73.37101766324963,6.000762378787044],[-73.37272252269736,5.998900783671047],[-73.36952886209156,5.996181795567566],[-73.37209498352746,5.996155738947948],[-73.37153978911817,5.9915933375637564],[-73.37438529313494,5.988503503372499],[-73.37343883085475,5.985329658797184],[-73.3754703431868,5.982233104762486],[-73.3742244046158,5.9801733308299845],[-73.37623409236915,5.976476602423986],[-73.37423721900956,5.9745876332534635],[-73.37587629207468,5.970250699379562],[-73.37394013076226,5.969453637915592],[-73.37654994763551,5.962521751248175],[-73.3797306838041,5.961976515247784],[-73.3809758808681,5.960153859022455],[-73.37934114063131,5.957590622367775],[-73.38146640166963,5.9507767463940695],[-73.38440390398347,5.950592845445101],[-73.38422907492594,5.948681368810071],[-73.38687599491988,5.947072952587973],[-73.38640859247772,5.945315944933952],[-73.3883020682834,5.944992817550542],[-73.38934910709975,5.941912422404698],[-73.40228782621375,5.9427750038846625],[-73.41145346432074,5.938544710243946],[-73.41874353900545,5.939738669273197],[-73.4225753399665,5.956858504991999],[-73.42666595568653,5.959956128606905],[-73.43916890005119,5.963938792829481],[-73.44701787565202,5.975047978523037],[-73.45336066633092,5.979120010286749],[-73.45854817461839,5.988941361746356],[-73.45155908186433,5.990724346830007],[-73.45166536008577,6.0036028928007],[-73.44521468475824,6.006219586869065],[-73.4427827503884,6.009800082758488],[-73.4425782024274,6.014940758858927],[-73.44641423542942,6.024934473170958],[-73.44655434940972,6.026850490379729],[-73.44449215555204,6.02683635135196],[-73.44421626041975,6.029107879542153],[-73.44573268245853,6.029215471084683],[-73.43552535035093,6.029385094166173],[-73.43898609130815,6.035735885099427],[-73.43020026730778,6.046847923692553],[-73.42837563133054,6.052817874133552],[-73.42021586142903,6.061473583700263],[-73.42066279580814,6.065979975076402],[-73.42484683010434,6.069689706081192],[-73.42199375366528,6.071589556173535],[-73.41743565117088,6.071489036201797],[-73.41583878127295,6.075423777059882],[-73.41434356366204,6.074596267526715]]]}}]}