{"type":"FeatureCollection","features":[{"type":"Feature","properties":{"code":"154617"},"geometry":{"type":"Polygon","coordinates":[[[-73.8150523507556,5.714915533782857],[-73.81555335755701,5.710105806371132],[-73.81248194277123,5.710070186264488],[-73.81065974008902,5.707438799866338],[-73.80550021160872,5.707900939768081],[-73.80323878375253,5.7061193266267765],[-73.80153139022246,5.708644134498286],[-73.79688968769256,5.706047105279367],[-73.79429677738591,5.70665783147092],[-73.79367414285844,5.702328118291916],[-73.78434764914243,5.701714040406216],[-73.78242503241802,5.695928864061841],[-73.77612095642928,5.690931034513426],[-73.77082814179857,5.6956043513663985],[-73.76625209195373,5.696601471639781],[-73.76149973106567,5.685230839402891],[-73.77253913899125,5.6711017865195],[-73.77910263034931,5.666637990147137],[-73.7859048746381,5.657955875318748],[-73.79222402759416,5.654740854990337],[-73.79605414910861,5.64829457316921],[-73.80356863406467,5.640873271276007],[-73.81608866600175,5.6475684546986145],[-73.81910042597923,5.653263340988929],[-73.82432848678366,5.655969446821416],[-73.82789132328656,5.662225180869541],[-73.83485855546644,5.6669936893335375],[-73.83609832338237,5.673050571963813],[-73.83542005834215,5.682672866317034],[-73.83257042718554,5.691597931150056],[-73.83319222764618,5.69672992719569],[-73.83003129928045,5.7024571076095185],[-73.83692352509053,5.708329923711517],[-73.84676177591763,5.712659827152379],[-73.84893264221097,5.709108045378059],[-73.85798064809114,5.707317777892968],[-73.86246828376107,5.700305739557848],[-73.86239605212921,5.6958487864420135],[-73.86588498475277,5.693224321462026],[-73.87326051889698,5.692600813786839],[-73.87932431986007,5.690200981221778],[-73.88668015624472,5.690396807990226],[-73.87914955148062,5.707568612966384],[-73.87401024012337,5.710223088927535],[-73.86982311227206,5.714911352135573],[-73.86433140405734,5.715103741849077],[-73.84886274514366,5.732769400808991],[-73.84666611533675,5.732830681584915],[-73.83596906769816,5.740999674558964],[-73.83023383046566,5.73880432002079],[-73.82409845196014,5.740694908988303],[-73.8193245925097,5.7376374573665885],[-73.81982809739804,5.7173255489572625],[-73.8150523507556,5.714915533782857]]]}}]}