{"type":"FeatureCollection","features":[{"type":"Feature","properties":{"code":"154608"},"geometry":{"type":"Polygon","coordinates":[[[-73.65190386204466,5.714064212720018],[-73.65535004025583,5.695779389197753],[-73.67020483314292,5.675084944394484],[-73.67099433761132,5.663574334960174],[-73.67565696688956,5.656597865309607],[-73.67662954132533,5.647608205030394],[-73.69224483145956,5.6579427544490954],[-73.70246594161154,5.672057630252368],[-73.70854993707195,5.677654899864137],[-73.71996209884617,5.6811884627791756],[-73.72114473780857,5.683218967237565],[-73.72947048907668,5.687075132001951],[-73.73389586489344,5.686725639466147],[-73.7445770590906,5.696898141310896],[-73.74849378266424,5.697536116087008],[-73.75687109078422,5.695108575223571],[-73.76139174974344,5.696226259813443],[-73.76085103477635,5.698148831286346],[-73.76324361065099,5.6992584210051405],[-73.76249552876197,5.701338228997884],[-73.75706007121079,5.704062842681935],[-73.7546399916979,5.712108496601616],[-73.74542538327194,5.7273066494217915],[-73.7419753617711,5.729869917958183],[-73.73441287117515,5.744568484256035],[-73.73501941983318,5.752350652230859],[-73.73371020839306,5.757961124987673],[-73.73505141159461,5.76045260720781],[-73.73237805034347,5.763571499014006],[-73.73237089958263,5.770188575312602],[-73.72021778816827,5.772194056736112],[-73.71553608950882,5.781703863131952],[-73.70125108771566,5.7691456677499104],[-73.69336725099879,5.757227913349027],[-73.67553721401424,5.74923318790286],[-73.66960548666788,5.741794847802453],[-73.6639672377355,5.721265314785569],[-73.65190386204466,5.714064212720018]]]}}]}