{"type":"FeatureCollection","features":[{"type":"Feature","properties":{"code":"154687"},"geometry":{"type":"Polygon","coordinates":[[[-73.86911433642769,5.7152207971196844],[-73.87401024012337,5.710223088927535],[-73.87914955148062,5.707568612966384],[-73.90117877789032,5.706593664885247],[-73.91942170883505,5.696639617601193],[-73.94278952620226,5.690210632126366],[-73.94562225182074,5.6908804701085955],[-73.94641285055195,5.695127370010653],[-73.95065260689228,5.698970389222723],[-73.97142852079804,5.702869881241952],[-73.97234178392534,5.706993565502671],[-73.97559694230841,5.70926729558829],[-73.97443547280676,5.710835998502546],[-73.97540284743718,5.715400511279199],[-73.98022201183744,5.7182555026782325],[-73.98140084453411,5.7206170093043625],[-73.97655218440241,5.724819895980374],[-73.97443023289213,5.729994242260489],[-73.96270723567949,5.739324058874274],[-73.955394327514,5.7401069617700955],[-73.9442980590585,5.736173081718391],[-73.93328550993778,5.7407742327597475],[-73.9296006898677,5.739481284081194],[-73.92551789031086,5.743096154633349],[-73.92344562285865,5.742209396526675],[-73.92181773307749,5.738182665599027],[-73.91865994146144,5.736998318393603],[-73.9044488857138,5.74011158050547],[-73.9017436849108,5.737024908774913],[-73.89485277756398,5.737856901289035],[-73.88717813016916,5.735296396177716],[-73.87963609118117,5.736124596824254],[-73.87740842400751,5.737746972096659],[-73.8712552184794,5.7363216566952815],[-73.87160074019863,5.726492350232775],[-73.87547461474315,5.717527881653098],[-73.86911433642769,5.7152207971196844]],[[-73.93161210643296,5.731455296039371],[-73.93465395349631,5.731398443736964],[-73.93474620993243,5.730322301025751],[-73.93282978648887,5.729007284027659],[-73.93161210643296,5.731455296039371]]]}}]}