{"type":"FeatureCollection","features":[{"type":"Feature","properties":{"code":"154647"},"geometry":{"type":"Polygon","coordinates":[[[-73.6861539906858,5.630029742569491],[-73.70538656924055,5.605759941004067],[-73.71926004695894,5.594421291272681],[-73.7159859323234,5.59086890683102],[-73.71668442888483,5.581489847361013],[-73.72289962995637,5.576815232613626],[-73.72366463795237,5.571969968399117],[-73.72480846040884,5.576879692305397],[-73.72930037954188,5.581471536970412],[-73.72968130642329,5.5802408337468705],[-73.75172349223715,5.574660703129666],[-73.7688498626797,5.592612998275513],[-73.77959712710958,5.594925624057225],[-73.77839148908714,5.590823006413018],[-73.78377712065515,5.586085138336955],[-73.78191591326197,5.584362683266193],[-73.78423846557087,5.5817923380168395],[-73.7826350033564,5.579008631054137],[-73.7860555044432,5.578230424026856],[-73.78544131959944,5.575736593872477],[-73.78708520988931,5.574378745328772],[-73.78652475808184,5.567027880435205],[-73.78948915313913,5.5529781173847255],[-73.80000279862332,5.562605815174948],[-73.80459756509356,5.571507133270188],[-73.82171806621471,5.55244265364513],[-73.83086307479317,5.553049074776311],[-73.84034677417571,5.546153401626839],[-73.84786417888012,5.54583198968561],[-73.84741794795565,5.556009436282011],[-73.84274601332947,5.565086488464203],[-73.84261181083673,5.569188459218083],[-73.84461095088363,5.571976689270969],[-73.84312703482755,5.581265258140661],[-73.84835901605487,5.588472158565082],[-73.8438770573876,5.601453199117202],[-73.84488593790121,5.602271120480793],[-73.84958549752184,5.599669825282319],[-73.85212432923555,5.602103886471241],[-73.85158184637578,5.603367257142963],[-73.84628116827355,5.606005679116379],[-73.83119677662256,5.609397642980184],[-73.82964171805526,5.606240212347473],[-73.83347898415985,5.603413709834683],[-73.83503977937954,5.604977607865408],[-73.83708947663223,5.603068231309976],[-73.83545206141645,5.601242079408507],[-73.83684261648915,5.599903197401773],[-73.83536632839122,5.597241665296508],[-73.83559258060313,5.598333677904179],[-73.82844207379577,5.603178677808955],[-73.82602149034602,5.603125660568708],[-73.8246896819669,5.605350677445983],[-73.82220447016078,5.6059261691968345],[-73.82199485506351,5.603104637146714],[-73.82063493215128,5.603797019617389],[-73.82126331670088,5.606553046049669],[-73.8189057212416,5.608196668944515],[-73.81396317664922,5.609839038167877],[-73.81228863363009,5.607865880692771],[-73.80981203811541,5.6105921409132975],[-73.8099323916012,5.614912437672558],[-73.80501434450963,5.616076667513937],[-73.80673650133207,5.620030218585725],[-73.80192531764573,5.625330367040021],[-73.80703685899806,5.630886948380407],[-73.801599082309,5.637041646178602],[-73.80077803036642,5.642608420412785],[-73.79315518973505,5.6414831212345575],[-73.78622927317645,5.637746153986541],[-73.78575409056668,5.635832257426273],[-73.7823118934565,5.634281942035841],[-73.78174880472244,5.635502409171011],[-73.77992130556123,5.633767536685241],[-73.77935103109928,5.6368824700161895],[-73.77733340068437,5.635153113067702],[-73.77557539338414,5.636504077217182],[-73.77501401186464,5.634448826374921],[-73.77473914517492,5.636843868454719],[-73.76553384518218,5.63805179784714],[-73.75227610319882,5.646525349674903],[-73.75133878274414,5.643978175235532],[-73.74860395765438,5.64265978186063],[-73.73562273609639,5.641841782335405],[-73.73105448390271,5.636727683246477],[-73.7254166730869,5.633525439259472],[-73.70642303978161,5.631943510574445],[-73.70093309740264,5.637634536091525],[-73.693398459087,5.629839369631725],[-73.6861539906858,5.630029742569491]]]}}]}