{"type":"FeatureCollection","features":[{"type":"Feature","properties":{"code":"154887"},"geometry":{"type":"Polygon","coordinates":[[[-74.08861232819669,5.6036524658507005],[-74.08899700272264,5.600428689362673],[-74.08729558958584,5.597485283788785],[-74.09231115873922,5.596875942909321],[-74.09023230719805,5.59265525389327],[-74.09249831779408,5.590486067046584],[-74.08996935810018,5.587414930968748],[-74.09297436223875,5.587165069830348],[-74.09527471767274,5.584196720411626],[-74.09428011502666,5.580355795108517],[-74.09191648878044,5.578477199837664],[-74.09273485751652,5.571398918491468],[-74.08953756753715,5.571123156028307],[-74.08893112995088,5.567698200756979],[-74.08475967556359,5.56723931998954],[-74.0790342013359,5.559641101300485],[-74.0787053609543,5.552661159627974],[-74.07486465985164,5.543794635799998],[-74.07542594778289,5.538761177917422],[-74.06323960636229,5.531550408492251],[-74.06114297099305,5.532519049135374],[-74.05982542196944,5.5302176086945565],[-74.06136094218579,5.5252407100082905],[-74.05458341959826,5.522859901572929],[-74.0568183414054,5.518896984475134],[-74.05389680463321,5.514557431158153],[-74.05542653574662,5.51314793525961],[-74.05321050951386,5.511419525506653],[-74.05340526773051,5.507886063378919],[-74.05125709710666,5.5031452220755455],[-74.04673658007249,5.500100935546527],[-74.05230937892298,5.495378593867201],[-74.05369910815631,5.49599471629665],[-74.05369898782851,5.498664616838653],[-74.05884559701389,5.501540458881323],[-74.06285366479517,5.498368812087676],[-74.06513118674837,5.498927272830429],[-74.06770437461279,5.494044199983591],[-74.06966263818339,5.494592458576506],[-74.07278341409625,5.492173540175202],[-74.07752568493476,5.48556213470863],[-74.09553500516137,5.478298296621006],[-74.09713545918146,5.471520635193713],[-74.09478796302773,5.465809007916107],[-74.09697552814225,5.4595004294060345],[-74.09481021955224,5.45233967005521],[-74.10190794874643,5.453391822287756],[-74.1052666167837,5.457126402520657],[-74.11529057861861,5.461646204787257],[-74.11912993554688,5.457225156656648],[-74.13190893650926,5.453104048644377],[-74.1392837126914,5.44883402112697],[-74.14650656220238,5.448814057000789],[-74.15040993144993,5.444516009566996],[-74.15348706437607,5.445460618593756],[-74.15412851940164,5.447196767376681],[-74.16064251593508,5.447790502669363],[-74.17124260201302,5.460116681419265],[-74.17386057032161,5.459772659169175],[-74.17616715503198,5.462594786687532],[-74.17440178099798,5.465691100066692],[-74.17574536915771,5.470170490712917],[-74.17125773245937,5.474521925626334],[-74.15889856230189,5.4772579920463045],[-74.14876949569845,5.486176603402498],[-74.14845826842344,5.492151697084523],[-74.14401793596716,5.49917168013809],[-74.13867110547847,5.500433722062098],[-74.13546945490276,5.503972017869614],[-74.13048686995785,5.518309881608218],[-74.12933085428688,5.5285724606194435],[-74.13352908828892,5.528414993728518],[-74.1375877790963,5.531920977929019],[-74.14316366224585,5.533829575953462],[-74.14431478355885,5.53792134455756],[-74.15093733014328,5.541933342017671],[-74.15616088431256,5.548848203847626],[-74.15839659904896,5.546782768339085],[-74.1608786854182,5.5482145896677935],[-74.15949689987485,5.554020274184438],[-74.16342709193174,5.563938555322977],[-74.16492153821076,5.577084368821659],[-74.16169041967157,5.597986144551385],[-74.16019341462754,5.595027082996978],[-74.14907729517455,5.597895059511245],[-74.14478408964811,5.595529717822956],[-74.13705359885296,5.59713334355979],[-74.13323667019915,5.595898220090248],[-74.13064774819259,5.600339603614827],[-74.1251009288286,5.602690054483901],[-74.1247925781073,5.605860702659868],[-74.12172163229133,5.607906871326236],[-74.1197556142642,5.607424338437795],[-74.11852989178777,5.60952122474697],[-74.11526846916132,5.6062524436143235],[-74.10974331085367,5.6041853276307165],[-74.10737128326053,5.606822562781474],[-74.10424763799301,5.605093257255078],[-74.10000431398561,5.605769350224705],[-74.09424165127643,5.600885268475736],[-74.09234227323918,5.601584988883758],[-74.09018955278566,5.600098608679389],[-74.08861232819669,5.6036524658507005]],[[-74.10044985276824,5.535177585387601],[-74.10547503477386,5.533316841822],[-74.10644692940912,5.534207603655432],[-74.10750599174696,5.529707568053993],[-74.1053282893962,5.5305701886147745],[-74.10251121564443,5.527845019571771],[-74.10103014426033,5.531418048968533],[-74.0988602025368,5.530186022139446],[-74.10044985276824,5.535177585387601]]]}}]}