{"type":"FeatureCollection","features":[{"type":"Feature","properties":{"code":"154828"},"geometry":{"type":"Polygon","coordinates":[[[-74.03578695209353,5.64193576655498],[-74.03258700461868,5.636629636678947],[-74.03017630552995,5.637272616884786],[-74.03320633167499,5.626215657559214],[-74.03555618193366,5.623479279521234],[-74.0389054551485,5.623708974958674],[-74.03963031172009,5.616141389458505],[-74.04265138013079,5.613685355595123],[-74.04579467070732,5.614329841440792],[-74.04632131658076,5.608688328231892],[-74.044123780716,5.603701129693832],[-74.03808146288873,5.59612180966451],[-74.03423604432021,5.594375150199085],[-74.03316053204429,5.5910959437446195],[-74.03793653888272,5.587162710583243],[-74.04304839082477,5.58806392550639],[-74.0451230257516,5.580591354725186],[-74.04671775443222,5.580029655416979],[-74.04850844255031,5.583187017143985],[-74.04726431918033,5.562077492940205],[-74.04410554128793,5.560720860015579],[-74.03327499049755,5.562528608966602],[-74.01585657426136,5.558005450892097],[-74.00355309529476,5.5505906672675565],[-74.00429520398967,5.5495963001347945],[-74.00681977223405,5.55102882903202],[-74.00345380328338,5.547770654227065],[-74.00299978602061,5.550157425572138],[-73.99880004329339,5.549322139985065],[-73.99437684571791,5.555108898074025],[-73.98878115579384,5.555379296181002],[-73.98553299904745,5.549772231682709],[-73.9728977969749,5.549769995848692],[-73.97723128556635,5.541813114001911],[-73.96847726100867,5.540545461923955],[-73.96143682120498,5.545065465765333],[-73.95791696125798,5.545426448060937],[-73.95150961627064,5.5434356332562515],[-73.94916809948171,5.541088455919692],[-73.95546378440793,5.54027501033795],[-73.95904837761236,5.542985769872814],[-73.96028328613738,5.542407861282015],[-73.96298221446949,5.540093443953481],[-73.9703333035635,5.526771388317229],[-73.97392604820334,5.531282159830084],[-73.9785346688227,5.526300384269405],[-73.9872822944111,5.52412023731074],[-73.99806108677484,5.525176473488557],[-74.00265266507324,5.527813053521413],[-74.0138181919333,5.526721394697972],[-74.01821238228757,5.524332298044385],[-74.01824198909077,5.521881696414368],[-74.02107818673119,5.520110721482467],[-74.02350996169247,5.506526345126758],[-74.03512279728471,5.496578898386758],[-74.03732528612863,5.499576974936531],[-74.04285904324416,5.4979801564607556],[-74.04478948435928,5.501503597444525],[-74.04673658007249,5.500100935546527],[-74.05125709710666,5.5031452220755455],[-74.05340526773051,5.507886063378919],[-74.05321050951386,5.511419525506653],[-74.05542653574662,5.51314793525961],[-74.05389680463321,5.514557431158153],[-74.0567783175079,5.518587255640853],[-74.05453718287947,5.522786429639382],[-74.06136094218579,5.5252407100082905],[-74.05982542196944,5.5302176086945565],[-74.06114297099305,5.532519049135374],[-74.06323960636229,5.531550408492251],[-74.07542594778289,5.538761177917422],[-74.07486465985164,5.543794635799998],[-74.0787053609543,5.552661159627974],[-74.0790342013359,5.559641101300485],[-74.08475967556359,5.56723931998954],[-74.08893112995088,5.567698200756979],[-74.08953756753715,5.571123156028307],[-74.09273485751652,5.571398918491468],[-74.09191648878044,5.578477199837664],[-74.09428011502666,5.580355795108517],[-74.09527471767274,5.584196720411626],[-74.09297436223875,5.587165069830348],[-74.08996935810018,5.587414930968748],[-74.09249831779408,5.590486067046584],[-74.09023230719805,5.59265525389327],[-74.09231115873922,5.596875942909321],[-74.08706882006732,5.597988289882494],[-74.08899700272264,5.600428689362673],[-74.08730754831544,5.60873227152382],[-74.08479154802563,5.610080814719652],[-74.08423589595941,5.613452648877967],[-74.0724402701361,5.62415929599905],[-74.070404750992,5.629243581567778],[-74.06511063640994,5.634423855790544],[-74.06587320494026,5.64106807268729],[-74.06151933981721,5.648483044516752],[-74.05591259207921,5.649678738528507],[-74.05268686772104,5.645707669995318],[-74.05452959194525,5.64214150750928],[-74.050456443293,5.64022649920264],[-74.05159159803588,5.638891605495928],[-74.04948000499866,5.638151112484309],[-74.04997315244236,5.636498570935942],[-74.04543302403783,5.633372909921093],[-74.03977608521956,5.6359508543321795],[-74.03578695209353,5.64193576655498]]]}}]}