{"type":"FeatureCollection","features":[{"type":"Feature","properties":{"code":"155047"},"geometry":{"type":"Polygon","coordinates":[[[-74.06069055295842,5.64926520693399],[-74.06541789183996,5.642700304552761],[-74.06511063640994,5.634423855790544],[-74.070404750992,5.629243581567778],[-74.0724402701361,5.62415929599905],[-74.08423589595941,5.613452648877967],[-74.09006940395994,5.600172081641404],[-74.09447181465526,5.6009485567714705],[-74.10008499015896,5.60579760359758],[-74.10424763799301,5.605093257255078],[-74.10737128326053,5.606822562781474],[-74.10947365733904,5.604202302074498],[-74.1128607258164,5.60517874962477],[-74.11852989178777,5.60952122474697],[-74.1197556142642,5.607424338437795],[-74.12172163229133,5.607906871326236],[-74.1247925781073,5.605860702659868],[-74.1251009288286,5.602690054483901],[-74.13064774819259,5.600339603614827],[-74.13323667019915,5.595898220090248],[-74.13574523484948,5.596364450107956],[-74.13960118775469,5.60307874507788],[-74.14880505615542,5.609547874778002],[-74.15267992211852,5.608577579370831],[-74.16274467404065,5.613559976110764],[-74.160092532644,5.616611156289991],[-74.15759379167662,5.632462386564669],[-74.16082764073064,5.629311669604704],[-74.16915665936062,5.6393634107005255],[-74.1668614739072,5.646428836515213],[-74.15366231509506,5.655857734309677],[-74.13827153190579,5.6606577964186044],[-74.13800526196701,5.663066259673315],[-74.13283671301741,5.664299784943125],[-74.12556819551634,5.662157162766675],[-74.11091020436112,5.67417021470817],[-74.10679334175961,5.674434242642235],[-74.09669032971891,5.669301164675119],[-74.08881047410301,5.668743228438018],[-74.07657221279032,5.6731976094191054],[-74.07209456843941,5.677095923871661],[-74.06011832754098,5.67636509924813],[-74.05074047237713,5.682732395655364],[-74.04685534975681,5.679878966460535],[-74.04832695329907,5.676757027379153],[-74.047151938181,5.673439382885533],[-74.05982484501317,5.656603423012939],[-74.06069055295842,5.64926520693399]],[[-74.06520632167343,5.66166864434274],[-74.06725889650829,5.660414016460891],[-74.06839133102073,5.656887362622626],[-74.06820171090288,5.65473971650448],[-74.06773680860454,5.657695613541193],[-74.06537460263746,5.657576847970688],[-74.06638725239287,5.658527493955091],[-74.06520632167343,5.66166864434274]]]}}]}