{"type":"FeatureCollection","features":[{"type":"Feature","properties":{"code":"155201"},"geometry":{"type":"Polygon","coordinates":[[[-74.5841464321793,5.982115990870625],[-74.5699970891535,5.97944849379877],[-74.5682744458777,5.9741438068276125],[-74.56651939226447,5.972999281944908],[-74.56597865570006,5.968142345936258],[-74.57585649745039,5.966605397213243],[-74.58799086344294,5.972817908907643],[-74.58971144057767,5.970673898333814],[-74.59111423000257,5.972005796187432],[-74.5942553443947,5.9708136770418605],[-74.59762557212588,5.972201714487255],[-74.59953077011932,5.970489076928743],[-74.59928749307,5.973308362860394],[-74.6023962238641,5.9735971330645725],[-74.59790491356904,5.979210665437904],[-74.58749605095085,5.980251240492976],[-74.5841464321793,5.982115990870625]]]}}]}