{"type":"FeatureCollection","features":[{"type":"Feature","properties":{"code":"155207"},"geometry":{"type":"Polygon","coordinates":[[[-74.33627065684448,5.999556691399334],[-74.32541314543346,5.987210569092099],[-74.32443408975291,5.9837697974032835],[-74.32812594539831,5.971628806184015],[-74.32313831285745,5.965737221006009],[-74.32187990030712,5.9617097413722036],[-74.32276587576905,5.9581294028345155],[-74.3282598650693,5.951772159452901],[-74.32824033186057,5.948500572729017],[-74.31860277130653,5.9456423530489815],[-74.31143846897123,5.935417668030766],[-74.28865923748504,5.918402510276849],[-74.27840786129815,5.9141285448530425],[-74.26546313813668,5.91180287327802],[-74.24903228280073,5.894528863741243],[-74.25424299789358,5.889369272525926],[-74.25634760266388,5.8856023374913775],[-74.25577343451857,5.883238986867809],[-74.25827991348751,5.883232541618554],[-74.26834644050138,5.876331940172577],[-74.28000902802893,5.862174980501436],[-74.28024220680118,5.860850141877279],[-74.27804400964789,5.860924390284879],[-74.27489029272112,5.852780289733573],[-74.27386108709806,5.843461029053799],[-74.26587155014442,5.835024615313785],[-74.26557736519038,5.8311363497730895],[-74.26301105246415,5.826880324500564],[-74.26205499172988,5.816057656722137],[-74.26608187795233,5.80695711696967],[-74.27091697498412,5.803579199573846],[-74.27230517080966,5.7918017278178695],[-74.27545388127828,5.786517461601363],[-74.27998789147824,5.7845377868860055],[-74.28292415349046,5.778773167050701],[-74.28665971588595,5.775542445490373],[-74.28902102505117,5.767152206762546],[-74.29232435773866,5.762675986804595],[-74.29700532311858,5.763481293292216],[-74.29918396238048,5.766363951851872],[-74.30414701411667,5.768350287789417],[-74.30511576686007,5.769489294049549],[-74.3037963656115,5.772111055254186],[-74.30773963740029,5.772232709719731],[-74.30757697481778,5.777560050194211],[-74.3130830308341,5.782399051193806],[-74.30931217434824,5.787397801198267],[-74.30638545114039,5.788173260227154],[-74.3055422753423,5.793603722633009],[-74.30420110813628,5.791229411897518],[-74.30148003537983,5.791189775722842],[-74.3029654509051,5.794502225553231],[-74.30131785513686,5.797889353680318],[-74.30335981027423,5.800036206869265],[-74.30700794991344,5.798279337026543],[-74.3085547151203,5.799641915377379],[-74.31144031194026,5.798917328257687],[-74.31263676494257,5.800599906498235],[-74.31686126228124,5.796696235917068],[-74.31570888318305,5.801982174381067],[-74.31843154076938,5.804314048492927],[-74.31453677135823,5.808744316610785],[-74.31822669250317,5.808350551681428],[-74.31831103096039,5.811674839913678],[-74.31557052681097,5.815360874574367],[-74.3244984435151,5.818619238612769],[-74.32377812237502,5.8206948423325],[-74.32598430024223,5.821168620089793],[-74.32575904664799,5.8248852611998245],[-74.32711909297336,5.8235633001578435],[-74.33390331792077,5.8269365988183495],[-74.33341289379285,5.836980955696845],[-74.3357842323295,5.836856679731341],[-74.34095713981856,5.832966931176543],[-74.3439614106776,5.839270026031102],[-74.34096013772847,5.840410551300806],[-74.34182996047218,5.842435593700998],[-74.33937027255257,5.851964682365633],[-74.34145004249291,5.8616303492252655],[-74.35254256330387,5.877380390012036],[-74.36067839312051,5.882150735274422],[-74.37274725246687,5.898995380344047],[-74.37892038304034,5.904047304940491],[-74.42323568732189,5.904583230450783],[-74.44343439506315,5.911591465605397],[-74.44679974591986,5.911027538690689],[-74.4628030519898,5.934326809335573],[-74.46785537870721,5.939378480935204],[-74.47514973891191,5.941620031054413],[-74.47944329308035,5.949429693411503],[-74.45153539050318,5.974403147120711],[-74.43294938964618,5.986713198863413],[-74.42908113554,5.988858964988651],[-74.41167020533697,5.99009909903009],[-74.4055206785477,5.992282064949677],[-74.38990263938666,6.003847784504842],[-74.3742158611845,6.024156896578916],[-74.36564766282015,6.032372375154864],[-74.36205756539135,6.031664422064466],[-74.35251333805286,6.011049945866148],[-74.34527631763234,6.003187468871886],[-74.33627065684448,5.999556691399334]]]}}]}