{"type":"FeatureCollection","features":[{"type":"Feature","properties":{"code":"155209"},"geometry":{"type":"Polygon","coordinates":[[[-74.35687763363995,6.038669849571022],[-74.35845604299465,6.032186074849449],[-74.3670057695029,6.031422017134332],[-74.3742158611845,6.024156896578916],[-74.38347699737847,6.01091235054156],[-74.39591184650703,6.010885531845986],[-74.40237860564713,6.013876123391128],[-74.40895706084387,6.0201049544114085],[-74.41588571511642,6.037299173263818],[-74.42252941367815,6.0433777231210115],[-74.42779242712999,6.043700124423992],[-74.4344401253046,6.036656306186671],[-74.43845826050966,6.035075418285487],[-74.44338281352861,6.035921652671618],[-74.4507858801075,6.040407969878231],[-74.46299845915365,6.038494778829488],[-74.47959892934364,6.047471845830046],[-74.4941247214121,6.061728189043947],[-74.51952839319574,6.059502264051957],[-74.52416677077099,6.047856768210636],[-74.5278785792296,6.045017401938765],[-74.53177657383651,6.044782130285967],[-74.541547741415,6.056860519180759],[-74.55110273757515,6.064434089187898],[-74.55598370725704,6.073197381041155],[-74.56607700874349,6.080335302797437],[-74.57958094958138,6.083720647605162],[-74.5979383934868,6.096722032807179],[-74.60032113128028,6.115617015849182],[-74.60635705013823,6.125041113902455],[-74.60321768821217,6.137757611270786],[-74.60125631463143,6.140849736832024],[-74.59059709310867,6.148070096483707],[-74.5830338661479,6.163997359513758],[-74.58164267138397,6.1773891754344845],[-74.57809811133302,6.188817437476359],[-74.5777330975427,6.1988366499637095],[-74.56961172968482,6.219913891356839],[-74.56266328097911,6.229188640015991],[-74.55341439045026,6.237857286361134],[-74.54642942483599,6.248562829963362],[-74.54005611101161,6.262815735093909],[-74.53530208610357,6.268343615688934],[-74.52778160532762,6.272535551509009],[-74.52544905861436,6.267901072759344],[-74.52828413730936,6.265092154556726],[-74.5262673080511,6.263768030700135],[-74.52769046063787,6.262330221779052],[-74.52549807007102,6.261083112840424],[-74.52726092750618,6.259985232968177],[-74.52508102223152,6.260139683437217],[-74.52011122391241,6.251615777006805],[-74.52190710875055,6.250167506768435],[-74.52041618797244,6.248897168398628],[-74.52234249269173,6.2474261757512295],[-74.52096218090657,6.2473832485605385],[-74.52118783867871,6.24167169944451],[-74.51864667754273,6.241969941604282],[-74.52010205534737,6.240620287690604],[-74.51492405706784,6.23335791410517],[-74.51050486938976,6.2312241601885034],[-74.51277580005484,6.223740875093142],[-74.50997818546392,6.223157658710534],[-74.50828686237668,6.216939002072138],[-74.50334844492414,6.213587123812374],[-74.49712368653621,6.215328208090909],[-74.49567339232294,6.2116298681154944],[-74.48978053393313,6.207320102607639],[-74.48746021437296,6.202312398982599],[-74.4826747396927,6.2014886792600805],[-74.48303164318531,6.199993019418912],[-74.48096655323343,6.20232638374398],[-74.47887076221554,6.2014225997713766],[-74.4778981312154,6.204179000556792],[-74.4776524147004,6.202579812549402],[-74.47614019282088,6.20346144387014],[-74.47135843184657,6.201531046978118],[-74.47066656051186,6.196795583400672],[-74.47369071219322,6.194667255546733],[-74.47335785677205,6.191286760873936],[-74.47577520679852,6.191062301237366],[-74.4744470504188,6.1903591088073995],[-74.4749729249603,6.185964108040423],[-74.47220756232679,6.1828555510530805],[-74.47314788069144,6.178382251871881],[-74.4764689900079,6.177832708754181],[-74.47373813573466,6.1770695375565765],[-74.47533035398703,6.17525760798668],[-74.47293598348023,6.174376614300286],[-74.47605254586409,6.170607008400509],[-74.47417919873544,6.170224098681956],[-74.47608963972885,6.16733701164884],[-74.47493172760989,6.166145393354725],[-74.47671169935694,6.165517904578564],[-74.47663496108999,6.162548660414814],[-74.48080501885238,6.165497888001823],[-74.48315286879034,6.162384385234418],[-74.47872696949634,6.1616541365386865],[-74.47927247186334,6.158682177286721],[-74.47750812215816,6.158968322905594],[-74.47743910440914,6.156531438641878],[-74.47428068338627,6.156996074573669],[-74.4739913413681,6.155127888169545],[-74.47232958908853,6.155989271513988],[-74.47130555241756,6.154809965733705],[-74.46844260910098,6.157045559113897],[-74.47082800850376,6.154273441669886],[-74.46801214522878,6.15444842602227],[-74.46685996462003,6.1493877483515575],[-74.46391002843609,6.14841329186595],[-74.46507354865213,6.145703110315765],[-74.46111522355017,6.146393188046773],[-74.46253820438704,6.145646164425102],[-74.4611625288207,6.142244911668456],[-74.45902396384997,6.14032491541559],[-74.45757716839819,6.14091368847312],[-74.45447819238132,6.1366376476523214],[-74.45308314712861,6.137744065654374],[-74.4508114070793,6.135877240908144],[-74.45332600354499,6.1337742549063705],[-74.45051761910406,6.131529141233841],[-74.45052342671897,6.129310348490662],[-74.45346240073405,6.127703276442958],[-74.45539101636365,6.124181024338725],[-74.45286668260417,6.113794092228773],[-74.449421703557,6.108571071821132],[-74.45234461844217,6.1001708726275865],[-74.44197657265062,6.092456761836445],[-74.43834920755035,6.09361775722607],[-74.43862809853567,6.091883678697968],[-74.4354734776079,6.090719269907595],[-74.4353166576073,6.0892024909992415],[-74.4328552943548,6.090557082465523],[-74.4303899839399,6.086655720737781],[-74.426631509902,6.0884937840605176],[-74.42505328669534,6.086472654884119],[-74.42055501692977,6.085379108868665],[-74.41949173283541,6.086950913565488],[-74.4118720238115,6.0880667325606055],[-74.40893475392568,6.086769794553504],[-74.40651641350905,6.082751860923167],[-74.40310692498474,6.081976246599481],[-74.39999877217531,6.0751995848183356],[-74.40130225930437,6.066342787999702],[-74.39983224984803,6.0637213219580985],[-74.39750875754265,6.060361111257123],[-74.39007022100975,6.056864810871389],[-74.38853520061645,6.0539539863564755],[-74.38620527334626,6.054026510065967],[-74.38628493239003,6.051096694331534],[-74.38510743666859,6.051430790054383],[-74.38337018642375,6.048219386758319],[-74.38088112104356,6.048390320075555],[-74.38423134351086,6.043523566554597],[-74.3834464927449,6.040282245865626],[-74.3778428313629,6.040416456585888],[-74.37362183175725,6.044920817816546],[-74.37102784364282,6.044161497107666],[-74.36775603786072,6.046993561437603],[-74.36579900739275,6.046485944836093],[-74.36461730534148,6.04091181929482],[-74.35687763363995,6.038669849571022]]]}}]}