{"type":"FeatureCollection","features":[{"type":"Feature","properties":{"code":"155218"},"geometry":{"type":"Polygon","coordinates":[[[-74.47944329308035,5.949429693411503],[-74.47514973891191,5.941620031054413],[-74.46785537870721,5.939378480935204],[-74.4628030519898,5.934326809335573],[-74.44679974591986,5.911027538690689],[-74.44343439506315,5.911591465605397],[-74.42323568732189,5.904583230450783],[-74.37892038304034,5.904047304940491],[-74.36685368548012,5.891977258771476],[-74.36067839312051,5.882150735274422],[-74.35254256330387,5.877380390012036],[-74.34145004249291,5.8616303492252655],[-74.33937027255257,5.851964682365633],[-74.34182996047218,5.842435593700998],[-74.34096013772847,5.840410551300806],[-74.3439614106776,5.839270026031102],[-74.34095713981856,5.832966931176543],[-74.34551239764096,5.8319691598990175],[-74.34608587672983,5.82256339794742],[-74.35354587891499,5.8168957489288005],[-74.35467464908675,5.813629673628441],[-74.35936283516162,5.812053956736236],[-74.36118189903726,5.809144717051254],[-74.36778444652845,5.804731983878412],[-74.38191437667331,5.789993064581381],[-74.38487439467917,5.7841748083834545],[-74.38889519766417,5.781431590174236],[-74.3928109524449,5.8016452360431],[-74.40432323412682,5.808421467935261],[-74.41311589521308,5.8167500782735715],[-74.41738312948058,5.82353825449718],[-74.42103377851953,5.835713356069505],[-74.4240605928386,5.8404293851686475],[-74.43428706528988,5.844705957694259],[-74.44238576421776,5.852372764243285],[-74.45916770720396,5.853531924891513],[-74.46701163418044,5.857233862358839],[-74.47284600195889,5.863020980402666],[-74.47861152785202,5.874267552646927],[-74.49093272894015,5.88546188412505],[-74.49910924702812,5.889245705157293],[-74.51529614448577,5.901526937883773],[-74.53248257597147,5.918893997814337],[-74.55252664606718,5.926803643296239],[-74.56066025959012,5.935185428226532],[-74.5160896681075,5.936164534300758],[-74.48685749254952,5.955491403550923],[-74.47944329308035,5.949429693411503]]]}}]}