{"type":"FeatureCollection","features":[{"type":"Feature","properties":{"code":"500004"},"geometry":{"type":"MultiPolygon","coordinates":[[[[-73.61475920970253,4.101164313452159],[-73.61751916169999,4.1049893554890104],[-73.61683601052937,4.105521610487926],[-73.61475920970253,4.101164313452159]]],[[[-73.60513272753138,4.113137843376137],[-73.60586238384423,4.111041604985701],[-73.60853759423497,4.1100427332747245],[-73.62122037617223,4.1115649289898215],[-73.6244219969231,4.109146295467042],[-73.62084928222976,4.102933856792106],[-73.62329623905947,4.101785109124421],[-73.62906054830512,4.103217015813868],[-73.62821553159495,4.099862865724617],[-73.63033972819522,4.0992219958828855],[-73.63443326983418,4.115894122805344],[-73.64182326902244,4.120907127023088],[-73.63869927305603,4.126989128333435],[-73.63448827505385,4.144081136454531],[-73.616152255663,4.12087512497726],[-73.60513272753138,4.113137843376137]]]]}}]}