{"type":"FeatureCollection","features":[{"type":"Feature","properties":{"code":"500002"},"geometry":{"type":"Polygon","coordinates":[[[-73.58456395223322,4.136839919988574],[-73.5932532455904,4.138234135288201],[-73.60941525988136,4.146665138392109],[-73.61409726707359,4.146282145369696],[-73.62794730864385,4.1497394965803664],[-73.62016170978478,4.154762472576749],[-73.59914857635601,4.154488606561586],[-73.59907973035695,4.1522409073845665],[-73.59011668719859,4.15318587842313],[-73.58327296890832,4.150477074985929],[-73.58295299781503,4.141143119919434],[-73.5804505431417,4.141063485558334],[-73.58456395223322,4.136839919988574]]]}}]}