{"type":"FeatureCollection","features":[{"type":"Feature","properties":{"code":"500009"},"geometry":{"type":"Polygon","coordinates":[[[-73.18404603275832,4.066564728270691],[-73.18541353426349,4.063012159737866],[-73.18343767609832,4.058364582744332],[-73.1768269257496,4.056662927923526],[-73.17636696820284,4.0522679528676235],[-73.1731342216392,4.048403900977576],[-73.17988572257411,4.0458960778343],[-73.18142721495616,4.042273029107207],[-73.17831572793608,4.024395033791166],[-73.1798782694512,4.026133420464987],[-73.18179837883275,4.025120008633678],[-73.18044164203542,4.009154083363967],[-73.18503816508547,4.002934779835186],[-73.18603465492356,3.993182807107871],[-73.18754049120349,3.9911527942450107],[-73.18707688062892,3.988991224043559],[-73.17914785723309,3.9829271392303554],[-73.17041421640607,3.962545679310381],[-73.16812003059874,3.936309179917373],[-73.17035669253067,3.9379036196056063],[-73.17555557847771,3.934125181441459],[-73.1818312684245,3.9399116176278994],[-73.18407392720474,3.9401542241327547],[-73.1855603248926,3.93722446804793],[-73.18730832853242,3.9369782681649212],[-73.19144406716794,3.9402367525311206],[-73.19551608761878,3.9409859482233855],[-73.19657777762728,3.935249273228237],[-73.1993985095491,3.9337117105250172],[-73.19959109672357,3.9389207718823513],[-73.2067127289788,3.940981442616703],[-73.20832606424142,3.9436082082225994],[-73.20662487427666,3.9453453371112346],[-73.20136421801504,3.94582014125416],[-73.20075103281744,3.9488661247133336],[-73.20471061570458,3.9474382762580262],[-73.20795606353335,3.949826020509761],[-73.21925038122157,3.9512953491371263],[-73.22175311254597,3.9547509447964444],[-73.23161257705692,3.956268370595126],[-73.234048934758,3.959781532295949],[-73.23761158202751,3.9591561641682347],[-73.23876259946786,3.9627923358218595],[-73.23623776691375,3.9643631059055338],[-73.23570680158173,3.967442582652211],[-73.23827506937715,3.9718838365930083],[-73.241127613083,3.9712656459656728],[-73.24449743149398,3.965456023542629],[-73.2514236154476,3.9653059151579555],[-73.25385416553382,3.9589154623389504],[-73.26018633651529,3.9584832244034374],[-73.26529613568601,3.9616344586699483],[-73.27224249048277,3.9569217504116523],[-73.27747172371164,3.955320150706598],[-73.2852872934426,3.9560070063271837],[-73.29020343791552,3.9534363504881753],[-73.29401231797817,3.954226673596793],[-73.2965656198781,3.95697799079079],[-73.29997951116479,3.956551137780309],[-73.30212099588385,3.958018596699219],[-73.30629448350203,3.9564824820431],[-73.31973280147969,3.9572816703262106],[-73.32614501100011,3.960500441384454],[-73.32889637961631,3.9634174540380513],[-73.32846486570429,3.966414643041901],[-73.33375487063006,3.9698476808429746],[-73.33929660640268,3.9687348083356824],[-73.34397864856192,3.9699478727416135],[-73.34519771084462,3.9723005820704316],[-73.35288169032685,3.971968330345021],[-73.358312290544,3.9666481930819373],[-73.36579545325469,3.970753817892046],[-73.36828693958859,3.968520197064663],[-73.37489875026154,3.9703225446356214],[-73.38075278288937,3.9699223252009688],[-73.38546705952251,3.973089526037654],[-73.40531813003827,3.977792954659037],[-73.42321689166567,3.9907915815782644],[-73.43048716574657,3.9930331810626853],[-73.45416747845843,3.9942939045233743],[-73.46920370094716,4.000209027665278],[-73.47705619896362,3.999870782176856],[-73.47704273973636,4.010763263718843],[-73.47908825842711,4.016407988753713],[-73.47603553044189,4.024274599058458],[-73.47845487359001,4.029767581513454],[-73.47900339443578,4.056722636210793],[-73.47151940382889,4.056310651393801],[-73.39218952238292,4.065112434765183],[-73.37841760336329,4.0715416403267],[-73.3755420153459,4.077553525511462],[-73.36730214622725,4.081629486954],[-73.35475131655045,4.094088357414535],[-73.34207896199189,4.102398042353627],[-73.30792974104537,4.100200575394524],[-73.29799709565015,4.102429996062654],[-73.28411094649147,4.098029588773386],[-73.27113352502863,4.0979509602290705],[-73.24945103287189,4.091912170988053],[-73.23323845417605,4.084669834548208],[-73.22499129134303,4.083460137263103],[-73.21318003525033,4.078505308953254],[-73.19498452373324,4.074704662601391],[-73.18404603275832,4.066564728270691]]]}}]}