{"type":"FeatureCollection","features":[{"type":"Feature","properties":{"code":"500008"},"geometry":{"type":"Polygon","coordinates":[[[-73.53174436420454,4.170337061069915],[-73.52168540241388,4.1686141411431095],[-73.52043344231191,4.163953408312864],[-73.51633050687894,4.166314019165554],[-73.5152668515168,4.162852133551837],[-73.50803738500662,4.160842240109957],[-73.50636675726815,4.157698105182135],[-73.50128901979292,4.162977589140894],[-73.49119602272549,4.164934603153824],[-73.48215702188804,4.163559496316225],[-73.47652117642588,4.159382544903622],[-73.47322941474516,4.159380002593707],[-73.47056054881631,4.15601857730212],[-73.45572204954397,4.152850471436068],[-73.45111134324316,4.148092069476661],[-73.441237292332,4.146783662278608],[-73.43624695190198,4.143880876070398],[-73.42979829437866,4.14437688464119],[-73.42532269457155,4.139848483566709],[-73.41261707195434,4.136519206359765],[-73.40765594134882,4.13123186304324],[-73.40012648226968,4.133338562750964],[-73.38339985817817,4.130276095415127],[-73.37506002547508,4.133438669288864],[-73.37303737111847,4.131892283577315],[-73.36491311539396,4.134390879534351],[-73.34037741721443,4.135286659138785],[-73.32821689998548,4.129988760916717],[-73.32343642250743,4.129617406778266],[-73.31873065109392,4.1335361656396685],[-73.31007436045724,4.13434103298232],[-73.30322611290609,4.137284402560738],[-73.29091752977928,4.136339138416076],[-73.2858452893293,4.141819921485933],[-73.28290658990841,4.142423343678729],[-73.27989282241111,4.138209969974355],[-73.27716282277362,4.137282058740254],[-73.27171479045575,4.136957759960808],[-73.26696900337231,4.13462449847998],[-73.26234613985247,4.1353854986355145],[-73.25810775236914,4.133379362094161],[-73.25373903242229,4.134395445819109],[-73.24220179763961,4.1313016058442145],[-73.24111485216821,4.129790391838355],[-73.24343089854972,4.12606517763146],[-73.24173953123943,4.12665960403757],[-73.24030649532006,4.113843552404944],[-73.23336743937989,4.107974570336637],[-73.23104440473145,4.107695171300691],[-73.22335955518685,4.113064767392984],[-73.22252899426474,4.116069279936028],[-73.219308379209,4.116199165027012],[-73.2109270149117,4.110819548819279],[-73.21016423143686,4.108372239233802],[-73.20722645247196,4.109292454632509],[-73.19678360908449,4.103466253716078],[-73.19228207401392,4.102589818086983],[-73.18914627975494,4.099374674345427],[-73.18590618291256,4.100925145030658],[-73.18149546548705,4.098391222073133],[-73.17438641416913,4.100096651278022],[-73.16338179125495,4.0848532963522075],[-73.17104590122773,4.083887757491709],[-73.17499539406532,4.08105924540223],[-73.1758661002412,4.07547447856615],[-73.178779234638,4.077364740488974],[-73.18124434656346,4.075272559304267],[-73.18077022324945,4.071448350305843],[-73.18404603275832,4.066564728270691],[-73.19498452373324,4.074704662601391],[-73.21318003525033,4.078505308953254],[-73.22499129134303,4.083460137263103],[-73.23323845417605,4.084669834548208],[-73.24945103287189,4.091912170988053],[-73.27113352502863,4.0979509602290705],[-73.28411094649147,4.098029588773386],[-73.29799709565015,4.102429996062654],[-73.30927264117707,4.10020357536132],[-73.34136965238582,4.1025499659393745],[-73.34735152556101,4.099985752264331],[-73.35475131655045,4.094088357414535],[-73.36730214622725,4.081629486954],[-73.3755420153459,4.077553525511462],[-73.37841760336329,4.0715416403267],[-73.3951878652993,4.064156492301834],[-73.47151940382889,4.056310651393801],[-73.50140398218304,4.057602635393266],[-73.52617680424032,4.064523668906759],[-73.5353319933713,4.069140632251845],[-73.53755955461537,4.071006657898238],[-73.53831454352434,4.074850917411993],[-73.5497890844511,4.0841998363171115],[-73.57898728643892,4.089332396977682],[-73.58572436346753,4.093301909477361],[-73.58785250825866,4.0960641209629784],[-73.58797443628987,4.099182854389028],[-73.60513272753138,4.113137843376137],[-73.60425844237557,4.1144407504635865],[-73.5969745805121,4.113197463217375],[-73.59232729456778,4.115466581766782],[-73.58909707283044,4.112550050424318],[-73.58308850025907,4.113064523652099],[-73.58219659171226,4.113892028043097],[-73.58463565318874,4.118314450172875],[-73.57930784168758,4.121314946647885],[-73.58484990553336,4.1194103348667],[-73.5863209424038,4.121852237929829],[-73.58798038171608,4.11987572361835],[-73.59845159057664,4.122313539650975],[-73.59900974175821,4.120764159114799],[-73.60391577972649,4.1189325389844385],[-73.61033472040327,4.1247442357760065],[-73.60416724112144,4.131396133081466],[-73.59745028248534,4.128847591841975],[-73.59280012718642,4.129409567801247],[-73.5923199957112,4.127418428008696],[-73.58514612886046,4.1281787771600875],[-73.5845523195199,4.137081350983635],[-73.5804505431417,4.141063485558334],[-73.58295299781503,4.141143119919434],[-73.58327296890832,4.150477074985929],[-73.59011668719859,4.15318587842313],[-73.59907973035695,4.1522409073845665],[-73.59914857635601,4.154488606561586],[-73.61606890348219,4.154318998906717],[-73.63036536109655,4.15634157304487],[-73.64156480701934,4.168414593469663],[-73.59994267899089,4.170531575545681],[-73.59404287347184,4.166732358728893],[-73.58999358057224,4.166134986863483],[-73.57935033076177,4.1711926326856315],[-73.56811056166475,4.169312385736134],[-73.5578127975781,4.170014150687848],[-73.54967426809986,4.166708683982108],[-73.53174436420454,4.170337061069915]],[[-73.54272213448462,4.123647188942186],[-73.5437055723587,4.128215505927756],[-73.550458247775,4.132812924751249],[-73.54922845060935,4.129364382150698],[-73.5509085256208,4.125197860173728],[-73.55001137407402,4.123455962397145],[-73.5454285920444,4.124994083544607],[-73.54412068364098,4.122956937404467],[-73.54272213448462,4.123647188942186]],[[-73.56650927254935,4.128406454793321],[-73.566361886452,4.129969586634388],[-73.56918998716446,4.127915333381338],[-73.56613890057355,4.123104285449415],[-73.56582616868712,4.1168080760175485],[-73.55619260363227,4.116868442508064],[-73.56027286087925,4.11764258718739],[-73.55856265970112,4.12316100199746],[-73.55905103825688,4.125137146069619],[-73.56184874952135,4.1265559154343805],[-73.56115084739969,4.128191553501495],[-73.56650927254935,4.128406454793321]]]}}]}