{"type":"FeatureCollection","features":[{"type":"Feature","properties":{"code":"501038"},"geometry":{"type":"Polygon","coordinates":[[[-73.26631110355089,4.169810388456938],[-73.26394958458337,4.168846399459312],[-73.26356857131282,4.170442537106169],[-73.25968103082414,4.165379326381526],[-73.25688613954901,4.168335483614214],[-73.25501432582814,4.166982814307062],[-73.2512172841673,4.168014148806151],[-73.24720292643161,4.172290827261293],[-73.24450434159928,4.17247672030345],[-73.24245883627833,4.175685651223716],[-73.23963423638418,4.175802421615742],[-73.23932274068568,4.180764026333293],[-73.23252277234013,4.183292434782061],[-73.22644490022651,4.181185209540217],[-73.22465671842286,4.1837241039888795],[-73.22259162744257,4.1820852026736475],[-73.22334402879017,4.179648034559875],[-73.22206680499772,4.178158060977353],[-73.220168625096,4.181424153761213],[-73.20893821482588,4.178395592118363],[-73.20623092011385,4.180349632903926],[-73.20597215780549,4.184252717272841],[-73.2021774681927,4.184093622357409],[-73.20203359011276,4.1788456231378746],[-73.19652259757237,4.179319780390472],[-73.19609018788691,4.176426945392109],[-73.19320887350165,4.1759523664781],[-73.18765588348253,4.177752783662413],[-73.18966650917548,4.174686404131251],[-73.18798960999453,4.173318000681945],[-73.18514115023396,4.174653540250517],[-73.18664095469853,4.176343882203639],[-73.18424821324459,4.18080567002778],[-73.17766525038434,4.17956724628624],[-73.17619251864062,4.176852350355546],[-73.17125355817046,4.177229787731505],[-73.167957962456,4.17970799687248],[-73.16212013808223,4.180521730418093],[-73.15726517976856,4.1841305526997985],[-73.15612109814458,4.181539235450657],[-73.15421649870467,4.181434114227045],[-73.15477430535793,4.1867028879854615],[-73.14899985464064,4.1890977922539605],[-73.14757587415767,4.187136237667346],[-73.15092851140793,4.183136337776546],[-73.14538204479976,4.181269332024499],[-73.14485508525132,4.17662789997496],[-73.13504900924846,4.175716429423005],[-73.13027957004397,4.1774297601517105],[-73.12790901620895,4.175412223325054],[-73.12295246114417,4.177340578758731],[-73.12124965960993,4.175177466921923],[-73.12251048591486,4.16862983209063],[-73.11803642054394,4.169092830741874],[-73.11141650163017,4.167037252854868],[-73.11161081247434,4.162791197304159],[-73.11002088764877,4.161332923405382],[-73.11053540509954,4.1640286039160515],[-73.10887333400285,4.164485433969105],[-73.10885890906809,4.161567137819247],[-73.10961631687383,4.159864801141055],[-73.11225414646441,4.15957364083647],[-73.11459231155914,4.1649971417149345],[-73.11659743097084,4.1647673393194395],[-73.12593338224428,4.161441138184102],[-73.12873333037123,4.154576054000529],[-73.13564171301329,4.1554286739862505],[-73.14052017638079,4.151826202337077],[-73.14384637751613,4.156739399293713],[-73.14598986975494,4.156571291108037],[-73.14742623165739,4.155628662861545],[-73.14505840113821,4.149384612948836],[-73.14816352826972,4.14509843065639],[-73.15256099318498,4.143616780259151],[-73.16768581908201,4.148234000714922],[-73.17084807516704,4.148036467760335],[-73.1759132317049,4.143450637427122],[-73.18297107584135,4.148553914215427],[-73.18515104179409,4.143987307529812],[-73.19354848373331,4.138034650349709],[-73.2073628517179,4.143083117322419],[-73.21313343343445,4.140719878799075],[-73.22520352074122,4.147563300897843],[-73.22951444221849,4.14066819750559],[-73.23824538544073,4.1395003855989785],[-73.24138563491272,4.131344808657559],[-73.27716282277362,4.137282058740254],[-73.27989282241111,4.138209969974355],[-73.2816688202563,4.141927593246976],[-73.28406600869562,4.142472001351166],[-73.29091752977928,4.136339138416076],[-73.30322611290609,4.137284402560738],[-73.31007436045724,4.13434103298232],[-73.31873065109392,4.1335361656396685],[-73.32343642250743,4.129617406778266],[-73.32821689998548,4.129988760916717],[-73.34037741721443,4.135286659138785],[-73.36491311539396,4.134390879534351],[-73.37303737111847,4.131892283577315],[-73.37506002547508,4.133438669288864],[-73.38339985817817,4.130276095415127],[-73.40012648226968,4.133338562750964],[-73.40765594134882,4.13123186304324],[-73.41261707195434,4.136519206359765],[-73.42532269457155,4.139848483566709],[-73.42979829437866,4.14437688464119],[-73.43624695190198,4.143880876070398],[-73.441237292332,4.146783662278608],[-73.45111134324316,4.148092069476661],[-73.45572204954397,4.152850471436068],[-73.47056054881631,4.15601857730212],[-73.47322941474516,4.159380002593707],[-73.47652117642588,4.159382544903622],[-73.48215702188804,4.163559496316225],[-73.49119602272549,4.164934603153824],[-73.50128901979292,4.162977589140894],[-73.50636675726815,4.157698105182135],[-73.50803738500662,4.160842240109957],[-73.5152668515168,4.162852133551837],[-73.51633050687894,4.166314019165554],[-73.52043344231191,4.163953408312864],[-73.52041113539366,4.1839815735449974],[-73.5232773728116,4.192635232397322],[-73.52274235027386,4.210724591162943],[-73.5258648035765,4.226457030156041],[-73.531953591579,4.243930664499487],[-73.54041906396236,4.251687403204585],[-73.54510875362018,4.2671731352925235],[-73.54266109847805,4.270194527662625],[-73.53625451659502,4.268532921421922],[-73.52115516110536,4.273838591584138],[-73.51379749717836,4.262560860616873],[-73.51314563328606,4.257893199169359],[-73.50716730823763,4.255919125351966],[-73.50256232316252,4.251368328913145],[-73.50268208426536,4.2477982460042085],[-73.49993354078083,4.24205121356448],[-73.49365503393,4.236764956283253],[-73.48926709856312,4.226851950026344],[-73.48412018804413,4.224628022269712],[-73.48384631277293,4.2220376450169965],[-73.47906638654007,4.217022592141689],[-73.4766691394795,4.211564039885332],[-73.46792356460548,4.207237625949972],[-73.46642880876527,4.201029205399891],[-73.46219565194059,4.199648540858902],[-73.46040326483546,4.1968783795126114],[-73.4590366879001,4.198068653632333],[-73.45669614504624,4.193779438462855],[-73.45085728605932,4.192832027958616],[-73.45017837515724,4.1900746275270535],[-73.44631162566247,4.188167451838638],[-73.44593057845327,4.184619039242023],[-73.44133946603932,4.177788102435386],[-73.44269992579859,4.177176572001827],[-73.44347896894965,4.171601292548019],[-73.43757739039569,4.170487644595028],[-73.43416422313248,4.1647235420663264],[-73.43277021146451,4.165106140166813],[-73.43079433581585,4.162535839140503],[-73.42900510191544,4.163009660092428],[-73.4286076489912,4.158974071189391],[-73.42526717924437,4.155290939821896],[-73.42162677657825,4.156283163680428],[-73.4189604005087,4.154291546690558],[-73.41349084494584,4.157723109705103],[-73.41300569364267,4.1563295721491045],[-73.40472847663392,4.1544738628096525],[-73.39623229804232,4.1493891195839865],[-73.39354206313476,4.152984027038428],[-73.3913711886139,4.153484550471887],[-73.38868840682932,4.149742542827084],[-73.38411462264332,4.14965430143053],[-73.38517451184896,4.1476901870505],[-73.38357999399909,4.148237541642459],[-73.38270326526384,4.146700108523078],[-73.3607355428021,4.153115773610409],[-73.3566185537021,4.149583172289056],[-73.34958804145407,4.149932148546725],[-73.3476551968688,4.14866158597647],[-73.34655063931928,4.150110174003601],[-73.34651974079225,4.148224229482537],[-73.34425921076638,4.150730829807685],[-73.3398828134961,4.14905500637758],[-73.33992875608033,4.151685839473657],[-73.34131679661107,4.151665667602117],[-73.33721497292447,4.154908625571579],[-73.33548031641163,4.153604854592402],[-73.33442185674113,4.155086245822076],[-73.3333456471812,4.153903501958496],[-73.3308824224477,4.1552179574269985],[-73.32934385187087,4.153707528122766],[-73.32666671417883,4.156224976459612],[-73.32235206254052,4.154738440960443],[-73.31317011333522,4.157587495160783],[-73.3102832505025,4.155765459086297],[-73.30918211355282,4.158251034960983],[-73.3067897083996,4.158487178733083],[-73.30596753031244,4.1554249602803],[-73.29871198969909,4.15679843086582],[-73.29706236892753,4.15951289485065],[-73.29312527499292,4.161052939185652],[-73.28942882323793,4.156087784284523],[-73.28379053933855,4.160112723665293],[-73.28077385106451,4.160938167057452],[-73.2785720080825,4.159753631646993],[-73.26971158394713,4.163995550801928],[-73.26631110355089,4.169810388456938]]]}}]}