{"type":"FeatureCollection","features":[{"type":"Feature","properties":{"code":"501037"},"geometry":{"type":"Polygon","coordinates":[[[-73.6034833052492,4.458198075779933],[-73.6025318632503,4.454354237927646],[-73.59127156335524,4.44451052504229],[-73.59088239042177,4.438647143871947],[-73.58825620177208,4.433358190014474],[-73.58246644885855,4.429962109295275],[-73.57255407920752,4.419532999729199],[-73.576369654431,4.407725732964991],[-73.57460786349077,4.403430347140443],[-73.5768600631323,4.401922847868946],[-73.57697702275772,4.398803734947592],[-73.57676273133234,4.395942677794608],[-73.57352034209157,4.392959740947163],[-73.57350149793933,4.389175322389804],[-73.57214269294406,4.388555537676552],[-73.57292930954583,4.377684928021608],[-73.57154360563652,4.375218713605761],[-73.57434122742649,4.320738319464681],[-73.5735063233916,4.318141900112153],[-73.56800069829274,4.3155395199067925],[-73.56466333855604,4.310305443742095],[-73.56643057407092,4.307828347375903],[-73.56449869519321,4.303983277449447],[-73.56770852188691,4.296178124812798],[-73.5630512950172,4.293051816907564],[-73.55995009653606,4.293399553892016],[-73.55410810079945,4.290689483413644],[-73.54757769032341,4.275697110628585],[-73.54041906396236,4.251687403204585],[-73.53319633889294,4.245589172042855],[-73.53067475107491,4.2410258172924955],[-73.52274235027386,4.210724591162943],[-73.5232773728116,4.192635232397322],[-73.52067077804884,4.186079122171179],[-73.52018589825451,4.177479115108213],[-73.52132086479241,4.168302482950651],[-73.53168929624991,4.170148334668625],[-73.53375951401614,4.173600147716343],[-73.53711881146023,4.17374604257202],[-73.54193806224964,4.179175048703257],[-73.5444876247326,4.176461687208871],[-73.54770397380872,4.181605857956981],[-73.5497388121239,4.180887776764678],[-73.55259906812017,4.183246491169427],[-73.5534677225532,4.187332737037195],[-73.55655386874963,4.185268533602766],[-73.56142506925602,4.187346549020219],[-73.5653836442695,4.185394214420796],[-73.56598443776318,4.189458237702581],[-73.57264623279946,4.189100885809069],[-73.57408143976096,4.194702162232829],[-73.5764073951861,4.196503191340469],[-73.58365913570435,4.198020832083614],[-73.58631528391305,4.195810976505982],[-73.59153835574278,4.1953570497461214],[-73.59700499052894,4.205312700372076],[-73.60763767309248,4.208977090431517],[-73.61316216805471,4.214883735093338],[-73.62088636889541,4.215651913777606],[-73.62220574443296,4.233148422739532],[-73.62014914118873,4.234338602242531],[-73.62051364487155,4.236725579276083],[-73.61904020555943,4.236101305411239],[-73.61893747135088,4.238452946188318],[-73.61178432041783,4.24070313625316],[-73.61026835912128,4.245211789174391],[-73.60645359431055,4.2472746134673685],[-73.60854045844741,4.248274006598706],[-73.61079176025856,4.254757991122574],[-73.61080136796858,4.26117163943411],[-73.6215427219393,4.267149827699711],[-73.62489287755784,4.272120340786387],[-73.62919211387123,4.2735171960979415],[-73.63029033827172,4.28053003558972],[-73.62627209405173,4.289430363294855],[-73.62652784096662,4.294888458922742],[-73.62432227502268,4.302034957889589],[-73.62095401675896,4.306386522386788],[-73.6180326784762,4.320160409845414],[-73.60870627423469,4.328407391672556],[-73.60008950767241,4.341332648474008],[-73.6068104895756,4.358296752284446],[-73.61295663895959,4.363823530389084],[-73.6137966615529,4.367528229224604],[-73.62621613032366,4.3830008599832695],[-73.62776697124815,4.388330302594284],[-73.63444225945028,4.396667903577111],[-73.6345282773541,4.399706925508838],[-73.62870604828265,4.409056542726432],[-73.62194981651214,4.411464009420342],[-73.62295145061972,4.419885216609259],[-73.61743916532708,4.433758581198958],[-73.61864230423424,4.442247178112325],[-73.61396818108238,4.446340058462795],[-73.60961171297129,4.4573305238372996],[-73.6034833052492,4.458198075779933]],[[-73.56462473493764,4.265507916133231],[-73.56743806515868,4.2695525872122175],[-73.56519485101944,4.271574972116923],[-73.56588900035433,4.272557603692064],[-73.56915062147016,4.26956159122642],[-73.56873861916966,4.265927189522415],[-73.57124447490241,4.26155441854047],[-73.5691689102635,4.260534649905992],[-73.56960543577588,4.257626004660779],[-73.5745268489598,4.257072391996019],[-73.57008309590373,4.253861847449457],[-73.56944556335793,4.255003349739582],[-73.56685961355026,4.253732832420837],[-73.56730136355065,4.25667486193862],[-73.56497603239006,4.256966104518597],[-73.55736042582339,4.2534997863176045],[-73.55787655792892,4.256109565138445],[-73.5537267635695,4.263674356360298],[-73.5600403372249,4.26650427947294],[-73.56462473493764,4.265507916133231]]]}}]}