{"type":"FeatureCollection","features":[{"type":"Feature","properties":{"code":"501018"},"geometry":{"type":"Polygon","coordinates":[[[-72.79794416950665,4.282194117291567],[-72.80131920726348,4.276049206152379],[-72.80185380916822,4.258449669875802],[-72.80421881455584,4.253040903493343],[-72.80717917606154,4.251109928616529],[-72.81606818987052,4.252164304341818],[-72.8225908541175,4.260939122978812],[-72.82687110023977,4.262846437506994],[-72.83630163428631,4.263309892786765],[-72.83765993945849,4.2628815145960175],[-72.84239764401218,4.246275082524733],[-72.85029484739647,4.2431685669957915],[-72.85270832842218,4.244605997450037],[-72.85680957515251,4.254398968009923],[-72.85980062949676,4.257234734732947],[-72.86295359668895,4.257357839302472],[-72.8673503200971,4.2525543391101905],[-72.86565913379269,4.243439314773298],[-72.86727010055222,4.23906311496404],[-72.88164594570151,4.233545031312474],[-72.88465953219287,4.23054971201708],[-72.8844158314252,4.225038719476686],[-72.87669458632831,4.22077455202475],[-72.87259757061048,4.215390376731307],[-72.8731012390212,4.208511946449164],[-72.87760252418025,4.198388283282725],[-72.88508663511493,4.194144225995785],[-72.89915751620413,4.202164928871525],[-72.90663450928815,4.198921946219457],[-72.914004020873,4.188423620414994],[-72.91712543339179,4.180047538198437],[-72.9203905357856,4.1626687046579605],[-72.92710440806565,4.155214381532346],[-72.93223177714839,4.160491884710893],[-72.93893949831374,4.177509669106996],[-72.94055649586016,4.177887252521771],[-72.94442513151853,4.174889425883521],[-72.94405164130495,4.1723872375768],[-72.9413120853796,4.1698816111867245],[-72.93945680695754,4.1622502365393075],[-72.94270715737179,4.155499881289359],[-72.94681984655358,4.154128685618616],[-72.96050832803172,4.162151689120265],[-72.96362904326651,4.161029907215436],[-72.96438397766804,4.157278197243954],[-72.95615903742095,4.156516042147473],[-72.95516806312008,4.151261537000607],[-72.96788601573456,4.144273021202821],[-72.97286833431292,4.146405355868751],[-72.97099124776724,4.154159179967735],[-72.97396685181951,4.161796120546057],[-72.97658434601612,4.163926817931497],[-72.98168814011103,4.163810227516933],[-72.99078269227113,4.1667032003265945],[-73.00718383693118,4.1853916463998075],[-73.00997875288891,4.183010752603707],[-73.01596015503736,4.162461081653817],[-73.02709441313107,4.162964345886621],[-73.03285002792364,4.161152399861635],[-73.03446583659058,4.164173921815518],[-73.03046294701738,4.1701541679945535],[-73.03045736360298,4.174358529457152],[-73.03592878887434,4.1772461934465355],[-73.0376174503524,4.183946650722419],[-73.03533185512543,4.185979678978754],[-73.02872838512133,4.186969913829444],[-73.02670455114111,4.189382998904819],[-73.02694822516924,4.191504734442162],[-73.03078583271679,4.193948889794456],[-73.03836102869161,4.192820938262912],[-73.0444937363319,4.186061950266435],[-73.0480109830064,4.185617355594047],[-73.04829913511662,4.189071089772369],[-73.04075080617417,4.193729997117202],[-73.0402488089826,4.199629602089942],[-73.043978244946,4.20222107463394],[-73.04571278935856,4.19723686886357],[-73.04887654388432,4.195986528558592],[-73.05090865991218,4.198405059237075],[-73.05037763287362,4.204157141329631],[-73.051838069587,4.207303352682857],[-73.0552313159186,4.207927187402788],[-73.05622373826651,4.203979512851561],[-73.05867590004385,4.203719406368805],[-73.06040334408925,4.216226986952336],[-73.05201574228806,4.213443479507475],[-73.04963957007158,4.214106587361812],[-73.04926661361975,4.2160726660670775],[-73.05711182409249,4.220411228993953],[-73.05979016814763,4.224565483708545],[-73.06198478220716,4.2215716206878255],[-73.06662938494497,4.226949635610538],[-73.07572176503447,4.226374923419144],[-73.07704737910433,4.227661711726967],[-73.07573154552284,4.2310207242924776],[-73.06819172077155,4.228850460666422],[-73.06589093442017,4.23038059595774],[-73.07063494641181,4.233815330688969],[-73.07241690716671,4.245202388181326],[-73.07141526483156,4.2492936137677475],[-73.07302312980846,4.251709878787381],[-73.08371544661145,4.249479756721428],[-73.08999186058173,4.239697823406686],[-73.09420593157017,4.24481242231866],[-73.09397409594385,4.253606430664604],[-73.09535136662447,4.255941571109929],[-73.09937359091703,4.2552793158344],[-73.10133355141772,4.246429265598692],[-73.10380749560755,4.244196256694636],[-73.12050955432107,4.250795237547152],[-73.12778895377244,4.250871544896711],[-73.11490309146166,4.324200979495629],[-73.10678246408236,4.400540599526494],[-73.10264663802923,4.3978549103349],[-73.09443383031856,4.383699982866176],[-73.08220359497125,4.375141151556306],[-73.07395478560176,4.361607646081325],[-73.05322400078211,4.352701092185214],[-73.04186192004477,4.344385654138705],[-73.03705393172936,4.343819217824262],[-73.02793663144917,4.34690824263123],[-73.0141209830536,4.3443198883249465],[-72.99120890456192,4.344210690355226],[-72.98260347966374,4.341960834534234],[-72.97757424559455,4.338838701077179],[-72.96899828043234,4.338581305568937],[-72.9621475430219,4.334179889377538],[-72.9519797555576,4.334824427673766],[-72.94385366714857,4.339223042387744],[-72.94062620780784,4.342986369645928],[-72.93244402608696,4.345461569564122],[-72.92455931005168,4.341082647467488],[-72.91606764632269,4.342680454276547],[-72.91276856521654,4.337769581599957],[-72.9023347824077,4.336470607276681],[-72.90281181724248,4.329680628193387],[-72.89981207872961,4.319956455295767],[-72.89943030543998,4.3106895289704426],[-72.89193901083434,4.302994285985733],[-72.88989403104745,4.296569578831793],[-72.88166405143204,4.293526681728622],[-72.87208478299999,4.296827278759054],[-72.86220877804806,4.292661650498587],[-72.8539624780783,4.291450092760954],[-72.85166619321978,4.289313917890638],[-72.84958572805226,4.282470722049197],[-72.84059398620548,4.281849814276711],[-72.83333493963153,4.270282717637031],[-72.82976622352271,4.271803855084784],[-72.82495364423988,4.279018325874574],[-72.82135283558227,4.2816952877029735],[-72.8153953940876,4.280962412365],[-72.80935392781072,4.273877723821954],[-72.80291199218772,4.2801950770036115],[-72.79794416950665,4.282194117291567]]]}}]}