{"type":"FeatureCollection","features":[{"type":"Feature","properties":{"code":"501031"},"geometry":{"type":"Polygon","coordinates":[[[-73.56462473493764,4.265507916133231],[-73.5600403372249,4.26650427947294],[-73.5537267635695,4.263674356360298],[-73.55787655792892,4.256109565138445],[-73.55736042582339,4.2534997863176045],[-73.56497603239006,4.256966104518597],[-73.56730136355065,4.25667486193862],[-73.56685961355026,4.253732832420837],[-73.56944556335793,4.255003349739582],[-73.57008309590373,4.253861847449457],[-73.5745268489598,4.257072391996019],[-73.56960543577588,4.257626004660779],[-73.5691689102635,4.260534649905992],[-73.57124447490241,4.26155441854047],[-73.56873861916966,4.265927189522415],[-73.56915062147016,4.26956159122642],[-73.56588900035433,4.272557603692064],[-73.56519485101944,4.271574972116923],[-73.56743806515868,4.2695525872122175],[-73.56462473493764,4.265507916133231]]]}}]}