{"type":"FeatureCollection","features":[{"type":"Feature","properties":{"code":"501028"},"geometry":{"type":"Polygon","coordinates":[[[-73.4843138921072,4.277764748032553],[-73.49288022076303,4.2770264394327455],[-73.49354975638312,4.274549798666669],[-73.4965549713524,4.276097204593157],[-73.49893181205653,4.273001437317021],[-73.5029945652118,4.274071462852078],[-73.50320532599403,4.272252953306975],[-73.50535539923658,4.271369454334604],[-73.49598335888675,4.268118379896805],[-73.49654613805961,4.2654393611833825],[-73.49043507810592,4.263234447272055],[-73.48896180334458,4.2581925191368555],[-73.48478092636691,4.255662482663581],[-73.4809228980647,4.260789504132788],[-73.48028436381588,4.265291038174894],[-73.4749715747746,4.263373875281161],[-73.47407490248202,4.266794024640603],[-73.47121274900928,4.269571829371728],[-73.45630350009077,4.266704444211939],[-73.44791845911152,4.260794531159775],[-73.41048402354932,4.256656920758871],[-73.40255380510325,4.252334163965088],[-73.37844738294484,4.245054214296999],[-73.36564994200808,4.238878600034866],[-73.35202443823601,4.237673699405661],[-73.34072189403611,4.233171528757623],[-73.33036717480275,4.231685795443582],[-73.3245907628455,4.232474256042792],[-73.31500626375481,4.229079225363421],[-73.30700044038548,4.22866475891459],[-73.30221043644434,4.224716622592666],[-73.29902431535072,4.216373461849628],[-73.29055412138774,4.212928591817388],[-73.28457675073395,4.212574778794533],[-73.2779927296063,4.217677640092063],[-73.27268333442532,4.211416790570809],[-73.26377769892838,4.208436454654532],[-73.25916461795373,4.204111536074549],[-73.24682293954669,4.206219634464105],[-73.23945265457309,4.202206163245876],[-73.22935491432872,4.201610702226617],[-73.23421335597726,4.196869989478557],[-73.24641483607172,4.194072437622651],[-73.2624432556795,4.1806390140029634],[-73.2622365181644,4.178368771365911],[-73.26665087833334,4.175615822033592],[-73.26631110355089,4.169810388456938],[-73.26971158394713,4.163995550801928],[-73.2785720080825,4.159753631646993],[-73.28077385106451,4.160938167057452],[-73.28379053933855,4.160112723665293],[-73.28942882323793,4.156087784284523],[-73.29312527499292,4.161052939185652],[-73.29706236892753,4.15951289485065],[-73.29871198969909,4.15679843086582],[-73.30596753031244,4.1554249602803],[-73.3067897083996,4.158487178733083],[-73.30918211355282,4.158251034960983],[-73.3102832505025,4.155765459086297],[-73.31317011333522,4.157587495160783],[-73.32235206254052,4.154738440960443],[-73.32666671417883,4.156224976459612],[-73.32934385187087,4.153707528122766],[-73.3308824224477,4.1552179574269985],[-73.3333456471812,4.153903501958496],[-73.33442185674113,4.155086245822076],[-73.33548031641163,4.153604854592402],[-73.33721497292447,4.154908625571579],[-73.34131679661107,4.151665667602117],[-73.3398658297964,4.151571049861957],[-73.34006520674836,4.149020712961828],[-73.34244336077359,4.150779435029563],[-73.34270257971042,4.149243586740056],[-73.34433351985211,4.150719602300683],[-73.34651974079225,4.148224229482537],[-73.34655063931928,4.150110174003601],[-73.3476551968688,4.14866158597647],[-73.34958804145407,4.149932148546725],[-73.35633943131722,4.149525829419531],[-73.3607355428021,4.153115773610409],[-73.38270326526384,4.146700108523078],[-73.38357999399909,4.148237541642459],[-73.38517451184896,4.1476901870505],[-73.38411462264332,4.14965430143053],[-73.38868840682932,4.149742542827084],[-73.3913711886139,4.153484550471887],[-73.39354206313476,4.152984027038428],[-73.39623229804232,4.1493891195839865],[-73.40472847663392,4.1544738628096525],[-73.41300569364267,4.1563295721491045],[-73.41349084494584,4.157723109705103],[-73.4189604005087,4.154291546690558],[-73.42162677657825,4.156283163680428],[-73.42538759443664,4.155342483304082],[-73.4286076489912,4.158974071189391],[-73.42900510191544,4.163009660092428],[-73.43079433581585,4.162535839140503],[-73.43277021146451,4.165106140166813],[-73.43416422313248,4.1647235420663264],[-73.43757739039569,4.170487644595028],[-73.44347896894965,4.171601292548019],[-73.44269992579859,4.177176572001827],[-73.44133946603932,4.177788102435386],[-73.44593057845327,4.184619039242023],[-73.44631162566247,4.188167451838638],[-73.45017837515724,4.1900746275270535],[-73.45085728605932,4.192832027958616],[-73.45669614504624,4.193779438462855],[-73.4590366879001,4.198068653632333],[-73.46040326483546,4.1968783795126114],[-73.46219565194059,4.199648540858902],[-73.46642880876527,4.201029205399891],[-73.46792356460548,4.207237625949972],[-73.4766691394795,4.211564039885332],[-73.47906638654007,4.217022592141689],[-73.48384631277293,4.2220376450169965],[-73.48412018804413,4.224628022269712],[-73.48926709856312,4.226851950026344],[-73.49365503393,4.236764956283253],[-73.49993354078083,4.24205121356448],[-73.50268208426536,4.2477982460042085],[-73.50256232316252,4.251368328913145],[-73.50716730823763,4.255919125351966],[-73.51314563328606,4.257893199169359],[-73.51379749717836,4.262560860616873],[-73.52115516110536,4.273838591584138],[-73.53625451659502,4.268532921421922],[-73.54266109847805,4.270194527662625],[-73.54510875362018,4.2671731352925235],[-73.55410810079945,4.290689483413644],[-73.55995009653606,4.293399553892016],[-73.5630512950172,4.293051816907564],[-73.56770852188691,4.296178124812798],[-73.56449869519321,4.303983277449447],[-73.56643057407092,4.307828347375903],[-73.56466333855604,4.310305443742095],[-73.56800069829274,4.3155395199067925],[-73.5735063233916,4.318141900112153],[-73.57434122742649,4.320738319464681],[-73.57176211059095,4.3734984552882],[-73.56651205962856,4.3687773796215765],[-73.55325927268132,4.349085999489489],[-73.55493550954526,4.3383963700067625],[-73.54939373057806,4.329439010021815],[-73.55295270630779,4.320280610093278],[-73.55025638816278,4.308215099355721],[-73.54116947938746,4.303512671408896],[-73.53044549581085,4.294115222358187],[-73.52552400138,4.292338698978881],[-73.50686453270322,4.290607893983292],[-73.49379522401506,4.279049858950657],[-73.4843138921072,4.277764748032553]]]}}]}