{"type":"FeatureCollection","features":[{"type":"Feature","properties":{"code":"501017"},"geometry":{"type":"Polygon","coordinates":[[[-72.84210645799652,4.432412856964106],[-72.83535497454511,4.4345142663635215],[-72.8251617238725,4.4284016688882275],[-72.81795188518777,4.431901234579016],[-72.81403772037913,4.430764959862188],[-72.81186301079612,4.426426113085199],[-72.81248903404168,4.423113680738254],[-72.81568559074157,4.421143147848454],[-72.82384160785637,4.42068748096392],[-72.82380334156716,4.415999114911642],[-72.80888706941471,4.408623951006689],[-72.80683496354965,4.405054919166048],[-72.80655350660021,4.397097306096612],[-72.80473752702369,4.3957092398548525],[-72.80100666872426,4.395484160067383],[-72.7929872236337,4.399224530431695],[-72.78936315880543,4.398440179488773],[-72.78738020130157,4.3959708365507595],[-72.7897679969754,4.388903894811847],[-72.80032706053811,4.382690682748091],[-72.7998084159475,4.377174279571591],[-72.79654329709865,4.373924697403879],[-72.78775317420849,4.374201112928063],[-72.78205396331742,4.370340412732219],[-72.77379892570002,4.3711402736167315],[-72.77089186528474,4.369264316300928],[-72.7707552768054,4.366226930621224],[-72.77252520066907,4.364869376212084],[-72.7939413210712,4.366060890633435],[-72.79780184026117,4.360782534876137],[-72.79575691189643,4.353064900640902],[-72.79029472306735,4.349543716059998],[-72.76769539394559,4.34343088718515],[-72.75735724909185,4.330414441470907],[-72.74168586873111,4.324944317179302],[-72.74150290777857,4.319501498036573],[-72.74812571250203,4.311800889667268],[-72.75046009498521,4.306221197166565],[-72.74760644776057,4.3022812256498355],[-72.7507116448262,4.284497313283794],[-72.75300068636403,4.279662802464259],[-72.76281284663287,4.275450394467441],[-72.76830645026718,4.266099777603699],[-72.77170137707384,4.264206447836898],[-72.77817176558762,4.2636072134620235],[-72.78208516420653,4.27069284611531],[-72.78608355537216,4.272779580668441],[-72.7891040951634,4.278000136927801],[-72.79149248116323,4.278908818343609],[-72.79034817739569,4.281952579338508],[-72.79213310417879,4.282918347541681],[-72.78668553466008,4.287631355076769],[-72.79065489392184,4.291047778388986],[-72.79415315246212,4.28666813124039],[-72.79552581572028,4.288431773377113],[-72.79794416950665,4.282194117291567],[-72.80291199218772,4.2801950770036115],[-72.80827493117158,4.274182384491496],[-72.81103162711997,4.2745378697618435],[-72.8153953940876,4.280962412365],[-72.82014901687461,4.281988276578318],[-72.82417056959417,4.279861635370196],[-72.8294559372726,4.272131576520906],[-72.83293948291424,4.270240395170504],[-72.83515795066955,4.271566920440421],[-72.84059398620548,4.281849814276711],[-72.84958572805226,4.282470722049197],[-72.85166619321978,4.289313917890638],[-72.8539624780783,4.291450092760954],[-72.86220877804806,4.292661650498587],[-72.87208478299999,4.296827278759054],[-72.88166405143204,4.293526681728622],[-72.88989403104745,4.296569578831793],[-72.89193901083434,4.302994285985733],[-72.89943030543998,4.3106895289704426],[-72.89981207872961,4.319956455295767],[-72.90281181724248,4.329680628193387],[-72.9023347824077,4.336470607276681],[-72.91276856521654,4.337769581599957],[-72.91606764632269,4.342680454276547],[-72.92455931005168,4.341082647467488],[-72.93244402608696,4.345461569564122],[-72.94062620780784,4.342986369645928],[-72.94385366714857,4.339223042387744],[-72.9519797555576,4.334824427673766],[-72.9621475430219,4.334179889377538],[-72.96899828043234,4.338581305568937],[-72.97757424559455,4.338838701077179],[-72.98260347966374,4.341960834534234],[-72.99120890456192,4.344210690355226],[-73.0141209830536,4.3443198883249465],[-73.02793663144917,4.34690824263123],[-73.03705393172936,4.343819217824262],[-73.04235547372326,4.344582136025053],[-73.05322400078211,4.352701092185214],[-73.07395478560176,4.361607646081325],[-73.08220359497125,4.375141151556306],[-73.09443383031856,4.383699982866176],[-73.10264663802923,4.3978549103349],[-73.10678246408236,4.400540599526494],[-73.10132459882561,4.4357624952760375],[-73.09125654663143,4.475167273466127],[-73.08927688014364,4.472604639478789],[-73.09100149905748,4.465510304144914],[-73.0886131171714,4.463744499193581],[-73.088898409183,4.460945895240968],[-73.08497343030126,4.462966489627263],[-73.082724187432,4.4615834298436425],[-73.07902630511347,4.464718138067326],[-73.07872506401532,4.462644344406442],[-73.08102886576023,4.460315847699803],[-73.08024934849715,4.457170515664927],[-73.07859182620172,4.458755072020551],[-73.0761256210418,4.457125890515556],[-73.0732637452486,4.458279312454522],[-73.07188307145162,4.456679848824535],[-73.07140656215097,4.459279817332174],[-73.07364373316193,4.461229697039357],[-73.07025562184384,4.4626118003714055],[-73.0679397389847,4.466343390921907],[-73.06471597072425,4.4628573183970275],[-73.06222388995059,4.464487008980996],[-73.06011384677623,4.461025080172703],[-73.05825106278064,4.462804249734575],[-73.05755061115002,4.459567470647812],[-73.05715285586365,4.463799558920698],[-73.04966309260891,4.467049710845572],[-73.04877773009872,4.466424023900686],[-73.05201563018784,4.46132456469104],[-73.04631697876948,4.4593307581470185],[-73.04586761109533,4.457772145282377],[-73.04431266051449,4.459236959047132],[-73.04461187660934,4.457077551660291],[-73.04052534689146,4.460228993672217],[-73.0386160680381,4.456618111420141],[-73.03651312523084,4.4570050444058325],[-73.03613931620015,4.453780043042798],[-73.0335516951734,4.454492903860853],[-73.0338050118786,4.452139608319783],[-73.02341936429337,4.4496529988603015],[-73.02041832274386,4.4465451484130085],[-73.02115653364154,4.444524285603222],[-73.01669300569267,4.442038762179038],[-73.01655420194817,4.444610330246519],[-73.01412097174074,4.444469476816039],[-73.01173687228936,4.440715474446165],[-73.00669952895095,4.44107037041897],[-73.00591418658945,4.438285552738364],[-73.00298281070769,4.436927316471838],[-73.00167404149789,4.439460981290267],[-73.00008702099393,4.437428831323871],[-72.99757201109435,4.439348147776229],[-72.99581418480005,4.437852582551727],[-72.99297582331656,4.438360378102232],[-72.9929166539331,4.434931864419809],[-72.98832339618804,4.43349595914583],[-72.98644319037624,4.428720393509252],[-72.98031757384712,4.426452626333344],[-72.97896101805566,4.423975503227666],[-72.97544901026737,4.423945388373795],[-72.97533184392495,4.421714792195871],[-72.97771446961826,4.420200527829479],[-72.97363388429812,4.417870781565227],[-72.97822338514266,4.406503456799442],[-72.97291193410507,4.402046012088078],[-72.9730070259572,4.40017683426538],[-72.96340697887251,4.39940017812944],[-72.96003563528126,4.395754217759929],[-72.9565378539383,4.395353395658049],[-72.95676265810312,4.397871188523084],[-72.95541803635865,4.398012688843892],[-72.94965066029744,4.389162604669593],[-72.9470965572408,4.393189482664525],[-72.9450315176826,4.391713157542711],[-72.94560791857668,4.389552019287123],[-72.93747119504349,4.390675395277867],[-72.9347808130687,4.387305620061454],[-72.93686153431844,4.382142251376763],[-72.93421761326283,4.381547678931838],[-72.93492887896656,4.383980332183],[-72.93236928814065,4.381247023017522],[-72.9303868551425,4.382499612526317],[-72.92912867399173,4.378415511989658],[-72.93007325833588,4.374781219300473],[-72.92855221344797,4.373993403534769],[-72.93027116152979,4.372740443786654],[-72.92943191438212,4.371552478520414],[-72.92509295550491,4.371333877920847],[-72.92490380641374,4.377938839166632],[-72.92119192185032,4.376281903083395],[-72.92224255713018,4.37105993374405],[-72.91661060637983,4.374050065575318],[-72.91414396927405,4.37316922718378],[-72.91564176724728,4.3714972213323335],[-72.91462034179182,4.369454567882485],[-72.91675143409924,4.368161576009356],[-72.91495822012627,4.362826705278678],[-72.918945212035,4.364174385611193],[-72.92107958815933,4.361465306551452],[-72.91871877984568,4.359139730621564],[-72.91731890811218,4.361580397496823],[-72.91541899631329,4.361193197116052],[-72.91774733772507,4.358255566246896],[-72.91512731047459,4.357586399837658],[-72.91332245556077,4.354705077224821],[-72.91298486930401,4.361872022657394],[-72.91073768640507,4.3668796481208005],[-72.90933489492335,4.366831679504855],[-72.90910615285208,4.370569896310485],[-72.91402999110346,4.3798720190241625],[-72.91170488002962,4.383543656518043],[-72.91791398963613,4.385261596726139],[-72.91996617263442,4.389886589122],[-72.91835935975422,4.395749608280596],[-72.92076340584828,4.40293781984758],[-72.92715569340874,4.407196050100822],[-72.92827530427138,4.41205467892587],[-72.92452193130833,4.416729397545964],[-72.92256910511338,4.4227653667975915],[-72.92302739966857,4.424932606802599],[-72.92865809263373,4.428116592849619],[-72.93027501304698,4.431773504075068],[-72.84210645799652,4.432412856964106]]]}}]}