{"type":"FeatureCollection","features":[{"type":"Feature","properties":{"code":"502048"},"geometry":{"type":"Polygon","coordinates":[[[-71.08258915941849,4.9234433628204215],[-71.07751570437796,4.92463957413878],[-71.07746199808116,4.2818550727033085],[-71.08026811686324,4.284789877412436],[-71.09244448959055,4.2870695138434485],[-71.12296101707602,4.286424351282619],[-71.20084550380886,4.290908913966291],[-71.25515878221131,4.2886599518618596],[-71.26649190200732,4.286272676579927],[-71.29127740681776,4.2775007211268985],[-71.30232616842801,4.275830859578093],[-71.31613914492988,4.276577808123477],[-71.34599408357064,4.2826865078016],[-71.37336095853425,4.28214714935018],[-71.38898620090669,4.278097584941747],[-71.41489115717121,4.264333161211198],[-71.43614927589232,4.243449776090586],[-71.44473147958689,4.241067918643864],[-71.44446772110479,4.2385941852847395],[-71.4496625745287,4.230466573752324],[-71.46159366577217,4.2257630926803245],[-71.47247439118769,4.215452164529381],[-71.4889898636888,4.2077401486756685],[-71.49521968612765,4.202326501304981],[-71.50207831889134,4.199266011664065],[-71.5258008666521,4.194668645291188],[-71.54371939391632,4.193617116294774],[-71.56525199160433,4.19501631851216],[-71.60052069280135,4.200080925861755],[-71.61355064402278,4.1940459192322805],[-71.61792178800863,4.1954225790181],[-71.62170087100617,4.19990185447881],[-71.62589353496355,4.201359003261473],[-71.63441863438726,4.193272337111011],[-71.6484124532501,4.195688917862526],[-71.65480029588196,4.192710755045255],[-71.66038615389556,4.195064412598072],[-71.66775812654333,4.20470393953417],[-71.66888546512308,4.213142828735329],[-71.67149999534837,4.219104484787465],[-71.67918906562107,4.2205216302414215],[-71.68340350993412,4.225055868755646],[-71.6851384173869,4.23148813290527],[-71.69281160233646,4.242316986765502],[-71.6969958464349,4.253201335384006],[-71.69696141726473,4.255662927979245],[-71.69195150454516,4.259977060254016],[-71.68886694832088,4.266519840836679],[-71.68786618530413,4.27357284717948],[-71.68909760432365,4.279630035257185],[-71.68039070403057,4.290469167371953],[-71.66678495561086,4.303054250355274],[-71.65755124592204,4.335864291046676],[-71.64939549311697,4.354458869114296],[-71.64505461413756,4.3763308044967175],[-71.6314500864791,4.3932892354181945],[-71.62329921980444,4.420084430038912],[-71.61023779824194,4.4364955012261476],[-71.57376036958112,4.465497169905518],[-71.57267857660679,4.476979039513651],[-71.58055113645145,4.498403006932222],[-71.5837174281449,4.500451831037196],[-71.58210743223509,4.5038038419660325],[-71.58371887104977,4.506865660354663],[-71.5816451925744,4.507001668792441],[-71.5785633246989,4.510233515468883],[-71.57520986263768,4.508486387033656],[-71.57373788474234,4.512928248784021],[-71.5670332879854,4.512932807869674],[-71.56382037802098,4.520874683711668],[-71.56033376659224,4.520607876925908],[-71.55859278515794,4.523973322399343],[-71.55738495758135,4.522493835845182],[-71.55470325874671,4.522764750230351],[-71.55591266806789,4.526666530534214],[-71.5547075782053,4.529358763705545],[-71.54885102795015,4.527754653572288],[-71.55478737094654,4.535883371708849],[-71.5655639089643,4.537498155018568],[-71.57418722053478,4.541817598170553],[-71.58416060870883,4.550461281130481],[-71.59440148449761,4.556130964408396],[-71.6092222153685,4.561797097502733],[-71.6164958380582,4.561791672468473],[-71.65930388475226,4.570846508235377],[-71.66240997553444,4.5737733569131365],[-71.66400335592692,4.577927574603848],[-71.66179311879705,4.5819195020082475],[-71.65357909855265,4.5865101619074835],[-71.64107948222795,4.589937335529328],[-71.63601667979498,4.5990734727626545],[-71.63239985417363,4.6011160336527155],[-71.63128087785998,4.605850598371376],[-71.63220709422075,4.610093044088899],[-71.64074342526521,4.618522358490168],[-71.6159630050746,4.6400894501402945],[-71.60662391807995,4.639307425534412],[-71.59978812085399,4.643654492652445],[-71.59228061696575,4.656244267390548],[-71.57628115624237,4.675631889825638],[-71.56253208304486,4.678945589213754],[-71.52420882323497,4.682126534156168],[-71.51708321090717,4.686140935086485],[-71.51367205939135,4.694072155235517],[-71.50771362133588,4.698349791170699],[-71.49329396042151,4.701571723661289],[-71.48495425730226,4.706940061968396],[-71.47422735397731,4.708357182739746],[-71.46358385734067,4.712454034935206],[-71.43652131908726,4.71810016893636],[-71.40487402830843,4.741811888225868],[-71.39638129602764,4.752205472301966],[-71.39010955324329,4.756657478609327],[-71.38469258400323,4.7563375918483075],[-71.37744466826274,4.751348896926345],[-71.35914930731838,4.754656813382155],[-71.32487709390261,4.76978954080306],[-71.32045181578792,4.773426013790356],[-71.30380354050436,4.795824277257509],[-71.28990212000275,4.803968962992599],[-71.28108242630486,4.805976891080832],[-71.26283285264986,4.806214878850312],[-71.23819607502588,4.815252828619521],[-71.21383512774224,4.815633670140187],[-71.19670682794151,4.8247712091406925],[-71.17847168024974,4.838454615254989],[-71.16523383245851,4.8459016395240155],[-71.15616210555169,4.855720106202341],[-71.14057502148194,4.868859863203056],[-71.12766593693914,4.884585672855678],[-71.11866976044814,4.886703797531368],[-71.11182698421123,4.884905680972906],[-71.10595171218847,4.88652606518059],[-71.10305264791378,4.899979376821705],[-71.0950414046523,4.9081074665799065],[-71.09157005942433,4.908191822520621],[-71.08983025967046,4.910674254446576],[-71.08650364407276,4.910357355311078],[-71.08186483866547,4.913286138489241],[-71.08258915941849,4.9234433628204215]]]}}]}