{"type":"FeatureCollection","features":[{"type":"Feature","properties":{"code":"502041"},"geometry":{"type":"Polygon","coordinates":[[[-72.08157081604605,4.319057378504624],[-72.08258747158504,4.317799870983663],[-72.08137607119914,4.316909117377804],[-72.07862522297489,4.318011362988557],[-72.0765704462446,4.309765169976856],[-72.08137299409913,4.306012671189933],[-72.08447932656532,4.3077564448456656],[-72.08751518192253,4.30639619694557],[-72.09096590996336,4.308098224062576],[-72.08397039355737,4.31848863436511],[-72.08157081604605,4.319057378504624]]]}}]}