{"type":"FeatureCollection","features":[{"type":"Feature","properties":{"code":"502049"},"geometry":{"type":"Polygon","coordinates":[[[-71.07746199808116,4.2818550727033085],[-71.07742834127129,3.857070898761208],[-71.08016843815744,3.8545522070373863],[-71.08771387614797,3.8509375452590575],[-71.09615558431005,3.8498956476268518],[-71.10246480765358,3.8519754916150646],[-71.10853360067665,3.8564574708511827],[-71.11361155206794,3.8572426363205636],[-71.1196089063883,3.8548291532379153],[-71.12532199508274,3.8477256267132702],[-71.12818847007094,3.8464944205813367],[-71.14199497047025,3.851270529235535],[-71.14779333556146,3.8514132369479057],[-71.15305873499995,3.8467007806580114],[-71.15863886150339,3.8360534078215096],[-71.16768200902106,3.8293549261837825],[-71.17322425695806,3.820798323508825],[-71.1927292133717,3.826768340798594],[-71.19529066567856,3.825845846371294],[-71.1963950833599,3.821216733006281],[-71.20133890116409,3.81956779820581],[-71.2069403740204,3.823968493459006],[-71.2150414424799,3.822784512379087],[-71.22327367746976,3.8274897880833123],[-71.22827528551596,3.8270183016958867],[-71.23260978095266,3.824344210250615],[-71.23850687344037,3.8241605890380015],[-71.25162980614988,3.83476837300816],[-71.259742466185,3.8327307990359145],[-71.26481417184482,3.8336166120039366],[-71.26969655872051,3.8405400356178347],[-71.2667133935588,3.8576991866372055],[-71.27079466382168,3.8599544109281396],[-71.27636854459365,3.858970534937555],[-71.27897999360516,3.863884161783176],[-71.28326190066207,3.8664004551790754],[-71.28821799806997,3.8624337030191214],[-71.29437479903311,3.8611502869742367],[-71.29801976695558,3.855206288251736],[-71.3028586764238,3.858552586182384],[-71.30846423939602,3.8556779463890507],[-71.31363099988408,3.8574826213254028],[-71.31590357914251,3.8557554107364354],[-71.31629254124533,3.8518286269380724],[-71.31975323386575,3.853114591463509],[-71.32191280271803,3.849839906042348],[-71.32531517853386,3.8483497617383478],[-71.32991716055682,3.8478777683288286],[-71.3350322778038,3.85029276836417],[-71.33928315057932,3.85014015777881],[-71.34179589482005,3.846885071386737],[-71.34593125910249,3.846077233902065],[-71.34742136124032,3.8414723424152157],[-71.35308065827729,3.839858049672557],[-71.35664016056955,3.8329063284627978],[-71.36930907601635,3.8297747611025557],[-71.37212839280124,3.8201756385876706],[-71.37417920797094,3.818304802915634],[-71.37755238527524,3.8182916707331174],[-71.37974517076401,3.8150799486198252],[-71.38296638540174,3.81545736234159],[-71.38552931352359,3.8178093065092185],[-71.38554362532972,3.826640134125796],[-71.39093919062401,3.827542676768246],[-71.39337041228322,3.824527060131345],[-71.39860775992355,3.8225754639536262],[-71.39953209114924,3.812428416061209],[-71.4019742235551,3.8091158263625857],[-71.40576594611122,3.8074874665831544],[-71.40983681470641,3.8089148357842646],[-71.41165131846793,3.8137932292176515],[-71.4148208569544,3.8153487711529124],[-71.42834000742869,3.8098564612993187],[-71.43140782677943,3.814866744258154],[-71.43669061203872,3.8152441322688446],[-71.43925234305351,3.817101106592645],[-71.43896323140643,3.820424042422985],[-71.4359780504974,3.8241107414575595],[-71.43763872291231,3.8283463593451756],[-71.44265136614672,3.8303551071020934],[-71.44952829387438,3.8301725770669464],[-71.45333757708653,3.8345829859597416],[-71.45649274617409,3.8344081784995296],[-71.45661116413106,3.8298192227294976],[-71.46107199550363,3.8283839437769984],[-71.46786420425036,3.8293105046660685],[-71.47291454710216,3.833574035512072],[-71.47916651190849,3.8315535974490444],[-71.48190641853279,3.837370258532644],[-71.48837871069361,3.8382120263929096],[-71.48823164341343,3.843295674327294],[-71.49085645292166,3.8453382434448713],[-71.49453893019972,3.8443777799482177],[-71.49874461218246,3.8459190573857995],[-71.50027834085199,3.840737550060396],[-71.50516702282431,3.8389930595802753],[-71.50960527062762,3.8396126961977757],[-71.51322494092102,3.8437339944719042],[-71.51777855015007,3.8401793371723443],[-71.52383344171562,3.842025292762912],[-71.52756284888267,3.840032096085338],[-71.53077311266446,3.8356976921800197],[-71.53563505615972,3.8342758981658562],[-71.54073045816364,3.834932225498676],[-71.54467283315057,3.8392939026711588],[-71.54911526054428,3.840627197149729],[-71.55269900219827,3.836996312719066],[-71.55719240228854,3.836312426212089],[-71.55759358743069,3.831340041360022],[-71.56094332755839,3.82943169427557],[-71.56751136463242,3.8324954872738317],[-71.57352740163958,3.829672113283209],[-71.57689552929111,3.834327213333779],[-71.58019447052908,3.8354921599995464],[-71.58448596986938,3.8341530774465014],[-71.58758721565886,3.8296143230411417],[-71.59159469311408,3.8277939993234327],[-71.59780290077657,3.830687385566989],[-71.60296829137923,3.828567072365672],[-71.60653485187248,3.831319532159341],[-71.61085341879146,3.832043125803523],[-71.61523560413616,3.8291248440519325],[-71.61934156421859,3.8303296624057452],[-71.62182162558452,3.8266899487960586],[-71.6261374619886,3.8273737550845794],[-71.62870816307907,3.8237656671108198],[-71.63413876329622,3.8246510193365566],[-71.63547859044166,3.8215322314030686],[-71.63352733159309,3.8177369329523003],[-71.63450707633012,3.814493798090723],[-71.6438655988315,3.811993989599955],[-71.6497182389482,3.805299656699333],[-71.65575099740227,3.8047780933888475],[-71.66096602475466,3.8077433379395984],[-71.66568287455095,3.8059445498082596],[-71.67120603870859,3.806394803999808],[-71.68390618589774,3.7972894223399862],[-71.69289870627557,3.7993655197121257],[-71.70030317462164,3.794491001450183],[-71.70776669510866,3.7946249221496373],[-71.71559030931695,3.786078056768474],[-71.72340565998968,3.7848132267367873],[-71.72953368101736,3.7818887465621174],[-71.73864993948524,3.781226442949844],[-71.74662307278072,3.7732542609637107],[-71.75805600292318,3.771168901438216],[-71.76613013441619,3.7622978246952243],[-71.77692393587006,3.75954789075638],[-71.78247364927131,3.7522694282162092],[-71.78683280161738,3.7542313674402976],[-71.78826945045529,3.760982881745008],[-71.79145617833007,3.7650952963326176],[-71.79013094889774,3.7800247572319563],[-71.78746747920673,3.7842128024539647],[-71.7813017482772,3.7860596044527597],[-71.76598079324964,3.8034851416249467],[-71.75814844447899,3.805835457768069],[-71.75256984418428,3.812788390483149],[-71.75588894906628,3.8279511083163698],[-71.74754477633576,3.8379467530149896],[-71.74653648100599,3.849778445288962],[-71.75146183518166,3.8539015865321176],[-71.74505403562273,3.860843174497745],[-71.74655492303725,3.867545739052332],[-71.7446636727812,3.8736697152156125],[-71.74057053429169,3.877120782642521],[-71.73291990720031,3.8778448514271417],[-71.73025467784424,3.879587987448531],[-71.72838061183421,3.885442137318819],[-71.73039021525534,3.8927172419942053],[-71.7291974327643,3.8957881507862453],[-71.71204170337319,3.8999461469747985],[-71.69933481885704,3.915641985755542],[-71.6876914210385,3.920791794425554],[-71.67321080433607,3.9372730969240024],[-71.66940755191081,3.9397435258973132],[-71.66231710511812,3.9409147666312947],[-71.65415271236742,3.9486752241845693],[-71.64675464607609,3.958185390535334],[-71.64520788189765,3.966808508758618],[-71.6419595832262,3.9728042144856204],[-71.64251627710473,3.9800365596064466],[-71.63953465254991,3.9843328689723876],[-71.63277218019022,3.988698906741149],[-71.62228888610161,3.9905826822769654],[-71.61188882900825,3.9961416825141214],[-71.60274446526319,3.996249947686522],[-71.59388172198993,4.001140015999397],[-71.58570179770032,4.0020845304094905],[-71.5832744779521,4.010735613013253],[-71.57524686291418,4.012924080071912],[-71.57002983421268,4.01887862650085],[-71.56310621210935,4.020352582091164],[-71.55608860167268,4.030188199076974],[-71.54719408466781,4.033310527938056],[-71.52419278570233,4.034992668062102],[-71.50811626480947,4.0463663630008],[-71.5039504082348,4.0535464632416165],[-71.48593359991821,4.05722294367132],[-71.48485333109568,4.062699738441097],[-71.48030295940362,4.062515691453314],[-71.46173765800921,4.076111658356183],[-71.44962182763612,4.077534598055365],[-71.43572559048482,4.09676061206153],[-71.43563865212491,4.106386274563988],[-71.44405135717955,4.123783757881142],[-71.44620340606014,4.1259621379755345],[-71.45109759842745,4.126885407848533],[-71.45277353910001,4.135274549228143],[-71.45992976199085,4.139119698344643],[-71.4600404440032,4.148231067596839],[-71.45344520976676,4.162779130588092],[-71.45335030406267,4.167353020703615],[-71.4503961306956,4.169203819230063],[-71.44812408417039,4.176167252343305],[-71.44173220284472,4.185756230301138],[-71.44373939868188,4.186137465715262],[-71.44526478359722,4.1908330144101456],[-71.45252354734941,4.192508676374757],[-71.45784505038421,4.196403179419292],[-71.46352970572832,4.206363646241584],[-71.46601321649047,4.207575813845608],[-71.46912865375828,4.205869751120133],[-71.47133754877063,4.206410133900306],[-71.47309137442352,4.208800730023086],[-71.47315451153821,4.215019000995596],[-71.46159366577217,4.2257630926803245],[-71.44921327061803,4.230846568864763],[-71.44444069466385,4.2386558136742565],[-71.44473147958689,4.241067918643864],[-71.43614927589232,4.243449776090586],[-71.41618002396143,4.263435152971795],[-71.38935923654867,4.277934499669357],[-71.3737733094768,4.282085004682585],[-71.3468985679126,4.282765841857497],[-71.31613914492988,4.276577808123477],[-71.30195361615404,4.2758506478406275],[-71.29012373908108,4.277823869079157],[-71.2637479278929,4.287018526748682],[-71.2454481508164,4.289656656644468],[-71.19666030840108,4.290875025756861],[-71.12429575548788,4.286472412458409],[-71.09432680988016,4.287178447503493],[-71.08040079931794,4.284832380884836],[-71.07746199808116,4.2818550727033085]]]}}]}