{"type":"FeatureCollection","features":[{"type":"Feature","properties":{"code":"502001"},"geometry":{"type":"Polygon","coordinates":[[[-72.9532325075603,4.109508664103203],[-72.93234488422814,4.099058621618099],[-72.9311721183139,4.093528702650019],[-72.94085318507172,4.092447986454999],[-72.94436068313962,4.09061136809396],[-72.95078513626828,4.091348276983467],[-72.95214194711349,4.087793500384578],[-72.95076317593515,4.082114707162816],[-72.95463231038815,4.080001083980051],[-72.96669030835307,4.08135039645083],[-72.96749922673081,4.077439369420347],[-72.96631620210246,4.07434609303192],[-72.96760537845381,4.073179841272577],[-72.97031255695185,4.080286273147351],[-72.97804745256627,4.075872277047097],[-72.98114765860038,4.078790685297122],[-72.97091103953522,4.089450720317927],[-72.96367162284366,4.103299535984718],[-72.95765817854004,4.103839145376071],[-72.9532325075603,4.109508664103203]]]}}]}