{"type":"FeatureCollection","features":[{"type":"Feature","properties":{"code":"503028"},"geometry":{"type":"Polygon","coordinates":[[[-72.03557204803496,3.3443863783215306],[-72.03653606994277,3.3418384870577142],[-72.03408444501241,3.3402293591533976],[-72.0336108863134,3.3371068328313527],[-72.02656456793227,3.3342481935467276],[-72.02528184197234,3.327597551969575],[-72.02751012929684,3.320546144854859],[-72.03337556529533,3.3142948279673874],[-72.03380762119656,3.3032022259094447],[-72.03774735822844,3.295577888894229],[-72.03754695694766,3.2866154196067896],[-72.04165242646297,3.278633589801359],[-72.03785697168894,3.2699779388559023],[-72.03952244795886,3.2636438210327583],[-72.038181429877,3.2572632978262845],[-72.03236747462563,3.2524752612957286],[-72.02626216880782,3.2543866340581076],[-72.02077765454851,3.2517995971866753],[-72.01587977521473,3.253294184362346],[-72.00875242584755,3.2466673882534565],[-72.00128181424935,3.2506504864787757],[-71.99837050019579,3.2479524107255315],[-71.99467970898849,3.248209174770068],[-71.98976362416522,3.2599829184218834],[-71.98679625588062,3.260780329556326],[-71.98214210611093,3.258357370404383],[-71.98114359744017,3.2546720895920203],[-71.97781106418421,3.252939936308337],[-71.97746417669327,3.2500178585753474],[-71.97460521139237,3.2497050567548627],[-71.97565178021051,3.244383104290705],[-71.97050409424583,3.242820684131857],[-71.96694180590276,3.2366788758037046],[-71.95515799585553,3.2357831208818766],[-71.956501669376,3.2308940285609538],[-71.95373239763245,3.2304383719608722],[-71.95254081841921,3.227920095727768],[-71.95478664891618,3.2250874750104117],[-71.95031806308702,3.2218209780486404],[-71.95520683556231,3.2189476906572168],[-71.95644506801352,3.215518756341737],[-71.95542879505513,3.21223581561253],[-71.95932152712169,3.209583561087186],[-71.96019678826946,3.2001259738602243],[-71.95700076430279,3.1939740837100885],[-71.96109956025458,3.1890293958435336],[-71.95592985739245,3.1826418648297476],[-71.95880390685977,3.1804586695674857],[-71.9614446191747,3.1797287880257272],[-71.96446677773446,3.1813498592329665],[-71.96633253907112,3.1777519271290657],[-71.96890470569218,3.1764581670094003],[-71.98059399158751,3.18210120231322],[-71.99511398735393,3.1784750312346546],[-71.99881025296082,3.1802614996531133],[-72.00304012494007,3.1872460261223523],[-72.00636055137073,3.1859400193091574],[-72.01270705575553,3.1877814497527197],[-72.01743195517145,3.183019720781772],[-72.02410109842947,3.185337245035157],[-72.02835459373341,3.1832191625256314],[-72.0303582671549,3.1859067954736133],[-72.02926299746974,3.1898038387711836],[-72.03295697684894,3.1921794823682035],[-72.03911800059706,3.190734646099372],[-72.04417495736271,3.193926603604325],[-72.04823021728583,3.1908760014098334],[-72.0521345327005,3.192585103182921],[-72.05728368419574,3.1904709791486425],[-72.06355069100232,3.1936509604404932],[-72.07523236950834,3.1949367449884107],[-72.07997804243467,3.1913322966727264],[-72.08253100906234,3.194340339858968],[-72.0859275566944,3.1949492199962037],[-72.09102380510654,3.192639549958301],[-72.09311763899836,3.187129295839611],[-72.09518135906478,3.1877111258817195],[-72.09542647496937,3.1901772590506425],[-72.09720575560306,3.191188391853302],[-72.1035658251447,3.1890215519124467],[-72.10635395955245,3.1864131038962],[-72.10643298096181,3.1823731893639433],[-72.1094986755503,3.1805036649561202],[-72.12572058427668,3.1795479703474143],[-72.13475893616686,3.1741868187966134],[-72.1435189956253,3.173120026684842],[-72.14996100015395,3.1698548008779426],[-72.15978010549514,3.171308048778144],[-72.17014858014721,3.1623845574621896],[-72.17466597277297,3.163478408925073],[-72.17945761707989,3.169172257516891],[-72.1902894451959,3.170186793435903],[-72.19363480827224,3.1759740338643496],[-72.20111438686081,3.1816411347231224],[-72.2065880068285,3.17499452669756],[-72.21395676662183,3.176593407200585],[-72.22327051690661,3.1704372695828624],[-72.23203193699447,3.171947390354319],[-72.23862761448964,3.1677180274541],[-72.24514032752683,3.169154182639602],[-72.24833855647427,3.167164239954161],[-72.25056564052102,3.1702347219425633],[-72.25366521509136,3.170014492290079],[-72.25806740158617,3.165851896906588],[-72.25754847931609,3.16014921090823],[-72.261158157262,3.15908446025486],[-72.27002264271687,3.1634541952744257],[-72.28396093185432,3.1647062870170544],[-72.29098443629505,3.1701746115342644],[-72.30010176948537,3.169652784942457],[-72.30862075378985,3.174405982982705],[-72.31638882181778,3.1730406442921435],[-72.32162886706283,3.179911333487439],[-72.32698093746615,3.1831585749200144],[-72.33494034722469,3.1855608932306154],[-72.34502877595042,3.1848044192506677],[-72.35173814365226,3.194241831520742],[-72.35873099947747,3.190148651893537],[-72.36449559051636,3.190588232908624],[-72.36885512749996,3.194127183834098],[-72.37117972640942,3.1990466974846754],[-72.37559481163032,3.202113451368973],[-72.38557458231867,3.1811467942860645],[-72.38863743223516,3.179055672397226],[-72.39456026561061,3.17858165295587],[-72.39974612633318,3.1728710654336396],[-72.40487030210187,3.15639084177144],[-72.41332174755775,3.1545411632188802],[-72.42349761035268,3.157360906807469],[-72.43083438455523,3.1501326487172605],[-72.44275613136995,3.1464691462036853],[-72.44329089165484,3.1422558917986407],[-72.44172093918297,3.137915379973208],[-72.43696392973476,3.1343534515850138],[-72.43464136405612,3.1298734634136736],[-72.42898337005585,3.1286983763046123],[-72.42789667449603,3.1260590976385743],[-72.42882692440838,3.1123803040890152],[-72.43311157843527,3.1088880783925106],[-72.433337735002,3.103805036210815],[-72.44011308963275,3.101005361649527],[-72.4420034194327,3.0947522491013615],[-72.45410129217095,3.098696853751676],[-72.46274668028855,3.1082107811167248],[-72.47170750098263,3.1129342633388433],[-72.47642243273361,3.113874906691308],[-72.48326439238718,3.1125879918849932],[-72.4887120832621,3.1164127922378384],[-72.49917838542342,3.119390809016295],[-72.50902904955171,3.117292611442849],[-72.5127023150701,3.1205167190893803],[-72.51353919679997,3.125590867300218],[-72.51765892155703,3.125525846078858],[-72.52001224280917,3.1272227258410794],[-72.52045269388668,3.1332825611298176],[-72.52670370738366,3.136308974356268],[-72.5278528664283,3.1419844282251574],[-72.53714890796135,3.1431787749772298],[-72.54388791743344,3.1420725811756824],[-72.53807633891279,3.1329727263659493],[-72.54169154062345,3.126409878812865],[-72.54240730679163,3.119851087437098],[-72.54656711612432,3.114016131389519],[-72.54619258718384,3.105272965127938],[-72.54276936689502,3.101521834169546],[-72.5492576770481,3.100600707570777],[-72.55546423611719,3.1021370844797502],[-72.56198388394228,3.099185537754863],[-72.56562825228275,3.1010515695718937],[-72.56874505840756,3.1065018593210993],[-72.57558109731752,3.1049166355062425],[-72.58054225260571,3.110368367131855],[-72.58128387381879,3.1174871670563675],[-72.59229084775262,3.1186094148456505],[-72.59804201041754,3.125484292887336],[-72.60284363884443,3.1192015478249004],[-72.60683399993087,3.109749952304014],[-72.61404442071404,3.1035702736370467],[-72.61480942871003,3.093821810984025],[-72.61912629047129,3.0892468327763254],[-72.62133918406818,3.0896567884762476],[-72.62377435700347,3.093814179940523],[-72.64026832682845,3.0991948832120215],[-72.64287656092858,3.098595239517067],[-72.64798525143829,3.0932590482662476],[-72.65115374914097,3.0931171612510298],[-72.65857601365633,3.0996961820911224],[-72.66186117479299,3.0977809835226253],[-72.66331134147941,3.0912099289982393],[-72.67020760598325,3.094268147838079],[-72.67205230173181,3.093537602950846],[-72.67813777712092,3.080186013530806],[-72.6830515356072,3.0763429809489935],[-72.6883312149701,3.0794874110398496],[-72.69159821895408,3.0842725463340344],[-72.69759147493102,3.084316590413323],[-72.71221261904765,3.0965284135542106],[-72.72290294478591,3.0976566941873216],[-72.73077216836305,3.095787614066694],[-72.73405132956606,3.0929495827132314],[-72.73684725031211,3.0855048004489163],[-72.74421228200134,3.08324522378922],[-72.75049017384356,3.0861943187071574],[-72.75352798118467,3.0935912619393093],[-72.75598262253692,3.0950826177485737],[-72.75902959432932,3.0947186159456805],[-72.76219805912183,3.0903547265933753],[-72.7716318327623,3.0892451029359904],[-72.77506332481425,3.0963106933014615],[-72.7876748850502,3.1022697494508975],[-72.79105699643469,3.1054919657916003],[-72.79625133358047,3.106226240839817],[-72.79869449031503,3.112279763548372],[-72.80243175992513,3.1145602607857654],[-72.80901426410009,3.1085464287593823],[-72.81631655256814,3.108201125069911],[-72.82354713802374,3.110379605951664],[-72.82899234623846,3.104682240086504],[-72.8321782544445,3.1054189103772956],[-72.83512843231239,3.108550462310916],[-72.84624112705183,3.1076331646036124],[-72.84995911542154,3.110138391958003],[-72.85595454346912,3.0963490151265773],[-72.86043603316654,3.0912347504584545],[-72.85978870676263,3.083453148126978],[-72.86204100410617,3.079421537239625],[-72.8651732286412,3.077553652169172],[-72.87412865515427,3.077397912033234],[-72.87641750540178,3.0759355829856077],[-72.88543481432964,3.061166453189628],[-72.89252586687502,3.0570609353375175],[-72.89500066364371,3.053131586603513],[-72.90318761630948,3.050321353022923],[-72.9033247827735,3.052383539681557],[-72.90490441083261,3.0523129453301863],[-72.90661319276006,3.0554782157802265],[-72.9066214470397,3.0602809580103667],[-72.9038663297506,3.06505296523585],[-72.89896827249623,3.06681797725804],[-72.89906046002676,3.0688704873010124],[-72.90137965138547,3.0679734324277774],[-72.90332432614503,3.0692600479573002],[-72.90165442243011,3.071659838356254],[-72.89997596310184,3.071612197813465],[-72.89960890888159,3.0731307610695353],[-72.90097461575454,3.0733667927413535],[-72.89885387060735,3.0757672115186665],[-72.9040653878854,3.0773044039825663],[-72.90375170468968,3.079350822560457],[-72.89966974125656,3.0852503668551208],[-72.89866311920275,3.0845954268912124],[-72.89878542158709,3.087869153803979],[-72.89723595054795,3.0880510739726788],[-72.89803756904075,3.0900755548432244],[-72.89506964231185,3.0899513056172054],[-72.89500849934723,3.0913385275076735],[-72.89737367648473,3.0916169515801357],[-72.89617595746967,3.096998662725241],[-72.89891521206141,3.099576314030287],[-72.90263056864671,3.0979241694607254],[-72.9024091850817,3.103909388159366],[-72.90057786011437,3.1058043541782467],[-72.90313392749619,3.1103889956318653],[-72.90398861465138,3.1213058420055972],[-72.91049651046382,3.119938843408761],[-72.91017588219574,3.1221395232223017],[-72.916005064567,3.127599772408871],[-72.91139654679182,3.129548152646805],[-72.91412778775947,3.132372718602312],[-72.91136623447704,3.137614824846196],[-72.90374417340507,3.14182973195841],[-72.89848128439479,3.1477272779892473],[-72.89604683959675,3.1469729205439307],[-72.89584542838543,3.149099688250544],[-72.89353593112588,3.150181446257875],[-72.89251368703026,3.155323170341262],[-72.88908820622481,3.1569551605227844],[-72.8877295472684,3.1603057038640827],[-72.89055968018329,3.170990292950023],[-72.889872962374,3.1766528234102225],[-72.89336828882472,3.181843264815768],[-72.89246701939408,3.192194662179759],[-72.89541993703284,3.19683805032696],[-72.89518344050498,3.1991207422607317],[-72.8924365867515,3.201045065171229],[-72.89236840409785,3.205564005603037],[-72.8953284210753,3.215751516537921],[-72.89917377588034,3.221717710078451],[-72.89690736007793,3.2233108755264084],[-72.89521355535885,3.2285212718020944],[-72.8956792505864,3.237073897489836],[-72.89200917323984,3.238950752635901],[-72.89043809256651,3.237232734266172],[-72.88858352068445,3.237567329812123],[-72.88901126946843,3.2429344874672097],[-72.88621850706932,3.244564272667901],[-72.88580616435428,3.250022540045734],[-72.88299897804887,3.247648642744082],[-72.8809081060715,3.2490549165322022],[-72.88178608436442,3.251141134807199],[-72.8782532680986,3.2519398921728566],[-72.87797137097579,3.255439139046416],[-72.87578118538971,3.258077718371567],[-72.8797409503112,3.2623257125364375],[-72.8782608682888,3.263520217668656],[-72.87694824756176,3.2619578653869894],[-72.87589544021137,3.2659975300077804],[-72.87356864969087,3.2662405417189575],[-72.87161533190039,3.263538201014569],[-72.86904425542838,3.264962491058725],[-72.86752634626174,3.262074214117604],[-72.8650312326111,3.261105443890699],[-72.86385582977022,3.2623330792702063],[-72.8630240789401,3.2592489673331215],[-72.86072031113383,3.260011854680613],[-72.85876716612165,3.263711322857489],[-72.85685960271041,3.26320269118321],[-72.85727221282048,3.260464798249359],[-72.85604385341742,3.2599259056824508],[-72.85473871152436,3.2624315660111165],[-72.85663120516739,3.264241574450409],[-72.85577639665604,3.268142978344258],[-72.85225099031857,3.2683483007224368],[-72.85203830943414,3.2647857748091837],[-72.84697196298822,3.2672218054655673],[-72.84734527322433,3.265380114826087],[-72.84492717243484,3.26400174268349],[-72.83715999298124,3.2681906106595306],[-72.83518390238811,3.264913532052617],[-72.8330786928936,3.2687698120025175],[-72.83203296019923,3.2651254632024234],[-72.83583273340338,3.2630648531462043],[-72.83635905531742,3.2611724890869027],[-72.82993484284435,3.2596195717369483],[-72.82354074522505,3.261896722422364],[-72.82364818455812,3.268637057556873],[-72.82210727016076,3.2698918438188684],[-72.81900940589031,3.2663240265688387],[-72.82009219851079,3.2636401505214394],[-72.81821530119856,3.262929746652503],[-72.81493513726411,3.2639879389279827],[-72.80748123579997,3.262268568156344],[-72.80468864617922,3.264572188895329],[-72.80208679870708,3.2645033264411722],[-72.80320818466151,3.258013800669005],[-72.8005912077715,3.26104545586702],[-72.79769201391304,3.2605077429236644],[-72.79567041062467,3.262203746452826],[-72.79518179449866,3.2600309919390043],[-72.79267887394087,3.2608957269775942],[-72.79352560917852,3.270566257341841],[-72.78805606184312,3.2673230669444138],[-72.7833181413165,3.2713972491814047],[-72.78085370199244,3.270302325052967],[-72.78211993173437,3.273677441999837],[-72.77565022404957,3.2743826419495576],[-72.77700049811409,3.277109153110075],[-72.77469574814523,3.2803219180640326],[-72.77295690484294,3.277220822427182],[-72.76541897551124,3.2787998478189593],[-72.76467073627049,3.277460800232973],[-72.76633405589644,3.2755033563310576],[-72.76493007553512,3.274330124532355],[-72.76144370167657,3.2765659863360383],[-72.75789596168136,3.2750011431665484],[-72.75927691932844,3.269724760990414],[-72.757895788903,3.2674253959465887],[-72.75939151867829,3.263782176376367],[-72.7555532642404,3.263434095892137],[-72.75502639108117,3.2665016817863943],[-72.75113580023196,3.2666230801697793],[-72.75023554895944,3.261195623901358],[-72.74656550555147,3.262913038575334],[-72.74416257120379,3.260438276773698],[-72.73909594913528,3.2664493361190807],[-72.74030119840648,3.2716053894920947],[-72.73858484405679,3.271148775411973],[-72.73644848612366,3.265240519180793],[-72.73350403873752,3.2649867982976275],[-72.73399989201346,3.275087256715551],[-72.72923161597748,3.274857601387339],[-72.72517951748665,3.272168667459596],[-72.72449335195103,3.2757207762786607],[-72.72768187857173,3.2784384973409146],[-72.72360838539123,3.28243295162855],[-72.7180609283929,3.2730291365186304],[-72.71555900645274,3.271476348752401],[-72.71112613637536,3.2801245661153757],[-72.70695286473011,3.2789469058431564],[-72.70449555045582,3.2801368868567238],[-72.70243601820732,3.278236613046033],[-72.70058898480892,3.2845315091568636],[-72.70554866736745,3.2886705645195207],[-72.7032906107458,3.294571609311788],[-72.70409122136488,3.297820046822949],[-72.69635500934402,3.302864713700558],[-72.6921356048527,3.298445802673484],[-72.69379133354443,3.2955760089012642],[-72.69104497961399,3.2943516552818437],[-72.69399006463453,3.2909169205506146],[-72.68846581958383,3.2893445738645255],[-72.68270499264457,3.2913372943732497],[-72.68089024514217,3.282455664781594],[-72.67840994312064,3.281577487999243],[-72.67564000494639,3.291623387541563],[-72.66974224397109,3.2910533629911356],[-72.66788874886834,3.292202278294951],[-72.66820146738502,3.2944979121493247],[-72.67306889350738,3.2985420402105774],[-72.66881963230128,3.305016418052901],[-72.66306709358031,3.3042866259856396],[-72.65897004289542,3.2977822546457105],[-72.65460545008841,3.2967724701311454],[-72.6502415113709,3.3078854878015136],[-72.64699878685786,3.3109816715969487],[-72.64213069739009,3.307476471069606],[-72.64371016192683,3.304569436365398],[-72.63826329380589,3.308665307426679],[-72.63807972812918,3.3112020215772304],[-72.64165752230008,3.3182204187723983],[-72.6470445751757,3.32055284515792],[-72.64575562405321,3.322372046844862],[-72.63727816928605,3.3273494278706153],[-72.63235018641132,3.3240463440662325],[-72.62416296943582,3.3266130270317262],[-72.62337021714603,3.325114523546972],[-72.62575024087971,3.323050044490003],[-72.6242551055442,3.322056777790749],[-72.62255361424576,3.323019326968847],[-72.62190517095326,3.326606840949978],[-72.61667110404454,3.3273363995608065],[-72.61592301084266,3.329099860691656],[-72.61004047493037,3.3265874362965633],[-72.60640881916788,3.32949976130908],[-72.60736323439409,3.326608848469789],[-72.6045553497762,3.326781479745648],[-72.60322782280326,3.334056958774113],[-72.6041358984665,3.3373659797771893],[-72.5989323084234,3.338750883558248],[-72.59855054541822,3.3421364700499794],[-72.59269809042121,3.348016764985971],[-72.59058492798067,3.346037667226881],[-72.58783891857848,3.347658456640886],[-72.58596925841624,3.346753259588297],[-72.58728954721073,3.34289339448776],[-72.58551130016178,3.3387971110209946],[-72.58937165582938,3.3393669113709734],[-72.59016589936084,3.3376046905418093],[-72.58492399160639,3.3368158329637936],[-72.58731207113033,3.3302189460202385],[-72.58338292191416,3.3305530859661303],[-72.58570262955107,3.3275281341564664],[-72.58181870815156,3.3247310379006194],[-72.57852996289273,3.3261645129649082],[-72.57808763490766,3.3220076120676936],[-72.57666114708184,3.3210307675385593],[-72.57324275841597,3.320471246471584],[-72.56945099883592,3.3221909627999366],[-72.56610955412555,3.327942742530354],[-72.56299662831441,3.3283628057633337],[-72.56196877509325,3.3306772148643518],[-72.55960904355885,3.3282491021869305],[-72.55715240188596,3.3281712614295884],[-72.55609968915223,3.3247106336010006],[-72.55284863219794,3.325024247891122],[-72.55185769183566,3.322364352037937],[-72.54880535774396,3.3243263807365224],[-72.54682142527656,3.3304999566256015],[-72.54386898174982,3.3274968304230583],[-72.54463952996565,3.323638474047698],[-72.54162613270768,3.325879650842296],[-72.53936800718037,3.325413369402497],[-72.53953484832488,3.3222332173892255],[-72.53733790792836,3.318577581432521],[-72.53285939660043,3.3194468652723685],[-72.53024266036596,3.316786091129245],[-72.52660274106779,3.317039122955862],[-72.52647382888341,3.3239799807273585],[-72.52990719372923,3.324234563445316],[-72.53094446542696,3.326006925746185],[-72.52922026097548,3.3313903770160778],[-72.53182909568608,3.330486540592972],[-72.53387376488331,3.3315672218209897],[-72.53057862579732,3.3370504597831427],[-72.5285329230154,3.3380591335797476],[-72.52004135390314,3.333276467576013],[-72.51916464265139,3.329533056107209],[-72.51387692909555,3.32945343922961],[-72.51336593611728,3.3326250860232562],[-72.50301183394942,3.3311575499711807],[-72.49958620607669,3.339420729767994],[-72.50129524614323,3.3422275633176355],[-72.49837371862702,3.3424934599317453],[-72.49581789190074,3.348185010982945],[-72.49814407152638,3.353160177771997],[-72.48513617319787,3.346955686900799],[-72.48444930009379,3.355197204612864],[-72.48146616475697,3.356008723921775],[-72.47560684182076,3.351340174928339],[-72.47434010402827,3.3545302699238846],[-72.47855878552446,3.357928290285656],[-72.47865099053848,3.3606720422565104],[-72.47319587636548,3.3639173347904716],[-72.46990739747326,3.3596106443256986],[-72.46812981376974,3.3595924378078053],[-72.4666868430956,3.3653031775395448],[-72.46419974204065,3.36734259139547],[-72.46243733197804,3.3669752265855664],[-72.46040069285999,3.3604242318325532],[-72.45641812942478,3.3584316666186282],[-72.45568538264217,3.3616282325745033],[-72.45853139573796,3.36351552126996],[-72.45885138637169,3.3658290942472036],[-72.4567534407667,3.3677826794327643],[-72.45324427662194,3.3677909162288984],[-72.455205116441,3.37255927865408],[-72.44757462831103,3.372191620738022],[-72.44807878831722,3.3793247725778883],[-72.439189913348,3.377740775694974],[-72.43726010986728,3.381971993905495],[-72.43452872286082,3.379475794219559],[-72.43202602650348,3.3800551508574017],[-72.42984432865353,3.385610208045989],[-72.43192630768846,3.3884810189478003],[-72.43195769781096,3.3925138588240316],[-72.43572606340905,3.392183588907301],[-72.43474217096337,3.3981909952248657],[-72.43011899685388,3.4019666843621508],[-72.4267004518648,3.39890033979799],[-72.42444931460437,3.4016032492311297],[-72.42840157292392,3.4075202595650467],[-72.43196487531134,3.4068122766498163],[-72.43236101799977,3.407922564681087],[-72.42872984457682,3.4114931463846005],[-72.42364808280604,3.4118448202469835],[-72.42415182115076,3.4144553014940584],[-72.4278218727863,3.4151181594368722],[-72.42602843461287,3.4177562996170536],[-72.42171039631336,3.4146595378369966],[-72.41334872051965,3.4130726808554073],[-72.41029715364607,3.414352101401107],[-72.40631333242561,3.4350907486638107],[-72.40616888458857,3.4308735666367625],[-72.40498662409294,3.431165830460202],[-72.40371216578245,3.4262952675881593],[-72.39527427828432,3.420070864012928],[-72.3955795693891,3.4139494435293045],[-72.39428942013109,3.41421891603801],[-72.39353408052324,3.4121458721117506],[-72.38893391267288,3.4123337809012355],[-72.38369212524617,3.4097285046017305],[-72.38400470595155,3.4071663971769794],[-72.3869576842684,3.4063077978264573],[-72.38568316630824,3.404729849213993],[-72.38527901822323,3.406296914847701],[-72.3838068027577,3.4058903540365577],[-72.38453095073243,3.404576975347368],[-72.38073923434695,3.402852219650697],[-72.38182230259002,3.4013914476650484],[-72.37666569797182,3.3957886542885376],[-72.37661224981412,3.393575050037839],[-72.37832864735844,3.3932029554208043],[-72.37546716031648,3.3900058721583832],[-72.37754255629079,3.3907338191997383],[-72.37742817188547,3.3892856188954283],[-72.37168343081561,3.385706049632745],[-72.37301115627793,3.383851356394473],[-72.36727348060822,3.3852315643069915],[-72.3635961743392,3.383095697969395],[-72.36368713905148,3.376121495006146],[-72.35713385087166,3.370804898670656],[-72.35795709751056,3.36938890610071],[-72.3490380120424,3.3687091940419123],[-72.34442299759587,3.371094628411697],[-72.3422475814728,3.3684947812602672],[-72.33915036409269,3.3696326675465116],[-72.3387688592266,3.3685789212280497],[-72.33799804464411,3.3714762875441693],[-72.33443531201391,3.3713715632993626],[-72.33541964360455,3.3704253509306454],[-72.3330852014717,3.368128036601206],[-72.32758421259166,3.3686446304774336],[-72.32871286243562,3.3693528468490967],[-72.32765276548463,3.3711796559253457],[-72.32563865851375,3.3676931278004076],[-72.32316664573898,3.3687710867411056],[-72.32246408991494,3.367441629381574],[-72.31684919999753,3.3669331437461665],[-72.31453741959558,3.3633257427719627],[-72.31836690141876,3.360725516125285],[-72.3159334038163,3.3610368822400005],[-72.31299659981494,3.3586514468418045],[-72.31160734366517,3.360951613042346],[-72.3133474725206,3.3629614458061496],[-72.30754064026212,3.3647863512352956],[-72.3085251364036,3.368103195600611],[-72.30636575472784,3.3697601738499543],[-72.3052519864471,3.3664475954641944],[-72.3014295093459,3.367646727559304],[-72.29918606586403,3.3642287091327603],[-72.29727164274112,3.3665724915805413],[-72.29498251481414,3.3666270340011124],[-72.29639434527718,3.3643037936641917],[-72.29169408837248,3.3635115751360445],[-72.28798656337693,3.3651972726427175],[-72.2882230784167,3.3668072047890973],[-72.28408017873596,3.3667955731041843],[-72.28523999450198,3.3688653764081096],[-72.28339274615911,3.370742041292317],[-72.28024942061558,3.368229625124741],[-72.28332472702783,3.367373800512155],[-72.28230929019321,3.365052869028659],[-72.2804407767444,3.3650448811156366],[-72.27996718719203,3.3670263576622688],[-72.27686240458877,3.364965928611923],[-72.27270357330491,3.3668970063329198],[-72.27065890410773,3.3654854000703267],[-72.2700033172535,3.366785776160725],[-72.26970558314434,3.3630324031976784],[-72.2673862107797,3.3618383454380023],[-72.2594365167177,3.3679574046175844],[-72.25781066016737,3.3668555786113643],[-72.25747478112521,3.363687971539946],[-72.25388873987373,3.365939798885279],[-72.25100491814555,3.364808469948514],[-72.2499221172975,3.36608992475351],[-72.24845720891608,3.3630976043965006],[-72.24770921958685,3.365096571665049],[-72.24406201891571,3.365790734369739],[-72.24262073694422,3.363996089833222],[-72.24065984570302,3.365912519447477],[-72.24018635179584,3.370190887633669],[-72.2380042230285,3.367793742388926],[-72.23631862116696,3.3679922060839544],[-72.23720374199314,3.3618283849721706],[-72.23438768948478,3.363544335144013],[-72.23272426495771,3.3615204826518266],[-72.22819990463387,3.362373860599689],[-72.22864278489254,3.357041394367684],[-72.22565253993258,3.357541288394316],[-72.22487378166011,3.354396059203623],[-72.22417152819816,3.3559821417679814],[-72.22039533820941,3.355364821203011],[-72.22100557589079,3.3542824852109447],[-72.21878532790146,3.353655117790993],[-72.2201591862098,3.351239948062698],[-72.21886180802932,3.351260627984857],[-72.21871674106984,3.3489120108287693],[-72.21551218720094,3.3498012680507827],[-72.21256689546345,3.345598346407712],[-72.20915660578243,3.3447241075318175],[-72.209736754321,3.341729512259974],[-72.20430445614528,3.337115101509198],[-72.20598326925773,3.327408132398034],[-72.19993295323297,3.3137749862696637],[-72.20111501626758,3.3134699358204216],[-72.19990998091242,3.3110588839759316],[-72.20187106241548,3.307179443500445],[-72.19803341064494,3.3029251850921924],[-72.1988264303298,3.297881525059836],[-72.19626296227557,3.2969242240238827],[-72.19588140598734,3.2947921228144423],[-72.19276860975998,3.294242174490421],[-72.19135759690869,3.2901959093255755],[-72.1932569924295,3.277837747041815],[-72.18339951075575,3.273772620241175],[-72.17765419272962,3.2732171142137645],[-72.1631349765226,3.2817372637436506],[-72.15709263092737,3.279574479980056],[-72.1531173396092,3.281011789078093],[-72.1383468676957,3.2949803411651146],[-72.13307481114879,3.2955987127983235],[-72.13046469191346,3.300190031929219],[-72.12774066341325,3.3009602345883877],[-72.12765773803608,3.3036980503890163],[-72.12414710938918,3.304314733319643],[-72.12173703970728,3.3008975160498153],[-72.11996652140385,3.300934110091532],[-72.11245122809197,3.307603366478247],[-72.10023632270884,3.3096090813581895],[-72.09758068357922,3.3149671990034904],[-72.0942774280249,3.3125022166617555],[-72.08793688140759,3.3117466189148104],[-72.08345081308403,3.306646951959749],[-72.0799113273685,3.3082259259294347],[-72.07710363301248,3.3075582157948133],[-72.07215906341679,3.313595012942642],[-72.07377671608111,3.315770773593954],[-72.07269316549849,3.3212991375569345],[-72.07028182980383,3.321960178241852],[-72.06705522612731,3.328293012568679],[-72.05468696556648,3.3283245826686993],[-72.05386364179435,3.3373430681347713],[-72.04940810998608,3.3421040196031413],[-72.03928279205559,3.34679940888941],[-72.03557204803496,3.3443863783215306]]]}}]}