{"type":"FeatureCollection","features":[{"type":"Feature","properties":{"code":"503029"},"geometry":{"type":"Polygon","coordinates":[[[-71.07743033233601,3.3554386304656987],[-71.0774499941001,3.051601502734343],[-71.0824129327076,3.051029389417181],[-71.08810388006304,3.053654642184142],[-71.09342441430499,3.0538495166147754],[-71.09784573394444,3.05775364176759],[-71.09928150552088,3.0649150007004096],[-71.09844120421968,3.078232858234287],[-71.10066109842478,3.0835708862834394],[-71.10369602098461,3.0863717425251593],[-71.1070171107607,3.086505793836807],[-71.11030750358441,3.08321096534047],[-71.11469569091969,3.082613512228079],[-71.11719435886766,3.084543368159359],[-71.1189313324615,3.089356069826863],[-71.12638772172807,3.091913964751086],[-71.1393965004034,3.091417936639857],[-71.14396887870839,3.0865958576334833],[-71.15038406042777,3.086053267815714],[-71.15339731781756,3.0872285431296973],[-71.1582735391803,3.096461221290724],[-71.16458218042538,3.1004756828991162],[-71.16977308154469,3.1016709768467194],[-71.18135686055047,3.1010466834414956],[-71.18726415107415,3.106452978476625],[-71.20494685852566,3.1035687813669597],[-71.20951886144917,3.1068561485128043],[-71.2105209604128,3.1144161276520776],[-71.22618630278754,3.1112357031015563],[-71.2294450298661,3.118035363942738],[-71.23336871291025,3.1198978455761903],[-71.24103402821765,3.119443139256987],[-71.24462899223647,3.1149985716743913],[-71.24134293635478,3.0964889604423433],[-71.24466159283583,3.0910754776224394],[-71.24828655035225,3.0918652895950913],[-71.24857560440654,3.0943877392479067],[-71.25274280824095,3.0941067265856645],[-71.25346356544065,3.0976533507207478],[-71.26029447447934,3.102281021180886],[-71.26274851830647,3.106565011862358],[-71.26375926544324,3.112939510452577],[-71.27057511499811,3.11591969827316],[-71.2757296215936,3.1214854306950883],[-71.27907558219505,3.1193160978095307],[-71.27951723757872,3.113496067548226],[-71.28165853717809,3.1120098097285336],[-71.28686446384262,3.113813975585856],[-71.28892760078213,3.1196221365920564],[-71.2965924656317,3.1183455833440803],[-71.299246079758,3.10713430004796],[-71.30563290628868,3.1031627183219257],[-71.31520734721153,3.103821783368744],[-71.32298962934351,3.1085629465746365],[-71.32884569520218,3.1080151117000128],[-71.33644057968058,3.102516399791739],[-71.34726783328426,3.100804354616116],[-71.35251992056283,3.095592999831979],[-71.35710655513805,3.0946088944987196],[-71.36075601529745,3.0954756627681377],[-71.3608011906635,3.100042773390612],[-71.36398475402063,3.101449853477675],[-71.37091840138163,3.100917494606051],[-71.37748687245835,3.0964774429145905],[-71.38026663637248,3.0971237943549568],[-71.3827099730845,3.1008328558436347],[-71.38624676839441,3.100755457316552],[-71.38961083781174,3.0971497964671926],[-71.3892241938184,3.090549871504436],[-71.39090181085226,3.087308188803661],[-71.40700399035745,3.076923992350828],[-71.41198682727082,3.0767757763003942],[-71.41560366111975,3.0788979828644187],[-71.41575753257564,3.086853475285352],[-71.42919674324139,3.0833035632195447],[-71.4554917527862,3.0882625382095625],[-71.4604951081563,3.0867415807393286],[-71.46209752238781,3.0814095618797523],[-71.46620208893057,3.0776877528460886],[-71.4713376012212,3.0758338772196225],[-71.47650363254354,3.0760602795841123],[-71.48193731500294,3.0802796419092715],[-71.48581691385851,3.0928088845776074],[-71.49243353661399,3.0932999864491535],[-71.49571066664299,3.10014384666448],[-71.50817975467993,3.101861515363737],[-71.51095596841049,3.1100465983209915],[-71.51740684942655,3.1110975195078368],[-71.52824913885985,3.1081229233292333],[-71.53428084830256,3.1126502990465497],[-71.53847596303842,3.1125167732690215],[-71.54142836234217,3.1102988629295396],[-71.54722695677606,3.1116484715917636],[-71.55412878206863,3.1388240058531665],[-71.5627313787499,3.1468098938927938],[-71.58018102775691,3.144688324963113],[-71.58262353657273,3.1474147898436513],[-71.58665291779675,3.1478879320235365],[-71.59147663511203,3.1511008183337026],[-71.59286087760455,3.15403819209223],[-71.5921151662755,3.157475389943329],[-71.59378970826623,3.1589734028610224],[-71.5986785805004,3.157570717308829],[-71.60089659779794,3.154070210593204],[-71.60384916062401,3.15378199266263],[-71.60745505184457,3.156695176424705],[-71.60886913253984,3.1643181682371164],[-71.61336200606752,3.170586559327319],[-71.61996379971038,3.1743637736448704],[-71.63379280140356,3.175790798317678],[-71.65024084201406,3.172081047772508],[-71.65872440778668,3.1749693771641887],[-71.66059092297166,3.1787552396548904],[-71.66517248423997,3.1813989437090413],[-71.66772821532112,3.1874884536782133],[-71.66828412449797,3.196228989183851],[-71.6733926031485,3.2015203146298177],[-71.68223248825836,3.193826212187844],[-71.68734444201618,3.194878363391979],[-71.68968167328512,3.1973436696931117],[-71.68996059512375,3.201481394251118],[-71.69440993365117,3.2025930758219943],[-71.69917296771564,3.199425323740172],[-71.70416739517623,3.1986115912229707],[-71.70907787498771,3.19385393488443],[-71.71579751271656,3.192004142174767],[-71.71952515816156,3.192192418118225],[-71.72552157145702,3.195756264551676],[-71.73516719705725,3.1963883936604702],[-71.74831050012773,3.1849784070421947],[-71.75197497760479,3.184405151125361],[-71.75674072470065,3.1860806361978575],[-71.76488378035441,3.1817158047921907],[-71.77077545603532,3.1824735818088357],[-71.77638126583378,3.18823023018615],[-71.78017952105677,3.1882725279700708],[-71.78319429437079,3.1858649234648624],[-71.78403649726226,3.1789162443880628],[-71.79172359292534,3.1755930874425644],[-71.80169274288778,3.177057301625325],[-71.81588304158004,3.1824179379263455],[-71.83242226184734,3.181879472163075],[-71.8421024235758,3.185891507675535],[-71.84615961697085,3.1854017993436514],[-71.84943935204473,3.1887295133179236],[-71.85001196827034,3.1939382034075265],[-71.8544499620483,3.197048958176481],[-71.85669680967499,3.195787718437657],[-71.85835240775447,3.1898220370615604],[-71.86349708449637,3.18737437986249],[-71.91088740722626,3.196199723823554],[-71.92543086382346,3.1893647894608534],[-71.94240404980974,3.1914329266878667],[-71.94802177000099,3.188224779440816],[-71.95355768067515,3.1872620430861502],[-71.95592985739245,3.1826418648297476],[-71.9611188651491,3.189576052123016],[-71.95700076430279,3.1939740837100885],[-71.96019678826946,3.2001259738602243],[-71.95918622933766,3.2100982801127316],[-71.95542879505513,3.21223581561253],[-71.95644506801352,3.215518756341737],[-71.95520683556231,3.2189476906572168],[-71.95032891624095,3.221735825064968],[-71.95478664891618,3.2250874750104117],[-71.95254081841921,3.227920095727768],[-71.95373239763245,3.2304383719608722],[-71.956501669376,3.2308940285609538],[-71.95515799585553,3.2357831208818766],[-71.96694180590276,3.2366788758037046],[-71.97050409424583,3.242820684131857],[-71.97565178021051,3.244383104290705],[-71.97460521139237,3.2497050567548627],[-71.97746417669327,3.2500178585753474],[-71.97781106418421,3.252939936308337],[-71.98114359744017,3.2546720895920203],[-71.98214210611093,3.258357370404383],[-71.98679625588062,3.260780329556326],[-71.98976362416522,3.2599829184218834],[-71.99305809682045,3.2502326446816596],[-71.9955685455775,3.247895807306179],[-71.9986063868572,3.248047187874249],[-72.00128181424935,3.2506504864787757],[-72.00916155467968,3.246685496040868],[-72.01608151141386,3.2533614013084957],[-72.02048715039024,3.251770062374419],[-72.02593358553685,3.2543586552793613],[-72.03136093176192,3.252430546671917],[-72.03444771045048,3.253186380960642],[-72.038978472829,3.2593675693812543],[-72.03952244795886,3.2636438210327583],[-72.03782107493129,3.269739487258846],[-72.04168960054625,3.2776542626120317],[-72.03754695694766,3.2866154196067896],[-72.03774735822844,3.295577888894229],[-72.03380762119656,3.3032022259094447],[-72.03337556529533,3.3142948279673874],[-72.02751012929684,3.320546144854859],[-72.02530955746977,3.3271442062797973],[-72.02656456793227,3.3342481935467276],[-72.03350114018377,3.336989053537195],[-72.03408444501241,3.3402293591533976],[-72.03649000188858,3.3416991814332277],[-72.03608755381902,3.3436614261047453],[-72.03221073175825,3.344317883021347],[-72.02907492001572,3.347931969900287],[-72.0256487419262,3.3479264471639567],[-72.02432841816471,3.3503880860391178],[-72.02191844309954,3.3509167692571395],[-72.02231478530581,3.3538169709892713],[-72.01772163040505,3.357117219377699],[-72.01323527823132,3.357723363857815],[-72.01004575196453,3.3542439350715654],[-72.00330917373054,3.357449721014632],[-72.00213401257366,3.359813872794973],[-71.9978388087834,3.359344903006445],[-71.99346695208686,3.3663806973352735],[-71.98767626740437,3.366136075083091],[-71.98457041624931,3.3687885949465226],[-71.98206065346346,3.3770341976322698],[-71.96677063192993,3.372557391462067],[-71.96290222869959,3.3779734988672203],[-71.95971388308476,3.3782059813839282],[-71.95905773675781,3.386844624975481],[-71.95513599747005,3.385750966859746],[-71.95193167602912,3.387625874135722],[-71.94825398203727,3.3859769516765823],[-71.94572869285469,3.3903679024369353],[-71.94106654591593,3.3896464345833692],[-71.93914398061366,3.394425584342173],[-71.93460397356534,3.392863922145409],[-71.93207099780335,3.3951090368464065],[-71.93161353114442,3.391036293400475],[-71.92817204983021,3.3928823096692327],[-71.92471637600931,3.3915195924786303],[-71.92377780702543,3.3889803792127964],[-71.91945914857507,3.3874925766724004],[-71.91723900445845,3.39060139282725],[-71.91507235889316,3.390867057013395],[-71.91520238282396,3.389522546340686],[-71.91081510257499,3.387073272429973],[-71.90926613135895,3.3891121165287927],[-71.9111659577971,3.397072797442206],[-71.91027367592568,3.3989899767910288],[-71.90934975402013,3.39796107250163],[-71.90714570502888,3.3998747284063597],[-71.90402479233313,3.399123248543276],[-71.90038598375293,3.4017475325173905],[-71.89843952567406,3.4005824356989933],[-71.89334309008541,3.407561895031961],[-71.89137473646531,3.407129295084644],[-71.89219121903778,3.405944508734251],[-71.8898188469164,3.4032529296523535],[-71.88510317468678,3.4038820032584454],[-71.88511037789817,3.4012134222081727],[-71.88329488991718,3.399801237960844],[-71.88072351108315,3.4016088850960955],[-71.8795260594631,3.4002822713801493],[-71.87676464399198,3.401133279796454],[-71.8767254212512,3.4060180763129324],[-71.87208751264575,3.403619467594467],[-71.86987429611793,3.4041204137178056],[-71.87005012379313,3.4009478444112347],[-71.86871496371981,3.400388443672],[-71.86381622460812,3.404431735609535],[-71.863939044299,3.401849268108208],[-71.86083305430424,3.40247802186866],[-71.860314849887,3.4010242124388697],[-71.8586365540811,3.4015760726375674],[-71.85966581215473,3.4041753438611977],[-71.85764418315529,3.404457550545203],[-71.85662895303756,3.407499950910619],[-71.85479803224814,3.4054969336354475],[-71.85032694010454,3.4068600899709622],[-71.8491833233366,3.406103991372504],[-71.85033472952819,3.40348213760808],[-71.8486339005467,3.4035674232608244],[-71.8449557756374,3.408111532766327],[-71.8443913694685,3.4120642230317344],[-71.8405235689055,3.4116050584141817],[-71.83877588511126,3.407667860606864],[-71.83889013067693,3.405411845443666],[-71.84167547492012,3.403447275463577],[-71.84177480601238,3.400346317638025],[-71.83889874696837,3.3987757367877407],[-71.83665480366341,3.4004309317177785],[-71.8347554256261,3.3984142053038227],[-71.8355646443091,3.395036486397373],[-71.83110086747718,3.3961889169177084],[-71.83048227164346,3.3905408535583774],[-71.82753780677376,3.3889317050852696],[-71.82263137388355,3.39002886916154],[-71.82354767811535,3.391850139046369],[-71.81697098875446,3.3939220712263136],[-71.81646688839788,3.3956044602334146],[-71.81333876323475,3.3913184147237985],[-71.80342033708581,3.39875382479147],[-71.79970495376097,3.399036979699474],[-71.79784371242914,3.4014068187669295],[-71.8001626795874,3.405609068837009],[-71.79695101712383,3.405331470603926],[-71.79274700944546,3.4102399202699303],[-71.7886723880635,3.4112806207950257],[-71.78568904498127,3.4166222648480584],[-71.78275922924678,3.416932622060699],[-71.78276751746506,3.418642704967965],[-71.77813551211966,3.417748846494135],[-71.77749512461742,3.4246869809498435],[-71.77403882344657,3.4247175863707184],[-71.77264271786959,3.4228968337924925],[-71.76685171436998,3.4211563696648],[-71.76423476319098,3.424577465191362],[-71.7603515915261,3.421258613306236],[-71.75996937189245,3.416157464365483],[-71.75842822506712,3.4162423808073754],[-71.75758871875195,3.4208684242714753],[-71.75271410690169,3.423660497614094],[-71.75129482331573,3.4268082937973077],[-71.74525221032542,3.425509270108762],[-71.7462590133851,3.427932781534423],[-71.74366545515966,3.430485247310571],[-71.73981190675306,3.427972288125318],[-71.73563065645078,3.429880980766484],[-71.73337327962963,3.4346762266790734],[-71.73521870145856,3.4384029485826773],[-71.73343319874766,3.4382082325321903],[-71.7307862355591,3.4428070654641374],[-71.72679615009531,3.4437340541852564],[-71.71977676250998,3.4506768680544155],[-71.71628967388386,3.450903093526847],[-71.71477941632958,3.4462233869605257],[-71.71235254498225,3.4449636292073933],[-71.70646328819811,3.4439724810997063],[-71.70334281464733,3.4450398933623774],[-71.70378470348743,3.446777523102469],[-71.69868096904224,3.4480980093579205],[-71.6967659782191,3.4547704199778195],[-71.69757409338325,3.4592687586490456],[-71.69333985155174,3.4665592909906877],[-71.69172253415968,3.4669809997317316],[-71.69004413448107,3.464431566832559],[-71.68566473004495,3.4632853573610305],[-71.68486297374085,3.466117049394768],[-71.68265855451034,3.466258273064568],[-71.68048418019958,3.46874029052816],[-71.67802767633793,3.4663317377990097],[-71.67448757972755,3.4679874664906833],[-71.67295386854158,3.470903660504007],[-71.66736851549331,3.4697582264781204],[-71.66712411744157,3.47393417001706],[-71.66528589882404,3.474159844244241],[-71.66132597963622,3.4804274866282867],[-71.65494036975304,3.4810479778815306],[-71.65399429519562,3.4835714312942514],[-71.65084250042793,3.484975007477658],[-71.6428928495605,3.4849797722518474],[-71.63858959717908,3.4818141655011345],[-71.6361097600136,3.482852962379127],[-71.63479762162609,3.4787052547295616],[-71.625787572474,3.4750665757330808],[-71.62661840079119,3.472795861040936],[-71.62519925501647,3.4717875842231365],[-71.6202867903109,3.4743401106773604],[-71.6162659523589,3.4737185765833942],[-71.61332023896,3.475860043818898],[-71.61203079727039,3.4725329119430626],[-71.60169229040491,3.4746051968787697],[-71.59925173562988,3.4765542229786206],[-71.59864058469157,3.4816013982274967],[-71.59684742214074,3.4835204997353912],[-71.59170556024606,3.4779747304112334],[-71.59053029521647,3.4795690765112113],[-71.58730314132322,3.4788919314448776],[-71.58536511750145,3.4803391156480075],[-71.58180953666044,3.475501157489134],[-71.57910901321401,3.4771552159901944],[-71.57290581509506,3.474384787248823],[-71.56870936441231,3.477750839503358],[-71.56291958475924,3.467867275498861],[-71.55892158954401,3.464653243503676],[-71.55149772580052,3.464567836494723],[-71.55087995683459,3.4623256168594594],[-71.54797319775298,3.464216188343414],[-71.54062571026469,3.4591134031506385],[-71.5408621728539,3.4572546434506535],[-71.53642118630819,3.4562833391414074],[-71.53501756693015,3.46174311524436],[-71.53111124296731,3.45962020831098],[-71.52987554151309,3.4527151701640264],[-71.52620547342252,3.453454543201758],[-71.52320702663343,3.4518219493245397],[-71.52213838229665,3.453471775784635],[-71.51557683160962,3.4554533808865813],[-71.51122047559875,3.450233290511676],[-71.50906190639262,3.453065878318853],[-71.50583387112408,3.450758440001266],[-71.50298846172404,3.4507597409810273],[-71.49946346882047,3.4535642564212026],[-71.501355273407,3.45545981790832],[-71.49664843344175,3.456039259906845],[-71.49692282499103,3.4588699440669757],[-71.49352739938979,3.456975330803857],[-71.49036159414965,3.4590924990279746],[-71.4862570296637,3.4588745628022934],[-71.48784351640597,3.4618697782249797],[-71.48677539760331,3.4632992989277795],[-71.4843419689065,3.462228828077116],[-71.485249010985,3.465471182350825],[-71.48278538104518,3.4635209324043785],[-71.47939733966115,3.4642918930256315],[-71.4781313947978,3.4624511156430913],[-71.47381296054795,3.462782463367546],[-71.4706385040493,3.4651750238155614],[-71.46675540951765,3.4628955982152547],[-71.46490076872993,3.4659196449954948],[-71.46317743434082,3.463282039605474],[-71.45956833540805,3.4643549488933445],[-71.45852272304148,3.466581711037577],[-71.45956830146946,3.4680379424495413],[-71.45751584284864,3.46861604027373],[-71.45972821502517,3.47117144431013],[-71.45691320432906,3.47076045502547],[-71.45724146672592,3.4731508269478013],[-71.45347199040992,3.47328992277005],[-71.45270183814443,3.4750493606337614],[-71.44523970914014,3.4788181139546737],[-71.43960190860872,3.4759611757139623],[-71.439387855782,3.478572431378268],[-71.43678600111076,3.4775013835713366],[-71.43416181998089,3.4815981072114823],[-71.42579157109037,3.4781924702044194],[-71.42349532634108,3.4799526135797123],[-71.42582247887339,3.4823977089284313],[-71.42549453529364,3.4847342367427245],[-71.42287004357416,3.4821245494532604],[-71.4206799968278,3.484076944730816],[-71.41717785488856,3.482676375713311],[-71.414851029401,3.4837210398558796],[-71.41414085796015,3.4825119123279364],[-71.4102577994239,3.485894068963887],[-71.40910557356364,3.480864764960643],[-71.405771272415,3.4789418469025577],[-71.40696894000797,3.477430469374326],[-71.40549659598713,3.474737106973123],[-71.40191096919796,3.4738867793857935],[-71.39939284003219,3.4770204190576806],[-71.39198489143666,3.479551145615858],[-71.39045111957256,3.4787275369651525],[-71.38963472338924,3.4805143581394304],[-71.38528631209687,3.4776298463263515],[-71.38408100214752,3.479059289895986],[-71.38208206059005,3.4774382762814753],[-71.38076964657995,3.4785930249112766],[-71.37983834971311,3.475350205781581],[-71.37817483056932,3.4790614866491865],[-71.37532892134618,3.4785124094159983],[-71.37316966102662,3.4822781298599352],[-71.36329031157959,3.4826114326535844],[-71.363892103691,3.4804401272152745],[-71.35546931270062,3.4771993320604793],[-71.35103707922917,3.4800860745653495],[-71.35046447020267,3.4822579929553967],[-71.34942729312166,3.479152675561977],[-71.34668722091811,3.481681281471708],[-71.34516157477839,3.481187366809877],[-71.34526921362931,3.4785488995850073],[-71.34275073890683,3.4782745070072565],[-71.34321669330188,3.4819020623694428],[-71.33916536100077,3.4785779376595087],[-71.33312214534317,3.477480247020708],[-71.3358308027415,3.4741538905905145],[-71.33268771888191,3.471901124277167],[-71.33155827610875,3.468080861412716],[-71.32948266518997,3.471269629717426],[-71.32617121500562,3.4716827910726806],[-71.32504987224576,3.474761405984509],[-71.32349337077358,3.4736898316149905],[-71.32057143805105,3.4757791259615374],[-71.31786345428253,3.4746256865390706],[-71.31742027269013,3.4770993808173785],[-71.31578799660161,3.475044681220311],[-71.31671913097455,3.47170019540539],[-71.31430803593548,3.4700818711681336],[-71.31734480866345,3.4686743488507545],[-71.31473491465704,3.4677989725174143],[-71.31652745602855,3.464587422154068],[-71.31486519569842,3.463181330400232],[-71.31594765201822,3.461110905917053],[-71.31459811020477,3.4591999126499786],[-71.31343782135514,3.4606073228670766],[-71.30968464585305,3.458006708497578],[-71.3081806186035,3.460157171519768],[-71.30543454955165,3.454743562201486],[-71.30297777829497,3.4545585145390874],[-71.30339745380519,3.4504972824502715],[-71.29708743547559,3.4497024876735622],[-71.29801057370793,3.447155166166908],[-71.29145720016732,3.4442900343246947],[-71.28773336510187,3.445166513148365],[-71.28765765116361,3.448006476945295],[-71.282926986299,3.4454594392887543],[-71.28345333392406,3.4433631834148173],[-71.27815144637344,3.444823205665898],[-71.27608326183804,3.440126386844497],[-71.2745037283957,3.4423555699424355],[-71.26422676044518,3.4476400942980376],[-71.26732467716624,3.4563176418131434],[-71.2641281276654,3.4563188306927373],[-71.26222787956578,3.4602196751138194],[-71.25688719196427,3.459212389714594],[-71.258366972653,3.4561604937393895],[-71.25348427827299,3.4530291639493953],[-71.24829671444962,3.4602626115605517],[-71.2512793160248,3.4626769893881715],[-71.24813561201444,3.464933512601988],[-71.24303911574765,3.4657040001397377],[-71.24190223836354,3.4622541771283295],[-71.2390724499769,3.462122026378438],[-71.23962933411724,3.460370334743743],[-71.236325674385,3.459388846796628],[-71.23241909948217,3.4635301606190865],[-71.23064890822343,3.4622298184672786],[-71.22724557184233,3.466025437792098],[-71.22452179325359,3.466131774634732],[-71.22737568113382,3.4634776514294003],[-71.22766544584186,3.4593897857646994],[-71.22407182291215,3.4588330394356035],[-71.22056257340665,3.455994238807193],[-71.22148628653838,3.453313369925695],[-71.21168905102735,3.4574813090964653],[-71.20851524964667,3.4544560991477056],[-71.20524208323508,3.4553329656942537],[-71.2027325528772,3.4537136839769573],[-71.20072534881251,3.456156358372027],[-71.20109138590311,3.462180627033149],[-71.19967237793975,3.4632956880661254],[-71.19726952895275,3.4609603583874105],[-71.19340869917312,3.4603767193149224],[-71.19591909033738,3.457988131740308],[-71.1936448861398,3.4565817983025227],[-71.19073807563603,3.4574309277543307],[-71.19124182220833,3.455068947016173],[-71.18783959757354,3.4536896523606515],[-71.18303210805271,3.4544595536861493],[-71.18450493441316,3.4526277988298375],[-71.18009538941209,3.450372696923523],[-71.17815724526253,3.446723014620545],[-71.180003149431,3.441521302513479],[-71.17210729124952,3.43639985417434],[-71.17234322830461,3.4349131633803154],[-71.16211954498948,3.435763516678719],[-71.16236414153059,3.4306947143120965],[-71.159952554896,3.4290757431844554],[-71.16389003758184,3.4280136130025767],[-71.16399639087956,3.4248026313679247],[-71.16600356100565,3.423820376202741],[-71.16307313231948,3.4165748217662326],[-71.16460715409505,3.4134167370440878],[-71.16083048176677,3.411850645345453],[-71.16198968560951,3.409302746882531],[-71.15950316151077,3.4079500251247623],[-71.15163719398265,3.407923736077123],[-71.15282672762373,3.405375957941942],[-71.14788261465651,3.402430123186832],[-71.14799023499546,3.3969359066007883],[-71.14471711075004,3.3956885909452126],[-71.1431296161341,3.3931413733112663],[-71.14360288584083,3.3885762825498773],[-71.1374222959738,3.388894403475092],[-71.13874240479083,3.384754701222107],[-71.1350499331084,3.3847547104780915],[-71.13135003401408,3.379420545258995],[-71.1257268116554,3.382313681591029],[-71.12585651574051,3.385471671696507],[-71.12142366211822,3.3847818438770787],[-71.11933282613637,3.3878342036798585],[-71.11735703790526,3.3874098590406447],[-71.11721922455092,3.389134967493078],[-71.1144196888294,3.3869848150605435],[-71.11315265073165,3.3895328091685997],[-71.11364877140267,3.3845056247853904],[-71.11019950066486,3.383610507497906],[-71.09892350982233,3.387675264059226],[-71.0950096453189,3.379687010601856],[-71.09836684062645,3.3768734818914368],[-71.09406420016836,3.376263563027237],[-71.09374336518329,3.3731846817487963],[-71.09110315783369,3.3748032219590414],[-71.09062998274368,3.3712204038463938],[-71.08743362247634,3.369946738465046],[-71.08738061449202,3.3623023869299686],[-71.08141421423454,3.358852771663919],[-71.08058960593775,3.355959178703415],[-71.07743033233601,3.3554386304656987]]]}}]}