{"type":"FeatureCollection","features":[{"type":"Feature","properties":{"code":"503068"},"geometry":{"type":"Polygon","coordinates":[[[-72.88918968881876,2.6390634710600125],[-72.9393536150921,2.520724644551194],[-72.95009529713599,2.517097047022844],[-72.95492267262131,2.505593951389585],[-72.9549275577233,2.499873930992578],[-72.9521886065221,2.4950935748707366],[-72.94536336523015,2.494750853600465],[-72.94094385976331,2.4998617902286355],[-72.93425382780924,2.499115627413346],[-72.93137823567815,2.4964887671907263],[-72.9278397753198,2.488612062722666],[-72.92644483291133,2.476161617263301],[-72.92778798089768,2.470577316311676],[-72.93520600308767,2.464771114488485],[-72.95122537548662,2.4781790677007507],[-72.9623718525059,2.4777732391406744],[-72.96823198585474,2.4670699180027214],[-72.96787294525859,2.461003704313498],[-72.96317391117202,2.447122342554792],[-72.96509616588469,2.4462502922045246],[-72.97857049272028,2.4502574210177954],[-72.9830031900193,2.449248973478518],[-73.00695976501743,2.433364369215667],[-73.01935782984248,2.422939852673892],[-73.02914002129631,2.4107216645022618],[-73.03202295547857,2.409850227103732],[-73.03371016993799,2.4105867482704184],[-73.03850071895363,2.4322805172993753],[-73.04036981861469,2.4347182027197505],[-73.04333871105109,2.43467360328151],[-73.05395090395433,2.424477846294508],[-73.06830255396488,2.4219580798481957],[-73.07062887140182,2.42012146457256],[-73.0726510609025,2.4131831665944787],[-73.08174597404587,2.407535783035712],[-73.08773721530395,2.400266352277697],[-73.09074159106416,2.4070682345547425],[-73.09084035342767,2.4134085137769716],[-73.09594723182164,2.4248647268296395],[-73.09972008657132,2.4288047847355756],[-73.10899746290107,2.4321271950317964],[-73.10948350277852,2.4344395277073545],[-73.11724990678641,2.430922056832344],[-73.12072246763353,2.425840562456642],[-73.12414142605655,2.4282086696268834],[-73.12825089312793,2.428278282844076],[-73.13065025260943,2.426391854955],[-73.13183727787919,2.422662194791144],[-73.13430064042399,2.4240705696873306],[-73.13718399729606,2.4291419143638677],[-73.13748754827617,2.435402757714428],[-73.1393890284499,2.435259421623698],[-73.14089732887811,2.438159666550405],[-73.14521595338988,2.4396880092664333],[-73.14664773152401,2.436258022854304],[-73.15046388370371,2.4380488066175303],[-73.15368336130206,2.434869835256279],[-73.15675296397211,2.4372190118850767],[-73.15523645965789,2.4380617145995984],[-73.15952966518438,2.44066096731126],[-73.15919589650622,2.442319428574706],[-73.16186262533154,2.4439064922732427],[-73.1638747072991,2.443088434126821],[-73.16421197371022,2.44783926983456],[-73.1661053466716,2.4464542621808505],[-73.1706082865947,2.4497459374724144],[-73.17388725239363,2.4500414923118683],[-73.17426883336447,2.452452103982978],[-73.1781526087251,2.4524168798267283],[-73.17944843498583,2.4639360459028126],[-73.18079814135007,2.4638827005893518],[-73.18397260607622,2.4574981242909075],[-73.18779328237457,2.4577374819458555],[-73.1888131744222,2.4601903667182228],[-73.18512758713399,2.462927157161687],[-73.18949252549771,2.4643700928687053],[-73.18762411489314,2.4670781722823563],[-73.19420733589249,2.4669870872422734],[-73.19505264056659,2.468340619412686],[-73.19249418616965,2.469414967491673],[-73.1930004400848,2.4719692165871834],[-73.19857223003316,2.473621482512897],[-73.1942911570431,2.4778108935066143],[-73.19468910156286,2.48099973894449],[-73.19809567753794,2.480499619688942],[-73.1990871866289,2.4851271708498075],[-73.19932565673793,2.483073015298828],[-73.20154088181403,2.482775530072729],[-73.20649885818636,2.4916839310516252],[-73.20766530020757,2.496901066711132],[-73.21098720142476,2.493659306877248],[-73.2169688617123,2.5028961851974714],[-73.21877572414593,2.499833131649382],[-73.21515836270595,2.4926176756116547],[-73.2154363826005,2.4902430799975264],[-73.22319046586699,2.4940935009104237],[-73.22879264629177,2.481946329780044],[-73.22978649097575,2.488359220129439],[-73.23261042752443,2.4886990123954433],[-73.23274551756305,2.486581472903538],[-73.23767988500896,2.485307394088352],[-73.23758226833041,2.488597664527447],[-73.23416076039842,2.4877646816231618],[-73.23477995067185,2.491354952858728],[-73.23875994608613,2.4887329355719316],[-73.24413061895774,2.4888505420876754],[-73.24304278594042,2.4941419858045606],[-73.24730540250107,2.4977933568101207],[-73.2499018465362,2.495373877907639],[-73.25114724106112,2.4986508876089033],[-73.25335409050132,2.4974434230724682],[-73.25503815895507,2.4983069167809617],[-73.25415968083911,2.501315273642149],[-73.25618143119476,2.501389461371673],[-73.25449937848839,2.5026554658846862],[-73.25770840402538,2.5037002256723895],[-73.2579038944931,2.5055778120411105],[-73.26085977610319,2.505282396041366],[-73.25785428139756,2.502241073483731],[-73.26078526132892,2.5004287561910132],[-73.26151552647974,2.5026056460721975],[-73.26403483526911,2.5013474906324973],[-73.26494138575208,2.503770898185394],[-73.27050212200021,2.502000897188566],[-73.27395272868483,2.50500515982003],[-73.27169742828914,2.5064183776520963],[-73.27404948250012,2.506682068256964],[-73.27311473932241,2.508015265033521],[-73.27600607485158,2.5122212977152003],[-73.28289867912855,2.5084734392609107],[-73.2867983171866,2.5124048376808332],[-73.28358634516178,2.5142758235055],[-73.28721317650047,2.5158497653059158],[-73.28611199635617,2.5192434682659837],[-73.29090434720308,2.515158007099842],[-73.29098149890393,2.5195375061527443],[-73.29411593973259,2.519569362159757],[-73.2973903217632,2.514855050559561],[-73.29757997067742,2.509681644275929],[-73.29963087840696,2.509893696782001],[-73.29974403073817,2.512371440038521],[-73.30298368843557,2.5131041528825335],[-73.30124625718486,2.5148896031428762],[-73.30320375353733,2.517250326095848],[-73.30726652726145,2.5115135030049487],[-73.31166258012513,2.514260564503843],[-73.3086553864324,2.5157310388162273],[-73.31204880554236,2.5187476489285814],[-73.31515455385318,2.51404278254455],[-73.3163132146783,2.51798268515563],[-73.319710261105,2.518674753951302],[-73.32010491358022,2.5222287499623803],[-73.31767857599459,2.5239844216695815],[-73.32562137743486,2.5271964286614548],[-73.32333828132317,2.5300011508185776],[-73.32625155353128,2.5355200356268597],[-73.33350879210326,2.5349884923101627],[-73.3359872161887,2.5384442514918533],[-73.33758514641085,2.5369299542152817],[-73.3402362192557,2.541176474622034],[-73.33883754565778,2.542140420425085],[-73.33771148131831,2.540054287510884],[-73.33762734135053,2.543712009149033],[-73.33220844172388,2.5428091116938845],[-73.33077591385518,2.544008132717181],[-73.33927186927474,2.5471734988124126],[-73.33664574953076,2.5483678743608493],[-73.33645817704195,2.550116403534787],[-73.33987231001271,2.5525621797124813],[-73.33668125753712,2.5550289803405803],[-73.34199768932189,2.5583055334133746],[-73.34017692028851,2.560353227260009],[-73.3392974250429,2.5574697757711533],[-73.33878953487567,2.5611736127718814],[-73.3407094282843,2.566602050174424],[-73.3448042040543,2.567969876667462],[-73.34506754190346,2.575181610771722],[-73.34265299232595,2.5777686805532767],[-73.3458624909465,2.580478285147194],[-73.34459545284875,2.5830705506203913],[-73.34616645536045,2.585454227381888],[-73.34410541438677,2.5869575048968727],[-73.34550578594332,2.59095238084592],[-73.34449473438758,2.5920482274873393],[-73.34737970180066,2.5962547764471537],[-73.3460095664542,2.6002225971588473],[-73.35351831167259,2.6086525491945167],[-73.35261162337832,2.6100140857330985],[-73.34942229457243,2.6092238150750404],[-73.35080492446707,2.610889031148986],[-73.34982365969199,2.6129083852335953],[-73.34814485583553,2.6122444751940748],[-73.34896313921087,2.614098143075182],[-73.34671194024395,2.6158657920239534],[-73.34817517740629,2.6161464221056008],[-73.34871372544501,2.6197276461323327],[-73.34757575276956,2.618703471650065],[-73.3466006411661,2.619790271082593],[-73.34707124000761,2.6223016012149287],[-73.3451144409392,2.6260944386027063],[-73.34306636862567,2.62451525791613],[-73.3412536893212,2.6259452002803982],[-73.34283471400522,2.6285368795413433],[-73.34174463178414,2.6320668357084855],[-73.34320870404184,2.630945286231679],[-73.34461265046457,2.6345959846358937],[-73.34302873174329,2.6350076125833084],[-73.3440848640484,2.6395098284828578],[-73.34058569533647,2.641757682954733],[-73.34204350335074,2.641746679648236],[-73.34080763940267,2.6427818924040594],[-73.34271425561832,2.6440981918700004],[-73.33993975938682,2.6449442719897434],[-73.34325918822822,2.6463461934091015],[-73.33937657603605,2.650733525080227],[-73.34014408211891,2.6529308017774156],[-73.33600731812618,2.6555846061656325],[-73.3367750144709,2.6574552042674213],[-73.33841576801109,2.6560427197149465],[-73.3407981005983,2.6607000144618382],[-73.33974690481728,2.66488727189693],[-73.33805022971512,2.663954285298985],[-73.33884040575646,2.665825478869067],[-73.34136377380838,2.6658546886934573],[-73.34358815819354,2.669653410829369],[-73.3480532195502,2.668819091978264],[-73.34795498272081,2.671467968069919],[-73.34556882432747,2.671267040226553],[-73.34554418078784,2.673006048079685],[-73.35167095122944,2.6752958393520885],[-73.35179463275523,2.6771321615216834],[-73.35045617960895,2.6766973041430333],[-73.3475610275296,2.679945845526902],[-73.35014557248479,2.681119567892722],[-73.34864680983253,2.6818799561249307],[-73.35069074677864,2.682973096934063],[-73.34954968980412,2.6851754489950963],[-73.3532198442839,2.6904795158154116],[-73.35152292852621,2.6898839262408387],[-73.35087518354618,2.6941460347508723],[-73.3481518605575,2.69567319681488],[-73.34878336437328,2.697905999002046],[-73.35048626875175,2.697913237180444],[-73.34924085674328,2.703503717014712],[-73.34765049277274,2.705122532847554],[-73.34765739465047,2.703004838060849],[-73.34529935181871,2.7026942566477032],[-73.34466372086314,2.7073180858751016],[-73.34035080934962,2.7091126697334857],[-73.34409283447792,2.7089601146840323],[-73.34373867075618,2.710969077385414],[-73.34565182683787,2.7127731311425123],[-73.3475036414655,2.7119446034512293],[-73.3466185545779,2.714565319758208],[-73.34482434918635,2.714930444620336],[-73.34536945560302,2.7168591445822585],[-73.34318780917516,2.716657733370937],[-73.34325984334606,2.72018329500321],[-73.3463468071543,2.7196703294721942],[-73.34923443823351,2.7290923336164497],[-73.35191902904847,2.726695963817349],[-73.35323341561133,2.7279672678946554],[-73.35240645526648,2.7292547719985123],[-73.3543525348785,2.732449752096045],[-73.35219359337617,2.7336499877099527],[-73.35438481254698,2.7348590895268217],[-73.34880070905632,2.7380890099304906],[-73.35183032176747,2.739556348521603],[-73.35066210568294,2.7400648506121],[-73.3520968303049,2.7412390296063904],[-73.35601021144032,2.7404744874948506],[-73.35685135400757,2.743645600526861],[-73.35656827623274,2.7414536840720416],[-73.35847135974836,2.739554745179703],[-73.362212377003,2.7412971828886157],[-73.36224049256458,2.7431684793028808],[-73.36730981120934,2.7436298756407496],[-73.36962643454711,2.745725796242425],[-73.3740412534014,2.744818496024834],[-73.37443840499196,2.748035698708293],[-73.37504269724712,2.746943022755204],[-73.37636787217201,2.7490609324863726],[-73.37759952361955,2.747739730434944],[-73.37915346632673,2.7488800469308785],[-73.37877390933073,2.746286799295092],[-73.38317236463615,2.744538502549119],[-73.38415194893611,2.7456038466138466],[-73.38262336453613,2.7472510032371815],[-73.38457612182543,2.7487860318580033],[-73.38793390231677,2.7447017770549564],[-73.39100616762448,2.750363791237021],[-73.3886653748591,2.751100544831729],[-73.38908432634577,2.753590368174059],[-73.39481048962995,2.751654025855771],[-73.40635363487178,2.7560192994917543],[-73.40797474310295,2.7597373876204188],[-73.40537418838306,2.76261829679936],[-73.4066870765052,2.766736363707082],[-73.40366832928925,2.7656200952825998],[-73.40305577349847,2.769451638104613],[-73.40465168694482,2.7680339732871175],[-73.41101430805236,2.7697868280902753],[-73.40886473257603,2.7722446843538364],[-73.41156410108158,2.773630337869463],[-73.41199354782412,2.7715659976522034],[-73.41324487851927,2.7732249319992093],[-73.41460780242681,2.772362119119691],[-73.41647774643917,2.777446939478523],[-73.4189069184124,2.7755267262243137],[-73.41783703377394,2.7810846188289133],[-73.41929012843616,2.779770274432167],[-73.42046325636221,2.7805825352481293],[-73.42178858555349,2.776614594208638],[-73.42440699403545,2.780086828011008],[-73.42661365321379,2.778086197750895],[-73.42870194791419,2.780735228108881],[-73.42991687482953,2.7791573576580504],[-73.43110546847413,2.782549087036955],[-73.42956628597398,2.7829890712015413],[-73.43093748164472,2.785488485798794],[-73.42935344156717,2.7857396736280293],[-73.42965575121713,2.7879197341974873],[-73.43342163518344,2.7858498784430026],[-73.4329927067759,2.787005429257931],[-73.43447457211761,2.7865309357046044],[-73.43687193230687,2.7893751130305304],[-73.43882291450439,2.786218526749167],[-73.4395206520752,2.7889475966746318],[-73.44187181976872,2.787849044200982],[-73.44107431915978,2.7887596796575735],[-73.44299885804327,2.790846242460816],[-73.44674093459372,2.789113162550393],[-73.44702981998347,2.7912508471742967],[-73.44545138903146,2.7914783139768247],[-73.4474907761479,2.7932444891674777],[-73.44621963662138,2.792734005268244],[-73.44574086886098,2.794589800996903],[-73.44872676145218,2.794305439725804],[-73.44942745579527,2.797857987689781],[-73.45140429612303,2.796754110969175],[-73.45250382973086,2.7986684127358217],[-73.45453268868124,2.79700278219957],[-73.45840185810124,2.7994577444258653],[-73.45815565101913,2.8016120846763783],[-73.4597057586642,2.801813555537308],[-73.45842363228627,2.802900837309437],[-73.46029329244851,2.80257572811729],[-73.461579433866,2.806644594334955],[-73.46059327576143,2.809307772976638],[-73.46555562095762,2.8151843552352034],[-73.46829042856388,2.8136049853151803],[-73.46871785030311,2.8153069846642325],[-73.46993705965309,2.814167651359355],[-73.47140139930582,2.8150568653867936],[-73.4725019500433,2.8128865925047535],[-73.47289509482181,2.8156708939072814],[-73.47487802764306,2.8137073657394467],[-73.47691236510673,2.814510975296969],[-73.48050716046095,2.8195265969009142],[-73.47900223743795,2.823204032753722],[-73.48011887507334,2.8247571650481973],[-73.47860807552979,2.826727172403878],[-73.47929102821098,2.830004457727739],[-73.48127378722546,2.832778859342511],[-73.48404336338797,2.8336348649610272],[-73.48336448642448,2.837736042785707],[-73.4861386463553,2.838431523953659],[-73.488127385763,2.842798590164932],[-73.49367141393401,2.8438628739054366],[-73.49967805303345,2.8393698779930787],[-73.50377581951426,2.8392639720677835],[-73.49989925559254,2.846640549052779],[-73.50089489285182,2.8564436271457225],[-73.50609701839278,2.857971694239154],[-73.50868501788642,2.8533559814800924],[-73.51775197899059,2.85309316093759],[-73.51903249482757,2.859946113613205],[-73.51699838053594,2.8630327246656293],[-73.51676334851021,2.8700793659776878],[-73.51333797980499,2.8742419541620734],[-73.51347284461468,2.8788816460868247],[-73.5088973717261,2.8829809027809006],[-73.50949721802425,2.8884900770349304],[-73.49668657702773,2.8968618253946943],[-73.49584211670498,2.9036803447863235],[-73.49203197885709,2.905868436463436],[-73.49034143018702,2.909541814082047],[-73.48450616457825,2.914372740779413],[-73.48333973181303,2.9239333234393143],[-73.47750807603751,2.9302466677520442],[-73.47368108304522,2.9321882407289763],[-73.46790135950312,2.9317340650860615],[-73.46302924573973,2.928716127254347],[-73.46027549936446,2.9293933751649206],[-73.45956585242925,2.931814784453991],[-73.45326858781533,2.930065410928762],[-73.44691453054867,2.933383934740732],[-73.44158798300333,2.928882055141912],[-73.43733987673818,2.929906548441352],[-73.43377421407524,2.9328564074920678],[-73.4319594850848,2.9291896129340103],[-73.42612520163863,2.9318555231190544],[-73.42041434877825,2.9252650207466786],[-73.41282747792394,2.9295637500378575],[-73.41212574176859,2.9336761121749646],[-73.41043097134201,2.932592776536808],[-73.41003016569516,2.9278840576070593],[-73.4062350544209,2.9271781336337312],[-73.40564249772336,2.929153621559635],[-73.40784692620986,2.933376239933807],[-73.40644621115354,2.9350257136380833],[-73.40367466140987,2.933508787662504],[-73.40251282989647,2.9286526754362967],[-73.39816525472781,2.926861796027879],[-73.39613875810988,2.9296423497858086],[-73.39233416768099,2.927917921133883],[-73.38989601740457,2.9291253075086274],[-73.38619596301544,2.920164458018178],[-73.38336123810473,2.922729142719902],[-73.37792575278559,2.9240504908101457],[-73.37629422746011,2.926185815158533],[-73.37673414271904,2.932859069101312],[-73.37276356475292,2.935903390597332],[-73.37201911635134,2.939761325311281],[-73.36877484094703,2.939162994937419],[-73.366632917083,2.941215454586711],[-73.36901172519765,2.9432312410041845],[-73.37766058019497,2.939980261183109],[-73.37706686032891,2.9455134588259284],[-73.37137266309514,2.9433017150278147],[-73.32808398201746,2.9778369464470984],[-73.27141305776206,3.0188082894194395],[-73.2560882717861,3.027383396860614],[-73.25556951509526,3.0174923581358826],[-73.25418606347506,3.0156206256619953],[-73.24873362016723,3.0139930310438103],[-73.24287429106039,3.0165971832556124],[-73.2400260020213,3.0142371730133277],[-73.23970048248054,3.0108192296631273],[-73.24189774169429,3.008947498217651],[-73.24973423817357,3.0097861282997656],[-73.25178918871063,3.0070505904993183],[-73.24316072155784,2.99454839792611],[-73.24028455761271,2.984572916871514],[-73.23524194556325,2.9804631865188753],[-73.22171557542248,2.975174942286685],[-73.21809182632603,2.9697994748160568],[-73.2206576484852,2.9655721358907385],[-73.22016936968834,2.9588176236761115],[-73.21203140688198,2.955806582579953],[-73.21251967745127,2.9428672217177905],[-73.22130867933902,2.9296023361727634],[-73.22545904654095,2.9263471510502086],[-73.23001630571252,2.914953995922133],[-73.23021368234384,2.904610873406625],[-73.22643560310615,2.8947718389063084],[-73.2182162483304,2.8876918143500916],[-73.21027834330499,2.884086815817682],[-73.19791937986446,2.8881880522635583],[-73.19562308986377,2.8905592900128454],[-73.18645211311167,2.8919411557747026],[-73.17926548534615,2.891660713898034],[-73.17712933824379,2.8834717598831503],[-73.16971396943546,2.8797979791150397],[-73.164424309038,2.881344199247337],[-73.15994841715315,2.8859828514167702],[-73.15604219397767,2.8859014522482767],[-73.15425184627401,2.8826462753532383],[-73.15686560311053,2.8733262711095335],[-73.15317322295948,2.864474285345011],[-73.14970168438424,2.8633507622869843],[-73.13976626630802,2.8684048322145372],[-73.13570705305182,2.8669679416926215],[-73.13480115871522,2.8648840497546644],[-73.13979030512343,2.85874217560621],[-73.14652078572169,2.855139959010785],[-73.14749733508785,2.8520475352012227],[-73.14676492049216,2.8492806155057906],[-73.1433469699428,2.8470833645196194],[-73.13569728490478,2.8448047369906817],[-73.13772212778713,2.836881223989849],[-73.14204490000753,2.8356902227612863],[-73.14188214075142,2.8329233040942654],[-73.13504524514883,2.827758122265436],[-73.13005541894012,2.82635358037453],[-73.12604769465867,2.82778262799377],[-73.12568274154648,2.8220107226717346],[-73.13659983063258,2.8177309208365955],[-73.1417186770122,2.802826174439474],[-73.14481108745196,2.8002827311894976],[-73.15177820444626,2.7884341652591047],[-73.15027221389994,2.783567147428414],[-73.15121695559583,2.7786950964000994],[-73.14691670318126,2.777751133235199],[-73.14706793565364,2.7726210470073056],[-73.14383726962916,2.761310338002204],[-73.14122632969674,2.7586033014292752],[-73.14080519996884,2.7547907230872966],[-73.13718448786318,2.7485217509270683],[-73.13646223839334,2.7410433663603158],[-73.13255284247265,2.7360196992505053],[-73.12856143751708,2.726110275058943],[-73.12336037230034,2.7240998221442965],[-73.11784665130193,2.717986720732199],[-73.10676271284382,2.7141307205186536],[-73.09843699757118,2.716633456985278],[-73.08666086793272,2.7167622611831916],[-73.07864817559573,2.7198207422758856],[-73.07080401927658,2.7177692946140155],[-73.0648036228232,2.709535060331916],[-73.06246701581887,2.702565051357226],[-73.0531404861074,2.693734560041321],[-73.04647724610942,2.682436409347872],[-73.03711657622006,2.679640972998243],[-73.03473838311402,2.669318124170047],[-73.03065580055852,2.6660568013025454],[-73.02265744471026,2.6656421785305042],[-73.01505932372328,2.663120377824896],[-73.00746822802711,2.663971104447967],[-73.00112217410009,2.6610021461912083],[-72.99319848832096,2.6633497637011487],[-72.99109429904138,2.661387108681083],[-72.9907062944186,2.65564576455688],[-72.98091874066546,2.6549272524471803],[-72.97302845767086,2.6489458245875994],[-72.96599514908758,2.651324616247166],[-72.9642385826354,2.649097041633354],[-72.95577464468823,2.6474250152130594],[-72.95266233902794,2.643913106155196],[-72.94806430828118,2.644624930303223],[-72.94829207950266,2.651226108937408],[-72.94575773591214,2.653378161931755],[-72.93943301188295,2.6506141866672124],[-72.93324239675826,2.6521544726862203],[-72.92060066304725,2.6517792804002625],[-72.9161093784632,2.6499422743164587],[-72.91421018863093,2.646372617182749],[-72.9078521266091,2.6553281023170143],[-72.9057081797987,2.653427403759565],[-72.903983191674,2.645767154560019],[-72.89677273798065,2.6477660148705695],[-72.8948749499155,2.643595345184849],[-72.89234061455255,2.6429215744385033],[-72.88918968881876,2.6390634710600125]]]}}]}