{"type":"FeatureCollection","features":[{"type":"Feature","properties":{"code":"503027"},"geometry":{"type":"Polygon","coordinates":[[[-72.0206838605908,3.183533365084884],[-72.0205277676991,3.1765870216009944],[-72.02339632528333,3.171594503958204],[-72.01776943138486,3.1654795904303796],[-72.01308535393787,3.1552576215289037],[-72.00500058217852,3.152150041561981],[-72.0008971870318,3.1452990850932565],[-71.99515336641798,3.14045483080929],[-71.9934554376444,3.1354296138366067],[-71.99395629532171,3.1246678884764947],[-71.98992645438386,3.1155838531695963],[-71.98609830233687,3.110594065013231],[-71.97578916676127,3.1112065035615615],[-71.97023525525765,3.1094447177635516],[-71.96279299781969,3.0972340073975033],[-71.95022650702026,3.0868660161133903],[-71.94603768018192,3.0757495932698475],[-71.94642006950858,3.0682699642876514],[-71.94097361482153,3.0616652354698886],[-71.93975432011081,3.057460456459637],[-71.94033258454272,3.0545306006159194],[-71.94816715783452,3.044439079363542],[-71.95163628471204,3.033738630665539],[-71.95749260459604,3.0289124677138943],[-71.9605933011972,3.021882863580572],[-71.96803550104238,3.0206427562786757],[-71.97223505864997,3.0168330133527093],[-71.97262271154545,3.009466277534216],[-71.96808095614483,2.9998290460818566],[-71.97207987592986,2.996692305655756],[-71.98056216951909,2.9964336544191497],[-71.98891429005334,2.998490225781609],[-71.99607021366745,3.0030130208159562],[-71.99994506728927,2.998106091187992],[-72.00095907767411,2.993689951813508],[-72.00570475677108,2.990255933906724],[-72.00692422426016,2.9857447222204883],[-72.01348680236129,2.9855875556347655],[-72.02120825314665,2.977753063589944],[-72.0217097484583,2.9708750775949397],[-72.01847955963115,2.9652088776518326],[-72.01369146345093,2.9621702784099284],[-72.01169687426216,2.95321047073179],[-72.0046970435398,2.9483142543895156],[-72.00447712447692,2.938723362500184],[-71.99981122886521,2.9361696235121713],[-71.99726404002763,2.9321221674109097],[-71.99725882685249,2.9257281027017825],[-72.00342488276988,2.9145513884440106],[-71.99906878901186,2.9111980405399436],[-71.99249196492497,2.910211696287263],[-71.98859627402925,2.9052205063637757],[-71.9888107906836,2.9007975556144743],[-71.99446664449499,2.8967699854777607],[-71.99631930655926,2.8915262111000857],[-71.99110928052283,2.884635830315858],[-71.98944723102346,2.875895222819281],[-71.98306269072049,2.8716585302092312],[-71.98058072056523,2.8675300770605077],[-71.98114778628656,2.86375874749109],[-71.97846380019575,2.8612817519122586],[-71.97281419211578,2.862298221303206],[-71.97015088800407,2.8665079687192474],[-71.96549623121217,2.8691025872689124],[-71.95251898047076,2.8688386498378122],[-71.94492026915776,2.877484988236233],[-71.93908709848643,2.878124871801674],[-71.93255716212235,2.8751182303826113],[-71.92633744721655,2.868990562110696],[-71.92418385155844,2.864950548847901],[-71.92321263260993,2.8566851167619802],[-71.92019219566293,2.8513325064263313],[-71.90718923797226,2.842240691980237],[-71.86912861769906,2.846324477813482],[-71.86430270980117,2.845564766296434],[-71.86108409712301,2.8423988242734595],[-71.88139691570399,2.8384835240642587],[-71.89777755424865,2.8326035314903493],[-71.91505891714945,2.8298827065885916],[-71.93840578000038,2.830317202983906],[-71.96130202459102,2.8266887353931907],[-71.96982485424212,2.821039120114108],[-71.9843968881716,2.800037918675457],[-71.98754855438398,2.803646682335966],[-71.993392582323,2.8214727793572365],[-72.00057999273326,2.827560611936633],[-72.02370487552247,2.828445405718071],[-72.03267804678273,2.8255038112314423],[-72.04546447618549,2.818045446326778],[-72.0587103190889,2.8164537289258647],[-72.0809348210218,2.823883081467102],[-72.09868179378941,2.836280509686219],[-72.10519698845837,2.8477847427769802],[-72.11465782762065,2.8773426106539546],[-72.12543825726488,2.8877139032385344],[-72.13778271143832,2.889056475297025],[-72.14629795838266,2.8737020958876087],[-72.15257742991258,2.8687309791051803],[-72.16470093966592,2.8678165702929164],[-72.18221032164291,2.872313754023196],[-72.18759721922368,2.8723086272372598],[-72.1945550339554,2.870270154406228],[-72.20083407456787,2.8662019083394625],[-72.20464915099672,2.8592016127610123],[-72.20754908533382,2.8427239365508967],[-72.20438249642046,2.8176756862742423],[-72.19898808503865,2.80707373871536],[-72.18528530923794,2.7946743975931554],[-72.18438552179299,2.7917410738412514],[-72.18394249652391,2.783532841671331],[-72.1895347504215,2.77075522807786],[-72.19364726785335,2.768498800509178],[-72.19753149984251,2.76849313790467],[-72.2171465901086,2.7753112541468568],[-72.22185437007033,2.7789793764242177],[-72.23443500195441,2.794401247373969],[-72.23467249915683,2.8027511598421597],[-72.23714404707556,2.8059079003899114],[-72.25444040261141,2.820334652415454],[-72.26116980334507,2.821229932196843],[-72.26924199828079,2.814902941480341],[-72.2723774562391,2.8088065687142603],[-72.27259849527587,2.8060974978820354],[-72.26900566424689,2.7991053815069336],[-72.26809733044462,2.7869342137273065],[-72.2716300438662,2.7796000558824403],[-72.27701606212861,2.775641946753467],[-72.28444826654095,2.7746206323698175],[-72.29867729534999,2.777448352558565],[-72.30229348539393,2.7810259749795705],[-72.30490282918356,2.789138555824593],[-72.31658411379607,2.7977021930464048],[-72.32264170193793,2.7985982924964787],[-72.33341521324934,2.7958790112868996],[-72.34823207717636,2.786849944175742],[-72.35742539889907,2.7835195202554246],[-72.36723683514435,2.7746854808128205],[-72.3755382030688,2.763281888021652],[-72.38738686361592,2.7414928636181912],[-72.39834338833043,2.732979029753835],[-72.41670029847415,2.725280402164856],[-72.4231010130926,2.7275672901440657],[-72.43440071570586,2.736690406266632],[-72.43846688534722,2.738705098421349],[-72.44399871207617,2.738834190583134],[-72.44898810531055,2.7470022445892255],[-72.47167939776233,2.760413377745749],[-72.48594599454816,2.7649803721541844],[-72.4967498695965,2.7657554270051605],[-72.5022967414111,2.7615219595908798],[-72.50348672345308,2.758174793654746],[-72.50065605677656,2.7572749208490563],[-72.50562357195327,2.754324899304436],[-72.50668434047725,2.7500825739147103],[-72.5115132935934,2.7473617078752],[-72.51188721575278,2.7449993651252953],[-72.51668623502104,2.7436553203370977],[-72.51322201484277,2.748604146656362],[-72.51809016498868,2.748567637975384],[-72.51735782238393,2.7517549849725356],[-72.5194025697428,2.754718302222045],[-72.51736564677464,2.756091401539834],[-72.51915099419074,2.7563242882344525],[-72.51937231707763,2.7580907832707453],[-72.52204978181442,2.7575914569443967],[-72.519669431036,2.760339896556218],[-72.52302707474445,2.761333086122306],[-72.5248579081163,2.7594557229256225],[-72.52649859275084,2.7611789020198785],[-72.52605580813724,2.7637931648500853],[-72.52843546163166,2.7633165948713554],[-72.53124332876604,2.76538653701499],[-72.5317928461726,2.763667372960299],[-72.53373069721607,2.7650468403941773],[-72.53347906921346,2.7666980285121667],[-72.53759203401785,2.767623810870248],[-72.53877437370352,2.7692785923663905],[-72.53732477677426,2.7726701417678328],[-72.5397959626813,2.7726982398458517],[-72.53776660493628,2.7785903227900235],[-72.53973583684632,2.7791906946222866],[-72.5428258859821,2.776030688769538],[-72.55034056737065,2.777008368393979],[-72.5516224016709,2.779075725033124],[-72.54964637895495,2.7811134152194086],[-72.55099674866466,2.783202330070651],[-72.54975327527035,2.785356239403768],[-72.55900030431826,2.788603582652115],[-72.55698625802546,2.7887331571535015],[-72.55667275583562,2.7904413610962706],[-72.56044256022477,2.7926532169946654],[-72.55943542909193,2.7945351115091057],[-72.56058767963486,2.796905726022203],[-72.56183041974964,2.7970621500724064],[-72.56475307649572,2.790388016811278],[-72.56675941049804,2.7901470990090615],[-72.5698421792892,2.791802070767062],[-72.56914829220716,2.7930617246474867],[-72.5726119004621,2.7939521542940042],[-72.5690508225959,2.7989586937220565],[-72.5723363796829,2.8011247263355585],[-72.5718479363353,2.8043011903540105],[-72.57518282266773,2.806574059633249],[-72.57433612239714,2.8078024529748973],[-72.5774328666937,2.807353301273679],[-72.57730381772643,2.80545749913108],[-72.58335404736204,2.804989562927233],[-72.58262952092048,2.8091234483093785],[-72.58567358324899,2.81035234250254],[-72.58487255919601,2.8118898702386446],[-72.5860699511664,2.8123914539963266],[-72.5934782196075,2.808978631261425],[-72.59260827139383,2.812590271475642],[-72.59597373846452,2.8138585509034897],[-72.5954245655862,2.8153229594618665],[-72.59377634143954,2.8149462378819408],[-72.59623293169034,2.8168461671643854],[-72.59672904310537,2.820895766539877],[-72.59958250932414,2.8226922550737754],[-72.59859760077723,2.8247815926148974],[-72.59995597382658,2.82684003162899],[-72.60159612469948,2.8265319318476827],[-72.60090920942923,2.8275876589464133],[-72.60528953534993,2.828903562462017],[-72.60543381040867,2.8321260986483594],[-72.60822631466868,2.8288332951553343],[-72.60998130554697,2.8319087301229047],[-72.61156877548024,2.8279131651173657],[-72.6136592504788,2.826973380514403],[-72.61664249791585,2.8292762607748045],[-72.61692419654929,2.83138417507314],[-72.6184421653656,2.8308007437460105],[-72.61822885507439,2.833310333753559],[-72.62008316058979,2.8351919783564767],[-72.62256989140548,2.8337531697892473],[-72.62349323532635,2.8350409227762157],[-72.62377538236069,2.831410377731629],[-72.62576749094609,2.831844581020789],[-72.62544658705542,2.827823983724329],[-72.6278188727876,2.8298204014839143],[-72.6310693959802,2.828727760497827],[-72.6333585753294,2.8315976231756963],[-72.63600571952378,2.8312907379850003],[-72.63988235955026,2.8364769740890097],[-72.6384928627449,2.8367622671290746],[-72.64019424297157,2.840555792544933],[-72.63845459748416,2.843143732388853],[-72.64068303084747,2.846978023209317],[-72.63779083348345,2.849983759598956],[-72.640393102617,2.8523765956695115],[-72.64161331984064,2.851751512420435],[-72.64110289559108,2.8527860083518135],[-72.64250608405166,2.8523566490268877],[-72.64247576248084,2.854143254228177],[-72.64536718439922,2.854485897336815],[-72.64477200825854,2.8531748460130757],[-72.64715247936476,2.8531682279854635],[-72.64762617998889,2.850922243222101],[-72.64967786316407,2.854130269112943],[-72.65294324940794,2.850171728038049],[-72.65520179762512,2.84970274076602],[-72.65481315125419,2.851340307162843],[-72.65664382110367,2.8505899472736473],[-72.6568883919337,2.851860459450222],[-72.65726946485393,2.8490690751640955],[-72.6612451181839,2.8487993959383857],[-72.66226765538568,2.8499087182620997],[-72.66115374003766,2.8499988725617413],[-72.66109994735172,2.8535314399444474],[-72.66249649207361,2.8530167240042488],[-72.66477000721477,2.8550186645001077],[-72.66395351641472,2.8609223369630286],[-72.66644080670312,2.8691445189272713],[-72.6650674914124,2.8708436067555567],[-72.66299161309854,2.8698979548880743],[-72.6622447437432,2.8739929980530974],[-72.65935973313555,2.875677721624754],[-72.65848246961019,2.874338045660352],[-72.65699550319357,2.876127916166638],[-72.66176343470136,2.877835232563541],[-72.66171785310047,2.8792489162800052],[-72.66486087628192,2.878892356287224],[-72.66469316507511,2.8772665264764328],[-72.66769155221448,2.8775290456853213],[-72.66956053977532,2.880386526943653],[-72.66843189918734,2.8832809724830213],[-72.66958339073966,2.8846447232583614],[-72.6771748885568,2.8871963271996606],[-72.6796092644492,2.8863918815184206],[-72.68013531896815,2.8900325515796226],[-72.68150917727655,2.890658634474846],[-72.6804484519472,2.8913212435345486],[-72.68239403173612,2.892255978484741],[-72.68227996614797,2.89544947762505],[-72.68777284678714,2.8963778701702267],[-72.68925290309846,2.9030020540350847],[-72.6923731349653,2.907550032541394],[-72.698072424018,2.909824055733111],[-72.70064363932971,2.9212903938023373],[-72.70385645673429,2.926503556588443],[-72.70586988184778,2.926260804044773],[-72.70762529541588,2.9292792159884584],[-72.71163801689954,2.926541960688951],[-72.71627675237278,2.9349901017590128],[-72.7218693600546,2.9345454731479776],[-72.72126674004699,2.9374508191496034],[-72.72266312947409,2.939971542047431],[-72.7244791255057,2.9412733918960043],[-72.72511167113373,2.939654153373283],[-72.72766816120543,2.9430408248718436],[-72.73297104840219,2.9443028410847774],[-72.7346798889509,2.9487338414536453],[-72.73753278644091,2.9496300951701073],[-72.73725042343364,2.9526268182895024],[-72.73961573015492,2.9570693649825444],[-72.7425453144898,2.9568661108022525],[-72.74488817545313,2.962231923254535],[-72.74750533334901,2.9647959610658745],[-72.75018305725331,2.963709756073115],[-72.75010674064771,2.965497525471335],[-72.75508176962552,2.9703438582376407],[-72.75591263290971,2.9692678379111044],[-72.75893468039772,2.971688264009174],[-72.75981140090545,2.9707925625663165],[-72.76062066278303,2.9737064292142463],[-72.76330572770996,2.974981611548287],[-72.76946345735672,2.9845482085400477],[-72.77358262572636,2.984168333755349],[-72.77797811808887,2.9897174455176696],[-72.78009128875692,2.9889175753772292],[-72.78423415347066,2.990417105247616],[-72.78865950151948,2.9887774459702428],[-72.7906585119826,2.991380257092999],[-72.79513679088251,2.9906339996610427],[-72.79886811403793,2.9922703247277127],[-72.80060764742518,2.996671442670788],[-72.79829598735103,3.0018651236702567],[-72.80043228460596,3.0101617700150314],[-72.79799017893964,3.0201385993577787],[-72.80238450813363,3.0278186059665586],[-72.81027404139365,3.0171203601924503],[-72.81244047098596,3.0092107414500333],[-72.81259327594694,3.0014959590859576],[-72.81039564649393,2.996572154773162],[-72.81494340902731,2.9901672348532315],[-72.80992318617149,2.9822051583433336],[-72.81812553359333,2.9746799385042664],[-72.82134471808547,2.9739558172690295],[-72.82139806339893,2.971526602101221],[-72.82657133187126,2.9674882641713225],[-72.82857004100077,2.95847076086784],[-72.83252217899252,2.9566698181493507],[-72.83316258397826,2.953966072592493],[-72.83157657854713,2.9498448524799983],[-72.836848376955,2.945008058518056],[-72.8355819590081,2.940554344996144],[-72.83664212383627,2.935358509409639],[-72.8334984547929,2.933980713194842],[-72.83209514600458,2.9313373865790595],[-72.83340777495914,2.9295910726702914],[-72.83157574345182,2.927359769952318],[-72.8308284339231,2.92211104670929],[-72.83492541570234,2.920316402172773],[-72.83706150624033,2.9169311344982702],[-72.83883162859343,2.91924767144684],[-72.84081573281071,2.9181270527104743],[-72.84190670154919,2.9196059540808506],[-72.84484435093032,2.919213653653628],[-72.84199070473414,2.913726933385135],[-72.84466831550975,2.9116040614188137],[-72.84494307009925,2.9080686339374324],[-72.85092510062611,2.906234163992849],[-72.85871477006066,2.897991292850463],[-72.86278904691437,2.9015585835379625],[-72.86519223220205,2.901625603023092],[-72.86821364205571,2.9006473114753817],[-72.86913698597652,2.898080542120681],[-72.87371487159129,2.898508713594481],[-72.87638510740555,2.895846051230933],[-72.88415224469298,2.8949473415937064],[-72.89054523056592,2.8880859885995847],[-72.89291051054767,2.888942339774758],[-72.89238423285667,2.8923820634806816],[-72.89773285592065,2.898594680076201],[-72.89950265020053,2.9046097122950414],[-72.90178394550935,2.9041136862406915],[-72.90221926877246,2.90598235498436],[-72.9045686521182,2.9059446841633303],[-72.90476745211396,2.9082781780721803],[-72.90822326271768,2.909015285451062],[-72.90740754736333,2.910819916164428],[-72.90937601205525,2.914994635856715],[-72.9078725021123,2.914489011348394],[-72.90881829281955,2.9162434859485415],[-72.906614106017,2.917165666700896],[-72.91130616006421,2.9171180343856236],[-72.91360967795896,2.921241684707752],[-72.91061962326086,2.9211645319784907],[-72.9128698482927,2.925747002389926],[-72.91157252153431,2.9280043185329987],[-72.90733889985364,2.9282123467434644],[-72.90577465215245,2.9266459526826907],[-72.90343165337782,2.9301979236904003],[-72.90663653429147,2.933405398336106],[-72.90368360019761,2.9343657589885197],[-72.90562978265393,2.9351131806174067],[-72.90366051577683,2.937082713861116],[-72.90613335644787,2.9405131918687744],[-72.90466819815487,2.941996143245774],[-72.90939840639106,2.9442541834123404],[-72.90813172104913,2.9451298785628524],[-72.9090547029582,2.947200224884398],[-72.90702560335228,2.9461718718401926],[-72.9087497481541,2.947509582450948],[-72.90826179537356,2.9497332777795577],[-72.91251120364689,2.949559767185349],[-72.91504460107035,2.9531847195595446],[-72.91373220454375,2.9569095635271196],[-72.91339634195663,2.9555851990149336],[-72.90923070341177,2.9594562124323716],[-72.91225236420536,2.9648481689218897],[-72.90998625899255,2.9646739774987623],[-72.90948989663752,2.966324088837382],[-72.90817729339403,2.9659616009019487],[-72.90941374458282,2.9649824650028904],[-72.90852089398265,2.964179648374568],[-72.90750604233182,2.9660642929442815],[-72.90447710222207,2.9665317725196587],[-72.90574413209225,2.9674728920409734],[-72.89961678469439,2.9692311142856624],[-72.90130330906885,2.9699912711182606],[-72.89994501212425,2.9734764375853047],[-72.89673275522085,2.9760927521583653],[-72.89663356296836,2.978446823145134],[-72.89581764912458,2.9771903039574568],[-72.8938181902605,2.978903764269944],[-72.89616840047404,2.97928208919177],[-72.89439848586636,2.980784444193773],[-72.89721417636298,2.9831789699954356],[-72.89712198060494,2.9863467827553904],[-72.89537555356748,2.9869150496975294],[-72.89657274704848,2.989048451886788],[-72.89983891799397,2.989668512222636],[-72.89885375027956,2.991075646817194],[-72.90106642378976,2.9908051057566354],[-72.9009367721552,2.9890463919164176],[-72.90347003073884,2.9906788654658953],[-72.89902969931103,2.9968324504893076],[-72.89345276509317,2.9967342743380527],[-72.89278135873616,2.99802703378316],[-72.89482536458792,2.997797016443201],[-72.895001579986,3.0022134026438607],[-72.89762554617135,3.0010623337814195],[-72.89693184832271,3.0042617084138215],[-72.89933462017649,3.004954863244791],[-72.8981064242958,3.008618150813902],[-72.90147893002711,3.0065807012831556],[-72.90504921142548,3.0119552349279957],[-72.90938289747788,3.0130985832724377],[-72.90758965676542,3.0142918306194133],[-72.90865767169538,3.016355569197799],[-72.9077579027624,3.0198768391394992],[-72.90548437013774,3.020238284234267],[-72.90828415577079,3.022902350421873],[-72.90514038285477,3.025438471161067],[-72.9074904727405,3.028118451468231],[-72.90495063829536,3.030415610502871],[-72.90627054862301,3.0303441543166514],[-72.9072234900911,3.0317494531412876],[-72.90591955558955,3.032640313705201],[-72.90771247645637,3.0338809599110164],[-72.90662148097834,3.039543688860647],[-72.90498046929906,3.0392073696450552],[-72.90292018628753,3.042965800488389],[-72.90461478496422,3.0467617129193627],[-72.9029133018933,3.0461970054167296],[-72.90140741110594,3.0513913415340994],[-72.89491710885972,3.0531793269052514],[-72.89252586687502,3.0570609353375175],[-72.88564854422543,3.060929468151585],[-72.87626864246096,3.0760526485406103],[-72.87412865515427,3.077397912033234],[-72.86503966069756,3.0775884670052847],[-72.86159923353694,3.079883833464635],[-72.85976392438329,3.0836667288986632],[-72.8604618542729,3.0911676548685136],[-72.85595454346912,3.0963490151265773],[-72.84995911542154,3.110138391958003],[-72.84624112705183,3.1076331646036124],[-72.83512843231239,3.108550462310916],[-72.8321782544445,3.1054189103772956],[-72.82899234623846,3.104682240086504],[-72.82354713802374,3.110379605951664],[-72.81631655256814,3.108201125069911],[-72.80901426410009,3.1085464287593823],[-72.80243175992513,3.1145602607857654],[-72.79869449031503,3.112279763548372],[-72.79625133358047,3.106226240839817],[-72.79105699643469,3.1054919657916003],[-72.7876748850502,3.1022697494508975],[-72.77506332481425,3.0963106933014615],[-72.7716318327623,3.0892451029359904],[-72.76219805912183,3.0903547265933753],[-72.75902959432932,3.0947186159456805],[-72.75598262253692,3.0950826177485737],[-72.75352798118467,3.0935912619393093],[-72.75049017384356,3.0861943187071574],[-72.74421228200134,3.08324522378922],[-72.73684725031211,3.0855048004489163],[-72.73405132956606,3.0929495827132314],[-72.73077216836305,3.095787614066694],[-72.72290294478591,3.0976566941873216],[-72.71221261904765,3.0965284135542106],[-72.69759147493102,3.084316590413323],[-72.69159821895408,3.0842725463340344],[-72.6883312149701,3.0794874110398496],[-72.6830515356072,3.0763429809489935],[-72.67813777712092,3.080186013530806],[-72.67205230173181,3.093537602950846],[-72.67020760598325,3.094268147838079],[-72.66331134147941,3.0912099289982393],[-72.66186117479299,3.0977809835226253],[-72.65857601365633,3.0996961820911224],[-72.65115374914097,3.0931171612510298],[-72.64798525143829,3.0932590482662476],[-72.64287656092858,3.098595239517067],[-72.64026832682845,3.0991948832120215],[-72.62377435700347,3.093814179940523],[-72.62133918406818,3.0896567884762476],[-72.61912629047129,3.0892468327763254],[-72.61480942871003,3.093821810984025],[-72.61404442071404,3.1035702736370467],[-72.60683399993087,3.109749952304014],[-72.60284363884443,3.1192015478249004],[-72.59804201041754,3.125484292887336],[-72.59229084775262,3.1186094148456505],[-72.58128387381879,3.1174871670563675],[-72.58054225260571,3.110368367131855],[-72.57558109731752,3.1049166355062425],[-72.56874505840756,3.1065018593210993],[-72.56562825228275,3.1010515695718937],[-72.56198388394228,3.099185537754863],[-72.55546423611719,3.1021370844797502],[-72.5492576770481,3.100600707570777],[-72.54276936689502,3.101521834169546],[-72.54619258718384,3.105272965127938],[-72.54656711612432,3.114016131389519],[-72.54240730679163,3.119851087437098],[-72.54169154062345,3.126409878812865],[-72.53807633891279,3.1329727263659493],[-72.54388791743344,3.1420725811756824],[-72.53153218741625,3.1433468985895274],[-72.52723554072116,3.1412523571293036],[-72.5266027966037,3.136211523256975],[-72.52078082567135,3.133778852522255],[-72.51973033643037,3.126904891851325],[-72.51353919679997,3.125590867300218],[-72.51286364684802,3.120832570241987],[-72.50941145636193,3.1174940771616093],[-72.50679893365646,3.116850209409904],[-72.49917838542342,3.119390809016295],[-72.4887120832621,3.1164127922378384],[-72.48326439238718,3.1125879918849932],[-72.47642243273361,3.113874906691308],[-72.47130456954511,3.112798679647824],[-72.46274668028855,3.1082107811167248],[-72.45410129217095,3.098696853751676],[-72.4420034194327,3.0947522491013615],[-72.44011308963275,3.101005361649527],[-72.433337735002,3.103805036210815],[-72.43311157843527,3.1088880783925106],[-72.42882692440838,3.1123803040890152],[-72.42789667449603,3.1260590976385743],[-72.42898337005585,3.1286983763046123],[-72.43464136405612,3.1298734634136736],[-72.43696392973476,3.1343534515850138],[-72.44172093918297,3.137915379973208],[-72.44329089165484,3.1422558917986407],[-72.44275613136995,3.1464691462036853],[-72.43083438455523,3.1501326487172605],[-72.42349761035268,3.157360906807469],[-72.41332174755775,3.1545411632188802],[-72.40487030210187,3.15639084177144],[-72.39974612633318,3.1728710654336396],[-72.39456026561061,3.17858165295587],[-72.38863743223516,3.179055672397226],[-72.38557458231867,3.1811467942860645],[-72.37559481163032,3.202113451368973],[-72.37117972640942,3.1990466974846754],[-72.36885512749996,3.194127183834098],[-72.36449559051636,3.190588232908624],[-72.35873099947747,3.190148651893537],[-72.35173814365226,3.194241831520742],[-72.34502877595042,3.1848044192506677],[-72.33494034722469,3.1855608932306154],[-72.32698093746615,3.1831585749200144],[-72.32162886706283,3.179911333487439],[-72.31638882181778,3.1730406442921435],[-72.30862075378985,3.174405982982705],[-72.30010176948537,3.169652784942457],[-72.29098443629505,3.1701746115342644],[-72.28396093185432,3.1647062870170544],[-72.27002264271687,3.1634541952744257],[-72.261158157262,3.15908446025486],[-72.25754847931609,3.16014921090823],[-72.25806740158617,3.165851896906588],[-72.25366521509136,3.170014492290079],[-72.25056564052102,3.1702347219425633],[-72.24833855647427,3.167164239954161],[-72.24514032752683,3.169154182639602],[-72.23862761448964,3.1677180274541],[-72.23203193699447,3.171947390354319],[-72.22327051690661,3.1704372695828624],[-72.21395676662183,3.176593407200585],[-72.2065880068285,3.17499452669756],[-72.20111438686081,3.1816411347231224],[-72.19363480827224,3.1759740338643496],[-72.1902894451959,3.170186793435903],[-72.17945761707989,3.169172257516891],[-72.17466597277297,3.163478408925073],[-72.17014858014721,3.1623845574621896],[-72.15978010549514,3.171308048778144],[-72.14996100015395,3.1698548008779426],[-72.1435189956253,3.173120026684842],[-72.13475893616686,3.1741868187966134],[-72.12572058427668,3.1795479703474143],[-72.1094986755503,3.1805036649561202],[-72.10643298096181,3.1823731893639433],[-72.10635395955245,3.1864131038962],[-72.1035658251447,3.1890215519124467],[-72.09720575560306,3.191188391853302],[-72.09542647496937,3.1901772590506425],[-72.09518135906478,3.1877111258817195],[-72.09311763899836,3.187129295839611],[-72.09102380510654,3.192639549958301],[-72.0859275566944,3.1949492199962037],[-72.08253100906234,3.194340339858968],[-72.07997804243467,3.1913322966727264],[-72.07523236950834,3.1949367449884107],[-72.06355069100232,3.1936509604404932],[-72.05728368419574,3.1904709791486425],[-72.0521345327005,3.192585103182921],[-72.04823021728583,3.1908760014098334],[-72.04417495736271,3.193926603604325],[-72.03911800059706,3.190734646099372],[-72.03295697684894,3.1921794823682035],[-72.02926299746974,3.1898038387711836],[-72.03039722969976,3.1863580092020243],[-72.02906730337043,3.183521438236994],[-72.02410109842947,3.185337245035157],[-72.0206838605908,3.183533365084884]],[[-72.13421983482613,2.8955939110639406],[-72.14061379154873,2.8930211613159713],[-72.1380499645681,2.8922296482994057],[-72.13769158526048,2.8905391438523793],[-72.12616310046673,2.889304347427583],[-72.12576621112902,2.890981362822515],[-72.13020671533519,2.8930523807170516],[-72.13199977195643,2.8919928843765206],[-72.13421983482613,2.8955939110639406]]]}}]}