{"type":"FeatureCollection","features":[{"type":"Feature","properties":{"code":"504041"},"geometry":{"type":"Polygon","coordinates":[[[-73.8791820492358,3.381301508004526],[-73.87636435224783,3.376778590585559],[-73.8733838682358,3.378223461821392],[-73.87208734777636,3.3736955461718026],[-73.86673068126345,3.369757252044792],[-73.87429446255476,3.361808717037434],[-73.87638786552913,3.371748797043665],[-73.88303344614059,3.3770908648150453],[-73.88267891835022,3.380696267525366],[-73.8791820492358,3.381301508004526]]]}}]}