{"type":"FeatureCollection","features":[{"type":"Feature","properties":{"code":"504021"},"geometry":{"type":"Polygon","coordinates":[[[-73.61103468969435,3.469964457999538],[-73.61355053366088,3.4665609457546793],[-73.6124538827774,3.4640391748739603],[-73.6103390604307,3.464049415076147],[-73.61389007395843,3.4578871335427834],[-73.6132014288479,3.4560466184130973],[-73.61627740786156,3.4549312457620545],[-73.62147707131112,3.4584866620521666],[-73.62843491689614,3.4601160749567157],[-73.62964580408925,3.466204253092826],[-73.62740210143983,3.467524007097154],[-73.62121541393708,3.4647782116110193],[-73.61767591279488,3.4681653469371554],[-73.61499295103289,3.466045698109724],[-73.61103468969435,3.469964457999538]]]}}]}