{"type":"FeatureCollection","features":[{"type":"Feature","properties":{"code":"504048"},"geometry":{"type":"Polygon","coordinates":[[[-73.86674759091534,3.445714005551679],[-73.86434352733772,3.4439624517282823],[-73.85559118942575,3.444088709502523],[-73.85826878374627,3.4329627324279954],[-73.85779760692009,3.427451317197722],[-73.85209119281762,3.424651644693313],[-73.84842514799413,3.4250124778648114],[-73.84540842475309,3.4219036791934627],[-73.83869677493732,3.4200255230675793],[-73.83688302810947,3.4217947239361592],[-73.83506290493807,3.419944347071123],[-73.83137217338037,3.420034959027703],[-73.82753177361138,3.422544565490341],[-73.82598585275582,3.421668655395308],[-73.82307830177348,3.4229339276572546],[-73.81813935878682,3.419510274394156],[-73.80623139104495,3.4179786221500876],[-73.80298245371068,3.419096217265462],[-73.7971304975083,3.416653387575593],[-73.79374711702576,3.4122008454497177],[-73.7889389384485,3.4102155358978052],[-73.78704889147019,3.4074788143599903],[-73.7899327049708,3.402871046319433],[-73.79681394495793,3.4029782100298576],[-73.79743984684728,3.399298947663169],[-73.79542043208454,3.3985132864845014],[-73.7945867693798,3.395245030885974],[-73.78677772203127,3.3892023747010853],[-73.78413732441982,3.3887505346511375],[-73.77844291326994,3.383193960509857],[-73.7776951985349,3.391282320505127],[-73.76630338552434,3.384618905671914],[-73.7485774793733,3.3709390836798434],[-73.74405670420003,3.3698563003152913],[-73.74664005101971,3.360893124487859],[-73.74309629109706,3.3562973933385365],[-73.73519237609685,3.3532137123188477],[-73.72604788379653,3.3438852059408646],[-73.70783707625384,3.3325428157639863],[-73.69768484912487,3.322841809562533],[-73.69120278573166,3.3232885927606617],[-73.68407431227683,3.318707078800685],[-73.67872503512336,3.318775002286827],[-73.67762916277093,3.3141405060536613],[-73.6727076940511,3.3119076442168307],[-73.66455982014418,3.3127576786980626],[-73.65653745427687,3.3093693092409353],[-73.65222019965057,3.310692821174257],[-73.6470137495088,3.3044994189702948],[-73.64276893425972,3.3022605078345464],[-73.64080531147522,3.2943011371568787],[-73.63663564966322,3.2938923446254194],[-73.63194946288058,3.2903798195305285],[-73.62909145608813,3.290719336173879],[-73.6273491993851,3.288487154137613],[-73.62433270137296,3.288636115808913],[-73.62563888507827,3.280260560154943],[-73.62767414505487,3.2811793717295927],[-73.63011408790663,3.280076089448812],[-73.62906135871782,3.2751267807900035],[-73.62549748863017,3.274579753242733],[-73.6229587834149,3.2777125835303877],[-73.61767175891555,3.272634139515162],[-73.6127745892071,3.2709272447796707],[-73.61019056155851,3.267487400746006],[-73.60191992761031,3.26477790825237],[-73.59873007429877,3.2606872246551006],[-73.59471117496093,3.261721264986477],[-73.58855987307993,3.2582259560193165],[-73.5843956918381,3.250467229334845],[-73.58198499274937,3.249391045485936],[-73.58471805200338,3.2398254388843384],[-73.58257235375532,3.23960282324515],[-73.57986162096,3.2334917951731654],[-73.57714054717508,3.232429001645926],[-73.57106923241099,3.23362924548735],[-73.56557073441871,3.231817850707614],[-73.55988244867251,3.2361346651605345],[-73.56011575702854,3.2373273345228313],[-73.55684539106596,3.237245943581911],[-73.55062321818258,3.232193883231048],[-73.54214995946091,3.228651329671493],[-73.53942674034494,3.2190230641809308],[-73.53767054310356,3.201188254194676],[-73.5174181763739,3.1925717807385467],[-73.51029121987176,3.193584589902514],[-73.50473603309939,3.1892335334559334],[-73.50157610437981,3.1890565415837955],[-73.5005857409738,3.1843887083863933],[-73.49454442073574,3.1847317135067783],[-73.49221729391456,3.1815178974845253],[-73.48922527386276,3.1827590003188675],[-73.48442308390628,3.175537744893745],[-73.47818675451157,3.17293596735567],[-73.46131192568248,3.1577961138565342],[-73.4613412476071,3.1519894811159475],[-73.46322155832007,3.1498570610892784],[-73.46588949350848,3.1507742353834374],[-73.46796295909621,3.1471679122170713],[-73.46695180366777,3.1456175968266393],[-73.47019051416959,3.143472390174111],[-73.46856392536824,3.1386250145671397],[-73.47192365372968,3.1313440806795256],[-73.4706110165476,3.1280652701754548],[-73.47343686599936,3.1261085667521797],[-73.47359964890967,3.122689316251524],[-73.4755526561105,3.123058954947794],[-73.47450359743306,3.1268444934790978],[-73.47875989832818,3.1246732651739535],[-73.47834266125523,3.1227971947295146],[-73.48204056105726,3.1217656010629184],[-73.48534385980616,3.124540269044303],[-73.4878626872844,3.124606694089721],[-73.48852694185217,3.1231330830276534],[-73.49253302782466,3.124018152431745],[-73.49548936606328,3.127957426664466],[-73.50092269782374,3.130433721873942],[-73.50314443602628,3.128839996953218],[-73.50576301625819,3.1295609310450914],[-73.50944993949321,3.1321995443088326],[-73.5081638145308,3.1337208730468546],[-73.51140616880446,3.1350525364155715],[-73.5121436978448,3.1373894087581107],[-73.51537597955246,3.1386690452766857],[-73.5182891746274,3.137361094707103],[-73.5181392822156,3.140056938740088],[-73.52577230339949,3.1425139599082854],[-73.52721815165575,3.1451993518800236],[-73.53190821566665,3.1457738223874685],[-73.53159921085592,3.147504816616447],[-73.5333124120009,3.148560924238893],[-73.53629889080435,3.149070606981411],[-73.53773815702851,3.1471514201128343],[-73.54274642835378,3.1478633327068906],[-73.54539065999899,3.1535182722328727],[-73.54620931361364,3.1513483706186207],[-73.54861901202781,3.153892391853276],[-73.55351832809578,3.1544408664191224],[-73.55492573831287,3.159919951530412],[-73.55941079876277,3.1591439587398895],[-73.55933564532575,3.15649206725476],[-73.55642064944794,3.152393542811808],[-73.55976000744846,3.1511868537210717],[-73.56181083804478,3.147254180032405],[-73.55601517364363,3.144719223490142],[-73.5635186974593,3.143323005812931],[-73.5650733724176,3.142120495284189],[-73.56506511813791,3.1383461585488135],[-73.56837728308977,3.142019268772401],[-73.57037727571554,3.1407977423414195],[-73.57267068607723,3.142066582270445],[-73.5723505751157,3.145928384956676],[-73.57827616780247,3.1449975622018655],[-73.58069113904139,3.1508484498525036],[-73.58521810235328,3.149311611172834],[-73.58922162956077,3.1560992063264166],[-73.58883703113963,3.1632650749796767],[-73.59294572276531,3.1617794352539477],[-73.59581566360481,3.1639816320201817],[-73.60119061891106,3.162428189136051],[-73.6038987497468,3.1644228739699543],[-73.60623648392419,3.16242033903427],[-73.60925414613325,3.1638414933572108],[-73.61106884941262,3.1620715694936052],[-73.61238225381288,3.1647376174899478],[-73.61396295967972,3.160642945592599],[-73.61983767120131,3.1656215412090205],[-73.63083157568758,3.162546665714217],[-73.6335008807614,3.166067299049928],[-73.63235931470786,3.169013159516112],[-73.63669388830618,3.170469838300562],[-73.64174466516073,3.169638346637953],[-73.6458352531128,3.166985929618704],[-73.6478958713966,3.170039979152534],[-73.65070516086695,3.1697540402506093],[-73.65345787365749,3.1757971191253773],[-73.65939193659682,3.173794257145005],[-73.66321767900303,3.175346716838078],[-73.66262545654928,3.18620776917669],[-73.6672759008406,3.1884529928926213],[-73.67264272425183,3.1886941914596036],[-73.67831479248798,3.1964317003465226],[-73.68298339393198,3.198444586556093],[-73.69113596679279,3.1963753848910983],[-73.6955470318319,3.2016397013795768],[-73.70497669992983,3.2025532452717016],[-73.70916960865651,3.2045056600896373],[-73.72132502686748,3.2190609129225436],[-73.72379740062559,3.224070875007328],[-73.72362964930949,3.227238535557774],[-73.73620275505118,3.2375302266913764],[-73.74107128057858,3.2438528269867106],[-73.74163018355165,3.2470604415005937],[-73.7525879557669,3.2532317692143238],[-73.75653346133288,3.2587263899782783],[-73.76118566631777,3.2700414595796587],[-73.76941163089361,3.2779231684489787],[-73.77293282575897,3.2842666389283863],[-73.77671835297735,3.286514289768604],[-73.78953252564548,3.3003661537389917],[-73.79408487194712,3.3108202174343546],[-73.7984586559449,3.316566233772903],[-73.79920282563859,3.3242202927769426],[-73.80600990566415,3.3282776599787667],[-73.81503745993632,3.340234834581395],[-73.81845750953687,3.347758713331416],[-73.82618012349076,3.3584135783716533],[-73.8308701936723,3.370280016576146],[-73.83614467528668,3.375398740571029],[-73.84303762100654,3.379105531258631],[-73.85138977342251,3.394461099547641],[-73.86861100328923,3.4116088554239354],[-73.88421226958133,3.4395006690463674],[-73.88457892373742,3.4460285392693777],[-73.88059647754466,3.4474086895891105],[-73.87502465262924,3.4455767958930323],[-73.86674759091534,3.445714005551679]]]}}]}