{"type":"FeatureCollection","features":[{"type":"Feature","properties":{"code":"504067"},"geometry":{"type":"Polygon","coordinates":[[[-73.66321767900303,3.175346716838078],[-73.65939193659682,3.173794257145005],[-73.65345787365749,3.1757971191253773],[-73.65070516086695,3.1697540402506093],[-73.6478958713966,3.170039979152534],[-73.6458352531128,3.166985929618704],[-73.64155009514906,3.169686849015534],[-73.63279886898346,3.1693569832767707],[-73.6335008807614,3.166067299049928],[-73.63051447909112,3.162456658481858],[-73.6203448383734,3.1656404285558892],[-73.61396295967972,3.160642945592599],[-73.61238225381288,3.1647376174899478],[-73.6109327864674,3.1620636072916],[-73.60947683067809,3.16379299097963],[-73.60639056415386,3.1623994966182067],[-73.6038987497468,3.1644228739699543],[-73.60119061891106,3.162428189136051],[-73.59581566360481,3.1639816320201817],[-73.59294572276531,3.1617794352539477],[-73.58964876642142,3.1635734688955495],[-73.58819323229352,3.1620603512425873],[-73.58912843312817,3.155795070162526],[-73.58521810235328,3.149311611172834],[-73.58069113904139,3.1508484498525036],[-73.57827616780247,3.1449975622018655],[-73.5723505751157,3.145928384956676],[-73.57267068607723,3.142066582270445],[-73.57037727571554,3.1407977423414195],[-73.56837728308977,3.142019268772401],[-73.56506511813791,3.1383461585488135],[-73.5650733724176,3.142120495284189],[-73.5635186974593,3.143323005812931],[-73.55601517364363,3.144719223490142],[-73.56181083804478,3.147254180032405],[-73.55976000744846,3.1511868537210717],[-73.55642064944794,3.152393542811808],[-73.55933564532575,3.15649206725476],[-73.55941079876277,3.1591439587398895],[-73.55492573831287,3.159919951530412],[-73.55363297064025,3.154542669887178],[-73.54861901202781,3.153892391853276],[-73.54620931361364,3.1513483706186207],[-73.54539065999899,3.1535182722328727],[-73.54274642835378,3.1478633327068906],[-73.53773815702851,3.1471514201128343],[-73.53629889080435,3.149070606981411],[-73.5333124120009,3.148560924238893],[-73.53159921085592,3.147504816616447],[-73.53190821566665,3.1457738223874685],[-73.52721815165575,3.1451993518800236],[-73.52577230339949,3.1425139599082854],[-73.5181392822156,3.140056938740088],[-73.5182891746274,3.137361094707103],[-73.51537597955246,3.1386690452766857],[-73.5121436978448,3.1373894087581107],[-73.51140616880446,3.1350525364155715],[-73.5081638145308,3.1337208730468546],[-73.50944993949321,3.1321995443088326],[-73.50576301625819,3.1295609310450914],[-73.50314443602628,3.128839996953218],[-73.50072931772007,3.130367469606881],[-73.49548936606328,3.127957426664466],[-73.49117947097164,3.123402477374782],[-73.48546867056177,3.1245652056900894],[-73.48204056105726,3.1217656010629184],[-73.47834266125523,3.1227971947295146],[-73.47875989832818,3.1246732651739535],[-73.47436420850471,3.126756803327737],[-73.47541336179887,3.1228130142323494],[-73.47403615179633,3.1223216408519647],[-73.47255257204097,3.1249324491437847],[-73.4723790264797,3.123603078173403],[-73.48213667003904,3.066762745780977],[-73.47875529707636,3.0611305101520543],[-73.47174482711608,3.0606071357542532],[-73.4678086032439,3.0579864101912904],[-73.46634340175632,3.0541898076754137],[-73.46115342520682,3.0517039736615743],[-73.45967379158537,3.0476208213489144],[-73.45382633379052,3.0447208695283052],[-73.4501689484531,3.0384311176870256],[-73.44315982266721,3.0359543226545043],[-73.43865761499524,3.0362257594884454],[-73.42945873556914,3.0122375372571355],[-73.42508338011118,3.0092507396365136],[-73.42728875579326,2.9894607339236927],[-73.43246316172304,2.9795381713789197],[-73.43397189409706,2.979721047999192],[-73.4341222863319,2.976331773512584],[-73.43591527610437,2.974936279858923],[-73.43804659364065,2.975635516898933],[-73.43687342252008,2.9668027866637203],[-73.43821988826198,2.9656709661314835],[-73.43458660344652,2.9609309527243113],[-73.43558604902842,2.9532598123184925],[-73.43731247080194,2.952407560515155],[-73.44613826213555,2.9613078100586563],[-73.45032676090068,2.958959135309783],[-73.4528645559443,2.961408210731122],[-73.46047724379116,2.9590944649755215],[-73.466104793836,2.961560927246012],[-73.46733549191731,2.958079315076361],[-73.47022029477961,2.9575807384845803],[-73.47392929147645,2.9606300129598253],[-73.47455165758043,2.9659002975002977],[-73.48308838148989,2.97240810075283],[-73.48695598047817,2.9717225985626783],[-73.49090431426106,2.9649060527521556],[-73.49506098478719,2.9618678916268095],[-73.49819944682605,2.9641134115341288],[-73.49543681470743,2.9684352242177283],[-73.49778864471796,2.971379582129373],[-73.50214540284986,2.970777848639216],[-73.5036732704254,2.963481921088146],[-73.50852218766772,2.969814654627669],[-73.5120410222575,2.9703665065987934],[-73.51394209928179,2.9628179298017017],[-73.51714972305166,2.9634037522576477],[-73.5232480930531,2.958223252805965],[-73.5299946348382,2.960920314514908],[-73.52916787606807,2.962921110354273],[-73.52544087854187,2.961521030875417],[-73.52441330197172,2.9625655993728515],[-73.52682035831702,2.9716541423432545],[-73.5307400427767,2.9712748702258978],[-73.53015864673733,2.9681567610644493],[-73.53163083752025,2.965176006572051],[-73.53626752639286,2.9644119498853456],[-73.54284258053019,2.9661083874173073],[-73.54878260226548,2.972400026450657],[-73.55384034784657,2.973624822300337],[-73.56274753320639,2.96872563067393],[-73.56435424221388,2.9639995598620317],[-73.57228792136902,2.9633532073931406],[-73.56996713489593,2.9552443587660377],[-73.56543311029776,2.949977697428551],[-73.56839291233075,2.9498859048200075],[-73.57411841124105,2.9528904060501873],[-73.57791807028809,2.9521920102761214],[-73.57348627287627,2.9494491664199813],[-73.57353709644866,2.9446516065117407],[-73.5863830593035,2.9437390057014454],[-73.59056144333647,2.9343100760252128],[-73.59847904690662,2.938026294445365],[-73.60574485651853,2.9368827249858214],[-73.60746115636078,2.9346671924054135],[-73.60729120109238,2.9282580682125285],[-73.60902738689919,2.9262685687857584],[-73.614830482826,2.927211524076995],[-73.61941546058034,2.9335734149903487],[-73.62259812405023,2.9343990661279236],[-73.63724643447597,2.9217037217653115],[-73.63999821961136,2.9237913037550243],[-73.63804830493717,2.926763482065269],[-73.63849774665914,2.9298419571089767],[-73.64358266574851,2.931672035603981],[-73.64460579019095,2.937378770580551],[-73.64883767071848,2.93967125225862],[-73.64879175795909,2.943273855548398],[-73.64619565536685,2.945959432639768],[-73.64686683546654,2.9484766763165453],[-73.66236056060973,2.949006372550457],[-73.66451539245577,2.9506395341279585],[-73.66302478021043,2.953630731425733],[-73.66575827860942,2.9558231075943695],[-73.66939512286444,2.953338184780648],[-73.67319558512509,2.9533153471860487],[-73.67393327151711,2.9563587780509124],[-73.67098134735386,2.9602855371666124],[-73.67168121997133,2.9647521288457597],[-73.67601775378114,2.9718724621780552],[-73.67931758976408,2.9729279383367953],[-73.68582144071206,2.964882582665439],[-73.69047226141333,2.9646011935932393],[-73.6929651597988,2.967648821532009],[-73.70317952439632,2.9633646673281646],[-73.70581205647943,2.9574440399618993],[-73.71065803134769,2.9523494637973045],[-73.71234087698332,2.9460959347299536],[-73.7246883681475,2.944546123276325],[-73.72862283955368,2.9425468022235464],[-73.7316054709537,2.9347421566090475],[-73.73783009770096,2.9289606631173797],[-73.74053278087672,2.9188323359641117],[-73.74967423001567,2.908165946197016],[-73.75995566552047,2.907363526547499],[-73.76465877738161,2.9001104881347715],[-73.76879441214442,2.896756846096139],[-73.777058321107,2.8961863186373193],[-73.78386026817589,2.8923576503121353],[-73.79525263860228,2.8904735991537223],[-73.80789920907847,2.8765963974449846],[-73.81612300055525,2.8724937818576564],[-73.82242256579508,2.8641400631237275],[-73.84441582962677,2.85868744498066],[-73.86780477120334,2.860616842226648],[-73.85720298408148,2.822773393017883],[-73.86282131105384,2.814245793450368],[-73.87087048224691,2.813943402553491],[-73.87450832614803,2.812088296909792],[-73.87943634090453,2.7962900005715596],[-73.87782159667563,2.79280622661571],[-73.87307089158003,2.790184653616052],[-73.86838519947827,2.7838074677055715],[-73.87088068748204,2.7794395365741593],[-73.86705388886537,2.7731997546979414],[-73.86066349569603,2.7705182193856785],[-73.85861440830979,2.765374189534157],[-73.86598285648506,2.752269585727163],[-73.86589172825035,2.745340939682137],[-73.86145702857374,2.727282804431411],[-73.86380544209817,2.7207676406156907],[-73.86405178801999,2.7102557126304987],[-73.8705336374972,2.6981589372404073],[-73.87016505295446,2.6827784755002426],[-73.87542967283355,2.670503162488899],[-73.87461035793035,2.649994985080866],[-73.88065336378565,2.6447755148568035],[-73.88126552465457,2.634304664922695],[-73.88473107666584,2.629935659068849],[-73.89100707514535,2.6266987061752616],[-73.90766840342138,2.623578326212737],[-73.91439293550815,2.619677414942828],[-73.915073354107,2.61629918798576],[-73.90913413455684,2.6131785550263658],[-73.90822250151098,2.606589443108305],[-73.91014226636429,2.604539463033916],[-73.91934157362243,2.602474939753904],[-73.9256553930756,2.5916494149620917],[-73.93135898101804,2.58597675639993],[-73.93070521964927,2.5708340417737077],[-73.93401545729989,2.564992181791524],[-73.93501049806247,2.553214119709537],[-73.94314162892522,2.550126652992901],[-73.94511536849876,2.5521396441036472],[-73.95012859486013,2.549994600973548],[-73.95924830683799,2.553750239595445],[-73.96618103888511,2.554716270051472],[-73.96740644254436,2.5646924525038344],[-73.97023239586889,2.5688221685799704],[-73.97441406988952,2.571252383393926],[-73.97140142236617,2.5747547752447417],[-73.97027244547746,2.580200532647723],[-73.97049938674581,2.5813671546463866],[-73.972377680683,2.58077101382662],[-73.973057479131,2.5834699853533607],[-73.9716547133603,2.5833110364767435],[-73.97068327123975,2.586605598606468],[-73.96473340628108,2.590956663280565],[-73.96457585402948,2.593130459606641],[-73.96672602394557,2.594295573908596],[-73.96346788410767,2.595693058626921],[-73.96199788287885,2.599331780817977],[-73.96534943409387,2.602852249602961],[-73.96689114142038,2.6080902451620886],[-73.96426917555573,2.6155955008749743],[-73.96530985036975,2.6176993219720543],[-73.9614422740072,2.6205849619865944],[-73.95734514618914,2.6200159545658153],[-73.95669022268038,2.621617709565669],[-73.95671506470939,2.6262846901842636],[-73.9598170129251,2.6310181215592934],[-73.95882396117037,2.636097608415241],[-73.96340010666034,2.6475781461903125],[-73.96088927532264,2.6495019003721723],[-73.95647428471847,2.645524592278207],[-73.9512916934147,2.645916884477856],[-73.94706459308804,2.6563977874376405],[-73.95016618032042,2.6595294113622003],[-73.95598261926045,2.661126755372152],[-73.95109684366668,2.66614027483962],[-73.95863258858645,2.667576127662983],[-73.95578368968091,2.671924607861058],[-73.95676037891525,2.6789932742981364],[-73.963617810458,2.6810468179258464],[-73.95893591536606,2.6864724301967726],[-73.96101773087861,2.687019759077714],[-73.96149413630656,2.689100927699883],[-73.95579274511732,2.6934745502322244],[-73.95844327597297,2.700473311374367],[-73.95925731085225,2.698573699880683],[-73.96118266734754,2.701386401723312],[-73.96369357581835,2.6997831379982813],[-73.96500878102148,2.7059588067678533],[-73.96725062218991,2.708496262425456],[-73.96831409654618,2.708061155135283],[-73.96758868153029,2.705819443550581],[-73.97075713192453,2.70481083146052],[-73.97141629467342,2.7126114167839432],[-73.98261950161043,2.71232864959876],[-73.98182554295755,2.709126077538599],[-73.9861248317215,2.7089172913659922],[-73.98809670878569,2.714223141505613],[-73.99418459278724,2.712982926217194],[-73.99595832497351,2.7152778267920894],[-73.99414150207411,2.718267692256802],[-73.99709414306187,2.717015395854105],[-73.99841769818977,2.7188727774411063],[-73.99825114089538,2.7216168821677797],[-73.9935272575807,2.724585050580629],[-73.99136441313902,2.73183264750395],[-73.97443567129619,2.7325807314499],[-73.97280608458487,2.7338398865356908],[-73.97350950018682,2.7373165662950782],[-73.97217598562156,2.7401086314101235],[-73.96060730929418,2.7335515873581926],[-73.96549899123335,2.740434119069107],[-73.96172088834152,2.7438911710030425],[-73.96835509335028,2.7507037891915047],[-73.9656652636491,2.759101490298235],[-73.96824855081911,2.765962308502253],[-73.96664422676986,2.7728040676095134],[-73.97155670895893,2.775545251559379],[-73.97490580425318,2.774353529392613],[-73.97834875932551,2.779612592596777],[-73.97721920548054,2.7830676544944026],[-73.98255041392736,2.787055120515106],[-73.9759710022791,2.793113656880905],[-73.9745861406642,2.7974617318726587],[-73.97715776940981,2.7978067280577648],[-73.97868070971725,2.8020126311556623],[-73.98215553725163,2.803862869180932],[-73.98419044447246,2.803058182844154],[-73.99728962633048,2.807137225500469],[-74.00189504129457,2.806804076973208],[-74.00551182577823,2.813595920622788],[-74.01206462236257,2.8198125615139134],[-74.01509231394311,2.8176751093179746],[-74.02244995113062,2.8167666202209034],[-74.02552687733987,2.819099416845688],[-74.0296806240039,2.826511277636598],[-74.03195609524272,2.826810373403646],[-74.03263971126933,2.8248219785241986],[-74.0356362883499,2.827660046901542],[-74.03852573668706,2.8241552423245935],[-74.0377723963714,2.826625774142201],[-74.04009281054829,2.8275567779028847],[-74.03916919100487,2.82907377278417],[-74.04129730288582,2.8315325423046716],[-74.04583096033002,2.828337519012564],[-74.04345319402768,2.8273726260139256],[-74.04433133584291,2.8241430069439843],[-74.04869952202807,2.827096398694721],[-74.04639136894292,2.8291994957683073],[-74.04813271136055,2.8336466529691506],[-74.04930981113154,2.833692465969591],[-74.04824410608353,2.830279668945707],[-74.0532600022816,2.8285095476210813],[-74.0509658596689,2.8322331245474857],[-74.05804681290869,2.8403339523514433],[-74.05576009667942,2.839392254845393],[-74.05417480807267,2.8426676272661666],[-74.05221863018357,2.841185037900914],[-74.0510121385538,2.847367885199276],[-74.05197280053989,2.8480343025816524],[-74.05208528952568,2.8458740426160034],[-74.05806191764401,2.844023123761815],[-74.05501283960126,2.847757979617313],[-74.05608927336169,2.850274902419983],[-74.0551302311726,2.852090924162667],[-74.05860125861187,2.860525693423085],[-74.05534528158859,2.862927792675464],[-74.05420137274297,2.861054634780203],[-74.05373526305306,2.8646516525986954],[-74.0562535557412,2.86978837845146],[-74.05097712111444,2.875075273367031],[-74.05244149573423,2.8763046406437525],[-74.05234244849214,2.8804533129724064],[-74.05775082715184,2.8837853731448035],[-74.0585831641942,2.894921242807925],[-74.07966689403116,2.8928363944183957],[-74.09713944028243,2.9047436473927064],[-74.10093805854564,2.909532645517004],[-74.10188147046534,2.9147133845958137],[-74.10642218405371,2.9186991711698624],[-74.10325050229301,2.9229310013037093],[-74.10443571030487,2.930174763164871],[-74.1032480638558,2.9417079643960165],[-74.1061840152783,2.952687185808486],[-74.10956555279182,2.951996978493753],[-74.11139438687144,2.9536462197700644],[-74.11194713564441,2.9576117480834228],[-74.11415319215541,2.958951243041895],[-74.11659524639964,2.955900141024358],[-74.12481287853421,2.959092165378024],[-74.12643948481912,2.9637104626131077],[-74.12875675401875,2.961748512076099],[-74.13104558986811,2.9655065120020936],[-74.13332915186419,2.9640837728492215],[-74.13413037337818,2.966017306490926],[-74.13157593504928,2.9696998002240775],[-74.13324078088391,2.973699743309396],[-74.13207550203117,2.9771295065494883],[-74.12789273477614,2.9767849237982773],[-74.12358980121189,2.9802323248275684],[-74.10912275069478,2.982197490275894],[-74.10299765147226,2.9865345012829607],[-74.1010031044496,2.9947742356757203],[-74.10063228407284,3.0080618261462178],[-74.10645484121744,3.0188482361837146],[-74.10549520458852,3.02209258872125],[-74.10271615029978,3.022847764806727],[-74.10247444059684,3.0251476204176697],[-74.09576719354345,3.0305816936852352],[-74.09836977223824,3.032975899641258],[-74.09358807194201,3.0360382898439298],[-74.09492680071088,3.0404361949325676],[-74.09194526768744,3.038728715013292],[-74.09039464273582,3.040046806026112],[-74.0916130416731,3.043173553076315],[-74.08661982263249,3.040398962228039],[-74.08675760101983,3.04486245623832],[-74.0825189204304,3.0425185267232564],[-74.0827410023079,3.0412190988568],[-74.0853913511292,3.041262611231332],[-74.08360007577045,3.0383042911840334],[-74.0814118812491,3.03978741533939],[-74.07794067280389,3.037234337639916],[-74.07670206805648,3.039049239408712],[-74.07866538127979,3.041212317306872],[-74.07686623010824,3.04228452005475],[-74.07062660044147,3.039644381610742],[-74.07194782820397,3.042533174830055],[-74.07061420153849,3.0435533856948496],[-74.06843726023516,3.0416497252229533],[-74.06730827409052,3.0427264346059246],[-74.06865308609684,3.0478167694735703],[-74.06444530506286,3.0490189169621544],[-74.06536731303686,3.0524350667086537],[-74.06385152451873,3.0528357849378835],[-74.05869980603092,3.0493031064833644],[-74.05884763024477,3.0514814608666825],[-74.0611955058938,3.052788825224013],[-74.05652102895772,3.053669897072041],[-74.0533286158527,3.0562132724447224],[-74.05722150732782,3.057223970216228],[-74.06188521338544,3.061865610011182],[-74.05877542432398,3.0624296109737656],[-74.05844758358853,3.0658802258859055],[-74.05548785046119,3.068716959344897],[-74.05610572227135,3.0706596173286584],[-74.05155651169093,3.0748782381467663],[-74.05319985073561,3.0780253894965313],[-74.04820083333607,3.0798169661889574],[-74.05110362057269,3.082740320219102],[-74.0529343511003,3.082233954203673],[-74.05460415917008,3.085140886063641],[-74.05105228277904,3.089520617544565],[-74.0537645068161,3.09358117806039],[-74.05545971741606,3.0936343505954937],[-74.05624568815591,3.096136004112111],[-74.05508403764838,3.0975829219485718],[-74.0578047494215,3.1001993475934455],[-74.05331610484944,3.1045451569262923],[-74.05378385181984,3.1066341921052754],[-74.04940093113873,3.1084710140979155],[-74.05080148267268,3.1104102957048667],[-74.04493809224635,3.1130061370727162],[-74.0447984194679,3.1189080683824386],[-74.04723688033397,3.1226311979363572],[-74.04495279280371,3.1266548702758996],[-74.04242363462038,3.1275675986130977],[-74.04090131446372,3.133891695292334],[-74.03506958155504,3.1413545061540162],[-74.03962247087435,3.139538104916028],[-74.04432420976468,3.1415244408535727],[-74.04842089021025,3.145426224242726],[-74.05434341505298,3.146775568595274],[-74.05416508003492,3.1505715242208225],[-74.0503594817323,3.151274535644859],[-74.04741952349775,3.1610735380201618],[-74.04208216290778,3.1628232293340943],[-74.03834331669526,3.1659871391547085],[-74.03689995007085,3.1648933956782344],[-74.0359996463477,3.1662894230935876],[-73.95122519946364,3.164233923368215],[-73.92792326412416,3.1748091941565804],[-73.91964403136808,3.174318458410596],[-73.91258240564855,3.1760310394047337],[-73.89991815830234,3.189490459994431],[-73.89511469307712,3.1970854390895056],[-73.86310226920864,3.2133282467963227],[-73.85657813120349,3.213820817283761],[-73.85585920463143,3.2150929492572686],[-73.85365680217672,3.2141751198452084],[-73.85369323269606,3.2120799232670834],[-73.85044830217385,3.2137584083063757],[-73.83359445460053,3.230197405821798],[-73.81005123121957,3.248155827399728],[-73.80266121351934,3.241284893435079],[-73.80147945181835,3.238277683287322],[-73.79556964469583,3.2392736033683036],[-73.79408804572074,3.2327744801705762],[-73.7843795257183,3.222915093821257],[-73.78266884014369,3.217483561835195],[-73.77774692405137,3.2153761391323883],[-73.76926683647139,3.201539664775794],[-73.76385668683372,3.202324201866759],[-73.74397731975046,3.2111609563975776],[-73.74246457336528,3.208114592414688],[-73.73775787018286,3.2052367078852058],[-73.73896459424066,3.2035386803811434],[-73.73568815223967,3.1997953799841525],[-73.7314929511146,3.2010114176173943],[-73.72592805378798,3.195334298700004],[-73.72098793940529,3.19297455893809],[-73.71694717126576,3.181983938268786],[-73.71121065053694,3.178824681122194],[-73.70977937325432,3.1763225956596557],[-73.70700984028639,3.1770461749056835],[-73.69889968039502,3.1745913690026555],[-73.69653453822457,3.1719753053695854],[-73.69191129520942,3.1707583966455672],[-73.68631891069964,3.1719239675759923],[-73.67775268900186,3.177148711653274],[-73.67328650664285,3.171209565122524],[-73.66749214424993,3.172611202691826],[-73.66496008174488,3.171448707833008],[-73.66321767900303,3.175346716838078]],[[-73.74256468196006,3.1213086342270344],[-73.748913840755,3.1370945172640177],[-73.76249004613493,3.133100536059942],[-73.75684499816907,3.129023112172149],[-73.75606162321816,3.1219719354285758],[-73.75212849907166,3.118858773075601],[-73.74913027648307,3.1197292704776487],[-73.74726159231278,3.118563254231617],[-73.74256468196006,3.1213086342270344]]]}}]}