{"type":"FeatureCollection","features":[{"type":"Feature","properties":{"code":"504008"},"geometry":{"type":"Polygon","coordinates":[[[-73.74362385742654,3.514463074960929],[-73.74350720016321,3.5100700539458103],[-73.73410210464237,3.505007639235714],[-73.73052856513817,3.4948883274095124],[-73.7257603662353,3.491025737964776],[-73.72377562129833,3.484102163169837],[-73.71754949302499,3.4819696927494306],[-73.70841098420323,3.4738451398050643],[-73.70178576058294,3.4761057551917247],[-73.68999666639809,3.47064260682572],[-73.68372360412195,3.465479194946454],[-73.68305679078918,3.46217760238369],[-73.68326939351198,3.460832532238271],[-73.69443587785202,3.4563127824222306],[-73.69541147179501,3.4513914597412736],[-73.70646616546173,3.4446677987453427],[-73.70426590730966,3.4346137745071132],[-73.70744731710812,3.432478587970081],[-73.71220924251156,3.4345055422448922],[-73.71414204390226,3.43384725881441],[-73.71662242408536,3.4322040668370164],[-73.71669145109036,3.4281945849472777],[-73.72452654580252,3.427130447245645],[-73.72312737340997,3.422159580374739],[-73.73074608998684,3.4205261760848202],[-73.7243087381321,3.4153284718182135],[-73.73683413853917,3.3927612732976513],[-73.73577177592932,3.3831231327020532],[-73.73758971057504,3.3824794541837377],[-73.74096301849153,3.3712100042356496],[-73.74471640893813,3.3698062213352955],[-73.74890866357538,3.3711505839122538],[-73.76630338552434,3.384618905671914],[-73.7776951985349,3.391282320505127],[-73.77844291326994,3.383193960509857],[-73.78413732441982,3.3887505346511375],[-73.78677772203127,3.3892023747010853],[-73.7945867693798,3.395245030885974],[-73.79542043208454,3.3985132864845014],[-73.79743984684728,3.399298947663169],[-73.79681394495793,3.4029782100298576],[-73.7899327049708,3.402871046319433],[-73.78704889147019,3.4074788143599903],[-73.79778614401215,3.417122693664794],[-73.80298245371068,3.419096217265462],[-73.80623139104495,3.4179786221500876],[-73.81813935878682,3.419510274394156],[-73.82307830177348,3.4229339276572546],[-73.82598585275582,3.421668655395308],[-73.82753177361138,3.422544565490341],[-73.83137217338037,3.420034959027703],[-73.83506290493807,3.419944347071123],[-73.83688302810947,3.4217947239361592],[-73.83869677493732,3.4200255230675793],[-73.84540842475309,3.4219036791934627],[-73.84842514799413,3.4250124778648114],[-73.85193203722406,3.4245945085407357],[-73.85779760692009,3.427451317197722],[-73.85826878374627,3.4329627324279954],[-73.85559118942575,3.444088709502523],[-73.86434352733772,3.4439624517282823],[-73.86674759091534,3.445714005551679],[-73.86324426009651,3.4572179373087124],[-73.86336072092735,3.464519851423688],[-73.8586477709851,3.464846554701751],[-73.85833302746511,3.4710688222018575],[-73.86904210479582,3.4723153017336585],[-73.86621597869299,3.488462552732244],[-73.86895046851049,3.494713771917702],[-73.86799967237351,3.4981285157832644],[-73.87136874927745,3.499026252513829],[-73.87300974450164,3.5030491751188606],[-73.87978799111272,3.5069449184650807],[-73.87902460394213,3.509938074945808],[-73.87214421653385,3.5099947719534725],[-73.85149611952119,3.5040863779109372],[-73.8421351030467,3.50683317098634],[-73.82753436734339,3.5037325669450183],[-73.81362452801136,3.5043362647603544],[-73.80731706947518,3.501643522509994],[-73.80092270548931,3.5056059408131546],[-73.79553660906527,3.5066171466352785],[-73.7922499998815,3.5103204581018304],[-73.77528379393459,3.5118987337590397],[-73.7707751852364,3.5144462876937155],[-73.76803676676843,3.5184955857355362],[-73.763185453255,3.518025383872839],[-73.75821015688217,3.5198758286150564],[-73.75692240389526,3.5172308215242083],[-73.74866790929553,3.51713689284054],[-73.74362385742654,3.514463074960929]]]}}]}