{"type":"FeatureCollection","features":[{"type":"Feature","properties":{"code":"505041"},"geometry":{"type":"Polygon","coordinates":[[[-74.35538571218729,3.243539958317456],[-74.35433330798634,3.2421684407442513],[-74.35342214493869,3.2438253274622184],[-74.34887261965486,3.242691674245407],[-74.35124946035899,3.2403967860118428],[-74.34547352971288,3.2371716170126206],[-74.34394323089919,3.2343928434886493],[-74.34891339328692,3.237501386077838],[-74.34913177791356,3.2361561246420933],[-74.35332503425383,3.2382880273622163],[-74.35468945968745,3.2369261462953887],[-74.35795029610165,3.242565952289681],[-74.35538571218729,3.243539958317456]]]}}]}