{"type":"FeatureCollection","features":[{"type":"Feature","properties":{"code":"505047"},"geometry":{"type":"Polygon","coordinates":[[[-74.23112909989891,3.787499881635938],[-74.22638007322155,3.776544795712482],[-74.22712165226852,3.769787667140122],[-74.22257226993815,3.767746927621772],[-74.22588841599105,3.7601992188301665],[-74.2239798693887,3.7528920216059305],[-74.2186352274257,3.7487437205450647],[-74.21625456605761,3.7405576924491015],[-74.22051022931839,3.7328414280993343],[-74.22057720560895,3.7293733296643268],[-74.22895964668561,3.7184171834167046],[-74.22612655905533,3.7097773848842053],[-74.23238714323838,3.7053671765377203],[-74.23664174720335,3.7060921513802327],[-74.24033832031449,3.704134206626861],[-74.23760202146661,3.699120774577011],[-74.23569336276404,3.687671772963313],[-74.24419749533013,3.683886208720992],[-74.24511165423081,3.6773613384648343],[-74.24129318291324,3.6702206820799006],[-74.24731491029286,3.6629612374987346],[-74.25255231963979,3.664564286279301],[-74.25450063097207,3.6621476674754376],[-74.25440823672466,3.6555534606530955],[-74.24990234105775,3.648496056690078],[-74.25237071828826,3.6444588994122],[-74.24439914719699,3.6449170900946797],[-74.2409651704279,3.6415762058854853],[-74.23655071358536,3.6417652007102674],[-74.23445201001823,3.640037170452615],[-74.23817295927398,3.63736819242348],[-74.24018274061564,3.6294255802166617],[-74.24242187595178,3.6269337668380786],[-74.24377606221168,3.6180988213376395],[-74.24287412943562,3.6140922530255466],[-74.24552184235876,3.603487409372576],[-74.2482098280625,3.6010316819850345],[-74.25413026825225,3.5992337711151094],[-74.25635199822722,3.594589064504646],[-74.24910117919347,3.5780141161442316],[-74.25164654460247,3.5622240884838448],[-74.25716170747728,3.5514259336327996],[-74.26138685170628,3.5488997918713494],[-74.2614818736244,3.545873099936955],[-74.26436553183015,3.541315290548596],[-74.26466994464505,3.5360627754379834],[-74.26876155795429,3.5302183073255833],[-74.26808575706241,3.5262699262343062],[-74.27437637073854,3.5243350648732985],[-74.27696740413757,3.517117997266098],[-74.27929352308513,3.5154642668382508],[-74.27937978267295,3.51099462171328],[-74.27727519332927,3.509526662971325],[-74.27810847859564,3.5052931101962486],[-74.27628626048676,3.503758390108203],[-74.2800214361879,3.494342426006824],[-74.27846978485064,3.4874076864398944],[-74.27983312219209,3.4869134097663164],[-74.28058302442435,3.482113536890779],[-74.2874398625558,3.478317270675632],[-74.28640845092355,3.476464757735471],[-74.28843006243949,3.4717358165405017],[-74.29314002167092,3.46354268910585],[-74.29618197363538,3.4617633128269745],[-74.2967994834338,3.4564926261655273],[-74.29876331293525,3.455256080360016],[-74.29895994188888,3.449266570999157],[-74.2961591226711,3.4451881145550374],[-74.29609559269136,3.437794684482526],[-74.29313482597928,3.432554215519133],[-74.29281222413005,3.4259809467580453],[-74.28282402124148,3.418708939751525],[-74.28089887146314,3.4135829148431753],[-74.28969062134934,3.3996820805537595],[-74.29135690597508,3.3936351501617423],[-74.28897641738536,3.3921327859038115],[-74.2859726278374,3.3845760473868722],[-74.28766770885363,3.3816965502595053],[-74.28700273026232,3.3728054343140457],[-74.28857117503748,3.3695240825284714],[-74.28525195291303,3.3619883242389506],[-74.29091721491659,3.3575417799898446],[-74.29115889068095,3.3541544441173983],[-74.29368640232781,3.354662024723382],[-74.29629837378809,3.3529042251685723],[-74.29868738405253,3.345071077298144],[-74.30156162481018,3.341916584925684],[-74.29653554291735,3.331586875357516],[-74.29756537794725,3.32693444000148],[-74.29524286163388,3.324885514080677],[-74.29353703545019,3.3190800784471435],[-74.28891063923027,3.2963015607000443],[-74.27477786544188,3.2819035104483305],[-74.27332680401048,3.2780558642733695],[-74.27469709362333,3.2742076761091994],[-74.27365443700057,3.2709974956312635],[-74.26862503015303,3.269472961237909],[-74.27078683998161,3.2611623044206794],[-74.26964121672228,3.2544229864158183],[-74.26673001991117,3.251714485340699],[-74.2647753065242,3.239214709607438],[-74.2685775870712,3.2287633188342397],[-74.26716561879687,3.2258821504877915],[-74.26784918237291,3.2215598822041898],[-74.26417842522585,3.219050455719014],[-74.25931143824846,3.2088566630571904],[-74.25965835556417,3.205451215283574],[-74.26577046967145,3.197701104890484],[-74.26659449072764,3.189602103600464],[-74.2629766901427,3.18047802382722],[-74.26191115684458,3.1710917693733336],[-74.26002169607852,3.1701753437853313],[-74.24541900427755,3.1463214268909496],[-74.24517122779218,3.1258767054147825],[-74.2473976022136,3.1208940340806635],[-74.2443724097484,3.1014948036148553],[-74.23909679479033,3.0907193104947055],[-74.22778817352355,3.0786039696602643],[-74.22760382314522,3.0707922175079716],[-74.22600056867611,3.0686152412375804],[-74.22716232202788,3.061652256525349],[-74.22041820531024,3.039399663713425],[-74.2235488635273,3.0235298124585483],[-74.22099003066353,3.0134309481265404],[-74.21058805449644,2.9956439082668],[-74.20798126227265,2.9823459007020006],[-74.19958592247002,2.9664779448666536],[-74.19931577735986,2.9585186513221515],[-74.19002851872591,2.942047609594738],[-74.19140976845068,2.9304346104801198],[-74.18671143267659,2.927741256306433],[-74.18668624714775,2.9229929104579924],[-74.18339504596821,2.920237241923701],[-74.18171983446143,2.9144433958089166],[-74.17708349423083,2.9125864965614596],[-74.17790344059767,2.909658627668648],[-74.17542104466725,2.904369002238184],[-74.17512844557154,2.894256799006712],[-74.17747744119447,2.891292051193659],[-74.18164858499216,2.8907010453874022],[-74.1819305942152,2.888548108960947],[-74.17849375734744,2.883849239425217],[-74.18549075985294,2.8766890488030867],[-74.18101343637613,2.8659012256855476],[-74.18333736679796,2.8536726039645828],[-74.17851603958309,2.8484205022878655],[-74.17796517800213,2.8420726321313623],[-74.17208099555336,2.8447058779535723],[-74.16716348222349,2.844952129258729],[-74.16403075580848,2.837670135046892],[-74.15985917183741,2.8371532573204945],[-74.14637599628242,2.828211278721824],[-74.14698733748259,2.823819535032328],[-74.144222155855,2.8218386107593005],[-74.13936199362212,2.809463481230864],[-74.13277869446114,2.8012585750440735],[-74.13330411134575,2.797789262018455],[-74.12366269721764,2.7949483160589352],[-74.12207284952524,2.7894618374743914],[-74.11763156987337,2.7864397817588724],[-74.11885232908622,2.782248664579015],[-74.11313005125788,2.7799563227691237],[-74.11429178815456,2.775146308421938],[-74.11044757183544,2.7748768102021586],[-74.10508280942298,2.770696023727396],[-74.10374151366159,2.7638631657901556],[-74.09904736570547,2.756805976771602],[-74.09826484127649,2.7509169873825385],[-74.0887430494115,2.7466468909594823],[-74.08036122025817,2.739364673575608],[-74.07888577342624,2.7261538830786094],[-74.06582373788359,2.721094550610701],[-74.06446358871398,2.7165354998922453],[-74.06686310246187,2.7126202829869044],[-74.06697059424545,2.7007134444749568],[-74.06915767702043,2.69181017850957],[-74.05630405638266,2.684515864584796],[-74.05731757208662,2.6779186845351433],[-74.05155703722505,2.6794740403223614],[-74.05401007729228,2.668801127144377],[-74.05721101207195,2.665851311288236],[-74.04691773302307,2.6627938154434787],[-74.04115805999635,2.6567328313844882],[-74.04217154998929,2.652763917438392],[-74.04787738713549,2.6538368606648532],[-74.04729131065426,2.648634589085077],[-74.04419801266857,2.6428416048051417],[-74.04611800994985,2.6399454787907075],[-74.0518788811122,2.6406968115865084],[-74.05251794089509,2.639570342040656],[-74.04953195368716,2.634957541830886],[-74.05017109060327,2.631095997283694],[-74.04569227794173,2.629808881931126],[-74.04339928101393,2.6266978597670345],[-74.03438487949308,2.62589325159189],[-74.03331934619496,2.623855035871486],[-74.03491958527053,2.6202077580671244],[-74.03363877735592,2.6188670135509255],[-74.03086684914535,2.6191348138121384],[-74.03006634239898,2.623479606015337],[-74.02579946911476,2.62208447437348],[-74.02350653183663,2.6191344949949666],[-74.0240395828501,2.6135569838208994],[-74.02206581859389,2.6118940251782874],[-74.01918649527335,2.61350304406767],[-74.01737399697475,2.612805470019225],[-74.0186532971926,2.6102846782157485],[-74.01747998003316,2.606423056535391],[-74.01972034744347,2.603473309584899],[-74.01172066901819,2.6011131039385305],[-74.00777504415288,2.605510826992827],[-74.0048951253641,2.598109150868197],[-74.00228177579083,2.597465204954858],[-74.00100126098232,2.6012198624426333],[-74.00345419717684,2.6058321885404325],[-73.99972131387409,2.605081338084176],[-73.99470856265322,2.5977331872504124],[-73.99241643578779,2.584753395227551],[-73.98207057864363,2.5745086452957935],[-73.97023239586889,2.5688221685799704],[-73.96633999598924,2.5620640928120224],[-73.96618103888511,2.554716270051472],[-73.95924830683799,2.553750239595445],[-73.95012859486013,2.549994600973548],[-73.94511536849876,2.5521396441036472],[-73.94330304297853,2.551012976068421],[-73.94293071593347,2.543021353433346],[-73.93599856084256,2.5378720301881685],[-73.93583859586477,2.536048624228215],[-73.9393050652468,2.5350299292877025],[-73.94591726364257,2.536585552469944],[-73.94815789844796,2.5312761428907606],[-73.95103822964222,2.529828356020346],[-73.95322378826535,2.529989665172536],[-73.95839635842526,2.5357288053444336],[-73.96164859603152,2.5354611943166105],[-73.96346345460574,2.5270944606426156],[-73.96932975758125,2.523876637808314],[-73.97455620681626,2.517119354969509],[-73.97898178729304,2.5173876211152333],[-73.97956889015995,2.51964062911253],[-73.9793018386049,2.5210349935363183],[-73.97396845808748,2.5229116501930093],[-73.97338298427354,2.5284360237990313],[-73.97839459906544,2.530742514921087],[-73.98378073868406,2.5301528532891666],[-73.98484683248341,2.537769217818038],[-73.99764470330916,2.5520367628278677],[-74.00137820676275,2.5497846074093786],[-74.00644437220274,2.5538612548231185],[-74.01598993754499,2.5533253858772014],[-74.01790964994774,2.5552025680680117],[-74.01598940275488,2.5641057640992813],[-74.02361441957066,2.569415785601791],[-74.02820161978929,2.5667340291744267],[-74.03630685858315,2.566841726646544],[-74.04180055786259,2.5635167493577455],[-74.04686643122494,2.5641606603040827],[-74.05075990788384,2.5678075503856235],[-74.05572018591056,2.5671644405960024],[-74.0579592687962,2.5640535223046754],[-74.05769293303712,2.56153264514046],[-74.05363946466088,2.5489819121373216],[-74.05593359081854,2.546568490761217],[-74.06718585960596,2.5476951330854263],[-74.06750501514432,2.5527905772555073],[-74.07374485152798,2.559655756055804],[-74.077527684227,2.561374032564572],[-74.08153700156589,2.559443246921262],[-74.08700472238735,2.5593477159241615],[-74.09421177707816,2.5539119632099414],[-74.10320444760856,2.5615411411041578],[-74.1184551003625,2.5664683392772076],[-74.13506529859023,2.5568669655016834],[-74.14037513908681,2.55820234154794],[-74.14565425280631,2.5630657701141786],[-74.15859799277672,2.567101833129243],[-74.16058886003202,2.5620475328306043],[-74.16751114104625,2.5633821252036455],[-74.17628208245497,2.560266027675766],[-74.18865759867782,2.57008794169343],[-74.19361977212407,2.566304522782218],[-74.19965736117268,2.5661767747947124],[-74.20114263065909,2.564873830683325],[-74.20057348542701,2.560709372790484],[-74.2074161145967,2.557657098348443],[-74.21174652608812,2.559754759074849],[-74.21152616788027,2.5647772743290034],[-74.2176579787187,2.5629006865779616],[-74.22393232346263,2.564298902518999],[-74.24131608529967,2.5591471583201155],[-74.24436450822452,2.546875952908181],[-74.24720930570129,2.5468755826689176],[-74.25267801691285,2.5505945501159317],[-74.25639822363314,2.5486948398917093],[-74.25805337125479,2.5496456637966958],[-74.2597192609586,2.554825309641103],[-74.25561729534695,2.563943058322195],[-74.25924364948827,2.5655260473314456],[-74.26410999883132,2.5634619930211784],[-74.26630574623448,2.570131584680155],[-74.27329395144267,2.572621427562922],[-74.27895062492274,2.5770874649115285],[-74.28076456098398,2.582365531676487],[-74.27839440309936,2.5873895607980444],[-74.27903406246429,2.5892280714933236],[-74.2821973932717,2.5913864905468245],[-74.2867702127786,2.5985491360612514],[-74.29070740030147,2.6009498798263735],[-74.29494031647056,2.611825945368878],[-74.30004680714177,2.618063094432273],[-74.29847325614952,2.623869544110107],[-74.28951509706468,2.629102762553714],[-74.29278505987776,2.6332084994641036],[-74.28991308992124,2.6428200229388494],[-74.29161662267808,2.6448306969685973],[-74.29532778218953,2.644983473133209],[-74.29585333791385,2.648966134270495],[-74.29156063838116,2.658755805586736],[-74.28569259836615,2.664706944785678],[-74.2860708173584,2.671583995926426],[-74.2927784829879,2.6753287834513344],[-74.29151649557133,2.6793893275120695],[-74.29503878984173,2.6871524147928767],[-74.29123078909743,2.6923247155007743],[-74.29120132627617,2.6962565376390444],[-74.29478993040641,2.697297223765929],[-74.30349620334954,2.6949342577798348],[-74.30838581811923,2.7032742920576425],[-74.31171563628692,2.7022198361138408],[-74.32040090534849,2.7073533141451094],[-74.33003797122166,2.7099077740713255],[-74.33167398981249,2.720063288102608],[-74.34320203751815,2.71906251377294],[-74.34563596603806,2.720501514658906],[-74.34756919423234,2.728122788972314],[-74.34669592620617,2.7299420698493577],[-74.34906100975542,2.733325941927376],[-74.3519354839695,2.730960872776336],[-74.35073475778853,2.7337989637794635],[-74.35423479347747,2.7403449417898855],[-74.35545256609322,2.7393068175132953],[-74.35648858617645,2.7402812359464974],[-74.35702645235773,2.7491724537077857],[-74.36355678055838,2.7565356444848703],[-74.36349187143725,2.7601326725878153],[-74.35706990611106,2.7660430998611787],[-74.36736149542884,2.7780299686846206],[-74.36724851587593,2.794781409094128],[-74.37709276149451,2.8031220007877664],[-74.37932088529664,2.8106828376481303],[-74.385431163634,2.810656195844672],[-74.38713190622633,2.8123961395804713],[-74.38922085707304,2.8229720181784046],[-74.38446688667244,2.8295685729349884],[-74.3868268259522,2.837834959415602],[-74.38460401302723,2.8437042088789326],[-74.38611817043562,2.853211985129292],[-74.38324461976288,2.8587148869124235],[-74.39072207050384,2.8658176966126234],[-74.38833468620703,2.8730269727392965],[-74.39078236294648,2.8770871743287216],[-74.39038470741912,2.8873292040299816],[-74.39512940949572,2.8919390567235155],[-74.39335751822148,2.8999229434139693],[-74.39648944656506,2.9033366783774],[-74.39692572730814,2.9122334147612605],[-74.39929343647117,2.9208478704131835],[-74.4021749174641,2.9245654977996196],[-74.4019885976183,2.9274479804955718],[-74.40676197678613,2.929920081716432],[-74.4093986853743,2.938024983181208],[-74.40821607212291,2.9422123547733463],[-74.40919109836568,2.9449693417710137],[-74.40445828919837,2.9500268826920433],[-74.40702990868795,2.9571980293122806],[-74.40668226117805,2.963494155440344],[-74.40988323503854,2.9659861292560095],[-74.4182713901418,2.968524406639176],[-74.4219150262312,2.973843510317522],[-74.42130254037448,2.9769050973065987],[-74.422969733115,2.980152317141858],[-74.42730689633157,2.9848715632091967],[-74.42848419253511,2.99173710093595],[-74.43365501331425,3.001550156978226],[-74.43682695424246,3.002907525239266],[-74.43770208272116,3.0063752194963627],[-74.44476029915376,3.0143479342157207],[-74.45063087222263,3.015874094576702],[-74.45932583229808,3.023753659143381],[-74.46023476876769,3.0284463785928892],[-74.46348637388184,3.0304995838629907],[-74.46402924240755,3.035264846562427],[-74.46943826590069,3.0401349013838512],[-74.47123259264839,3.047670678185341],[-74.47551222581893,3.0522348670025963],[-74.47751798286498,3.0589676852507637],[-74.47954178290661,3.061033752223011],[-74.48432563161924,3.0607839836444555],[-74.49158014276162,3.066910528857136],[-74.49552702129836,3.0738169574584617],[-74.49598929386923,3.0788694600395843],[-74.50121564848752,3.084341862331371],[-74.50107193907212,3.0914219064280246],[-74.51063650900369,3.093550526359536],[-74.5203535126285,3.09227268138784],[-74.540327137497,3.0969771939876978],[-74.54215174467782,3.0947794812308302],[-74.54632540713123,3.093979593606832],[-74.56143334908745,3.097353295416781],[-74.56607906254317,3.1020142473053056],[-74.57206340912256,3.112579188417044],[-74.57919720785281,3.1141564119775467],[-74.58347617356412,3.1204574118946766],[-74.58312255697382,3.1235539772422385],[-74.5740282269573,3.1352258361790746],[-74.56555553182216,3.142020799094837],[-74.55712809432845,3.1447972185138724],[-74.55741127906128,3.16316882921501],[-74.55537730978006,3.1688533169229913],[-74.55152932627595,3.1735736747367014],[-74.55914725300897,3.1986529798637093],[-74.55870931955877,3.202541734942997],[-74.55534227382878,3.2056273247520153],[-74.55562589256436,3.209842957944602],[-74.55934298824604,3.2165845817175978],[-74.56178235002773,3.228511515996388],[-74.56797888383915,3.2435962182370304],[-74.57372242574502,3.250601811322838],[-74.57197781185175,3.2514802051065317],[-74.5732506771048,3.2577461042805],[-74.57161186629253,3.2699697894773863],[-74.57469590006798,3.2744605834943172],[-74.57064317114191,3.2769341348191006],[-74.5715000128842,3.2835604146498554],[-74.57335979896982,3.2859008104364307],[-74.58484525064324,3.290918099145699],[-74.60682754202173,3.318646035595009],[-74.59931002830245,3.3470104802613037],[-74.59467826258413,3.4801679828128727],[-74.5918325611064,3.5108760494899798],[-74.59267952877207,3.5199417373823394],[-74.5867968293374,3.5473875267972517],[-74.58022759309944,3.559143044390737],[-74.56474709475549,3.579795344648005],[-74.54853382391781,3.5955471245311514],[-74.5328017253392,3.6139469022159574],[-74.50882893488784,3.645877700658616],[-74.48864856736202,3.6654127955802664],[-74.45436056838201,3.6894366913972476],[-74.44800526155768,3.696927607536054],[-74.44284758118857,3.6988225663558296],[-74.41891347868795,3.7002665099365686],[-74.41328251935619,3.703577882987645],[-74.41141315230004,3.7116077616275334],[-74.41376338925306,3.718215704328202],[-74.41564764507154,3.734741873659914],[-74.41364353661885,3.7412805003632457],[-74.40807283784801,3.74025961792546],[-74.40447737914837,3.7376044570216322],[-74.40167632750257,3.738667861443787],[-74.3978793115528,3.7453430889677293],[-74.388796124711,3.743498158734326],[-74.38359459463823,3.7385398028666827],[-74.38142833782427,3.7315230604355065],[-74.37331509363383,3.7257172885013006],[-74.37418488552424,3.7188470003985685],[-74.37275630481793,3.716862490974904],[-74.35678584720205,3.7183264346772944],[-74.34487574235663,3.7142448414834917],[-74.33470045754643,3.7167301849302135],[-74.33066237775557,3.720021360398732],[-74.30708742897974,3.719538293748542],[-74.29940305354717,3.7212929143875613],[-74.29560422856696,3.716534874439901],[-74.28461466822188,3.7240676595021682],[-74.28174083267061,3.724224893965072],[-74.25991243023157,3.741989409905159],[-74.25042772400377,3.7458160141462145],[-74.24482800772728,3.749995068723706],[-74.23464181422725,3.7619560537058874],[-74.23404115854487,3.776218480157297],[-74.23699517867396,3.7828941211151346],[-74.23550308547146,3.7865602955223494],[-74.23335693059494,3.785693674320214],[-74.23112909989891,3.787499881635938]],[[-74.35617535755227,3.2440025867294366],[-74.35765304433204,3.2415023246955457],[-74.35438244594144,3.2367023931988115],[-74.35332503425383,3.2382880273622163],[-74.34399898173967,3.2343708461316396],[-74.34340258380928,3.235270848521111],[-74.35124946035899,3.2403967860118428],[-74.3489435019701,3.2427425533537075],[-74.35342214493869,3.2438253274622184],[-74.35433330798634,3.2421684407442513],[-74.35617535755227,3.2440025867294366]]]}}]}