{"type":"FeatureCollection","features":[{"type":"Feature","properties":{"code":"505028"},"geometry":{"type":"Polygon","coordinates":[[[-73.6656952813629,2.2964811423497054],[-73.65710520699776,2.2954354137691553],[-73.65680097210344,2.1240071616258547],[-73.65881486310138,2.063972167953068],[-73.65888406288468,1.6148315749597941],[-73.66704038853226,1.611909987793922],[-73.67274001388569,1.6119072048284693],[-73.71740280318323,1.623377092052806],[-73.76056414147979,1.636670946766742],[-73.78513164321572,1.6420397838684266],[-73.79757634996588,1.6390239060071394],[-73.80417495132315,1.6256602838096228],[-73.8095084521683,1.621690360961395],[-73.81770960248309,1.619177928338729],[-73.87545134108893,1.6188279853450922],[-73.88912364105249,1.6158110821265836],[-73.90684805596192,1.6090978639359719],[-73.91787220385731,1.611052749072826],[-73.9405328384376,1.6303731730737923],[-73.95243544696552,1.6348352714875318],[-73.96258954380295,1.630861823138332],[-73.98245003176692,1.61074096232511],[-73.9871046052549,1.6092331689190473],[-73.99589351149751,1.6095472655487129],[-74.01331209331295,1.618838488828544],[-74.0299143817893,1.6410352978897436],[-74.0385280116019,1.6498755954050353],[-74.04814830769135,1.6553414876556758],[-74.05986767758719,1.6578874135658452],[-74.07280816767923,1.657651252310302],[-74.09586441324319,1.6487901997965082],[-74.09932830637672,1.6518887356399432],[-74.11310720029354,1.6778249503863663],[-74.13044186531323,1.6996551968229028],[-74.13436366527912,1.7026162905796696],[-74.14721925024213,1.7073954238833267],[-74.1728320794661,1.7131686857210866],[-74.1878051165034,1.7128711398169116],[-74.19756477581006,1.7077519139420474],[-74.21876465588826,1.6837766336313962],[-74.22948423567397,1.6668044997418292],[-74.23195494026987,1.657887948355949],[-74.23417392121803,1.6553109336568923],[-74.23680579612636,1.6536517915644708],[-74.25040111613896,1.6534398429311068],[-74.26087391085787,1.6577357193227726],[-74.26853059239033,1.6629101602196101],[-74.27450623834602,1.6684097442471284],[-74.27771185151073,1.6751553264953714],[-74.27877852329476,1.6811708492813295],[-74.27817678054862,1.7181029410667747],[-74.28109413875887,1.7333929368892314],[-74.2932791267491,1.7594578303636013],[-74.29679882008838,1.7648710858977097],[-74.30560340082343,1.7730283947362864],[-74.31507889632002,1.7779694830540507],[-74.33073417127093,1.781518680352292],[-74.34904643672496,1.7776211783693725],[-74.36728954970397,1.766832960329907],[-74.37714517915276,1.7632750685785936],[-74.38619125361788,1.762520177371698],[-74.3975269815441,1.7661243222968324],[-74.41959237313495,1.7822911486703106],[-74.42908655748897,1.7925592761289408],[-74.44084510693108,1.8000669527955324],[-74.45185128896412,1.8004558501064025],[-74.47561783452431,1.7959020207906633],[-74.4918157064921,1.7983921115280168],[-74.502529799537,1.8063607710985252],[-74.52525152463136,1.8276228801766479],[-74.53937830979896,1.84876584933113],[-74.54920164615265,1.8743743261863983],[-74.57200416054906,1.968393190902816],[-74.58875618717082,2.0106124696815186],[-74.60278483835333,2.028953206538233],[-74.612933662366,2.055891674514669],[-74.61842664584947,2.0656168511721376],[-74.61655490926177,2.077683844923797],[-74.61933976190943,2.102601822386589],[-74.61411450155401,2.1305135775094755],[-74.61270587571784,2.168938907154029],[-74.62050317105366,2.192014754832371],[-74.62279310836493,2.2073380351685046],[-74.62801499131513,2.22318980948927],[-74.63392042138634,2.2515116920619676],[-74.6389566447508,2.265683671107638],[-74.64584821544304,2.2769476620828186],[-74.5711176585246,2.2799843103692865],[-74.56773991493549,2.281880884872237],[-74.56153350293368,2.2812456817487146],[-74.5546518279154,2.2842897687598906],[-74.55219883515656,2.2765833198654946],[-74.5451568866277,2.276268059038955],[-74.54086920692288,2.2720650746608726],[-74.53677355903363,2.271349219018191],[-74.52795612482396,2.2728509692959733],[-74.51391980557406,2.272003693097588],[-74.50953519207656,2.2641737190007234],[-74.49909484369061,2.2570013001970324],[-74.48921814248308,2.2581210303590638],[-74.48069574889166,2.2518120301875797],[-74.47283759958356,2.2501420205430236],[-74.47141862453032,2.2479154610019805],[-74.47149912278314,2.2416159451273643],[-74.46619262266779,2.2359464500544277],[-74.46397243227125,2.2394598596098945],[-74.46014232001278,2.2357709699928137],[-74.457878513369,2.235638059223902],[-74.45760714955446,2.2399230577790377],[-74.45589589833651,2.2414300952798385],[-74.43799883261084,2.239500246547607],[-74.42859827354994,2.2337213344466704],[-74.42372039536627,2.234589563104521],[-74.41438952357043,2.231276202073957],[-74.40622898953609,2.231873099827453],[-74.40509143852216,2.2341691779689654],[-74.40067161012433,2.2365215263145046],[-74.3971495616517,2.2331677598343163],[-74.39473216945908,2.2343703906909127],[-74.39025750861992,2.233179834777957],[-74.38624185916046,2.2369791575242743],[-74.36813689892182,2.2334950380117107],[-74.3658978067802,2.2318825913234264],[-74.36406155557319,2.224924344645842],[-74.35502373024553,2.2238085163947403],[-74.3505946458651,2.217430100467027],[-74.3491564739038,2.2175717252293907],[-74.34758147280758,2.2211874277915626],[-74.34313567520775,2.218968894215891],[-74.3425146357946,2.2082311953298586],[-74.33978045862364,2.2060418201564858],[-74.33093421979589,2.2065415455185757],[-74.32801439640895,2.2124163177182368],[-74.32243976898769,2.2094807478479197],[-74.31888103802726,2.2046002049696654],[-74.317180706812,2.2045089276107888],[-74.31578029925998,2.208305324438186],[-74.30791240443057,2.2078283955329994],[-74.30564353065051,2.205850995732476],[-74.30617766050017,2.2000656466098008],[-74.3031781184198,2.199579996512057],[-74.2998798652099,2.2017262048675548],[-74.29729943608163,2.2008937834929156],[-74.29681794089169,2.193244779283873],[-74.29509493663261,2.1902652969748146],[-74.28749510945948,2.191463517869863],[-74.28395415821336,2.189495854334723],[-74.27960046689702,2.1785505663831373],[-74.27919465684892,2.1713205044047754],[-74.2761645875093,2.16640906711325],[-74.27289281977954,2.168948026353803],[-74.27244373801244,2.1755745344988213],[-74.26857796759498,2.177511899088927],[-74.26091120115518,2.174655949181499],[-74.25695857979542,2.175119868288789],[-74.25483365197249,2.172459023183137],[-74.25002317276932,2.170738175568033],[-74.24823185832969,2.1715904921632045],[-74.24756651464128,2.175977326068164],[-74.24543602808654,2.176175480202005],[-74.2427563943645,2.1741672322681325],[-74.2413538147419,2.169319569725644],[-74.23741401497506,2.1688018507333027],[-74.23221639092702,2.172195242075304],[-74.22849841901234,2.179779658037262],[-74.22596579600611,2.181314476855846],[-74.22243591902907,2.1797782881518515],[-74.22117848966974,2.173786302301437],[-74.21689731075014,2.1677018173024294],[-74.20782761296039,2.1772200980646517],[-74.20165581833373,2.176258265710999],[-74.20036944448822,2.179492268002946],[-74.19834182686799,2.179977532434748],[-74.19506260807219,2.1784198348839823],[-74.19319833900562,2.1746359634580017],[-74.18684329237726,2.1738553725009524],[-74.18637470105557,2.167593687884448],[-74.18446555898504,2.166382154829421],[-74.1775542915617,2.1718834316733933],[-74.16912923902623,2.173336186949598],[-74.16187402957132,2.17049174634235],[-74.15368532341108,2.1747343977483524],[-74.15145359183259,2.172837240118497],[-74.15417181888859,2.170179607867283],[-74.15314334037436,2.1675481505066045],[-74.13640029411272,2.16623413623995],[-74.13477810704529,2.1712099560899674],[-74.13298464727461,2.172200660938927],[-74.12807277392346,2.1657814302413954],[-74.12363805984864,2.1649992071460815],[-74.1169551529444,2.166232767382951],[-74.11376102234044,2.1718656437315644],[-74.1061043562346,2.178168561694008],[-74.10480657079086,2.1774551496307595],[-74.10593070371533,2.17366044870505],[-74.10330797577473,2.1727882286618296],[-74.10031735234787,2.175301816225442],[-74.0991100914431,2.1701449915205444],[-74.096885983709,2.171131826340286],[-74.09491347620957,2.17624821577067],[-74.08999733276511,2.178608405990417],[-74.08604835106343,2.1760964413090846],[-74.08445371597111,2.1780458972979204],[-74.08285144983535,2.1769659071832734],[-74.08191933124289,2.1750990227873785],[-74.08476600151351,2.1727119439379976],[-74.08349376772418,2.171402272784121],[-74.07858370751717,2.173027049469738],[-74.07273728022176,2.171381715246582],[-74.06902581731981,2.173861873286114],[-74.06650573617009,2.171804524421134],[-74.05702514782621,2.1698896364422353],[-74.05708362609624,2.175298923216644],[-74.05459414728216,2.179529605608593],[-74.05724859753224,2.1820153974562686],[-74.05754176741351,2.18516134347135],[-74.05338236945784,2.1895791067565824],[-74.0329592288195,2.18981361530507],[-74.02603771605175,2.1876234852549032],[-74.01601849636529,2.192108474742213],[-74.01261366154341,2.187417561237794],[-74.00917023441599,2.185976576486212],[-74.0031511059106,2.1894706636636556],[-73.98854980045019,2.1891732895093696],[-73.98149794184923,2.193738194122602],[-73.96695445234184,2.1916607937138224],[-73.96225634179666,2.1942398056482375],[-73.95894188958863,2.2018121692923955],[-73.95312781092417,2.2086282903561028],[-73.93494650219827,2.213611439916008],[-73.92956125835309,2.2080932349081763],[-73.92430293254222,2.2155011464798235],[-73.92018694720218,2.2171604736918766],[-73.91473123036184,2.214298596870208],[-73.91448921212611,2.2007500092856844],[-73.90874767979693,2.1995584372715484],[-73.8960379824905,2.2004645537517717],[-73.89217849071463,2.197258570347742],[-73.89013252773674,2.191799738354973],[-73.88567063089766,2.1900051205579985],[-73.87407501554696,2.188897924024957],[-73.8642270634216,2.190334866997489],[-73.86161341765688,2.192650612045327],[-73.8610667552067,2.199260037760041],[-73.85474108706734,2.206987425744103],[-73.84851815725023,2.207599298649086],[-73.8447344822568,2.212021501720642],[-73.83776092618388,2.2143247470781375],[-73.83267209078542,2.2183730968959594],[-73.82870495913016,2.2174878701401894],[-73.81016525361315,2.221265276776421],[-73.8049393638509,2.218553540221194],[-73.79988082122685,2.2104112528140263],[-73.79718032863366,2.190865113448126],[-73.78687900099368,2.1892090350859803],[-73.77581047580355,2.1940497988360335],[-73.7668838333397,2.1942615942314774],[-73.76528175026664,2.195492850757091],[-73.76623542192891,2.197148564022143],[-73.76992828133416,2.195210663613466],[-73.77392571296292,2.1956823176369653],[-73.78148641406887,2.2016005024522656],[-73.78209701787574,2.207865440032492],[-73.77864062311664,2.212837468014982],[-73.76753232394054,2.21778864946765],[-73.75835408844114,2.2246330681272752],[-73.74707049843681,2.2238833345595594],[-73.74047826828098,2.2262884656604456],[-73.73246783851761,2.2360528383192104],[-73.72963699083516,2.2440244351215597],[-73.71997054030237,2.2493271073738583],[-73.71360036836984,2.264044083821261],[-73.70684079724646,2.267395157838905],[-73.69914255532336,2.274107774390643],[-73.6897658849253,2.276793940779555],[-73.68357838700985,2.2753509608494937],[-73.67538439568352,2.2661505264183575],[-73.67031088922079,2.2655844346321032],[-73.66848744109473,2.2741801273787132],[-73.67102829575481,2.281864240558491],[-73.67072300156468,2.290475606769121],[-73.6656952813629,2.2964811423497054]],[[-73.78166689030428,2.1872940843721267],[-73.78767196102888,2.1871992290617186],[-73.79217024724954,2.1835040865140627],[-73.79228576397014,2.1758794111412385],[-73.78711347663193,2.1758082768575377],[-73.78703733383315,2.180311308312014],[-73.78142390121883,2.1802034154358125],[-73.78166689030428,2.1872940843721267]]]}}]}