{"type":"FeatureCollection","features":[{"type":"Feature","properties":{"code":"505001"},"geometry":{"type":"Polygon","coordinates":[[[-74.04682256917994,3.3874678950804196],[-74.04200104656098,3.385668739795051],[-74.03792205326988,3.379105300887545],[-74.04027350378504,3.3809683193679803],[-74.04124879947977,3.3778264285017485],[-74.04228982602115,3.378685557500148],[-74.04394676621814,3.3764111692112806],[-74.04535330020224,3.378925325503644],[-74.04693986407767,3.3775203166998153],[-74.04974443299687,3.3841570012834836],[-74.04682256917994,3.3874678950804196]]]}}]}