{"type":"FeatureCollection","features":[{"type":"Feature","properties":{"code":"505048"},"geometry":{"type":"Polygon","coordinates":[[[-74.60682754202173,3.318646035595009],[-74.58457602598912,3.290666958624854],[-74.573202025603,3.2858101223751532],[-74.5713009753182,3.282973395086799],[-74.57069977353285,3.2767828046447107],[-74.57469590006798,3.2744605834943172],[-74.57161186629253,3.2699697894773863],[-74.5732506771048,3.2577461042805],[-74.57197781185175,3.2514802051065317],[-74.57372242574502,3.250601811322838],[-74.56797888383915,3.2435962182370304],[-74.56178235002773,3.228511515996388],[-74.55934298824604,3.2165845817175978],[-74.55562589256436,3.209842957944602],[-74.55534227382878,3.2056273247520153],[-74.55870931955877,3.202541734942997],[-74.55914725300897,3.1986529798637093],[-74.55152932627595,3.1735736747367014],[-74.55537730978006,3.1688533169229913],[-74.55741127906128,3.16316882921501],[-74.55708582122719,3.1448681255117776],[-74.56574843987073,3.141911446858728],[-74.57458788172181,3.1346882394497015],[-74.58325226311581,3.1233285354430222],[-74.58294054424528,3.1188768273840424],[-74.57919720785281,3.1141564119775467],[-74.57213156915049,3.11264864325409],[-74.56607906254317,3.1020142473053056],[-74.56143334908745,3.097353295416781],[-74.54632540713123,3.093979593606832],[-74.54215174467782,3.0947794812308302],[-74.540327137497,3.0969771939876978],[-74.5203535126285,3.09227268138784],[-74.51063650900369,3.093550526359536],[-74.50107193907212,3.0914219064280246],[-74.50121564848752,3.084341862331371],[-74.49598929386923,3.0788694600395843],[-74.49552702129836,3.0738169574584617],[-74.49158014276162,3.066910528857136],[-74.48432563161924,3.0607839836444555],[-74.47954178290661,3.061033752223011],[-74.47751798286498,3.0589676852507637],[-74.47551222581893,3.0522348670025963],[-74.47123259264839,3.047670678185341],[-74.46943826590069,3.0401349013838512],[-74.46402924240755,3.035264846562427],[-74.46348637388184,3.0304995838629907],[-74.46023476876769,3.0284463785928892],[-74.45932583229808,3.023753659143381],[-74.45063087222263,3.015874094576702],[-74.44476029915376,3.0143479342157207],[-74.43770208272116,3.0063752194963627],[-74.43682695424246,3.002907525239266],[-74.43365501331425,3.001550156978226],[-74.42848419253511,2.99173710093595],[-74.42730689633157,2.9848715632091967],[-74.422969733115,2.980152317141858],[-74.42130254037448,2.9769050973065987],[-74.4219150262312,2.973843510317522],[-74.4182713901418,2.968524406639176],[-74.40988323503854,2.9659861292560095],[-74.40668226117805,2.963494155440344],[-74.40702990868795,2.9571980293122806],[-74.40445828919837,2.9500268826920433],[-74.40919109836568,2.9449693417710137],[-74.40821607212291,2.9422123547733463],[-74.4093986853743,2.938024983181208],[-74.40676197678613,2.929920081716432],[-74.4019885976183,2.9274479804955718],[-74.4021749174641,2.9245654977996196],[-74.39929343647117,2.9208478704131835],[-74.39692572730814,2.9122334147612605],[-74.39648944656506,2.9033366783774],[-74.39335751822148,2.8999229434139693],[-74.39512940949572,2.8919390567235155],[-74.39038470741912,2.8873292040299816],[-74.39078236294648,2.8770871743287216],[-74.38833468620703,2.8730269727392965],[-74.39072207050384,2.8658176966126234],[-74.38324461976288,2.8587148869124235],[-74.38611817043562,2.853211985129292],[-74.38460401302723,2.8437042088789326],[-74.3868268259522,2.837834959415602],[-74.38446688667244,2.8295685729349884],[-74.38922085707304,2.8229720181784046],[-74.38713190622633,2.8123961395804713],[-74.385431163634,2.810656195844672],[-74.37932088529664,2.8106828376481303],[-74.37709276149451,2.8031220007877664],[-74.36724851587593,2.794781409094128],[-74.36736149542884,2.7780299686846206],[-74.35706990611106,2.7660430998611787],[-74.36349187143725,2.7601326725878153],[-74.36355678055838,2.7565356444848703],[-74.35702645235773,2.7491724537077857],[-74.35648858617645,2.7402812359464974],[-74.35545256609322,2.7393068175132953],[-74.35423479347747,2.7403449417898855],[-74.35073475778853,2.7337989637794635],[-74.3519354839695,2.730960872776336],[-74.34906100975542,2.733325941927376],[-74.34669592620617,2.7299420698493577],[-74.34756919423234,2.728122788972314],[-74.34563596603806,2.720501514658906],[-74.34320203751815,2.71906251377294],[-74.33167398981249,2.720063288102608],[-74.33003797122166,2.7099077740713255],[-74.32040090534849,2.7073533141451094],[-74.31171563628692,2.7022198361138408],[-74.30838581811923,2.7032742920576425],[-74.30349620334954,2.6949342577798348],[-74.29478993040641,2.697297223765929],[-74.29120132627617,2.6962565376390444],[-74.29123078909743,2.6923247155007743],[-74.29503878984173,2.6871524147928767],[-74.29151649557133,2.6793893275120695],[-74.2927784829879,2.6753287834513344],[-74.2860708173584,2.671583995926426],[-74.28569259836615,2.664706944785678],[-74.29156063838116,2.658755805586736],[-74.29585333791385,2.648966134270495],[-74.29532778218953,2.644983473133209],[-74.29161662267808,2.6448306969685973],[-74.28991308992124,2.6428200229388494],[-74.29278505987776,2.6332084994641036],[-74.28951509706468,2.629102762553714],[-74.29847325614952,2.623869544110107],[-74.30004680714177,2.618063094432273],[-74.29494031647056,2.611825945368878],[-74.29070740030147,2.6009498798263735],[-74.2867702127786,2.5985491360612514],[-74.2821973932717,2.5913864905468245],[-74.27903406246429,2.5892280714933236],[-74.27839440309936,2.5873895607980444],[-74.28076456098398,2.582365531676487],[-74.27895062492274,2.5770874649115285],[-74.27329395144267,2.572621427562922],[-74.26630574623448,2.570131584680155],[-74.26410999883132,2.5634619930211784],[-74.25924364948827,2.5655260473314456],[-74.25552181371506,2.5635111998819298],[-74.2597192609586,2.554825309641103],[-74.2595279850483,2.551802273819817],[-74.25639822363314,2.5486948398917093],[-74.25843019465054,2.5475738118352638],[-74.26124299008148,2.5477955491845137],[-74.26223934210827,2.551387914329041],[-74.26995266819779,2.558666185578943],[-74.27308258593621,2.5634344359039005],[-74.2711545318362,2.56454705849967],[-74.27314679674487,2.568138699620647],[-74.27946762811911,2.5645141431968455],[-74.28310189509716,2.5596815535079145],[-74.28876732885061,2.559187784884955],[-74.28924128864224,2.556946633801431],[-74.29810740829231,2.557310844378094],[-74.30788891891723,2.5506972843244284],[-74.31212428997861,2.5517930363491246],[-74.31833515719342,2.5501708677936676],[-74.32626905746372,2.5515202203737317],[-74.32797619285469,2.55342691372266],[-74.33183169735895,2.5516937916460734],[-74.33240138560865,2.5536170974269794],[-74.33645478507924,2.5523445695030773],[-74.33841496155293,2.5549351030790604],[-74.337687461884,2.5535363441204026],[-74.34201768414204,2.5538056520783243],[-74.34174877110598,2.5524073672316945],[-74.34555679036231,2.549498006190504],[-74.3478172771936,2.5501808807100588],[-74.34800603033437,2.547128692657168],[-74.35116658846079,2.5467945619672605],[-74.35137267805715,2.548669890904648],[-74.35576604154357,2.547461091449861],[-74.35791576305877,2.5505122109510125],[-74.36011224682682,2.548970400780206],[-74.36120170786859,2.5452821590818644],[-74.36377780005472,2.5449797722987455],[-74.36483694878171,2.54661694994428],[-74.36678044391772,2.54469310937327],[-74.36851864958567,2.544597199909333],[-74.36845604211891,2.5460916276763896],[-74.37466655657789,2.543530959042698],[-74.37751138902172,2.54623256749602],[-74.37732249806965,2.5483781454162795],[-74.38130544922768,2.5513496572957592],[-74.38274340521605,2.5506337378896546],[-74.38551073114633,2.5557668971037515],[-74.391072862991,2.553858540763315],[-74.39168967447694,2.5551775974836346],[-74.39491333166563,2.5530945756080428],[-74.39606677005963,2.5540800107174846],[-74.39679336572755,2.551488925896365],[-74.40217752250902,2.5527485540657153],[-74.40206192454144,2.5511428354483883],[-74.40323889472876,2.551830957081677],[-74.40614798837487,2.5482982272050663],[-74.40746288401681,2.549903653744707],[-74.40911832885837,2.5492385373420916],[-74.41203829622725,2.544330087676144],[-74.42279330791467,2.54120958841429],[-74.42661669827282,2.537757387643751],[-74.42873007565782,2.539007064603311],[-74.4330214803814,2.5352681844522635],[-74.43951894161603,2.5346706644911023],[-74.45450785883423,2.5378841102739784],[-74.4608512748062,2.537192705852192],[-74.48365923480571,2.517264620418416],[-74.48698741774979,2.5107004245771805],[-74.49145771799266,2.5066137220809424],[-74.50136040280046,2.5058283200698384],[-74.50121908348552,2.4979810928212487],[-74.504561518586,2.492390734343246],[-74.50365360644514,2.4842051885868273],[-74.50522473031305,2.4821823964189207],[-74.50251193754735,2.476057030829793],[-74.50485798668245,2.4757149039992896],[-74.50872711290788,2.4655722239021998],[-74.51018543000123,2.4657582712107455],[-74.51337303513742,2.461298354123585],[-74.5131192618037,2.4532895071332064],[-74.52036275626983,2.4518266669496143],[-74.52322661387183,2.440497383244235],[-74.52750287889313,2.433502732786792],[-74.53178028240023,2.430094269619701],[-74.53516740229975,2.4295556269643157],[-74.67041387318159,2.461784893824074],[-74.67424980128249,2.493727566664063],[-74.67764077269925,2.4991755547588923],[-74.68645989766839,2.5076566286152797],[-74.69255576135544,2.5181848800401667],[-74.69593164449196,2.541359817126761],[-74.69565854466646,2.5449240060315788],[-74.69025984262248,2.5558470991651348],[-74.67808595152701,2.5752794423947307],[-74.65577087260453,2.6014291741493594],[-74.61186956785889,2.6466113577721444],[-74.59913028843187,2.6720827031303998],[-74.59555062352399,2.685276390628303],[-74.5916886058933,2.7181903760051114],[-74.59360270917051,2.740160890688287],[-74.59965574851111,2.761440576877476],[-74.60987421042358,2.7868086203268945],[-74.6228341061975,2.8100223821470536],[-74.63025693635632,2.8205189853102866],[-74.64487667973424,2.836100382092866],[-74.66289057447312,2.84893865528295],[-74.68739270223199,2.8595852886692796],[-74.71661952371818,2.8658293128709147],[-74.72727773736727,2.8699671968375355],[-74.73715643375328,2.8762010960224984],[-74.79058080666107,2.930069279929512],[-74.80623659891859,2.9412026237378086],[-74.82326878973748,2.9472685885439773],[-74.88064926528295,2.9570092566311246],[-74.9131722337288,2.964927336370124],[-74.90510762149972,2.969146629789634],[-74.89726469416934,2.9783181865832944],[-74.88823107825692,2.9983354091870638],[-74.8622978531929,3.0331280937073757],[-74.81939587987205,3.0702587006100543],[-74.7955226025473,3.0880309195846394],[-74.75459728032081,3.0781599097779804],[-74.74834090041077,3.0789251666570294],[-74.74100120234607,3.0843882183494316],[-74.73584375337657,3.09226771298205],[-74.71683051692844,3.1139035796687153],[-74.71480868121205,3.121342539919965],[-74.71540374525244,3.131981073292991],[-74.71187116141465,3.1497608934862455],[-74.69720692967024,3.1715890100182946],[-74.67519502223257,3.194792458616803],[-74.67144132222484,3.2028219073677633],[-74.6681606317278,3.2200030526588534],[-74.66662711183216,3.2217113594458624],[-74.66851882900107,3.2298042260762827],[-74.65938650317571,3.235822472177972],[-74.66014183455604,3.2380765394710807],[-74.65731119256213,3.247046480393408],[-74.65046740947997,3.2552884794165493],[-74.64875058101825,3.2611911008111747],[-74.63110293831443,3.2720609699874785],[-74.62464830142625,3.29037706227615],[-74.60682754202173,3.318646035595009]]]}}]}