{"type":"FeatureCollection","features":[{"type":"Feature","properties":{"code":"506007"},"geometry":{"type":"Polygon","coordinates":[[[-73.74982140939608,3.811219829494007],[-73.75006198164158,3.8089512344218974],[-73.7446715688443,3.800318044661026],[-73.73614297477292,3.78969581415879],[-73.7273650965194,3.7629580056021723],[-73.73842136678849,3.760517977389725],[-73.74520530068668,3.7629249617440337],[-73.75131298529203,3.762342891046387],[-73.76045395414832,3.7661071295046895],[-73.76654923162312,3.757808880846426],[-73.76520147621432,3.747706257557013],[-73.78364377999725,3.7331649421771544],[-73.78746817925753,3.7239693280560573],[-73.79201545019538,3.7337340709541422],[-73.79670130993327,3.7397024015982083],[-73.8388285564763,3.764937698829499],[-73.84097035075655,3.767705508127733],[-73.84682990612072,3.763021053242369],[-73.85785326108697,3.76306011143231],[-73.8614847882942,3.7577097225325247],[-73.86547732145118,3.7576310189119226],[-73.87125517528483,3.754960731675453],[-73.87425635361723,3.7500046414667167],[-73.87588640518453,3.7398794191813636],[-73.87777008404674,3.7375105540489812],[-73.88428769966941,3.7370745849240166],[-73.88449341799799,3.732958818642203],[-73.88668165571391,3.7321007705368743],[-73.89712923919296,3.734045618074731],[-73.9001240236982,3.740019307932812],[-73.90671483666023,3.7421972396262504],[-73.91040217230073,3.740206768321343],[-73.9152869780732,3.7460417151129377],[-73.93040525484827,3.7513698053220423],[-73.93704248450655,3.7494260602745157],[-73.94900651162163,3.749106923248064],[-73.95672461996884,3.7464600721597776],[-73.96501511417051,3.7462696046052884],[-73.9733046262096,3.740368240995849],[-73.9732757434299,3.7188950111806207],[-73.98995085900629,3.7119731271451997],[-73.99404822850835,3.7079215891555464],[-74.00367209123641,3.7041576612869562],[-74.03732262349092,3.71283868905158],[-74.04923217709114,3.711727445597205],[-74.0527835444031,3.7258480611382083],[-74.05904227430432,3.73199067062302],[-74.05493263856835,3.7371150294545146],[-74.04802379826936,3.7410309107336843],[-74.02667736101847,3.7479388172068866],[-74.0189900442403,3.7520261604228153],[-74.00665630952324,3.754126751181957],[-74.00084829558432,3.7530945682178185],[-73.98600730131045,3.75583489444665],[-73.97966219869278,3.758548111959101],[-73.96850912421479,3.7685069826385984],[-73.96726318770061,3.775335301030566],[-73.96141404840228,3.7794277268094447],[-73.94208250693771,3.802768616466153],[-73.9531608465548,3.809053246663723],[-73.95717566811805,3.8140077540995208],[-73.97065367677783,3.8243260777805403],[-73.97720207265661,3.832919125373053],[-73.98072122812044,3.8347805754786464],[-73.97836589832008,3.8400933953732306],[-73.97897847570817,3.848499995593045],[-73.9768659005083,3.856475439798885],[-73.96852960873287,3.8642400820847342],[-73.96798194663654,3.8736589865032443],[-73.96598829744426,3.8783414153568856],[-73.95597474344765,3.887121394718463],[-73.95397814879595,3.891252607178444],[-73.93615914699967,3.8903715363588844],[-73.92617377849871,3.8918449232205035],[-73.92338280867494,3.890811787918551],[-73.92059313880247,3.8829001441728224],[-73.90923547214044,3.88097056489255],[-73.90066782810663,3.876396867095764],[-73.88334955234694,3.8835207300427896],[-73.87995518604146,3.8835577981965343],[-73.87775746094326,3.8870547269606277],[-73.87308697436413,3.8887825247902583],[-73.86260383865567,3.88903307498515],[-73.8567372004079,3.891870523211651],[-73.8497420593834,3.889225757804809],[-73.84388406313803,3.8852242206335177],[-73.84015878825306,3.877382749577748],[-73.83578498471485,3.872711805341737],[-73.8328380125023,3.872801374457538],[-73.82934595238504,3.8684692310689],[-73.81689667009414,3.867851625625349],[-73.81121631158288,3.8529060233207133],[-73.80165307451279,3.8428497498787237],[-73.7920209996712,3.835741448295437],[-73.77658036170237,3.8290023370075232],[-73.7583276862648,3.8147996322131803],[-73.75440693736715,3.814862006223507],[-73.74982140939608,3.811219829494007]],[[-73.83886418995269,3.796266565292626],[-73.83982245978149,3.7987749653921696],[-73.84066224377614,3.7963004452744826],[-73.84220267480549,3.796341823630769],[-73.84394638572627,3.789622527344875],[-73.83728665785947,3.7916480253451255],[-73.83868631670532,3.793868544843235],[-73.83339127549658,3.7926261369153735],[-73.83204246799102,3.794404774772488],[-73.83229434487674,3.7965182889403764],[-73.83598996565013,3.796135177647045],[-73.83657110663574,3.7973778149175814],[-73.83886418995269,3.796266565292626]]]}}]}