{"type":"FeatureCollection","features":[{"type":"Feature","properties":{"code":"506068"},"geometry":{"type":"Polygon","coordinates":[[[-74.05904227430432,3.73199067062302],[-74.0527835444031,3.7258480611382083],[-74.05123832186007,3.7162695033599107],[-74.04756695176121,3.7087617495601535],[-74.04679363806343,3.7006069398368595],[-74.0284970964671,3.6989878648365675],[-74.02334378389338,3.6960100372915576],[-74.02296382991864,3.690449525243821],[-74.02652677852177,3.6907950726741774],[-74.03077739315819,3.6884011166296204],[-74.03696921773133,3.6804535247041485],[-74.03480801879766,3.6636690743750933],[-74.03657737393263,3.651821318857401],[-74.03362987618596,3.643725152983393],[-74.02910868655039,3.6397758144121894],[-74.02635860245891,3.6342462358585976],[-74.02793068277839,3.6202263994569535],[-74.02518068301919,3.614302865712091],[-74.01849842403374,3.6091680959569885],[-74.01122593468767,3.606600404089363],[-74.00454489954876,3.6020584152323067],[-73.99387121092514,3.5890238051662777],[-73.9776999365377,3.5832666219988596],[-73.97463638316657,3.573344645666282],[-73.97087803048487,3.569427318396947],[-73.96913293939423,3.570367619277988],[-73.96691674141158,3.569027805502344],[-73.96349235486895,3.562377720312611],[-73.95910323062253,3.560575829370123],[-73.95897369005974,3.5574242238358806],[-73.95432133183692,3.551525678158896],[-73.9552654760077,3.5456182755349914],[-73.9524083660171,3.5421938550537675],[-73.95398234998368,3.541731174191227],[-73.95315299439613,3.5391118966753083],[-73.95433024946198,3.539781837501721],[-73.95576344067615,3.5361680869234533],[-73.95539939362186,3.532764931548229],[-73.95735226301139,3.5338385298925914],[-73.95838430405047,3.5308119839970686],[-73.95601173343971,3.526069583574781],[-73.95447798831515,3.524601539472087],[-73.9523511002808,3.5251150223097625],[-73.95310887009833,3.528628451405609],[-73.950022310468,3.529379741006892],[-73.94386155617184,3.5270219398590825],[-73.94439991497711,3.53055286070537],[-73.94240948686678,3.5325432199100533],[-73.94360456895527,3.5341853268805608],[-73.94100345476267,3.534771611107203],[-73.93723382212335,3.5329002108202303],[-73.93876731836485,3.5321667996637416],[-73.93726115401176,3.5306806436598777],[-73.93844088248187,3.529663456416074],[-73.93120512498876,3.5279293953714728],[-73.92851257197185,3.5235203491650395],[-73.92660298355725,3.526397501443455],[-73.91394880980556,3.5209348570143106],[-73.90355821644022,3.518689629184621],[-73.89056388018327,3.5109963186434356],[-73.8748520984866,3.504612379979335],[-73.87300974450164,3.5030491751188606],[-73.87238830913816,3.500924159878309],[-73.88071833769868,3.5029739846578423],[-73.90908222803449,3.503790968081887],[-73.91523923160082,3.5057191713060547],[-73.93458731659177,3.50482662306797],[-73.9565295285368,3.5075285770780056],[-73.96541656053705,3.5100107405804124],[-73.97534525259925,3.517562367738037],[-73.98634719230694,3.5291589035448396],[-73.9978871329219,3.5291599618121836],[-74.00325437696614,3.531317702093645],[-74.01720963437674,3.532397348708514],[-74.0357269188184,3.5410275138199268],[-74.04458299161348,3.548848015961198],[-74.05290232848557,3.561522322503663],[-74.05686718419753,3.564800449093468],[-74.06159042062188,3.5798852078984282],[-74.07307137080238,3.5852646328158926],[-74.07781742013873,3.5905126855143976],[-74.08147170677881,3.5909129049489934],[-74.08509186249711,3.5973419387606214],[-74.09373838910057,3.604289151278408],[-74.10564893617624,3.607999188759095],[-74.11021880919532,3.612760207076235],[-74.11582833167125,3.6227363237082955],[-74.13125856900086,3.628470906851362],[-74.14111951344057,3.6521842068570436],[-74.14426664010767,3.665225184010694],[-74.16288234958375,3.66871425444549],[-74.1684256557881,3.672305709418424],[-74.17755910261582,3.690182569333956],[-74.18013651532215,3.7056372979936896],[-74.18692795479382,3.7152158136058233],[-74.19505662459363,3.719039761379804],[-74.21046584981417,3.717845508216044],[-74.21821443297006,3.71580274986502],[-74.22591312535098,3.710797797323721],[-74.22895964668561,3.7184171834167046],[-74.22057720560895,3.7293733296643268],[-74.22051022931839,3.7328414280993343],[-74.21602861620784,3.742066820773573],[-74.2186352274257,3.7487437205450647],[-74.2239798693887,3.7528920216059305],[-74.22588841599105,3.7601992188301665],[-74.22257226993815,3.767746927621772],[-74.22712165226852,3.769787667140122],[-74.22638007322155,3.776544795712482],[-74.23050109484461,3.7870681692344874],[-74.2338177407205,3.7856359437278684],[-74.2381669881367,3.787960390427827],[-74.24077915705794,3.795636484841282],[-74.23415673080132,3.8062363652306885],[-74.21769605474606,3.8054099993256045],[-74.21509451786358,3.7998906229217937],[-74.20252849089167,3.796976626690139],[-74.20178249159875,3.7895459988802145],[-74.1980768455677,3.7858681670770125],[-74.19204193561183,3.7744857704861943],[-74.17015291677075,3.7855482011259483],[-74.16005643019787,3.7851405460519345],[-74.15755722231751,3.786775914667089],[-74.14919422086143,3.7855015170346746],[-74.13985793328726,3.7771405662929283],[-74.12778182342117,3.771237186936162],[-74.11050833530476,3.77243787917854],[-74.10627677256599,3.778565976311029],[-74.09127007871882,3.779603988487395],[-74.08390875353643,3.769755916034228],[-74.0833145595584,3.764977110803727],[-74.07921622537725,3.758270958013213],[-74.07068986302613,3.758028998398686],[-74.06063436502984,3.752561588166884],[-74.06534050771108,3.742056791402092],[-74.05904227430432,3.73199067062302]]]}}]}