{"type":"FeatureCollection","features":[{"type":"Feature","properties":{"code":"506047"},"geometry":{"type":"Polygon","coordinates":[[[-73.88968558307317,3.7318606549197852],[-73.8886695775098,3.72365482622007],[-73.89180714583216,3.716515874992808],[-73.89836119197417,3.7132990003825626],[-73.90274882497891,3.7142426529578074],[-73.89991051594598,3.705532854513706],[-73.89935846959924,3.697908252160289],[-73.89674614949695,3.693105104723827],[-73.88722875216683,3.6871763588322892],[-73.88522134035674,3.6874347848399793],[-73.88038822513369,3.68166919209807],[-73.87380894204074,3.6805033712561226],[-73.87362285153762,3.6775648425566487],[-73.87152813729904,3.6758873911020373],[-73.86343084219516,3.67557064006229],[-73.85714789761488,3.6775252413490307],[-73.84466160784837,3.6759309734106864],[-73.83669335348418,3.6728518679317403],[-73.82825967025911,3.6625741502466553],[-73.82127366180413,3.6504441006272828],[-73.81754765466809,3.6546124696870947],[-73.80663749522768,3.656875645895582],[-73.80605935420886,3.6580985596954747],[-73.79266152395627,3.6565253501461825],[-73.78442681350526,3.6590977029152896],[-73.77108885094862,3.6602636965355373],[-73.77219488225626,3.6733687538856543],[-73.767847703038,3.673487722059349],[-73.76693911932415,3.6671474778041215],[-73.76429135497892,3.6647150487534645],[-73.76537136463395,3.658701748431838],[-73.75791171623302,3.6474126614022566],[-73.7575990841055,3.643812808167752],[-73.75398353169595,3.6374134634347115],[-73.75429105452105,3.6332842389541042],[-73.75069237371099,3.628574278694259],[-73.7465741432809,3.6172377321277622],[-73.7494636605237,3.607186765449171],[-73.74897354595697,3.5982830264002814],[-73.74713767115992,3.596029476413719],[-73.74790880455959,3.5916822714843875],[-73.74368725370874,3.5863819780196877],[-73.74428871980382,3.5783400264930947],[-73.74094781091202,3.569387190626742],[-73.74416249699664,3.5650736589623193],[-73.7437984581698,3.5606858881462813],[-73.74580250183067,3.5550075196712783],[-73.74498573437961,3.5503550843152425],[-73.74706311216266,3.5471172531317734],[-73.74389712591665,3.529002080458895],[-73.7465492847968,3.5180167243868254],[-73.75025539876918,3.5240693369237306],[-73.76112253228843,3.532450371090988],[-73.77068999420032,3.534965962060653],[-73.77866574899582,3.5313049195816006],[-73.777585967655,3.533843949784682],[-73.77872261569644,3.5357480627712903],[-73.79013956487057,3.5348667739219195],[-73.79646535333774,3.548593022894636],[-73.80950152766485,3.5530124800246767],[-73.8091897769126,3.5602881102342394],[-73.81405087194281,3.5621262928563056],[-73.81535215511951,3.565079658895968],[-73.81282952857464,3.5732030959802614],[-73.81550330634497,3.5780496066670935],[-73.83041442394352,3.5841854839671896],[-73.83770901246243,3.5904975324423276],[-73.84380440615121,3.5914270860990882],[-73.8447273623492,3.5939327875655067],[-73.85331577475125,3.597646765009415],[-73.85470038028399,3.6008949577512794],[-73.85959470326355,3.603865607795967],[-73.86273185609508,3.616950538525998],[-73.87159779062551,3.6201076565121753],[-73.88368495110649,3.630728033760988],[-73.89342837027738,3.6344186593890413],[-73.89856780813307,3.63459571296778],[-73.90686714591192,3.632163950347831],[-73.91450592637392,3.626332213325327],[-73.92479406012484,3.622485691238012],[-73.94294884943196,3.626508630298133],[-73.94696823008093,3.631568160226948],[-73.95596583199318,3.6384720331486164],[-73.9579555381369,3.6469654596280634],[-73.96391926752909,3.648408918812322],[-73.96828215723531,3.6559960323790506],[-73.97491844484017,3.658883671685828],[-73.9755884617714,3.663954941286079],[-73.98382584411604,3.6667330339810746],[-73.99347619952346,3.6776117837585502],[-74.00866233602125,3.6817596816699734],[-74.02335653040996,3.6902104421830586],[-74.02302149160533,3.694845120450566],[-74.02540507477858,3.697822776245687],[-74.04679363806343,3.7006069398368595],[-74.04923217709114,3.711727445597205],[-74.03732262349092,3.71283868905158],[-74.00367209123641,3.7041576612869562],[-73.97289535956611,3.7193098180439392],[-73.97387674466898,3.7365074204722077],[-73.97279587317911,3.7415166739601204],[-73.96390329273146,3.74662045057147],[-73.95672461996884,3.7464600721597776],[-73.94900651162163,3.749106923248064],[-73.93704248450655,3.7494260602745157],[-73.93151026079875,3.7513699863279157],[-73.9152869780732,3.7460417151129377],[-73.91040217230073,3.740206768321343],[-73.90671483666023,3.7421972396262504],[-73.90150626587001,3.740714228599586],[-73.89786563077587,3.737240865567344],[-73.89712923919296,3.734045618074731],[-73.88968558307317,3.7318606549197852]],[[-73.78989068898017,3.569334107566135],[-73.79464345918831,3.5718360212787275],[-73.79512761495909,3.56910888379673],[-73.79622126998947,3.569346513668222],[-73.79582901892746,3.5662181766459184],[-73.79849774293126,3.5625984724139244],[-73.79865463800814,3.559407191624132],[-73.79664433421772,3.556817163013477],[-73.79475727075118,3.55679690783802],[-73.78967395500376,3.5631110677056768],[-73.79112774180783,3.565391708925006],[-73.78989068898017,3.569334107566135]]]}}]}