{"type":"FeatureCollection","features":[{"type":"Feature","properties":{"code":"506067"},"geometry":{"type":"Polygon","coordinates":[[[-73.87238830913816,3.500924159878309],[-73.87136874927745,3.499026252513829],[-73.86799967237351,3.4981285157832644],[-73.86895046851049,3.494713771917702],[-73.86624506818964,3.489214841979617],[-73.86904210479582,3.4723153017336585],[-73.85833302746511,3.4710688222018575],[-73.8586477709851,3.464846554701751],[-73.86336072092735,3.464519851423688],[-73.86324426009651,3.4572179373087124],[-73.86674759091534,3.445714005551679],[-73.87502465262924,3.4455767958930323],[-73.88059647754466,3.4474086895891105],[-73.88457049256567,3.4460225023117914],[-73.88849485129651,3.448146787358155],[-73.89372462754307,3.447768583792538],[-73.89840068108157,3.4516671450712693],[-73.90343113179819,3.452542486437551],[-73.91054858343455,3.45811842100926],[-73.91406727815615,3.4584389546606076],[-73.91848712815124,3.4614788394556513],[-73.92439602201682,3.463619142494224],[-73.93177719202606,3.4638175897342194],[-73.93516329479593,3.467087852852501],[-73.93791720572199,3.4665665888188073],[-73.94173312547366,3.469354190493334],[-73.95270242961493,3.473117205104984],[-73.96069032106055,3.479901294298031],[-73.9670692357829,3.4808962928944993],[-73.96913428356862,3.483900616204096],[-73.97471984333384,3.4873134224839646],[-73.97614637332583,3.4867353760818673],[-73.97877210534699,3.4910804089406042],[-73.98214867856848,3.4910881294586034],[-73.98279471839083,3.49355306037819],[-73.9849906416577,3.4937375485678785],[-73.98409498238101,3.4954907304157814],[-73.98865074105493,3.499100044293016],[-74.00796147918425,3.491336922045207],[-74.00718623612829,3.4934569513964107],[-74.00841404428616,3.494643995178137],[-74.01261752540194,3.494113012362618],[-74.01323953360793,3.4954028592585473],[-74.01698188578092,3.493318640275845],[-74.02453681526748,3.499150932657301],[-74.02389773800104,3.5005944381214817],[-74.03095180775341,3.5020366847720084],[-74.03429299329628,3.490692571953957],[-74.03656837814589,3.487884187512975],[-74.03368422011704,3.4829831056092075],[-74.03493525873455,3.48108689826023],[-74.03342794046893,3.4787191705852933],[-74.03643175469949,3.4745028586206104],[-74.03529729004151,3.473660061289422],[-74.03879719923208,3.468687548910509],[-74.03995022522065,3.4696280997031295],[-74.04293867657685,3.4684661653454896],[-74.05044690551705,3.4557356749882047],[-74.05358099256148,3.4539423663985644],[-74.0663898677222,3.4560011406849185],[-74.0707618190354,3.461579238071238],[-74.06920199980766,3.469584267482958],[-74.07379790270687,3.474381237065245],[-74.07752484058341,3.474960015718409],[-74.08380090899703,3.472557331282246],[-74.0892287786993,3.4758298600594344],[-74.0938213813265,3.4762491910413473],[-74.10785103318358,3.4719697028812107],[-74.12538725442494,3.473730786252986],[-74.13148356651288,3.4786816889977104],[-74.13223519241484,3.481282742512178],[-74.12213159621882,3.497898102492968],[-74.12962684004378,3.5110145169338125],[-74.12752785159807,3.5157663265766246],[-74.13349980133131,3.5245657116200846],[-74.13809112868978,3.53660719176969],[-74.1345534530331,3.555201021131154],[-74.13874397474467,3.5605623104932533],[-74.16017665615675,3.5599881577745123],[-74.16614352127021,3.5559294422845937],[-74.1686338279805,3.55617902780034],[-74.17738373671125,3.566051743793139],[-74.18714629005524,3.5554994011022245],[-74.18852269890107,3.5499879087387853],[-74.18649044609037,3.5460181329578404],[-74.1876473657623,3.5445761619298537],[-74.20413402130407,3.535777233514864],[-74.21143959770285,3.529785604534027],[-74.22002379349055,3.5286392654787164],[-74.22943160615654,3.531819890575548],[-74.2277912146281,3.5382505133308655],[-74.2287032878474,3.546869176341147],[-74.22582469677792,3.552738735365722],[-74.22721531355711,3.5603687833222466],[-74.22520528230393,3.5666609653732735],[-74.2301669816382,3.5714819480598976],[-74.2339209408135,3.5794953613350913],[-74.23901518787648,3.5857835273180285],[-74.24262043426359,3.5982128804498075],[-74.23778067530185,3.6102667163078763],[-74.23676541124553,3.617690286945276],[-74.23232631086341,3.6213224692703534],[-74.23554921728908,3.6279376398650243],[-74.23227609407212,3.637295167862476],[-74.23599202864216,3.641533571800835],[-74.2409651704279,3.6415762058854853],[-74.24439914719699,3.6449170900946797],[-74.25237071828826,3.6444588994122],[-74.24990234105775,3.648496056690078],[-74.25485743984797,3.6569375468223484],[-74.25326340536606,3.6644284979282133],[-74.24731491029286,3.6629612374987346],[-74.24129318291324,3.6702206820799006],[-74.24511165423081,3.6773613384648343],[-74.24386456174733,3.684534005123112],[-74.23575174847429,3.6869573530264006],[-74.23760202146661,3.699120774577011],[-74.24033832031449,3.704134206626861],[-74.23664174720335,3.7060921513802327],[-74.23238714323838,3.7053671765377203],[-74.21821443297006,3.71580274986502],[-74.21325956455098,3.7173491602591753],[-74.19549128759661,3.7190764366685016],[-74.18769456921706,3.7158616230569805],[-74.18013651532215,3.7056372979936896],[-74.17755910261582,3.690182569333956],[-74.1684256557881,3.672305709418424],[-74.16288234958375,3.66871425444549],[-74.14426664010767,3.665225184010694],[-74.14111951344057,3.6521842068570436],[-74.13118022636354,3.6283807350682196],[-74.11582833167125,3.6227363237082955],[-74.11021880919532,3.612760207076235],[-74.10564893617624,3.607999188759095],[-74.09373838910057,3.604289151278408],[-74.08509186249711,3.5973419387606214],[-74.08147170677881,3.5909129049489934],[-74.07781742013873,3.5905126855143976],[-74.07307137080238,3.5852646328158926],[-74.06159042062188,3.5798852078984282],[-74.05674311803426,3.564620313272542],[-74.05290232848557,3.561522322503663],[-74.04458299161348,3.548848015961198],[-74.03250652899158,3.5388700728152003],[-74.01720963437674,3.532397348708514],[-74.00325437696614,3.531317702093645],[-73.9978871329219,3.5291599618121836],[-73.98634719230694,3.5291589035448396],[-73.97534525259925,3.517562367738037],[-73.96541656053705,3.5100107405804124],[-73.9565295285368,3.5075285770780056],[-73.93458731659177,3.50482662306797],[-73.91523923160082,3.5057191713060547],[-73.90908222803449,3.503790968081887],[-73.88071833769868,3.5029739846578423],[-73.87238830913816,3.500924159878309]],[[-74.02003330250193,3.529458773729118],[-74.03226657483998,3.53101770952469],[-74.03639548153188,3.5272140704051367],[-74.03151194588588,3.5251847825942377],[-74.02944551175966,3.522431507245642],[-74.02668916856703,3.5231661237367575],[-74.02215840207475,3.521045842417152],[-74.02057696292837,3.523830986114035],[-74.01396325066526,3.522171076803488],[-74.01278183143563,3.5240492082467654],[-74.01242169246285,3.52603247119805],[-74.02003330250193,3.529458773729118]]]}}]}