{"type":"FeatureCollection","features":[{"type":"Feature","properties":{"code":"506041"},"geometry":{"type":"Polygon","coordinates":[[[-73.79464345918831,3.5718360212787275],[-73.78989068898017,3.569334107566135],[-73.79112774180783,3.565391708925006],[-73.78967395500376,3.5631110677056768],[-73.79475727075118,3.55679690783802],[-73.79664433421772,3.556817163013477],[-73.79865463800814,3.559407191624132],[-73.79849774293126,3.5625984724139244],[-73.79582901892746,3.5662181766459184],[-73.79622126998947,3.569346513668222],[-73.79512761495909,3.56910888379673],[-73.79464345918831,3.5718360212787275]]]}}]}