{"type":"FeatureCollection","features":[{"type":"Feature","properties":{"code":"507008"},"geometry":{"type":"Polygon","coordinates":[[[-73.48562872192878,4.000453443200513],[-73.46920370094716,4.000209027665278],[-73.45416747845843,3.9942939045233743],[-73.43048716574657,3.9930331810626853],[-73.42179804722463,3.990226976919871],[-73.41193144018041,3.9821857319332707],[-73.41701850871459,3.982509178133853],[-73.41805893361709,3.9735160005812986],[-73.42514236848871,3.965564711404909],[-73.42626238455779,3.959652845340486],[-73.43121289032365,3.951654562511635],[-73.43128035820979,3.938704971731738],[-73.43433153838902,3.929867020093866],[-73.43738684570803,3.9272956062927165],[-73.44400887498585,3.908104214803984],[-73.44247630125733,3.907778080254616],[-73.4443275049901,3.9019582464258633],[-73.44380309597915,3.8839515806093914],[-73.44618229181663,3.883794571375404],[-73.44027281276726,3.873414739632608],[-73.44945316685823,3.875560842058519],[-73.45313239528639,3.870486654766921],[-73.45807151105134,3.869148598599452],[-73.45746651122778,3.865448553466365],[-73.46046501869495,3.861629074275072],[-73.46143975183156,3.856751239285984],[-73.45948764966016,3.8546507606270666],[-73.46180889173326,3.8536097238012417],[-73.4629220912853,3.848614980608886],[-73.4656745809038,3.848762227866473],[-73.46698063502532,3.846265683652291],[-73.46927484654373,3.845224603631891],[-73.47253167717429,3.8482822547714477],[-73.47475522440726,3.845277129276667],[-73.4758401109367,3.8467931337677896],[-73.47663890326947,3.843883634915244],[-73.4781818426701,3.8469649124647844],[-73.47975318251093,3.8448562309483236],[-73.48243225881714,3.8453916432657707],[-73.48291323155831,3.8479623926930344],[-73.48458116169206,3.844495655915921],[-73.48643972393108,3.8452486434757702],[-73.48854223582089,3.8430922782219454],[-73.49175071011268,3.846186007125027],[-73.49479372137296,3.844417986908468],[-73.49486816004247,3.8425507055337675],[-73.49889923408284,3.84245625131598],[-73.49964502665881,3.84621575071111],[-73.50102302033457,3.8437191890134272],[-73.50285642995493,3.84672716637931],[-73.50688808197998,3.845771923256848],[-73.5069118893959,3.8472029691399143],[-73.50939901513345,3.8470588318924683],[-73.51026855814087,3.845895716882808],[-73.51417739047503,3.8485659609246454],[-73.51673789455788,3.848082748235697],[-73.51651906153035,3.850580111090096],[-73.52030789210608,3.852679995309245],[-73.52930619644462,3.8633321421759206],[-73.53114139041276,3.8620481121508874],[-73.53258976349537,3.8637706021887084],[-73.53263911948028,3.8622672557681312],[-73.5342316719765,3.8620501278982147],[-73.5325433210881,3.860739523946961],[-73.54011618146995,3.8629977399771747],[-73.5354936275113,3.874200513939911],[-73.51585118890176,3.9023201532913276],[-73.52778378681353,3.914349350751934],[-73.53253045012997,3.9236049210149986],[-73.53224937576118,3.927008687285081],[-73.54063275374892,3.936656706071062],[-73.54350866058343,3.9355863637757125],[-73.5462701758135,3.9392472869553785],[-73.56856072638186,3.946030709717661],[-73.57938171368528,3.9480089466703703],[-73.58204059755104,3.9455679116126703],[-73.58671751600968,3.946626167651573],[-73.58910223046968,3.949296529964329],[-73.60735144519822,3.952700486496269],[-73.61282265243977,3.9511456397881375],[-73.62645724661525,3.958529147447223],[-73.63827424655943,3.961726253335428],[-73.64655607716134,3.961026167830312],[-73.66099745466789,3.95420711776228],[-73.66590349469305,3.9540676105630723],[-73.67322682200972,3.958691816200428],[-73.67981657773282,3.9687174749655014],[-73.68710983441866,3.97304421080338],[-73.69112708310632,3.971604832478988],[-73.69802026228263,3.9722365142152967],[-73.70658906331425,3.9686144795325617],[-73.71540019419973,3.969636244373987],[-73.71769854211391,3.971696376204477],[-73.71932622209283,3.9769234949555425],[-73.7223522434827,3.978423865063462],[-73.72684452565596,3.9804679480484424],[-73.74276202259585,3.9824509384624776],[-73.75378875085357,3.9875312470439894],[-73.74971861759474,3.9875003526307182],[-73.74953384144118,3.990849628930903],[-73.73710803540763,4.003629878422544],[-73.73417806849216,4.009663225145744],[-73.73731023337746,4.0188849246828795],[-73.73807840486268,4.03172070389985],[-73.72771379818295,4.028908296191787],[-73.68227518784471,4.027266878277715],[-73.67685050631428,4.028883463418708],[-73.66615176997306,4.026080928758802],[-73.65589079430373,4.026811496271705],[-73.65178715233077,4.025042554570689],[-73.64768564643293,4.020330131190974],[-73.63889196616009,4.019000604925793],[-73.61983442337981,4.022817447190448],[-73.59931728823744,4.016328007807488],[-73.59374748832539,4.0169136112052115],[-73.58964453540892,4.015291900306693],[-73.58553878204344,4.016467242469446],[-73.57909205490677,4.013518711138033],[-73.56238212963638,4.012624869119293],[-73.54772992758416,4.0046661967540444],[-73.53606037750075,4.000703959456757],[-73.52975897649105,4.003117544355177],[-73.52448168105792,4.002385460917992],[-73.51953568089868,3.9994753851092355],[-73.51851607372964,3.995963255964682],[-73.5122650869722,3.997101720235605],[-73.50941028583503,3.9992779035767967],[-73.49849323274441,3.999692382366902],[-73.492738884993,3.997228623871763],[-73.48562872192878,4.000453443200513]]]}}]}