{"type":"FeatureCollection","features":[{"type":"Feature","properties":{"code":"507007"},"geometry":{"type":"Polygon","coordinates":[[[-73.74604777817228,4.198148263310827],[-73.73940652524692,4.202616545749436],[-73.73259053788075,4.2037778517287165],[-73.72617554539482,4.198201063549732],[-73.72141154356592,4.196714132100169],[-73.72187118229544,4.194981508818216],[-73.71928397470259,4.191142659940567],[-73.71190802712448,4.18365725728205],[-73.71129459304376,4.178565190517247],[-73.71279206294383,4.177222420997737],[-73.70938090320044,4.165975312934904],[-73.72241336690689,4.141290523500345],[-73.74409110971607,4.126561040163438],[-73.76138488900341,4.121500182515263],[-73.76561374693836,4.11609350078578],[-73.76564989257912,4.108531290954659],[-73.76310712090213,4.105071826294591],[-73.76361265079379,4.102039232128561],[-73.76210357389147,4.099218310973299],[-73.76589308529617,4.097065297413678],[-73.76382843346084,4.091477558378756],[-73.76442469563682,4.080970874421894],[-73.76150279685282,4.074182899773064],[-73.7679457681175,4.0638638921777215],[-73.76829219383768,4.060379008532379],[-73.76435363540094,4.045272760420971],[-73.75482924980395,4.035841553773025],[-73.74647436378774,4.032597338018377],[-73.73807840486268,4.03172070389985],[-73.73638942970967,4.013770194130245],[-73.73407439840094,4.009964155654245],[-73.73710803540763,4.003629878422544],[-73.74484919320861,3.994802417926735],[-73.75349185081126,3.9893980090552077],[-73.75414947706702,3.99438155148016],[-73.75552552287263,3.9945516826122685],[-73.7542624761603,3.996115689657927],[-73.75638929014684,3.996603572504398],[-73.75619053026031,3.9979058316730516],[-73.76201821521931,3.999596878109287],[-73.76337864309681,3.997858868873891],[-73.76486231232673,3.998944132841757],[-73.76687589170655,3.9959509897307726],[-73.76820317082485,3.9987978934578337],[-73.76714050790974,4.000383401122747],[-73.76853005305185,3.999568149595973],[-73.77108624590369,4.005098582785308],[-73.77736944965153,4.004875976402161],[-73.78912729769581,4.019619865133393],[-73.7898083055922,4.023009296971679],[-73.79705464164499,4.02119038119173],[-73.80311936100725,4.024812889986492],[-73.80479509701968,4.032993685366932],[-73.80843792886708,4.036775545159287],[-73.81100756140575,4.037294351215394],[-73.81221143667773,4.040362282666365],[-73.81978309995253,4.043762558402534],[-73.82317036486239,4.052540131208616],[-73.82591070857478,4.053797297286621],[-73.82757937404494,4.060444218987186],[-73.83157123974274,4.065671366534616],[-73.83120870861268,4.07302394892713],[-73.83692027006998,4.079092844794445],[-73.83826439816204,4.0832016660039585],[-73.84319726408182,4.081584693140144],[-73.85682561972499,4.082466402622458],[-73.86766026063128,4.089454047329468],[-73.86975066878108,4.09236873981672],[-73.87132763317402,4.091475264951896],[-73.87828583562856,4.093370303990184],[-73.88402389799268,4.08844526246105],[-73.89084421818723,4.095622667154032],[-73.89533849656738,4.095992361386266],[-73.89994213129745,4.101368848043421],[-73.90405718178329,4.103346106947299],[-73.91184183653212,4.10399591086923],[-73.90812920840477,4.106826169254077],[-73.90707094516677,4.1114306709612265],[-73.90492047597388,4.11285304090319],[-73.90409258694541,4.120567887030745],[-73.90628667547082,4.122727672884423],[-73.91159199596257,4.123052325448043],[-73.91241323302484,4.126497165655508],[-73.91918754892862,4.133012867346622],[-73.9215032826636,4.143200957294653],[-73.91840193711522,4.147149019568701],[-73.91523209935195,4.147621997197746],[-73.90626591635862,4.145995692246515],[-73.90006176075968,4.142608761580391],[-73.8956124592562,4.143081928442882],[-73.891097050496,4.1493132688628975],[-73.87774763006126,4.156147108962784],[-73.87216051014872,4.1676332826028215],[-73.8669857257521,4.167084764842343],[-73.86085524983207,4.172142701713767],[-73.85676885792549,4.1706375627179],[-73.85322724333395,4.171593986492326],[-73.84818655550043,4.1763785643707365],[-73.83906100299754,4.176239020147534],[-73.83279741164853,4.170630350250519],[-73.8265321562796,4.168713446524293],[-73.81993296871013,4.1791583241710555],[-73.81860860419795,4.187049108017163],[-73.8156152152892,4.192857722566487],[-73.81533931501468,4.1997219099482095],[-73.80955399057461,4.2045409889877305],[-73.80848452759761,4.2008956929921055],[-73.80482302437628,4.198082569488008],[-73.79713672678463,4.199420444649604],[-73.79423067527142,4.2014173354926925],[-73.7895081957808,4.201308759730637],[-73.77818679611573,4.197188720270162],[-73.76274321165909,4.195750367302992],[-73.75545409959659,4.193554995281318],[-73.74858588894773,4.194560394516941],[-73.74604777817228,4.198148263310827]]]}}]}