{"type":"FeatureCollection","features":[{"type":"Feature","properties":{"code":"507028"},"geometry":{"type":"Polygon","coordinates":[[[-72.29490508749069,3.7564650602586767],[-72.28332270202452,3.7492146464312555],[-72.2865583446823,3.7454543715904833],[-72.28539844252708,3.7400908247971074],[-72.28634380231694,3.737033112979418],[-72.29364582853214,3.7385281876368595],[-72.29730106031093,3.7346907261281217],[-72.2970187662093,3.7324564255002315],[-72.29308120639024,3.730754718228866],[-72.2925627006394,3.7291006782397744],[-72.29720878536284,3.723568169653447],[-72.2949435162738,3.7152545581208187],[-72.29606512642874,3.710628341878362],[-72.2910365978712,3.7073048198357696],[-72.28917494310548,3.711358925846355],[-72.2869085190755,3.7109074478082107],[-72.28061417420992,3.7067644103161115],[-72.27935619154857,3.7026147218862775],[-72.28053816819403,3.7009669800791585],[-72.29176903509261,3.698778112956404],[-72.28973229210186,3.6948307829334226],[-72.28500927884954,3.692878387655867],[-72.28496319742561,3.6867047685722127],[-72.28818278712419,3.6891003886367457],[-72.29374572835309,3.6894675374737176],[-72.29949781044559,3.6953838073289944],[-72.30329017372145,3.6942751308671973],[-72.30375566223205,3.691514670819174],[-72.29999404321688,3.6817179443872305],[-72.30450326486687,3.680910655062405],[-72.3060439982583,3.6780952751554423],[-72.29929160052154,3.6752593521091512],[-72.29893309368703,3.659246174019529],[-72.30006981680475,3.6576756528189094],[-72.30663160917584,3.656169618049603],[-72.3089738314763,3.650060502880706],[-72.30617428752726,3.6428011971392493],[-72.295141566535,3.6423990987402135],[-72.29042708421338,3.6390605593799137],[-72.2903121650179,3.636323235174814],[-72.29540099218877,3.6317336736521497],[-72.29799559325488,3.635080408670831],[-72.30399223692149,3.633210498597066],[-72.30849303151348,3.636002261350029],[-72.31301037785937,3.6309075237199977],[-72.31262119566986,3.6274787087039044],[-72.30475495251915,3.6250266507992706],[-72.3051518624257,3.6094883190187375],[-72.30898972914076,3.613106930016329],[-72.31583359964054,3.6086115388613393],[-72.32156313210237,3.6139540354932933],[-72.32572093802901,3.607992382526504],[-72.33574663073273,3.6014804377358587],[-72.3353729338022,3.5981177454030444],[-72.33350328289595,3.5972588262069394],[-72.33043609295208,3.598697463024223],[-72.3289485320957,3.602094414834255],[-72.32631603600805,3.6014430415090146],[-72.3252938690456,3.5961300478076623],[-72.32834563543702,3.5915790971024535],[-72.32301284113186,3.5881243632779842],[-72.32178493835727,3.582777110099471],[-72.32469176531612,3.5757661146050737],[-72.32917035480568,3.5754125792616946],[-72.33090947475898,3.5804337410855283],[-72.34043919385891,3.5814807490486373],[-72.34561224738678,3.5772535211950753],[-72.34798482622512,3.570789336246605],[-72.35936788513294,3.5687736269622405],[-72.36763113486381,3.563902831662233],[-72.36699055812818,3.560646364071829],[-72.3564997204137,3.5551975141422076],[-72.35826174275348,3.5485999288861763],[-72.35430964692785,3.5452440520419373],[-72.35380585716098,3.542822858725742],[-72.35493589437391,3.541664569168404],[-72.35958216935927,3.542392430849077],[-72.36103893453287,3.539682816999175],[-72.35110567104363,3.5338622077247237],[-72.35194446979034,3.5320819356724087],[-72.35738478981779,3.5308791155824224],[-72.35855224794017,3.5283181199040428],[-72.35665245646902,3.526765478176628],[-72.3483815726093,3.5256709931931596],[-72.3497699412132,3.5204031584027575],[-72.34540608065726,3.5135760813408865],[-72.34693231198077,3.512797606918582],[-72.35090000310873,3.516166451394497],[-72.35693444820856,3.5140726678964143],[-72.36041369598894,3.509112605842631],[-72.35946769033717,3.503152857551356],[-72.36086361490823,3.5010543864122496],[-72.36127535495592,3.506486598198819],[-72.36739424958472,3.5129327226682108],[-72.37252204855645,3.5042056649018036],[-72.38102131247564,3.502726323358047],[-72.38295189037359,3.4972062404141866],[-72.38824656648524,3.4949785999800724],[-72.38757564246777,3.492879111711261],[-72.38233353622388,3.492137421592531],[-72.37544454178015,3.488059447487956],[-72.37806091600288,3.484449039347851],[-72.37897710813445,3.478329936973637],[-72.37782490181456,3.4749962744878076],[-72.37355253047667,3.472210060182249],[-72.37498634184169,3.4683686957341706],[-72.37754250384023,3.4675620440437456],[-72.38394348585376,3.4734904289519477],[-72.38488190879877,3.4712469679865308],[-72.38452379894312,3.4684000591172435],[-72.38058698885868,3.4640693123535584],[-72.37956448662396,3.4535784396720146],[-72.38246358483724,3.4527593726234613],[-72.38646175283083,3.456729183371465],[-72.39149701151626,3.455426351360302],[-72.39251918670624,3.4541169013215267],[-72.39025285729298,3.4506439877186494],[-72.38991006711706,3.4454745357965066],[-72.39504508781215,3.4481452200117246],[-72.39679253095079,3.444266459336802],[-72.40400165486795,3.443370782576608],[-72.40622237182708,3.441424155833147],[-72.41528960752544,3.442758963150652],[-72.42210569567897,3.447081816618038],[-72.42418539157148,3.4515242039024656],[-72.42419626118044,3.4580407355467173],[-72.43037253981646,3.4615675313100382],[-72.43560161569366,3.4674428938357096],[-72.43649560786503,3.4703599630536246],[-72.43532102880658,3.4748482713249587],[-72.44282492286158,3.4779396903461475],[-72.4429316690244,3.486377192178338],[-72.44610607615772,3.4918249653287035],[-72.4581488130641,3.4973160955587446],[-72.46180544661007,3.4967833335376213],[-72.4664341434559,3.49334005450595],[-72.47191432797223,3.493891504356043],[-72.47186369260481,3.4993546146696985],[-72.46827850907437,3.5031750626537814],[-72.469693245916,3.5052495772528687],[-72.47305555155441,3.5053909078807237],[-72.47780766664471,3.5025644444486943],[-72.48217822853206,3.507446208088197],[-72.48927187172416,3.509232488301677],[-72.4926095286807,3.5083199944494368],[-72.49585709612955,3.5047565244258863],[-72.49981661319634,3.504351945423423],[-72.50736219722575,3.5111544992734594],[-72.51734366792954,3.5144176013465085],[-72.52290475281973,3.5199664827377433],[-72.52642131763685,3.5171973251513577],[-72.52862300532405,3.517700338444172],[-72.53062573566376,3.5237493442331242],[-72.53616435217026,3.5266136718333314],[-72.5393955262453,3.5264937945164547],[-72.54378448285559,3.5220466599413953],[-72.54721101575774,3.522925030070894],[-72.54980249550084,3.5265472652999392],[-72.55289969231211,3.5277076292258585],[-72.56468408342937,3.5240865180844594],[-72.56666829666153,3.5259028000231183],[-72.56674394169409,3.529563153445679],[-72.56921194559999,3.5341465679673547],[-72.57392129496498,3.5323073486752605],[-72.57549263274893,3.5370051805124945],[-72.57760374858884,3.5357067646335167],[-72.57984785747306,3.5372021704494045],[-72.58270584781042,3.544471374950092],[-72.59101724407782,3.547215856086666],[-72.59270992676613,3.5500858977135294],[-72.6006728219163,3.5549513245435946],[-72.61006207530858,3.5642972897618392],[-72.6328427836383,3.5680620198156134],[-72.64632746483312,3.567010769527144],[-72.66787902391587,3.5837013611065913],[-72.68104445187032,3.5895479920336584],[-72.6887114065151,3.590108688610428],[-72.7007183556787,3.585901631599995],[-72.70817553993135,3.5851970620855127],[-72.71821812994563,3.599329677493756],[-72.73675843298776,3.5973159129942474],[-72.74266164985062,3.591836186134856],[-72.74712692409491,3.582911564560561],[-72.75066297378396,3.5806474956639818],[-72.75643425381304,3.5795942532823233],[-72.76451689463943,3.5809144238059503],[-72.77267143491076,3.5777310651088783],[-72.77925649682226,3.57741736134426],[-72.7812969771731,3.5678666280783773],[-72.78689860532421,3.5638585767521818],[-72.79743423273885,3.565613386624591],[-72.8045168150316,3.573144093204519],[-72.81771231978746,3.574603168260012],[-72.82280754181397,3.5734612967589783],[-72.8258681877781,3.5671711993609847],[-72.83925365615164,3.5586861588018337],[-72.84727213759152,3.5581198459004213],[-72.85837868327309,3.5604370431091183],[-72.8768716707603,3.5607511736773745],[-72.8870429179052,3.555678314105023],[-72.8917833601729,3.5551001545742906],[-72.89570042930319,3.556587380158362],[-72.89935136424913,3.5655716781382694],[-72.90253105963393,3.5678397157945483],[-72.91164760503733,3.567514216822701],[-72.9175250090214,3.5638414675824492],[-72.92411631769272,3.567320383175854],[-72.96207444749831,3.565487729460756],[-72.97471823809434,3.572826610942059],[-72.98270942158445,3.56974107049831],[-72.99600371132959,3.576254734844838],[-73.00819628922562,3.5759555557739304],[-73.01491248475736,3.5780056582329394],[-73.01806961302793,3.5822933060560445],[-73.02380921908428,3.5853819853063555],[-73.02637563979698,3.5896847635757467],[-73.03817861384209,3.5909046990061597],[-73.0463696309127,3.5898749431663077],[-73.05175967141378,3.5872751762333905],[-73.05636743122682,3.5905711987514906],[-73.06244988196653,3.58865659873652],[-73.06592279659782,3.591150175894029],[-73.0758734942446,3.593549624850084],[-73.08827744690308,3.588360993503386],[-73.09091910332819,3.5858451752479255],[-73.09613246563214,3.5853632470836487],[-73.1019507999917,3.5874276150688615],[-73.10836151209986,3.5938204394763034],[-73.11954128494568,3.596994126699883],[-73.12399378799074,3.5962981559932814],[-73.12993529479706,3.591644409373089],[-73.14113790523743,3.5914387064711377],[-73.144738418732,3.5935472728020272],[-73.14751388581328,3.598162155607895],[-73.15548651105814,3.60174539743889],[-73.1616965298079,3.602223998591569],[-73.1663048388092,3.5998076626094075],[-73.17051854470049,3.605844628421835],[-73.17628174322823,3.6086071114162905],[-73.17969455465027,3.617554751591058],[-73.1877641291145,3.6167240004070322],[-73.19142161421087,3.619781268965994],[-73.19363395759103,3.624453180966441],[-73.20305292782984,3.6280441042345615],[-73.20617393102856,3.631650585781074],[-73.21229670391409,3.629422993683704],[-73.21728649207046,3.637955519490845],[-73.21733117584103,3.640614388958454],[-73.21215851312132,3.6445272774699333],[-73.20643613759091,3.6550601579145905],[-73.19695911485724,3.660032700118336],[-73.18960981525322,3.669597214513999],[-73.18116270468255,3.6720584533249507],[-73.16469189949692,3.6868002193508005],[-73.16427428704242,3.6939808111872026],[-73.16071668634038,3.6999737648020528],[-73.16071176215758,3.7126825241688834],[-73.16289668314641,3.721391237606099],[-73.16714462588914,3.726191963060444],[-73.16992654027655,3.7255771673218874],[-73.17322302353688,3.7201790165230477],[-73.17525431989606,3.7207993781925666],[-73.1754674399254,3.722546433608386],[-73.17096605192211,3.7289368350052428],[-73.16193160091439,3.730900285011387],[-73.15684689162731,3.7247468727663318],[-73.15352318960731,3.7237995836183586],[-73.1491550898113,3.7263713933698455],[-73.14809380398071,3.730937655527214],[-73.13607252038531,3.743068230680649],[-73.13522450165141,3.7490446777931083],[-73.13171071054376,3.7542745044332833],[-73.12614781250943,3.7555162284468793],[-73.12328019800691,3.75416411038492],[-73.11891967269008,3.7537202057974355],[-73.1093988537317,3.757769477099771],[-73.10794425137271,3.76064264107805],[-73.10736857347376,3.754206364974209],[-73.10907054814021,3.752477301131819],[-73.10712498583479,3.752672352454624],[-73.10729872885702,3.7502131088221518],[-73.1082345837811,3.7473885521225725],[-73.11007952327054,3.747607040621915],[-73.11148797632836,3.7416629483111024],[-73.10940782380737,3.737423889254842],[-73.10542673413028,3.7388509190698755],[-73.10272002460204,3.737572411781173],[-73.10209113200182,3.7355016602532487],[-73.10421215174318,3.7322749187654267],[-73.101245939428,3.7316680584893334],[-73.10067535437639,3.729780476687779],[-73.10322400360235,3.7264485368431224],[-73.09929452631303,3.725016069652497],[-73.09620591596837,3.7211957718209874],[-73.09735129034459,3.7160838355466694],[-73.09439364187023,3.7149208922869548],[-73.09558900060972,3.7124102686946685],[-73.08849706977446,3.709947974701663],[-73.08625547029004,3.7073600256017585],[-73.08598927234226,3.703935656542626],[-73.08744322883933,3.703594830691941],[-73.08867688780668,3.7000291772849323],[-73.08559411078795,3.695114248431082],[-73.08620564944908,3.6935173178550826],[-73.08260258336014,3.6900926124952775],[-73.0771125628196,3.6899728174537927],[-73.07417634503042,3.6868607709610046],[-73.07478788369156,3.6842913050300012],[-73.07237143766605,3.6832046608922724],[-73.07015475734386,3.6845222531104582],[-73.06699516389654,3.6829933930878838],[-73.05855111499926,3.683669184723783],[-73.05217683649579,3.678695009353362],[-73.05060028347981,3.680030247588263],[-73.0475205835611,3.6785471923385558],[-73.04979983638304,3.6824677859413555],[-73.04884482671707,3.684302739253951],[-73.04317263712471,3.681268809141102],[-73.03448911024475,3.6818632869693033],[-73.03098159983557,3.6806780532463677],[-73.03038834585396,3.6761971549033774],[-73.02825682160073,3.674927082900183],[-73.02934361177734,3.671050020183884],[-73.02759065412988,3.6683687543235806],[-73.0268843681448,3.653767166041405],[-73.01787148460517,3.645784495998498],[-73.01136403616522,3.644467954848551],[-73.01817737014971,3.6324573218038267],[-73.01477919449314,3.629344637676695],[-73.01384048769796,3.623053291749443],[-72.99851072714551,3.6337822036226157],[-72.98652982020337,3.6461768139092214],[-72.97963320911435,3.6495131914833223],[-72.97901832698659,3.6518954726483344],[-72.97176058036405,3.6561134476045254],[-72.97380924814576,3.670648128501739],[-72.97206107172758,3.6806295683522876],[-72.97293738702894,3.6824926619090093],[-72.97600429209427,3.683252594541216],[-72.97821834474587,3.6886684695183476],[-72.97688454530203,3.6919488998194083],[-72.97391669570635,3.6929329897261027],[-72.96917285546459,3.6990137404503116],[-72.96503514427627,3.6998663254689745],[-72.96446531718681,3.702127113633935],[-72.96239995161238,3.7029026508244556],[-72.95551629889911,3.702684265169353],[-72.95280443687386,3.704929871465879],[-72.95227034301973,3.7082553496061337],[-72.94821405671098,3.7087191668976516],[-72.94137266784304,3.7176546488249755],[-72.93333512833482,3.7196994301223754],[-72.93167343673338,3.728399673307024],[-72.92601137112922,3.729102547948287],[-72.92256503865167,3.733675789116603],[-72.92244192585463,3.736619744907216],[-72.91765462466049,3.7325605727887705],[-72.91513986467237,3.7379057927365125],[-72.90520758231736,3.737421209133629],[-72.901977334869,3.744361187586776],[-72.8963334151046,3.7474185713312522],[-72.89001991652555,3.74475011060872],[-72.8896169490925,3.7465759128397735],[-72.88587800826332,3.747728085221013],[-72.88404253044507,3.7448153981966925],[-72.87677935570292,3.744795218097636],[-72.87614187252234,3.7469687819956903],[-72.8748482347873,3.7452163838210026],[-72.8653834320076,3.750880017800057],[-72.86671435386927,3.756573903415756],[-72.85983687901023,3.7558500146085407],[-72.85737381882757,3.7593263066451073],[-72.85370029414167,3.7546982299501224],[-72.85374356688908,3.753513331499448],[-72.85504919009327,3.753913550934044],[-72.85396183118797,3.751087209886748],[-72.85503826494835,3.7496319524098567],[-72.85235585340308,3.7498898096888524],[-72.84917606340156,3.75423357653483],[-72.84410852807616,3.752129952898656],[-72.84208469306748,3.755252502874896],[-72.83724801943333,3.752211162833703],[-72.83650500982282,3.748578946570035],[-72.83312464473374,3.7491663168319747],[-72.83072430411812,3.7543773425145446],[-72.8335947437522,3.7564038576443863],[-72.8357306625403,3.7559655961210296],[-72.83790230427934,3.7588935082083594],[-72.8343944935649,3.762039331838821],[-72.83331214008933,3.7613026214387446],[-72.8336899991267,3.762981434551193],[-72.83122058008394,3.762186760102338],[-72.83279170395184,3.765713941531544],[-72.82874866089742,3.766269800314717],[-72.82778102812796,3.76948873489539],[-72.82602243461554,3.769590159896609],[-72.82776737143973,3.7703758642698517],[-72.82629347549914,3.77279111215978],[-72.82777731442201,3.774428565427968],[-72.8216209639167,3.776058324917642],[-72.82254563452835,3.773812391576371],[-72.82009870340971,3.771432729854439],[-72.81601758535635,3.7757376791660135],[-72.81902874163808,3.7784747452320744],[-72.81881914505277,3.7825949132478627],[-72.81352540071003,3.7820791647513374],[-72.81355597219232,3.78426431713973],[-72.81233758971013,3.7834578731946635],[-72.81167915201326,3.7851995776240415],[-72.80612300056185,3.7848709881824334],[-72.80189864926206,3.790079153766328],[-72.79949878995745,3.790920347755673],[-72.80005034985089,3.789979218978317],[-72.79647225331792,3.7887273709765736],[-72.79135163184651,3.7928734927677965],[-72.79338241089908,3.7943581153638775],[-72.79317368540455,3.7962677212619838],[-72.79148102534202,3.7958995902624224],[-72.79216919942587,3.7976585283030886],[-72.79060697672799,3.7973194086385433],[-72.78984043532421,3.7990948120439043],[-72.79450035054265,3.8044693189492023],[-72.79057273473433,3.8059783526569504],[-72.78549224000471,3.802758349524481],[-72.785386583991,3.805697049973901],[-72.78337942209242,3.8042180961529652],[-72.7807502437604,3.8063963734031177],[-72.78210538647181,3.80827894051896],[-72.78013485358201,3.8086302523695963],[-72.78100437087829,3.8094915925194073],[-72.77797558503494,3.8103012328638215],[-72.77680500764637,3.8091410900530605],[-72.77651221828881,3.8145499428247263],[-72.77466938196437,3.814518328501663],[-72.77611537728791,3.8165784562183944],[-72.7750181689886,3.8167389559862954],[-72.77685959326146,3.8184516315971564],[-72.77881682221886,3.81723692065475],[-72.77879010225377,3.819284080739749],[-72.77714074887723,3.8207580620410795],[-72.76933227951343,3.8210196155424683],[-72.7686033410535,3.8231606261495017],[-72.77259230551493,3.8257756047756857],[-72.77032206493476,3.827869620701847],[-72.76609262181603,3.8280219001287037],[-72.76543348580668,3.83232546207131],[-72.7669456727192,3.833767562683022],[-72.76398558580763,3.8344806127345237],[-72.76578616754279,3.837135761297077],[-72.76413950251498,3.8360833509254917],[-72.76419891358239,3.8384255999654897],[-72.75963340938716,3.8412516993287795],[-72.7630467237176,3.844349537888206],[-72.76087558180166,3.8441382268891857],[-72.75843083098118,3.846246029087297],[-72.75475680647219,3.845155972577288],[-72.75207755841609,3.846848072138698],[-72.75102566432264,3.850417552380293],[-72.74897051735303,3.8501431083803936],[-72.74923848216508,3.8521850552902492],[-72.74634157144902,3.852747247222453],[-72.74132354637487,3.8506102341714836],[-72.73959585241789,3.853896084364635],[-72.73535528463646,3.851050563892784],[-72.73339420416181,3.8524900275778577],[-72.73325483271702,3.856690372972423],[-72.73209709337641,3.8552629029839522],[-72.73088405468155,3.856086519862231],[-72.7273869356556,3.8512842517440617],[-72.72622532834265,3.852300042362913],[-72.72506209197678,3.8508149538823773],[-72.72157469378948,3.851259702821153],[-72.7245404319927,3.861205306592126],[-72.72134940625665,3.8627467115565537],[-72.72022613413861,3.8608926826921675],[-72.71988268884479,3.8638925250777447],[-72.72116313474766,3.864552299749903],[-72.7190465949019,3.8660835457591247],[-72.71634076469206,3.866038507175915],[-72.71534028552543,3.8633828762738176],[-72.71456696360008,3.8657242984460254],[-72.71268029505546,3.8635288750022028],[-72.70916859682836,3.865069142509242],[-72.70793278430239,3.861841884743285],[-72.70720002003623,3.8634448461062334],[-72.70634662460486,3.862393616386612],[-72.70704345817472,3.8607504758313667],[-72.70467854740383,3.8600194259788623],[-72.70608837137553,3.858584813457128],[-72.70438713821613,3.859326770970938],[-72.70307979956988,3.8579052731482193],[-72.70304109413564,3.8602879759746997],[-72.69989840725492,3.8569824629890377],[-72.69718077978092,3.8572955692285404],[-72.6971612640557,3.8589285086624727],[-72.69575787710568,3.8563874935653075],[-72.6943077207037,3.8584102168276218],[-72.6946617980363,3.855843267495459],[-72.69256829941673,3.8577434549169993],[-72.69212210243091,3.856069640035173],[-72.69332856732115,3.855841087197348],[-72.69206176987899,3.8544252756332753],[-72.68916767709538,3.860859706711267],[-72.68878106292686,3.858539593868045],[-72.6848668024731,3.8565024035048054],[-72.68437835912545,3.8579893442103526],[-72.68255839947636,3.857713986953513],[-72.68141329249522,3.861005687956151],[-72.67974282108003,3.8587727387017026],[-72.6753717655402,3.8608702451617205],[-72.67375194080529,3.864785496005652],[-72.66650306038565,3.8606622169512548],[-72.66380174503848,3.8626776938075977],[-72.6625014121426,3.8598023423320456],[-72.66095043340675,3.8608540801022286],[-72.65983414852718,3.859622136577002],[-72.65809556336399,3.8476501914829555],[-72.6555987949493,3.8484743338953535],[-72.65451023790848,3.8461485502200503],[-72.65312977082846,3.8475011691335226],[-72.64912291763784,3.847142971860251],[-72.64742084012715,3.8490775833097928],[-72.64798302383178,3.8472619657450196],[-72.64392790069155,3.8461708242281247],[-72.64317664605738,3.847343684759096],[-72.64068322933684,3.844840350767413],[-72.6391420989666,3.846062144593418],[-72.63699601299572,3.844432928121364],[-72.63085934276643,3.8454762480895965],[-72.62811326445859,3.8440561715744366],[-72.6284996194596,3.845773371303892],[-72.62497292962587,3.8455763546274966],[-72.62439884684125,3.848406141985663],[-72.61747641978815,3.8523584188171753],[-72.6150167020437,3.8479684841580593],[-72.61305771547802,3.8481357397648708],[-72.61267115273165,3.8459066420276713],[-72.61448969107317,3.846280985848523],[-72.61448242718365,3.8446147361898397],[-72.609116406986,3.844374930133995],[-72.60951542931349,3.8393368031223645],[-72.60862786079412,3.837980350175201],[-72.60650732236388,3.8392112344046154],[-72.605454567464,3.8357769388182987],[-72.60365283181636,3.8374197091342808],[-72.60292771916255,3.8351499169550607],[-72.59881720925046,3.8369293446560278],[-72.59895241036082,3.8394190384146327],[-72.59647828619359,3.8375778650816983],[-72.59428750616775,3.839089414359819],[-72.59310262622904,3.8366284048915418],[-72.59263945479944,3.8383842226376146],[-72.59049089645276,3.838249952267688],[-72.58900761700261,3.8353064613330616],[-72.58363936611312,3.836421410265814],[-72.58200946881215,3.8317611597750556],[-72.5842755215744,3.8328895072569367],[-72.58461901006274,3.830741939300424],[-72.57987043178633,3.8319884795103007],[-72.57601896803271,3.828458859643831],[-72.57408802812301,3.8300007572322556],[-72.57290287976082,3.8283748235487565],[-72.57164335443571,3.832590954507509],[-72.56665772735778,3.8279061201268405],[-72.56611460377832,3.829683221490825],[-72.56306905020813,3.827880537619194],[-72.56334904368384,3.8241175055239864],[-72.55769966083278,3.8290450410262338],[-72.55498325823379,3.8262660124485706],[-72.5543652568399,3.822664151694255],[-72.55159601697807,3.8243022343692132],[-72.55013826038589,3.820385820356762],[-72.55155771675027,3.818628959770024],[-72.55007768717843,3.817108716038831],[-72.5465455764242,3.815682538802605],[-72.54540858693986,3.817382849449075],[-72.5432410198901,3.8147132862362128],[-72.53412389341673,3.8130809762090507],[-72.53261353301815,3.810939723918068],[-72.53171347920659,3.812244374215595],[-72.53176686771462,3.8088115523874535],[-72.52968396616677,3.811044604486085],[-72.53009617107045,3.808268393840933],[-72.52775282776764,3.8070646779775075],[-72.52650169453347,3.807170307251738],[-72.52683045778184,3.808895278921341],[-72.52474009488355,3.808384122420648],[-72.52515914098689,3.811188956678052],[-72.52238925526319,3.808847664089569],[-72.52260362485026,3.8109978772002933],[-72.5208175801501,3.812034777630288],[-72.52122950017525,3.809437110776969],[-72.51772844427131,3.810186702419628],[-72.51925372839924,3.8083961942789415],[-72.51827739294919,3.8077028584420987],[-72.51648441963181,3.809473101122933],[-72.51496598595946,3.8081007865067704],[-72.51730030776451,3.8061947986694236],[-72.51368395419826,3.799792489965114],[-72.5143475793592,3.798594219704796],[-72.51201374914967,3.798992792602917],[-72.51131115938699,3.8012141955331913],[-72.50729045924629,3.7976123697459343],[-72.50783972674134,3.796196936648755],[-72.50481109619284,3.795151247149022],[-72.50253751214603,3.7921277773249926],[-72.50612381976413,3.790212803985412],[-72.5041471954093,3.789674712575163],[-72.50169831744893,3.78469266961946],[-72.49843230179823,3.7861613081619225],[-72.49763189789604,3.7815421758315324],[-72.49496092057473,3.7848950023152383],[-72.49232887391645,3.7835398421202626],[-72.48927698719723,3.7860303380640516],[-72.48452404009697,3.7818768227995747],[-72.48485923008269,3.780045196498577],[-72.48102217378033,3.7819240067138935],[-72.47778738472977,3.7786529774058977],[-72.4757044235323,3.7815463543934698],[-72.47562788272626,3.7791173377150358],[-72.47431548722813,3.7789335560653967],[-72.47336159753604,3.7813741972295816],[-72.4727588818833,3.7782023858851517],[-72.46919564942999,3.7792195124508225],[-72.47138600573749,3.7766580159209298],[-72.46812074907734,3.777136671581104],[-72.46707536091122,3.776118890926],[-72.46818934516489,3.7753130496482186],[-72.46631210332441,3.774614053263747],[-72.46298597006626,3.7763756621696416],[-72.45771339621274,3.769889997170708],[-72.45434169163815,3.770157694587681],[-72.45390575645177,3.7656517217876058],[-72.4522884657992,3.7667306454073923],[-72.44978620858683,3.764632699802405],[-72.44852751012945,3.766439959214779],[-72.4479473183963,3.7614874109620473],[-72.44552927828488,3.7643009653835406],[-72.44382733858549,3.763723168893023],[-72.44460526279107,3.7663868041632327],[-72.4425299521775,3.767571030012448],[-72.44027992563502,3.764146979770544],[-72.43890631826662,3.767241000751312],[-72.43252786017268,3.7639690232193175],[-72.43021670814915,3.7655561475959303],[-72.42881202844694,3.763642172873972],[-72.42466236572812,3.7649094104895653],[-72.42296781950199,3.7610417909324383],[-72.42048038214631,3.7660217492352217],[-72.42111435833789,3.7620902212315173],[-72.41805478606773,3.762704138680192],[-72.41763451611774,3.759520867400795],[-72.41176021803005,3.7568214906677326],[-72.40974605963709,3.7595740913579903],[-72.40809844638528,3.7582641589797277],[-72.40934203187982,3.756143983589652],[-72.40696118950586,3.7577145212453047],[-72.40583157498281,3.755511247699758],[-72.39969794585807,3.7520090718219308],[-72.39450164541552,3.7518623069038313],[-72.39633259088754,3.7496342612633384],[-72.3938077326224,3.74947230522082],[-72.39321294420455,3.745241311210748],[-72.39053450553274,3.744826521830987],[-72.39105290843935,3.739022559955629],[-72.38884794619122,3.7409883105876816],[-72.38642250437897,3.739448051308216],[-72.38652898726048,3.7378901017889916],[-72.38839025430332,3.7374242245271034],[-72.3865372507961,3.7353342411240646],[-72.3829585084012,3.739859394377106],[-72.38333210248743,3.736272630130543],[-72.37911282655142,3.736401136080133],[-72.37825867315792,3.7348859759403013],[-72.37658023028473,3.736199053295877],[-72.37609226104911,3.7343608614178265],[-72.37310890973936,3.7375080549336985],[-72.37048410948705,3.7367210238696202],[-72.36925571511699,3.7344791487625457],[-72.36434961852746,3.7355734609677143],[-72.36386190743093,3.733040942862658],[-72.36221291606614,3.7365567846846943],[-72.36144340246346,3.7314481219429467],[-72.35846742714347,3.7325360156383454],[-72.3606724582973,3.736891044958327],[-72.3589020520941,3.738063215404395],[-72.35557613480887,3.735185012057741],[-72.35147878279037,3.735120422782245],[-72.35363794746473,3.732431014742474],[-72.35084513364347,3.7313148255080932],[-72.35062387863377,3.7294240545062394],[-72.34705329693026,3.732046245599861],[-72.34766339680033,3.7352377279643747],[-72.34188858407123,3.7348415410528446],[-72.34374954155288,3.73737223264402],[-72.34214026349593,3.7389604955064897],[-72.33891247916745,3.7388399414744526],[-72.33731043928896,3.7441562529313615],[-72.33463273286822,3.743988764896528],[-72.33586114472183,3.7404874415975655],[-72.33312919721419,3.741587562446057],[-72.3335103482961,3.7444898837982237],[-72.33010070447693,3.743052039910083],[-72.33116133518962,3.747020636067475],[-72.32837615549721,3.746032598998454],[-72.32571284727175,3.748238982554142],[-72.32831505572722,3.7501672783381537],[-72.32766613009517,3.7512664849012936],[-72.32553818173659,3.7506497937430936],[-72.32380582584966,3.7462640726130303],[-72.32176132840237,3.748936634764277],[-72.31416914152874,3.746748526632132],[-72.31387217360924,3.748443865787408],[-72.3099499087873,3.7496923189003724],[-72.30820343958374,3.754586749866405],[-72.30302218319832,3.75268421759597],[-72.30234384925251,3.7566254911209285],[-72.29878113307734,3.755830678860775],[-72.29677344564465,3.75749424119914],[-72.29761331294316,3.7543340450844767],[-72.29638442800598,3.7535462817693315],[-72.29490508749069,3.7564650602586767]]]}}]}