{"type":"FeatureCollection","features":[{"type":"Feature","properties":{"code":"507021"},"geometry":{"type":"Polygon","coordinates":[[[-73.69198904443545,3.685074626501944],[-73.69324257188379,3.6876496491078683],[-73.69452987235604,3.6846281302393322],[-73.7033872780126,3.687369188719231],[-73.69981877787671,3.689999195975986],[-73.70184021558589,3.6913344609503724],[-73.70683058789757,3.7013914388754756],[-73.70693455623712,3.7112941380814846],[-73.7049203639055,3.712591642760401],[-73.70637139859741,3.7151615406372116],[-73.70327630803638,3.712787506552729],[-73.70147422888897,3.7169720293591126],[-73.6959271760685,3.7162575065779606],[-73.68270077895625,3.706564258946912],[-73.68927744466299,3.6875716396859275],[-73.69198904443545,3.685074626501944]]]}}]}