{"type":"FeatureCollection","features":[{"type":"Feature","properties":{"code":"190001"},"geometry":{"type":"Polygon","coordinates":[[[-76.55591308173382,2.493078904313336],[-76.56286173407119,2.4825079498982063],[-76.56102155215683,2.478618162262592],[-76.55942761846234,2.4797689123078612],[-76.55782081586659,2.47759264566281],[-76.55345516376377,2.4762608640232315],[-76.55526148317972,2.4723760838742237],[-76.55727580200977,2.4728458486488307],[-76.55952614428406,2.4707550805441656],[-76.56725578147194,2.4748766431280274],[-76.57040452793598,2.4729188783520613],[-76.56985037431053,2.4760821618511386],[-76.57918560156043,2.4665152131320838],[-76.57531633958058,2.4659530736504394],[-76.57866283805748,2.46400781473551],[-76.5785848461191,2.4622720516185836],[-76.58163157417061,2.4625314371630793],[-76.58545450378654,2.4599211029832873],[-76.58847858244849,2.464574771441903],[-76.58709201156216,2.4661574796863306],[-76.58845566257855,2.4717052812129623],[-76.59090265848903,2.4750722744923905],[-76.59540495563556,2.474729338277598],[-76.59158752613024,2.4761468364873735],[-76.59046822791407,2.478965732639324],[-76.58835277410361,2.4798618639711094],[-76.58706196355706,2.4842281485661033],[-76.59238614876995,2.4867231871403987],[-76.58869039327055,2.48756568622332],[-76.58688194497859,2.490896837252535],[-76.58497375010364,2.4902919567282424],[-76.57817287055803,2.493516594022651],[-76.580385824833,2.4965383751440413],[-76.57736809474676,2.494376851222512],[-76.56964781535737,2.497240229570309],[-76.55936232881749,2.4929689185566417],[-76.5577532718757,2.4948265490266976],[-76.55591308173382,2.493078904313336]]]}}]}