{"type":"FeatureCollection","features":[{"type":"Feature","properties":{"code":"190008"},"geometry":{"type":"Polygon","coordinates":[[[-76.58911220177049,2.5525336846556],[-76.58734944717963,2.5506356333092413],[-76.58133740567166,2.550616910513156],[-76.5807583339124,2.5482818389734803],[-76.57840758890876,2.549734613790122],[-76.5734492494962,2.5455043962541595],[-76.57346450849786,2.5466834336108946],[-76.5726321303178,2.542510861306596],[-76.57084663583441,2.5414464037592666],[-76.56951175241215,2.5433799733964975],[-76.56915267582048,2.541897891053452],[-76.56671135382732,2.5421716028022843],[-76.567528164473,2.5401287261803986],[-76.56508699674623,2.5399909827600595],[-76.56350701593135,2.5363905865079346],[-76.56006660316899,2.5364468700816474],[-76.55969941936496,2.538454876331514],[-76.55412270009163,2.532113321840484],[-76.5441284479042,2.5299473663602043],[-76.54404443649173,2.521163645524723],[-76.54008434555396,2.517086345050018],[-76.53372892045871,2.5161042019850584],[-76.53161483550525,2.513435585967727],[-76.52500085379017,2.5101818149536257],[-76.50965741803753,2.5071632569710687],[-76.50742147087317,2.5057532530219646],[-76.50784118135039,2.502016397874172],[-76.5049268385336,2.499622096273015],[-76.50218780094326,2.499828316481512],[-76.50230239206559,2.497402002550018],[-76.50008902847048,2.4983245288590865],[-76.4953739763917,2.4939529488136145],[-76.49039974034315,2.4937150206937986],[-76.48643961443832,2.485158527033775],[-76.47921399944539,2.475587154983373],[-76.46453574900102,2.4669335701789237],[-76.46251904212744,2.4619761049424937],[-76.47452399199881,2.4629545415006078],[-76.48781959403658,2.456883239077797],[-76.50183725219699,2.4576186711238392],[-76.51029845448704,2.452760466017139],[-76.51958987008561,2.4509699578764526],[-76.54193091306786,2.4642919168391018],[-76.55515880759242,2.4852173333769656],[-76.55882894150335,2.487527343829356],[-76.55592971062094,2.4935965348596483],[-76.55817703030266,2.494904803217935],[-76.55936232881749,2.4929689185566417],[-76.56964781535737,2.497240229570309],[-76.57228790546452,2.496380242850819],[-76.57987663677136,2.5043173446626383],[-76.58964437038026,2.5100265581856434],[-76.59594253179608,2.523658761232241],[-76.61358809498915,2.5334914193889517],[-76.6252436757378,2.5493443033992094],[-76.63375138831225,2.5547358505685906],[-76.63476393110966,2.5578629421469827],[-76.63106068237806,2.559059166835084],[-76.63155638858677,2.5621764090195143],[-76.62870248527997,2.5626444922905876],[-76.62718417913447,2.5589300222226825],[-76.62382693240482,2.558773943729193],[-76.62318689045924,2.5570555119255687],[-76.6255511882784,2.5553856256941003],[-76.6235137140651,2.5544246006678577],[-76.62319426644899,2.5520868418078635],[-76.6200046023709,2.551610866268902],[-76.61876074948128,2.5538944971706314],[-76.61828067251355,2.55102023995795],[-76.61623560633751,2.552625786825388],[-76.61575565895356,2.5497035435132034],[-76.61197068915101,2.551197670975057],[-76.61086428657558,2.5492834967352564],[-76.60854531324668,2.5499535352637395],[-76.60838529376144,2.5479074087634785],[-76.60693513941635,2.5485230138863812],[-76.60717124719292,2.5514960427185542],[-76.59977038970851,2.5505505111788125],[-76.5988017398094,2.552954531561795],[-76.59788621102325,2.551517411697205],[-76.59470448960673,2.55402852688502],[-76.5913094794962,2.5527736110392425],[-76.59059982433342,2.550898006479258],[-76.58911220177049,2.5525336846556]]]}}]}