{"type":"FeatureCollection","features":[{"type":"Feature","properties":{"code":"190530"},"geometry":{"type":"Polygon","coordinates":[[[-76.52047272113919,2.627135711970311],[-76.52212654001312,2.6240481835471314],[-76.52381985005132,2.624930329089125],[-76.52945099655966,2.6328667654986475],[-76.53167139367315,2.633263322649441],[-76.53279989233607,2.637129341950015],[-76.53602987856004,2.6371722269745987],[-76.54029576762474,2.641923282769085],[-76.53925183779012,2.646928200343325],[-76.53556808215808,2.647709951383547],[-76.53589982583287,2.6540018866083415],[-76.53427013524885,2.6568376574451236],[-76.53153680962828,2.649444458772166],[-76.52836420638306,2.6447575284256004],[-76.52655539607935,2.6448857762361513],[-76.52429358564251,2.638147450678332],[-76.52309053929514,2.63887620196175],[-76.52004918794108,2.6358130435125418],[-76.51990869549394,2.631564631799961],[-76.51759323738156,2.6311342409471763],[-76.51430900492852,2.626891946410751],[-76.51457964883332,2.624975053997389],[-76.51653584420592,2.6244147996508786],[-76.52047272113919,2.627135711970311]]]}}]}