{"type":"FeatureCollection","features":[{"type":"Feature","properties":{"code":"190537"},"geometry":{"type":"Polygon","coordinates":[[[-76.51396602963297,2.6994447618976096],[-76.51619548012593,2.698225033184201],[-76.51616501148789,2.693613060870632],[-76.51325778755023,2.691982829325866],[-76.50848186915783,2.6817975480543055],[-76.50498710320835,2.665082116502731],[-76.49831096242741,2.658875446361833],[-76.4964725802875,2.652935566551605],[-76.4940232971208,2.6505922664433683],[-76.49564892947063,2.649982640685323],[-76.49814413670958,2.6526854195062697],[-76.50077632323598,2.648487875589126],[-76.50583442260131,2.6485541196286135],[-76.50726858877903,2.6463194559605085],[-76.5114572932327,2.6450502797307536],[-76.51237324368026,2.642862852427527],[-76.50821543878209,2.6405182245999868],[-76.49935745308392,2.6299100138261906],[-76.50158422345567,2.6150544712044734],[-76.50668832814017,2.614964712855226],[-76.5076426826883,2.617276778135704],[-76.50922271595374,2.6155101452881127],[-76.51257864422013,2.616249820687983],[-76.51725613552122,2.6200941244247815],[-76.51881972090547,2.624936260117181],[-76.52233579309865,2.6254757039292826],[-76.52047272113919,2.627135711970311],[-76.51653584420592,2.6244147996508786],[-76.51457964883332,2.624975053997389],[-76.51430900492852,2.626891946410751],[-76.51759323738156,2.6311342409471763],[-76.51990869549394,2.631564631799961],[-76.52004918794108,2.6358130435125418],[-76.52309053929514,2.63887620196175],[-76.52429358564251,2.638147450678332],[-76.52655539607935,2.6448857762361513],[-76.52836420638306,2.6447575284256004],[-76.53153680962828,2.649444458772166],[-76.53435205686611,2.656691566156894],[-76.53515819433534,2.6646301334992586],[-76.52801087261446,2.6861608275402205],[-76.5306864789556,2.692491694456578],[-76.52406149496244,2.7003423073379054],[-76.51709727406222,2.7008777906178807],[-76.51396602963297,2.6994447618976096]]]}}]}