{"type":"FeatureCollection","features":[{"type":"Feature","properties":{"code":"190509"},"geometry":{"type":"Polygon","coordinates":[[[-76.6687801404999,2.719406621383712],[-76.66774322258641,2.7174902257081044],[-76.66051838201065,2.7178477411239896],[-76.65145340271516,2.711778795891462],[-76.6496303063164,2.712745196586809],[-76.64416782540962,2.706111733085095],[-76.64274835053334,2.706860092653585],[-76.6385063275057,2.7043694085048173],[-76.6386438652375,2.7001592826219394],[-76.63585870200018,2.6961300608065244],[-76.63319646952556,2.697157172520633],[-76.63044175024368,2.6959364657583365],[-76.62776392349514,2.6904756211035874],[-76.62749693261821,2.685998004520684],[-76.62284986470365,2.6832409157072448],[-76.61834914827335,2.6769847157746653],[-76.61570603248828,2.66228437129962],[-76.62039407869491,2.6608324593462953],[-76.62426874925399,2.6657067894032593],[-76.63785835626834,2.6698359912581395],[-76.6377268338968,2.671573362859192],[-76.63968909708035,2.672358268132598],[-76.65108077845025,2.6700547677214104],[-76.66646732959856,2.6696959646954497],[-76.68221406908486,2.6751622559817747],[-76.69198921467904,2.6746192712420793],[-76.69888804103323,2.6662293225350595],[-76.70483622963053,2.6690224212348994],[-76.70623962789341,2.666207152399693],[-76.72560695298694,2.68666538452527],[-76.72852217923588,2.6883766038615136],[-76.74091373093444,2.689113122971264],[-76.74431446329913,2.6925348242504583],[-76.75111749434643,2.693758380826978],[-76.7603973955026,2.699625025245439],[-76.75929428188635,2.707715227181268],[-76.75543914042231,2.7138036644848285],[-76.75323505337872,2.7215532740264052],[-76.75268261725228,2.728749746043718],[-76.7549814958428,2.7400671059865545],[-76.74834293332304,2.7381227438735323],[-76.74482566813657,2.733390405732905],[-76.73871391604109,2.7345643019054933],[-76.73473118085593,2.732255965757531],[-76.72398214236267,2.7322528125527583],[-76.72217390798676,2.734249696196798],[-76.71705367423823,2.735403996425646],[-76.71728264050995,2.7384132305483035],[-76.7124911597254,2.741502868307066],[-76.7077381437195,2.741906077424062],[-76.70520426395655,2.740255998995508],[-76.70084044556671,2.741667631997643],[-76.699970515865,2.739385620892847],[-76.69755234719827,2.7398245725011634],[-76.69608736991114,2.7369551304562947],[-76.69397417353207,2.7363886715160675],[-76.69241036497579,2.7332688026895084],[-76.6761513490149,2.728468774519172],[-76.67380954837586,2.71914608398356],[-76.67219112026584,2.7198893435055993],[-76.67113894232222,2.718212589335053],[-76.6687801404999,2.719406621383712]]]}}]}