{"type":"FeatureCollection","features":[{"type":"Feature","properties":{"code":"190508"},"geometry":{"type":"Polygon","coordinates":[[[-76.69888804103323,2.6662293225350595],[-76.70051501344363,2.66387178569704],[-76.69305779011017,2.656357444722971],[-76.68115453469193,2.6495121775982398],[-76.67046711738908,2.6399794780718935],[-76.66311555623997,2.6234788295412272],[-76.64539264594197,2.614077650329534],[-76.6435055598497,2.602348896924127],[-76.64098550955327,2.5982273610797506],[-76.63216254129446,2.592201736931429],[-76.62554647595482,2.584592003799969],[-76.62712457986208,2.5782530564107446],[-76.63406010207376,2.5735009012112187],[-76.63563696053717,2.5706486557537573],[-76.63476393110966,2.5578629421469827],[-76.63763632067077,2.5546963830585128],[-76.64517475805309,2.5564420603613485],[-76.64798969058751,2.5601134212041643],[-76.65619978423842,2.5616564120269345],[-76.65719150004634,2.563940672335548],[-76.66567659819827,2.5669826407551],[-76.66842259011696,2.5665856022932303],[-76.6686515131941,2.5643463198897507],[-76.67366419550933,2.5651183408352836],[-76.67737222958397,2.5616180171824112],[-76.68493400027012,2.5625745427726656],[-76.6881150912514,2.560130403875462],[-76.68779521271796,2.5568656994889807],[-76.69476777017314,2.554966501429135],[-76.70028456107252,2.559667861852688],[-76.70441224391777,2.558297821122892],[-76.70710579555242,2.5605639777578517],[-76.7085392459341,2.5592158150857927],[-76.71223984231244,2.5615834214045208],[-76.71967990505402,2.5581298774880565],[-76.72296697086625,2.558126793188933],[-76.72521814309368,2.560693526548164],[-76.72980413694921,2.560394663209081],[-76.73228260422928,2.56233176348951],[-76.73227559025128,2.5672575084733467],[-76.73583120605929,2.567707322491515],[-76.73614325300298,2.5694165775025226],[-76.74265910073296,2.573471425020216],[-76.7500442086486,2.5720456005397523],[-76.75009811343477,2.5697288836137773],[-76.75582052907441,2.5670574836025253],[-76.76055905226832,2.5680466745840818],[-76.7607041881335,2.5697892161656455],[-76.76247377569644,2.5703566223014604],[-76.76914210339953,2.567146173400033],[-76.77207200449476,2.5733110630635565],[-76.77461263186905,2.5740916663619373],[-76.77244548750917,2.579009610609262],[-76.77417772203984,2.5807356168920137],[-76.7733227592621,2.5837705980731016],[-76.77786299051087,2.58699112673969],[-76.77906089978785,2.59062403205985],[-76.7720562281865,2.596710779632417],[-76.77327663464354,2.6025078910521984],[-76.77423859041033,2.6010837912698435],[-76.77642812807761,2.6013765364043593],[-76.77462768415376,2.5979984030356036],[-76.77595558136596,2.59623638892333],[-76.7794267641001,2.595378677118731],[-76.78309693709184,2.596776186519719],[-76.78658237095391,2.5950457702754193],[-76.79401160316735,2.597276512492215],[-76.77858610695773,2.607243872964659],[-76.77693367031054,2.611672189098556],[-76.77582996739676,2.6232972868109528],[-76.76480911668801,2.6692423423546074],[-76.76425574673573,2.680590749948692],[-76.76039931149103,2.6922150783860843],[-76.7603973955026,2.699625025245439],[-76.75111749434643,2.693758380826978],[-76.74431446329913,2.6925348242504583],[-76.74091373093444,2.689113122971264],[-76.72852217923588,2.6883766038615136],[-76.72342061274747,2.685198701052002],[-76.71394812750214,2.673223242798315],[-76.70623962789341,2.666207152399693],[-76.70483622963053,2.6690224212348994],[-76.69888804103323,2.6662293225350595]]]}}]}