{"type":"FeatureCollection","features":[{"type":"Feature","properties":{"code":"190559"},"geometry":{"type":"Polygon","coordinates":[[[-76.81693248409857,2.8498250791458304],[-76.80783859425549,2.8454787103402737],[-76.80277214393686,2.8454514895236684],[-76.79809561731486,2.841642523071812],[-76.7931664363046,2.8343885240938107],[-76.78662818498276,2.8307107529687414],[-76.78243257865137,2.8260896552847043],[-76.77264380413698,2.8263312621434125],[-76.76567801074816,2.820169740629126],[-76.75906216035298,2.8193777555574115],[-76.75912324983864,2.8159164386723887],[-76.75675769320583,2.8166013813898303],[-76.75513327647502,2.8143406528745345],[-76.75378263217118,2.815881033510209],[-76.7515982799111,2.815189487163366],[-76.74842341203549,2.7849448644531662],[-76.74868927265413,2.781482154028538],[-76.75186875617976,2.7790857194375462],[-76.75769899681836,2.77003080345213],[-76.75637972823887,2.7505855429844814],[-76.75426192957951,2.7455239695403293],[-76.7549814958428,2.7400671059865545],[-76.75834518885017,2.739715425953534],[-76.76602860783123,2.742461004438269],[-76.77252142461941,2.7370677911920325],[-76.77466623429314,2.7373447168237135],[-76.77872458879978,2.7276744620820637],[-76.78641502175884,2.7293053158345515],[-76.7917478500026,2.7250873151672863],[-76.79203108307229,2.72295315501583],[-76.79512064164095,2.723533233620344],[-76.79929436991466,2.719609970180727],[-76.80334630488312,2.722137404694422],[-76.81092913498674,2.722415520234108],[-76.82012378545721,2.731416866705615],[-76.8280195233109,2.7355451686732977],[-76.83254445956254,2.734537211701081],[-76.83457351597389,2.737433785088058],[-76.84449952482959,2.733277531081171],[-76.850794248162,2.7242935724872837],[-76.85807954058902,2.719783402613359],[-76.8632451502499,2.7250764486436196],[-76.8564773639277,2.7424803844091343],[-76.85370176520581,2.745658613234866],[-76.85311388792167,2.757124400058899],[-76.86235250636668,2.7778869915203472],[-76.87176768679484,2.7841218738964244],[-76.87254614373364,2.790822054521186],[-76.86862423166752,2.7945404460404006],[-76.87211865411723,2.798822002398481],[-76.87304977923418,2.8035993503259533],[-76.87980963832149,2.807427032374733],[-76.87916876025213,2.811110421881267],[-76.88450948179229,2.814142576902327],[-76.89013231642815,2.8142181180622288],[-76.89275744475356,2.8104728872785927],[-76.89664022972408,2.80881800293821],[-76.91384500862426,2.8118546625374847],[-76.9167295965421,2.817199753929856],[-76.91223561949556,2.8200336519728353],[-76.9110609489058,2.8343068307907515],[-76.91833143073205,2.850768619620851],[-76.90722310893022,2.854440307508412],[-76.90530814381816,2.860240246116689],[-76.90146358194232,2.8637322527549145],[-76.88954800989649,2.8638702471151873],[-76.86532384855315,2.855235312087359],[-76.8507108795261,2.844074156108036],[-76.84534608008977,2.8366363240581904],[-76.83936697239653,2.8334883530397974],[-76.82861431378564,2.8401203458687405],[-76.82636368560429,2.8467339840840395],[-76.81693248409857,2.8498250791458304]]]}}]}