{"type":"FeatureCollection","features":[{"type":"Feature","properties":{"code":"191060"},"geometry":{"type":"Polygon","coordinates":[[[-76.46760071750907,3.183966621178513],[-76.46671719899632,3.1796306992920336],[-76.46269081671068,3.1768219703228624],[-76.46003647547553,3.177277028369417],[-76.45957146519066,3.1753137593691463],[-76.45744538345525,3.175363880515306],[-76.45528117118499,3.1791665364438586],[-76.45691122172389,3.1803745542823094],[-76.45484078181408,3.179968290691022],[-76.4562544449617,3.1823358198765845],[-76.45574379651163,3.1827619426928777],[-76.45365198350936,3.1798454123788815],[-76.45731575444643,3.1754767541386286],[-76.45077641503246,3.1710563158744094],[-76.44968351693575,3.1645963670806623],[-76.45334326357721,3.167190780970259],[-76.4579923091867,3.1654366570689945],[-76.45737977807858,3.1703224480893937],[-76.45908821856312,3.1680296805043326],[-76.45787616922996,3.1701836967954478],[-76.4625590773378,3.1735193770854835],[-76.46406600479526,3.172626620073629],[-76.46539717451157,3.173827508748559],[-76.46365748685798,3.174147887105107],[-76.47041070940571,3.1789150750489057],[-76.46760071750907,3.183966621178513]]]}}]}