{"type":"FeatureCollection","features":[{"type":"Feature","properties":{"code":"191079"},"geometry":{"type":"Polygon","coordinates":[[[-76.3940197690647,3.1300030965362566],[-76.39471875207943,3.125804150851991],[-76.40615806473613,3.117054630872474],[-76.40997272978797,3.111583981046749],[-76.41161637839383,3.095165759098677],[-76.41771170420543,3.0787014423568735],[-76.4214643922258,3.083903506191291],[-76.42399748831554,3.091708563182806],[-76.42777341090925,3.0954009052814513],[-76.43091800349401,3.1017237873700765],[-76.43113076973913,3.114527009182268],[-76.43358154311903,3.1224373951427538],[-76.44386197486398,3.1315142220960865],[-76.45343716449298,3.145646789167529],[-76.45834431112229,3.1561828989217133],[-76.4597236325173,3.166342018672424],[-76.4558964934862,3.1631362759239323],[-76.4476798250023,3.1605314130583793],[-76.44333836700974,3.156147355948235],[-76.44028397500455,3.160598328670858],[-76.43390044154683,3.158229820407996],[-76.4262769838499,3.159319666087299],[-76.41128451953347,3.1697332379438308],[-76.41018202195431,3.1605941017720625],[-76.39602006919472,3.1379613061023406],[-76.4001390956393,3.13633199501362],[-76.39878205545148,3.132384239215412],[-76.3940197690647,3.1300030965362566]]]}}]}