{"type":"FeatureCollection","features":[{"type":"Feature","properties":{"code":"191077"},"geometry":{"type":"Polygon","coordinates":[[[-76.2979740734865,3.015335496144303],[-76.30160979879611,3.0187221666144524],[-76.302098379955,3.003632688286757],[-76.31131447550888,2.997258596959796],[-76.31239122808643,2.992858357306659],[-76.32247739321025,2.9913276789977203],[-76.32545233288863,2.9897183927132573],[-76.3257888156266,2.987620137547026],[-76.33026718091565,2.987265542907892],[-76.33173963806519,2.9845452281136318],[-76.33878950148767,2.980579751222365],[-76.34079555266834,2.976790516468725],[-76.33991804025987,2.9742387479765853],[-76.34474050493219,2.9669807175038727],[-76.34423722424435,2.962978414142981],[-76.34876120507289,2.95983176158785],[-76.34833399930659,2.956366982965278],[-76.3612126326949,2.944298316966126],[-76.36741671938819,2.934979815276904],[-76.37500691622557,2.9363698972660472],[-76.38282096900383,2.9303885126010982],[-76.38593344744248,2.933240074144294],[-76.39263224069833,2.93448705349914],[-76.39534832550856,2.9310699904957005],[-76.40389319571125,2.9266804096208148],[-76.40997417783501,2.919472415961991],[-76.4202814334177,2.9271825106850997],[-76.4164904153447,2.9404347906102544],[-76.41372083918219,2.9449997692713623],[-76.41403278225323,2.9478874425167305],[-76.41610105317778,2.9505229797088646],[-76.42218214843024,2.952817295099976],[-76.42431805693394,2.9551810159628644],[-76.42547764849951,2.9544407481801045],[-76.4252789246085,2.9558948496875814],[-76.42900253753044,2.956048509284301],[-76.43393913566814,2.964197337585915],[-76.43685333141764,2.9641804413037676],[-76.43526680970831,2.966381974724584],[-76.43515168482435,2.9767936357348503],[-76.43382408894576,2.978332403772697],[-76.43547263190959,2.981691718700233],[-76.42968180118828,2.9883014097531486],[-76.4261874908388,2.9843238085530857],[-76.41877050429042,2.995165089084253],[-76.42234985860864,2.9998187143482937],[-76.4206098603654,3.0027187165625833],[-76.42141075483465,3.005842904847782],[-76.41858815320433,3.01035023004971],[-76.41853431835221,3.017559621361954],[-76.42810281076356,3.036107722055249],[-76.4347397380597,3.038690069228778],[-76.44386553327507,3.045933772468743],[-76.44323951002951,3.0473582764289517],[-76.42930655336647,3.0466295004629274],[-76.41169968223784,3.038483915869051],[-76.41307298930104,3.0373962443172218],[-76.41127732557806,3.0279765274290753],[-76.41223250082328,3.022741225360903],[-76.40878024760218,3.0231405953019816],[-76.40884775662602,3.0218309560298167],[-76.40687181104323,3.022466331931639],[-76.40399204652084,3.0358273274869703],[-76.3940881656344,3.038233599130649],[-76.3671787789271,3.0626203058139936],[-76.35221063521931,3.0697266656978286],[-76.34546452949382,3.0593377579498338],[-76.34008729104517,3.055173649727408],[-76.3181567488374,3.0501658525141124],[-76.31319235189835,3.0476660913317346],[-76.30285986347849,3.0285209766709613],[-76.2980735146221,3.022497387810347],[-76.2979740734865,3.015335496144303]]]}}]}