{"type":"FeatureCollection","features":[{"type":"Feature","properties":{"code":"191527"},"geometry":{"type":"Polygon","coordinates":[[[-76.22939460658989,3.2768840980052687],[-76.21856988809702,3.2684175066764283],[-76.23075669848743,3.2684174223441573],[-76.23853484113823,3.2666004503205954],[-76.24916788468511,3.268231194029738],[-76.26064533610418,3.2650857149275225],[-76.2638736809339,3.2631213228680167],[-76.26951644472894,3.254806279743434],[-76.27489194305281,3.2510611065525836],[-76.2829348016657,3.2497612745082733],[-76.30578545848488,3.253532947577469],[-76.32510844022232,3.240022246786907],[-76.33166668240983,3.2394096858539],[-76.33603371365405,3.235442397875431],[-76.34305355786785,3.2351954225467807],[-76.343648063464,3.240312373506754],[-76.34805121360944,3.2414374052899575],[-76.35913730459777,3.2383664070234204],[-76.36434049046301,3.2403939464820155],[-76.36950314540854,3.2389889315075493],[-76.36923874723516,3.2426542533358997],[-76.37131326389118,3.243072817099744],[-76.3685758203867,3.246631344428522],[-76.36596466653822,3.2463007742065884],[-76.36574267927745,3.250221538530866],[-76.36036969035331,3.2560786472303107],[-76.35865305832408,3.2559744053250483],[-76.36757523734741,3.2621755876966745],[-76.3511602786474,3.2858473519942777],[-76.34422323948297,3.282813801376733],[-76.3430299139743,3.2799898637995852],[-76.33841502088399,3.2822019181873543],[-76.33503456117825,3.2804179828228257],[-76.32718414575788,3.2825879451152105],[-76.3225909312074,3.279938371739547],[-76.31495380036722,3.2826792029336502],[-76.31148946808872,3.280335652913891],[-76.30917039705781,3.283344482858638],[-76.30734638945898,3.283222094085147],[-76.30687320408452,3.2857486060858605],[-76.29372775156918,3.285418361880261],[-76.29253021355998,3.2865703275445526],[-76.28942488793905,3.285467545086817],[-76.28668590074233,3.281860178051261],[-76.28432072360482,3.2834684132674283],[-76.27986416746779,3.2830505827831757],[-76.27974316503486,3.2810492367270854],[-76.27678236438419,3.2792479319968493],[-76.27669008018006,3.2765894142565912],[-76.27466080059673,3.2757282036905053],[-76.26642063528658,3.2786868168439582],[-76.26284267553643,3.2821833146906556],[-76.25930288025967,3.2802142288194887],[-76.25857001314927,3.281071493251602],[-76.25821154128187,3.279424957807578],[-76.25099397282315,3.2792443314195907],[-76.24637752884149,3.2764480517470815],[-76.24100660605836,3.277573314929839],[-76.2378707511213,3.275476170481568],[-76.23340784538016,3.2774532884888004],[-76.22939460658989,3.2768840980052687]]]}}]}