{"type":"FeatureCollection","features":[{"type":"Feature","properties":{"code":"192087"},"geometry":{"type":"Polygon","coordinates":[[[-76.27814809593974,2.5621857318509456],[-76.29452406432699,2.55540771766789],[-76.2952714252778,2.5517425182241595],[-76.29279848896164,2.5523660588094685],[-76.29322586647783,2.550015805401358],[-76.29589704948768,2.5449722070755456],[-76.30842480297122,2.532149382120508],[-76.3099049364157,2.5245787184919095],[-76.32005936132634,2.5203680074251906],[-76.32598005862673,2.522098631414906],[-76.32810965249337,2.5262606590980567],[-76.33689868009219,2.5336519788065175],[-76.33896627944381,2.5323018497524004],[-76.34262853342813,2.5331929777113373],[-76.34336864591609,2.5301708613176856],[-76.35243202186967,2.5436067933086974],[-76.35787991740466,2.540994244892147],[-76.36907213749026,2.5402556041054822],[-76.3781899540486,2.5348038416265695],[-76.3951359634413,2.5330292805156205],[-76.40191861281482,2.537571271429556],[-76.401247095386,2.5428869894751642],[-76.40269652673595,2.5458509947527546],[-76.40778555342473,2.548126828003319],[-76.41305817767193,2.5475158148763057],[-76.42154906698369,2.5503698673073245],[-76.42760058114396,2.5564328486016734],[-76.42932357100483,2.5564280755999675],[-76.43815910991657,2.5670619562990282],[-76.44028834177146,2.5661287876667984],[-76.43971581913416,2.578227387513948],[-76.44307248787914,2.5838927893856294],[-76.44233254611265,2.5913918312488704],[-76.44564433259768,2.594691924342442],[-76.45240353553862,2.595389369835573],[-76.45798101380251,2.6015882690647913],[-76.46711336636741,2.601546995609624],[-76.47298887081814,2.6052484383961314],[-76.47530845812724,2.603552314539172],[-76.48352485098854,2.60342230912039],[-76.48421968526617,2.6005644833338124],[-76.4902846751088,2.603041734994804],[-76.49469531642956,2.6027708319224985],[-76.4987922982088,2.6075435024933995],[-76.49886131492934,2.611432035429118],[-76.50163805110867,2.6152715455953626],[-76.49925568972509,2.6296012445287715],[-76.49335461510799,2.627867069327067],[-76.49081458525876,2.624985688093034],[-76.47979846230032,2.621822264725779],[-76.47941409425027,2.6176434888561744],[-76.47545751132992,2.614822155295485],[-76.46853125024313,2.61465294564789],[-76.45253742847012,2.609172034022663],[-76.4465277009578,2.611596364088541],[-76.44177344773556,2.603698313267614],[-76.43059344554706,2.6003429455024047],[-76.42298002853448,2.6010567792271218],[-76.41845867331966,2.6032077616127935],[-76.39538205122409,2.6024776455861343],[-76.385744483471,2.607907419963965],[-76.38469845047143,2.6051940163034146],[-76.38092493649009,2.6079765354149913],[-76.37885574202414,2.6079481565721494],[-76.37873548829731,2.6057863817106295],[-76.37722155611789,2.605790007998962],[-76.37509448090697,2.608722654007238],[-76.37725054585559,2.610256047404448],[-76.37278576217841,2.6130393141937702],[-76.3685526074106,2.6135658037439384],[-76.36587096822569,2.6216019003472866],[-76.35920734359019,2.625426188535755],[-76.3480246725934,2.627094481709719],[-76.34454436346033,2.63118084173459],[-76.33671053990315,2.6345516885881466],[-76.32356696429537,2.6300431004587494],[-76.31293778460702,2.6305991834424276],[-76.30930298386733,2.628346623846028],[-76.29839536262301,2.6269333731038387],[-76.29168562879562,2.621865951935547],[-76.2899396007939,2.6090090649643116],[-76.28136807953177,2.5986185487321904],[-76.27520398176898,2.587712844504722],[-76.27520398176898,2.573962179278169],[-76.27814809593974,2.5621857318509456]]]}}]}