{"type":"FeatureCollection","features":[{"type":"Feature","properties":{"code":"192047"},"geometry":{"type":"Polygon","coordinates":[[[-76.36654288160486,2.7729274364887146],[-76.36755959987886,2.782915803928063],[-76.37172676257558,2.791597644162266],[-76.39127446825938,2.7982524262489505],[-76.3956197623425,2.8060709928614074],[-76.40549292159403,2.8066468980461536],[-76.40979225046726,2.800336329499828],[-76.41243577454401,2.8003378515947475],[-76.4160672750117,2.8063206843067974],[-76.42432575174087,2.8109770791664914],[-76.42895162345508,2.811644194861344],[-76.43655384484242,2.807993489258081],[-76.44349641085688,2.802016473416927],[-76.44680457825268,2.795040654770446],[-76.46193476850596,2.7758699874269155],[-76.46895510842904,2.773787186666425],[-76.4758943021805,2.7737907594757303],[-76.4775459767518,2.774788406311643],[-76.47952274611703,2.7864188529536023],[-76.48302045135529,2.792792181176196],[-76.48094862099111,2.791449051701818],[-76.48219815191186,2.79462158295604],[-76.48149885933594,2.8014418969798953],[-76.4823129024428,2.798862252553306],[-76.48448446807703,2.8017995378658043],[-76.48510061724602,2.7994345170515658],[-76.48545063325906,2.8008459052843477],[-76.48866824217731,2.8001784080373113],[-76.49073825116972,2.7979882101099633],[-76.49233820948052,2.809527032807864],[-76.49666954657022,2.8166736870695672],[-76.50180533756878,2.818323579349965],[-76.51105097513397,2.8183951908309837],[-76.52992708317043,2.83302186693993],[-76.53616374063824,2.8354569174906032],[-76.55242712130917,2.850234203864204],[-76.5732775942123,2.860434681402353],[-76.57740405115408,2.8644628768321923],[-76.57696480746807,2.8667230057654933],[-76.57285325471531,2.869661319520503],[-76.5726622955653,2.8743647820805336],[-76.5688699333179,2.8800025754128455],[-76.56467347543611,2.881605252925624],[-76.56265165617475,2.8800099246630566],[-76.56062202177873,2.8832368132181614],[-76.55927920083712,2.881761608070235],[-76.55964529860586,2.88515009785516],[-76.55781415464435,2.882063305796862],[-76.55642582100756,2.8842510951118356],[-76.55506002877382,2.8813990687125965],[-76.55319870928042,2.8828654333686927],[-76.55421300145855,2.884821474474961],[-76.55186376415162,2.8862582230717635],[-76.54712519776308,2.881005363432905],[-76.5415409132666,2.88125310495127],[-76.54288376917526,2.8801798850736873],[-76.54169286564871,2.8785046488843022],[-76.53384913716161,2.8828359047270737],[-76.53489523186772,2.8793276970338297],[-76.5318208387124,2.8784326486519944],[-76.53036275404708,2.8736154053823384],[-76.52791415170935,2.871243231750384],[-76.52498418890758,2.871636299395732],[-76.52137526275317,2.867248666390992],[-76.51958185029082,2.867758720401241],[-76.51719435697913,2.8623803259832243],[-76.51237240755648,2.860324032300241],[-76.50967944213409,2.8566857070879905],[-76.49631243430383,2.854457756064164],[-76.49435111214518,2.8557725036103534],[-76.49161222676435,2.851933474755242],[-76.48556178218428,2.8517545710084846],[-76.47859619551241,2.845176132266829],[-76.47578023042166,2.844849662445256],[-76.46917288216082,2.847723522679132],[-76.46622759042333,2.8517076184937196],[-76.46632712823248,2.8569056693454513],[-76.45962141458693,2.864823646240211],[-76.45395952176108,2.86950533564368],[-76.45132776615208,2.8694191099944533],[-76.44947353879826,2.872143939651437],[-76.44774911014633,2.8718976965738534],[-76.44902298224457,2.8737002076671274],[-76.44833597132919,2.875940205866584],[-76.43776938573791,2.8778394964862173],[-76.43480125126365,2.8801341317229685],[-76.43242059092398,2.8793155213028854],[-76.43133008601302,2.8813009347274487],[-76.42907927579739,2.8795187590280875],[-76.42348618577603,2.879587311921057],[-76.42143426091684,2.8818971279977745],[-76.42269350136343,2.8836770555218436],[-76.42021403546568,2.8845962805303884],[-76.41687213412683,2.8915533630110417],[-76.41510903500773,2.8901303400080565],[-76.41168384730838,2.8914225739190442],[-76.40647968750812,2.889622198900838],[-76.39675190169197,2.8930396228876134],[-76.39213652523364,2.8973909292457165],[-76.38380499103329,2.9117135164991623],[-76.37715968810124,2.9187169642539175],[-76.37711377019968,2.9220497484498082],[-76.37056776442131,2.9229498721954883],[-76.36526405755586,2.9185257222821974],[-76.3602291629391,2.9175255259372648],[-76.36342529797759,2.9088408955385034],[-76.36317407518129,2.904327830598845],[-76.36556910903357,2.900117698545273],[-76.36414327632559,2.8952518058306964],[-76.36802695706956,2.8816782600031843],[-76.36755380769063,2.8778421426688396],[-76.36078604707944,2.870670356357323],[-76.36913300483229,2.8382669052734286],[-76.36866056199335,2.829536960668861],[-76.36225085158821,2.8144643601113444],[-76.361541455593,2.8053753831381414],[-76.3627698839017,2.7873330365369497],[-76.36654288160486,2.7729274364887146]]]}}]}