{"type":"FeatureCollection","features":[{"type":"Feature","properties":{"code":"192027"},"geometry":{"type":"Polygon","coordinates":[[[-76.31427519902633,2.9917322497726104],[-76.31431275054803,2.9895297691562064],[-76.31214682900628,2.9886313351416334],[-76.31174189724806,2.985661684743093],[-76.3080803755148,2.98193636666349],[-76.30764520857497,2.9788050533285286],[-76.30537953427961,2.9775086665666777],[-76.30698152273595,2.976090666476921],[-76.30527208671901,2.9736055739701897],[-76.3079886374137,2.9667661751385026],[-76.30818745180767,2.9573478764726246],[-76.31183429972305,2.9528714755087435],[-76.31224658278842,2.9451674455111743],[-76.32038399949181,2.9300468567972757],[-76.32046185876112,2.917771955162948],[-76.32960158525884,2.900012964016071],[-76.33031092468974,2.8864634014680632],[-76.32906470329704,2.880634574937858],[-76.33374253295574,2.8684692939631873],[-76.3334491172767,2.8542124241866986],[-76.33588602005238,2.843867336317487],[-76.3309312513922,2.833027310486216],[-76.33080709369762,2.817407838704696],[-76.32823331962089,2.8121898792626894],[-76.32767083458259,2.804034780547056],[-76.32397089846438,2.791740984366754],[-76.32771819333209,2.781561351301548],[-76.33123719247271,2.7765767331257507],[-76.33014542052052,2.771640995794428],[-76.33267888787805,2.763125498938507],[-76.33595184654422,2.7583688371038875],[-76.33588277943,2.7483104790089214],[-76.33708045422202,2.7474770477036827],[-76.34371884704876,2.7500210607107647],[-76.34867017248337,2.748628720261877],[-76.35162326187202,2.7502700949813743],[-76.35955003606409,2.7656894503606964],[-76.36695851122221,2.772171978609947],[-76.3627698839017,2.7873330365369497],[-76.361541455593,2.8053753831381414],[-76.36225085158821,2.8144643601113444],[-76.36866056199335,2.829536960668861],[-76.36913300483229,2.8382669052734286],[-76.36078604707944,2.870670356357323],[-76.36755380769063,2.8778421426688396],[-76.36802695706956,2.8816782600031843],[-76.36414327632559,2.8952518058306964],[-76.36556910903357,2.900117698545273],[-76.36317407518129,2.904327830598845],[-76.36342529797759,2.9088408955385034],[-76.3602291629391,2.9175255259372648],[-76.36526405755586,2.9185257222821974],[-76.37577779971372,2.9261944479050044],[-76.37797592076225,2.929525844731984],[-76.38282752635331,2.9307027562980466],[-76.37500691622557,2.9363698972660472],[-76.36741671938819,2.934979815276904],[-76.3612126326949,2.944298316966126],[-76.35352212157426,2.9501801031437935],[-76.35353003338253,2.9518349278345113],[-76.34760908411374,2.957700858513874],[-76.34798348758426,2.9610966481838545],[-76.34423722424435,2.962978414142981],[-76.34474050493219,2.9669807175038727],[-76.33978850792465,2.9746054669245723],[-76.34079555266834,2.976790516468725],[-76.33617270560353,2.983029653511494],[-76.33173963806519,2.9845452281136318],[-76.33016816864063,2.9873112530640924],[-76.3257888156266,2.987620137547026],[-76.32545233288863,2.9897183927132573],[-76.32247739321025,2.9913276789977203],[-76.31427519902633,2.9917322497726104]]]}}]}