{"type":"FeatureCollection","features":[{"type":"Feature","properties":{"code":"192048"},"geometry":{"type":"Polygon","coordinates":[[[-76.61124519700189,2.8755649313052913],[-76.60736193072029,2.8702985013673583],[-76.59680956951746,2.865186927104844],[-76.59305607725508,2.864297419971308],[-76.59166014548492,2.8660494900728395],[-76.5836794469663,2.8626333835209152],[-76.57696563125057,2.864558519929517],[-76.56928575731087,2.85798891756599],[-76.55242712130917,2.850234203864204],[-76.53616374063824,2.8354569174906032],[-76.52992708317043,2.83302186693993],[-76.51105097513397,2.8183951908309837],[-76.50180533756878,2.818323579349965],[-76.49666954657022,2.8166736870695672],[-76.49246801332458,2.809919800148009],[-76.49104109560977,2.7987185184553596],[-76.4871192555346,2.7890065336300154],[-76.48690648517567,2.7846122825976636],[-76.49099414103813,2.771681699492433],[-76.48894284250048,2.7623061254141135],[-76.4859718695248,2.757153434019642],[-76.4930827442713,2.761308892012039],[-76.50622032611608,2.777834093579372],[-76.52023592841988,2.7862991689839305],[-76.54169727869555,2.794621905887027],[-76.54747071228326,2.8034548520951716],[-76.55223086876555,2.797956601957594],[-76.5523365515188,2.793539191428124],[-76.55772327734962,2.7993003639240897],[-76.56019550506892,2.806577774367611],[-76.56436123000299,2.8102799555758224],[-76.56999992733626,2.8237340766012267],[-76.57313476514372,2.82762455637868],[-76.57637048493473,2.827072082199834],[-76.57691166064404,2.828666178388289],[-76.57961292456912,2.82916812312925],[-76.58100070696077,2.835847065387611],[-76.58522818575432,2.8401291195118574],[-76.59172143448836,2.8434326434896775],[-76.59637469568372,2.848620292673729],[-76.59962509752012,2.8480395157567955],[-76.60180714092678,2.85094835949144],[-76.60728536420322,2.851390368659338],[-76.61013918317775,2.8556876149364143],[-76.61310717058473,2.8557363065474988],[-76.61923398524937,2.862140226821225],[-76.62567249204506,2.8651575784406873],[-76.62833559252516,2.868662882840681],[-76.62776371574978,2.870571333797841],[-76.63115058676618,2.871907667324024],[-76.62741185265395,2.876193221238168],[-76.62532201528978,2.8757842991229836],[-76.62319277623578,2.8782827654962375],[-76.61124519700189,2.8755649313052913]]]}}]}