{"type":"FeatureCollection","features":[{"type":"Feature","properties":{"code":"192029"},"geometry":{"type":"Polygon","coordinates":[[[-76.21673081587221,2.8174315381340875],[-76.2188206100418,2.8112486219300195],[-76.23268402342171,2.8069184438950288],[-76.23894789862078,2.7954508994627645],[-76.24039801388506,2.785944894190436],[-76.24577645869675,2.781626423945056],[-76.24453357974227,2.7779418537865013],[-76.24701346010232,2.7729091878046574],[-76.25068251209171,2.771242308739147],[-76.25668699043342,2.7733879041429645],[-76.25751889450146,2.7700144944106455],[-76.26118915285394,2.766565636078326],[-76.2668807563557,2.7660100704012507],[-76.26990971394895,2.774887434013351],[-76.27383808771947,2.777025317126686],[-76.27567042981644,2.780234987497124],[-76.28233086319477,2.7833343687203183],[-76.28639742878653,2.7772593844732683],[-76.28642051217884,2.7696511703514375],[-76.2930422236679,2.761589038725674],[-76.30878299921608,2.7612874613268446],[-76.32367635149853,2.769667801295384],[-76.32839024966484,2.775913097680416],[-76.32886562459339,2.7801109799551114],[-76.32394665807419,2.794598564355624],[-76.33080709369762,2.817407838704696],[-76.33104475853611,2.833506173891749],[-76.33588665871514,2.843597522365826],[-76.32800204758104,2.8413783172172202],[-76.31977616836593,2.8293172647780125],[-76.31783904134608,2.823425950080434],[-76.29180905115385,2.8091794737439955],[-76.28114519341227,2.8129610836248276],[-76.27575179298941,2.81177073237194],[-76.21673081587221,2.8174315381340875]],[[-76.32186488061404,2.7793846126014046],[-76.32509385793588,2.781921524212919],[-76.32651218507033,2.7736619521924695],[-76.32186488061404,2.7793846126014046]]]}}]}