{"type":"FeatureCollection","features":[{"type":"Feature","properties":{"code":"192008"},"geometry":{"type":"Polygon","coordinates":[[[-76.06693051757884,3.0462339871812674],[-76.0779233699684,3.0419538696143036],[-76.07767994482333,3.0316253746367465],[-76.08616288838817,3.0203108778778756],[-76.08508044132435,3.011408526197897],[-76.08989420331613,3.00931291618582],[-76.0912601426171,3.003128811102272],[-76.09371733450678,3.002354540952922],[-76.09839446688142,3.0046413517989663],[-76.10531383431805,2.9836025998670834],[-76.10445212392892,2.977849346378548],[-76.11658321741737,2.9694604857637046],[-76.12001727029127,2.9648208894840877],[-76.11991002944762,2.9627230292398394],[-76.11279914955895,2.95770801133159],[-76.11582807424202,2.95089174011531],[-76.11280661296627,2.942601960681145],[-76.11709469170677,2.936941343124033],[-76.11678958160786,2.9243526801323014],[-76.12576926599462,2.915443669287015],[-76.1369390845453,2.9141945939663287],[-76.14225662807638,2.9180804375249068],[-76.14444681160552,2.9177674865802032],[-76.14606386263102,2.906311746611152],[-76.15418964353574,2.901937502899557],[-76.15467078905527,2.8977931479726067],[-76.15102415711277,2.8906857503902756],[-76.15190943323381,2.888614103088912],[-76.16127087239818,2.8851879589380474],[-76.17167743336199,2.876481839232838],[-76.18024569548982,2.876594914430882],[-76.18164075102692,2.883798246159813],[-76.18308401480715,2.884010772777856],[-76.19564969827923,2.8771343325319663],[-76.20438554408696,2.869853501488649],[-76.20662125882336,2.8657426223656444],[-76.2054006713604,2.859492824487745],[-76.21019270236172,2.857259089503259],[-76.21640714958494,2.866597859737567],[-76.21858665582386,2.8761412242128586],[-76.22510125399617,2.8812468005986034],[-76.22908657365736,2.8934413860144446],[-76.22719360693077,2.9031574918089404],[-76.22133680162187,2.9126526398135866],[-76.22065371832849,2.917370605470012],[-76.23058394791224,2.925139804784692],[-76.23973844695831,2.9406020102215393],[-76.2587794348994,2.9480817225075953],[-76.26645244295679,2.954311601510824],[-76.26915799240186,2.9592735528134995],[-76.26924091469374,2.969690119494601],[-76.27174955339194,2.9777470214901314],[-76.2651976155571,2.994511175506034],[-76.265648042527,3.004982757691266],[-76.2637149161485,3.0044045097144476],[-76.25629361014154,3.008348597058159],[-76.24674253234741,3.019793783150135],[-76.24276814811554,3.0231792225745266],[-76.23700120297173,3.0247865219080268],[-76.23348936076263,3.0246009014031756],[-76.21547519348644,3.017124329980561],[-76.20174161788918,3.007158664381393],[-76.1977132537948,3.007241859210467],[-76.18339515774989,3.012398741508207],[-76.17778781557206,3.0087771696245795],[-76.17277452544732,3.0079548218444074],[-76.16059876052958,3.011683050416309],[-76.14935699933937,3.0121293533317157],[-76.13475997322826,3.0066060009691],[-76.13126708315792,3.0114641484830713],[-76.12855733149672,3.0253142342763795],[-76.1202250095094,3.03116973346323],[-76.10892481735749,3.0511749808823083],[-76.09993720779272,3.0551371945254573],[-76.09535341583256,3.059550423407586],[-76.09167357753807,3.0753425542329182],[-76.09019308516713,3.095963225768969],[-76.0860815663529,3.091454918404395],[-76.08161216085506,3.0903865507186765],[-76.08073308932774,3.086600503108343],[-76.07379954789633,3.077959911646701],[-76.0733917539826,3.072814612697073],[-76.07016295355288,3.0653597897484133],[-76.07175924649454,3.057200300611669],[-76.07458271818723,3.0520258442882096],[-76.07357433029762,3.049497641527978],[-76.06693051757884,3.0462339871812674]]]}}]}