{"type":"FeatureCollection","features":[{"type":"Feature","properties":{"code":"192028"},"geometry":{"type":"Polygon","coordinates":[[[-76.31858839953225,2.9337411282540984],[-76.31011700640528,2.929092116583206],[-76.30369296671051,2.922690575097022],[-76.30523431202533,2.9177724580713402],[-76.30374686224076,2.914611019598169],[-76.30387579088023,2.9020011789180558],[-76.3008624213902,2.8961287330553773],[-76.30119056243086,2.8880810345919485],[-76.30539420809748,2.8777674119216385],[-76.30505865610002,2.8736149312703674],[-76.29938230542922,2.8723846250256315],[-76.29664393735493,2.868857253334511],[-76.2870076839514,2.863579871512229],[-76.28645098081688,2.8606626778528152],[-76.27843941051071,2.8551976206974814],[-76.27244229273214,2.8482899620789794],[-76.25606171589396,2.848939517117799],[-76.24869146383054,2.8446706445413383],[-76.24536454689917,2.8485435029846258],[-76.24097817167961,2.8623617399700265],[-76.23648396014823,2.8636288829688965],[-76.23497265152565,2.865745964803864],[-76.23062413738899,2.863024330517817],[-76.22728249624612,2.8638695590871066],[-76.22351330275177,2.8606713548223297],[-76.22410864344323,2.8522402828127724],[-76.22139994182186,2.8469874149463976],[-76.22313947623752,2.8372138305279577],[-76.21982047728511,2.8334197456393895],[-76.21895785363904,2.8202759129209767],[-76.21673081587221,2.8174315381340875],[-76.27575179298941,2.81177073237194],[-76.28114519341227,2.8129610836248276],[-76.29180905115385,2.8091794737439955],[-76.31783904134608,2.823425950080434],[-76.31977616836593,2.8293172647780125],[-76.32800204758104,2.8413783172172202],[-76.33588665871514,2.843597522365826],[-76.3334491172767,2.8542124241866986],[-76.33374253295574,2.8684692939631873],[-76.32906470329704,2.880634574937858],[-76.33031092468974,2.8864634014680632],[-76.32960158525884,2.900012964016071],[-76.32046185876112,2.917771955162948],[-76.32075147845882,2.9281999426982566],[-76.31858839953225,2.9337411282540984]]]}}]}