{"type":"FeatureCollection","features":[{"type":"Feature","properties":{"code":"192070"},"geometry":{"type":"Polygon","coordinates":[[[-76.36826100281888,2.6175353296133608],[-76.36856836109314,2.613552306464328],[-76.37278576217841,2.6130393141937702],[-76.37725054585559,2.610256047404448],[-76.37509448090697,2.608722654007238],[-76.37718106325059,2.6058070071253496],[-76.37873548829731,2.6057863817106295],[-76.37885574202414,2.6079481565721494],[-76.38092493649009,2.6079765354149913],[-76.38469845047143,2.6051940163034146],[-76.38723015507844,2.608267678236075],[-76.38358377099064,2.612782593343809],[-76.38537544744196,2.6148639851380153],[-76.38373601030821,2.6160544896288798],[-76.38191857651395,2.6158901136610666],[-76.37894123130849,2.6117558127882035],[-76.37456605994174,2.617130984067387],[-76.37361340232377,2.616177595226816],[-76.36826100281888,2.6175353296133608]]]}}]}