{"type":"FeatureCollection","features":[{"type":"Feature","properties":{"code":"192518"},"geometry":{"type":"Polygon","coordinates":[[[-75.83406148751328,2.5480832323249274],[-75.8343027303033,2.543863220024093],[-75.83758238515873,2.540879937619991],[-75.8354618816955,2.5373969504226466],[-75.83058635658836,2.534757233640107],[-75.82955637449118,2.531921760023181],[-75.82758765885927,2.5319028994158543],[-75.82489484770326,2.528820010296897],[-75.8258556999512,2.526401256446377],[-75.8234376433847,2.5215510618784265],[-75.81956907560357,2.520026089368571],[-75.8189432858145,2.5117526889100077],[-75.82174367308642,2.5045494589969053],[-75.82250714561769,2.4946160494688456],[-75.81381687318327,2.4837852117429975],[-75.81770029475973,2.482562737088074],[-75.82216354708595,2.48370905043231],[-75.82523049637433,2.476092961526035],[-75.8260696478768,2.4799120355109494],[-75.82821459536183,2.4800463141084492],[-75.82890781909845,2.474157099490469],[-75.84288579686114,2.466150013193669],[-75.84205393495921,2.462895473933031],[-75.8396351543692,2.462403834186034],[-75.83607248961619,2.464323485910654],[-75.83595725263194,2.462572742499958],[-75.83790369425577,2.4598717552259473],[-75.84542626894063,2.460218405146634],[-75.84861511437856,2.4578802143407756],[-75.8461287723141,2.4514189429699513],[-75.84978265066258,2.450443030209783],[-75.85098034396663,2.4555101613573243],[-75.85252221481551,2.4552742489848356],[-75.85339882322296,2.4526513534081005],[-75.8512244314287,2.4478477740257745],[-75.85973935235677,2.441788798515006],[-75.85972437617681,2.4397035973696575],[-75.85604644770007,2.4387124492620273],[-75.85541342898847,2.4366967574612204],[-75.85697776307887,2.432699605568871],[-75.86234133661179,2.427233274173261],[-75.87421995466099,2.426547237192949],[-75.87277039372725,2.4316820758537006],[-75.88127056164745,2.4281273475916123],[-75.88439090664292,2.4294394592395747],[-75.88778561747665,2.4254042919979497],[-75.88891535335591,2.4274373809324175],[-75.88681712287234,2.430424885093089],[-75.89177621201952,2.431245270604961],[-75.88844224820002,2.433896585133766],[-75.89458474249932,2.4332273148518198],[-75.89462999602699,2.436723616266022],[-75.90138920102487,2.4427258690581084],[-75.9062953737191,2.4424566875986216],[-75.90715807655528,2.44536319676871],[-75.91058388440547,2.446971097741084],[-75.91271951008747,2.455301451289472],[-75.91742749470927,2.4568839229921196],[-75.91772520516423,2.4673114641833536],[-75.91581728796876,2.471053006972056],[-75.91739684712218,2.4740307995500643],[-75.92237091861995,2.4746827930260906],[-75.92440829924504,2.4810295781757645],[-75.92742210170934,2.4797228771638515],[-75.93019197920552,2.481100766966904],[-75.93159565823316,2.478302456120389],[-75.93758537431097,2.4844492595938164],[-75.93811139489134,2.4882240622136464],[-75.94858727390942,2.4862795766875365],[-75.95879571364958,2.4909923445954405],[-75.96366344316249,2.500631097114365],[-75.96512781572534,2.5070960996746408],[-75.95930666446174,2.512536497863664],[-75.9597416431966,2.5150544552795395],[-75.96280871075578,2.515982752179582],[-75.96070287391137,2.5185160303036582],[-75.96173275213584,2.531021119999366],[-75.95689563935673,2.53282469141692],[-75.95970283286124,2.5354063073678503],[-75.95867286104851,2.540004285664054],[-75.96093888809963,2.544639609793478],[-75.96639451238019,2.545019597706812],[-75.96911878976351,2.5499825198592703],[-75.97478661053202,2.551949502565492],[-75.97521462671102,2.5560503266059413],[-75.97236826085941,2.5610299074702993],[-75.97426898409952,2.5627508167919473],[-75.97162974657118,2.568828949101544],[-75.9807093174091,2.576920814028881],[-75.9807057044905,2.5811385431873077],[-75.97335429349403,2.57613285942341],[-75.96914110799463,2.5755237879959054],[-75.96281899003878,2.577334418642863],[-75.9604127523337,2.575516121985345],[-75.9574082675586,2.569459562286056],[-75.96494337998627,2.5570556343101885],[-75.96374209947476,2.554027620827185],[-75.95622173079903,2.5494806213981747],[-75.95350641012158,2.557045617280096],[-75.94718202342159,2.5615804553763155],[-75.9402596621888,2.5615742960340526],[-75.92972134642542,2.566407928563706],[-75.92340039780873,2.5670075969412665],[-75.92069355561142,2.564886297463545],[-75.91678039456269,2.5654881111722148],[-75.91437016752911,2.5682101311242036],[-75.91135991936216,2.5688127490749366],[-75.90895050376969,2.570626682050886],[-75.9080409656612,2.5778904193510925],[-75.90050775482376,2.5875694929873703],[-75.89087040098673,2.594219612115694],[-75.8802116710595,2.6054691030798267],[-75.87339256956938,2.6000772607474687],[-75.87286315307182,2.593818567870187],[-75.87118544656346,2.59207677499478],[-75.86208438539069,2.5895773028046847],[-75.8547775398938,2.583736196670884],[-75.85280449966115,2.5709083745136354],[-75.8558427235215,2.5642687598972316],[-75.85400806434353,2.561187088454176],[-75.83406148751328,2.5480832323249274]]]}}]}