{"type":"FeatureCollection","features":[{"type":"Feature","properties":{"code":"192578"},"geometry":{"type":"Polygon","coordinates":[[[-76.34411166683947,2.531157519245312],[-76.35598772098149,2.525093560930543],[-76.362446091116,2.524201288315055],[-76.37113781982504,2.5112160198357856],[-76.37845878069544,2.5075629385302705],[-76.39076216813066,2.5070070375809337],[-76.39547441976043,2.5093798262215046],[-76.39447654563872,2.511029288612974],[-76.39917683133979,2.5128890674994864],[-76.40439839238752,2.5105338086616484],[-76.40992946629655,2.510601199414566],[-76.41351845300738,2.5081396839525496],[-76.42825812718121,2.515682847028245],[-76.44106312099984,2.525898918840312],[-76.46015786460288,2.524935825616126],[-76.473007481514,2.528251801975955],[-76.48626646277057,2.525578503459826],[-76.48973431437935,2.5230443326476575],[-76.49383499855162,2.5148050044897445],[-76.49730239867415,2.5132217254596867],[-76.51085430504264,2.5125937656568453],[-76.51904764742176,2.514182165302202],[-76.52872876560178,2.5121223800568373],[-76.53298839247998,2.515750115396486],[-76.54008434555396,2.517086345050018],[-76.54270103036629,2.5192063744012216],[-76.54404443649173,2.521163645524723],[-76.54428017608586,2.5300559513781877],[-76.55412270009163,2.532113321840484],[-76.55969941936496,2.538454876331514],[-76.56006660316899,2.5364468700816474],[-76.56350701593135,2.5363905865079346],[-76.56508699674623,2.5399909827600595],[-76.567528164473,2.5401287261803986],[-76.56671135382732,2.5421716028022843],[-76.56915267582048,2.541897891053452],[-76.56951175241215,2.5433799733964975],[-76.57084663583441,2.5414464037592666],[-76.5726321303178,2.542510861306596],[-76.57239623645728,2.5452580852993947],[-76.57346450849786,2.5466834336108946],[-76.5734492494962,2.5455043962541595],[-76.5786368215471,2.549803659307031],[-76.5807583339124,2.5482818389734803],[-76.58147452791269,2.550679664018787],[-76.58734944717963,2.5506356333092413],[-76.5893110531884,2.5527875268949742],[-76.58536622330917,2.555000459572682],[-76.58517531352442,2.557525669565166],[-76.58473982879588,2.5559056566252707],[-76.58250470849924,2.5576738578477034],[-76.58316146674952,2.5567754495441477],[-76.5805981097671,2.555727140601334],[-76.57756069014874,2.55692867719506],[-76.57516508756777,2.5552394901828848],[-76.57447863715356,2.5573457054941855],[-76.56418667553959,2.5541781693852954],[-76.56150081048435,2.5559857219038236],[-76.56027951750985,2.554887039846392],[-76.55690739744449,2.55826270083935],[-76.55805971689301,2.5603917084937393],[-76.55496918644616,2.5622680113662],[-76.5515893633463,2.567903856828366],[-76.54889673319616,2.5669306056774417],[-76.55050649256418,2.5690716687350346],[-76.55024697229368,2.5742510029613754],[-76.54520352000668,2.57469029806947],[-76.54355506343205,2.576417958087802],[-76.54147212794561,2.5742653836730938],[-76.54057964758476,2.5770338995113775],[-76.53630810517149,2.5781121340746154],[-76.53296512705333,2.5813679043809543],[-76.53026493990757,2.587523945325131],[-76.5289906111808,2.586899404065207],[-76.5278916966954,2.5887222423248772],[-76.52292519144919,2.5853492347136466],[-76.52179557589773,2.5828195252850605],[-76.51554674269886,2.5818140838832733],[-76.51331116680228,2.5792499339717097],[-76.51412872821095,2.578280991994916],[-76.50878016376817,2.574884626397136],[-76.49944074047283,2.5757665765350453],[-76.49654218424871,2.57792880082593],[-76.49495442223775,2.5819386364998422],[-76.49722802273965,2.5823568115123976],[-76.50264488913541,2.58878098901846],[-76.5054294569045,2.5877214011464957],[-76.50499548707177,2.5904561480746793],[-76.50967267806766,2.5972462258884548],[-76.51129761210501,2.5980094063421006],[-76.51218279258086,2.5967087371455477],[-76.51275469609578,2.5996332975387304],[-76.5061170108375,2.600840340413697],[-76.5023777614756,2.597810329695335],[-76.49829620222039,2.601124985534966],[-76.49901352545055,2.605533221328699],[-76.49732731989326,2.6060038211986125],[-76.49442001779397,2.6025881363081567],[-76.4902846751088,2.603041734994804],[-76.48421968526617,2.6005644833338124],[-76.48352485098854,2.60342230912039],[-76.47530845812724,2.603552314539172],[-76.47319454698061,2.6052677648879694],[-76.46711336636741,2.601546995609624],[-76.45798101380251,2.6015882690647913],[-76.45240353553862,2.595389369835573],[-76.44626125618385,2.5949522200585875],[-76.44345454399041,2.5930563058157077],[-76.44233254611265,2.5913918312488704],[-76.44307248787914,2.5838927893856294],[-76.43971581913416,2.578227387513948],[-76.44028834177146,2.5661287876667984],[-76.43815910991657,2.5670619562990282],[-76.42932357100483,2.5564280755999675],[-76.42760058114396,2.5564328486016734],[-76.42154906698369,2.5503698673073245],[-76.41305817767193,2.5475158148763057],[-76.40778555342473,2.548126828003319],[-76.40258978674382,2.5457701211183803],[-76.401247095386,2.5428869894751642],[-76.40194105034521,2.537614241814879],[-76.39967547992256,2.5350414756118766],[-76.3920916501728,2.5323890071705364],[-76.38884147150844,2.534236539363519],[-76.38334811675719,2.533699464054507],[-76.37786957466358,2.534912753689298],[-76.36907213749026,2.5402556041054822],[-76.35787991740466,2.540994244892147],[-76.35243202186967,2.5436067933086974],[-76.34411166683947,2.531157519245312]]]}}]}