{"type":"FeatureCollection","features":[{"type":"Feature","properties":{"code":"192507"},"geometry":{"type":"Polygon","coordinates":[[[-76.05743519885272,2.7722523081981763],[-76.05553115785705,2.766137585960678],[-76.05021827625592,2.762861179955223],[-76.04647706873942,2.7426800308130623],[-76.04743428235776,2.7318597335946038],[-76.04413974285376,2.7269759963738807],[-76.05810035639303,2.7240662146996897],[-76.06956364924395,2.7254832912480538],[-76.06188671562137,2.708925092102504],[-76.0579210001315,2.705374272950394],[-76.04866339252385,2.702262382780816],[-76.04513944451787,2.697825050291385],[-76.04514392749883,2.6925038547609006],[-76.0570158370175,2.6678153505919795],[-76.0624973194283,2.677417221105202],[-76.06487741206763,2.6779091724702653],[-76.07133204895575,2.668448608930646],[-76.07525422841695,2.66610372296401],[-76.08621006407498,2.6649869300338764],[-76.09447301967134,2.6581871509217763],[-76.10137068285701,2.649463590888331],[-76.10817652875153,2.6545919503612367],[-76.11527948757589,2.666497091943029],[-76.12490845240734,2.66194285947779],[-76.13283482139303,2.654168147711232],[-76.13584172095119,2.6536771198875613],[-76.14928476976439,2.655702100581152],[-76.15832596015599,2.663010029027987],[-76.1611567810989,2.6681080761860585],[-76.16469715436034,2.668242415461634],[-76.1679384915044,2.6593262692821327],[-76.17180766195281,2.657082119260224],[-76.17501933367242,2.651699201752024],[-76.1788724326496,2.6312012820296786],[-76.18302337166557,2.6261145662512604],[-76.18767693625148,2.623823973822084],[-76.19317127316532,2.627791311165822],[-76.20040327375784,2.6284932890051778],[-76.20370667535104,2.6347100419965273],[-76.21243530971981,2.6313360182840597],[-76.22291140573924,2.6430589743590076],[-76.23880404728038,2.6465303792366512],[-76.24180976721493,2.6495079743536962],[-76.24991985717219,2.651892797828623],[-76.25261336664067,2.6545525558705094],[-76.25477267838232,2.659374831309435],[-76.24948539677234,2.667879153108913],[-76.25075913928686,2.6791792177339744],[-76.2475245466689,2.6854203293863748],[-76.24178608115528,2.691006337552494],[-76.23913923829451,2.698909339295767],[-76.23406480931891,2.7047144807947348],[-76.23016662753543,2.712896881573897],[-76.22867098414929,2.718702222590707],[-76.23118956994358,2.7336111187534016],[-76.23009778153636,2.7388911375023213],[-76.22617642997136,2.7445952684623762],[-76.22687048777487,2.74859932120404],[-76.22485613192094,2.7518226420920655],[-76.2260621155001,2.755153952529838],[-76.22471128916192,2.757893423094515],[-76.22273492191772,2.758271772698947],[-76.21999621857117,2.76985993081297],[-76.21529592772788,2.775259916353207],[-76.20745325133748,2.773744601947044],[-76.20157806364699,2.774836613526304],[-76.19211770682432,2.770577322948782],[-76.1811078892469,2.773074823614536],[-76.17459174943929,2.777431618770322],[-76.1778346796408,2.780391523647552],[-76.1907896121511,2.7833435876790418],[-76.1956188069513,2.7876401284445933],[-76.20604933782488,2.785883000462775],[-76.21587538720996,2.7898768942492325],[-76.2176233476552,2.7883420990848435],[-76.22165094041765,2.7899014945942326],[-76.2248109287869,2.788127547463489],[-76.22910622925076,2.789475753330123],[-76.23567512918805,2.783590994953556],[-76.24062694518972,2.7817306925898038],[-76.24464753425866,2.7821280406129176],[-76.24039801388506,2.785944894190436],[-76.23894789862078,2.7954508994627645],[-76.23268402342171,2.8069184438950288],[-76.2188206100418,2.8112486219300195],[-76.21668462337647,2.8145384892196716],[-76.21673081587221,2.8174315381340875],[-76.21895785363904,2.8202759129209767],[-76.21982047728511,2.8334197456393895],[-76.22313947623752,2.8372138305279577],[-76.22139994182186,2.8469874149463976],[-76.22410864344323,2.8522402828127724],[-76.22358954942325,2.854881988603154],[-76.21456355118454,2.8551221402157125],[-76.20617122677533,2.858822573071677],[-76.20639282631328,2.8675249266203764],[-76.20438554408696,2.869853501488649],[-76.19564969827923,2.8771343325319663],[-76.18308401480715,2.884010772777856],[-76.18164075102692,2.883798246159813],[-76.18024569548982,2.876594914430882],[-76.17167743336199,2.876481839232838],[-76.16127087239818,2.8851879589380474],[-76.15190943323381,2.888614103088912],[-76.15102415711277,2.8906857503902756],[-76.15467078905527,2.8977931479726067],[-76.15418964353574,2.901937502899557],[-76.14606386263102,2.906311746611152],[-76.14444681160552,2.9177674865802032],[-76.14225662807638,2.9180804375249068],[-76.1369390845453,2.9141945939663287],[-76.13255251906384,2.9141908720328615],[-76.12576926599462,2.915443669287015],[-76.11971083350147,2.920998285273754],[-76.11678958160786,2.9243526801323014],[-76.11709469170677,2.936941343124033],[-76.11280661296627,2.942601960681145],[-76.11280686287785,2.944909966699072],[-76.1159347041908,2.9484792751907776],[-76.11279914955895,2.95770801133159],[-76.11991002944762,2.9627230292398394],[-76.11932217376079,2.963569231744202],[-76.10276091808407,2.9650682412226956],[-76.09734210587504,2.964155313367712],[-76.09343863378331,2.9520435535700926],[-76.08351813840795,2.93478044758092],[-76.08141859666017,2.925697397521958],[-76.08867110542496,2.895130468125501],[-76.08326922137985,2.8751471121338454],[-76.08508994927547,2.858499835467967],[-76.07788097242559,2.839423077267668],[-76.07487330256401,2.836090700334978],[-76.06614422699334,2.834418188489792],[-76.06133191304866,2.829267970499643],[-76.05893141610977,2.820184726065065],[-76.05985395064636,2.797785402273689],[-76.05504461918497,2.7893054864435953],[-76.0545542876169,2.7799710222980707],[-76.05707890008432,2.7791028697449747],[-76.06399952427768,2.782161941163622],[-76.06758074521906,2.780243025803884],[-76.05743519885272,2.7722523081981763]]]}}]}