{"type":"FeatureCollection","features":[{"type":"Feature","properties":{"code":"192547"},"geometry":{"type":"Polygon","coordinates":[[[-76.21470877343887,2.6284615461268572],[-76.21777363704575,2.622452792549609],[-76.21796743778242,2.613944660370578],[-76.22117004378123,2.604304150243422],[-76.21884772390035,2.5970591933320293],[-76.21515524501888,2.5953210822808046],[-76.20410925300433,2.5953450748162936],[-76.19760022076292,2.592801885591655],[-76.19401447775977,2.5901203194261484],[-76.18836643702622,2.581188465844093],[-76.17511254244636,2.5726430618797167],[-76.16347421176403,2.5674105921422097],[-76.15977333050716,2.5667253357497657],[-76.15150449633336,2.571580973864002],[-76.13794817691803,2.5721467458046163],[-76.1287556193281,2.576072006479592],[-76.1096529371772,2.569559686307457],[-76.1010686282608,2.5695087958862928],[-76.09587659482628,2.5655145647706945],[-76.08295508669784,2.5633100324114935],[-76.07137708651055,2.5571680183948615],[-76.05792552322168,2.558082701801254],[-76.04699285837364,2.5538522826905705],[-76.05342248456816,2.5520261493010707],[-76.0572698633481,2.5481628666860274],[-76.06041577439612,2.5474623934580904],[-76.06638634498802,2.551295313364676],[-76.06819242066308,2.546969036212147],[-76.06625672523512,2.547551286887199],[-76.07195934644164,2.5409124230338307],[-76.07899822198425,2.5248567908370205],[-76.07883019093174,2.508879184517184],[-76.08257857286327,2.5010716284103296],[-76.08604554926745,2.4972370187727506],[-76.10265525692813,2.4946797028616743],[-76.1096844681964,2.490830214746154],[-76.11864010862547,2.4728481163645597],[-76.12694940687015,2.4651446705223634],[-76.14292495630497,2.455519169485342],[-76.15378506556175,2.4535993799494236],[-76.17039655962708,2.447828650137126],[-76.18125621842609,2.4465510612475896],[-76.19019751105355,2.4484844313669782],[-76.19849883166961,2.452344739726243],[-76.20679855408605,2.4587748873411215],[-76.21827980560022,2.484481207132262],[-76.22325214108702,2.4891035811134543],[-76.21631196003074,2.495577313093804],[-76.21768527532146,2.5007211393137254],[-76.2153960260382,2.509282286676182],[-76.21810436359095,2.5128925919719904],[-76.21364859935466,2.51419625907846],[-76.21000928272383,2.521451532296794],[-76.20688163990025,2.5231177572728143],[-76.20899469949649,2.5294992050491487],[-76.2126568568072,2.5302171576861383],[-76.21320660767026,2.5316140222536205],[-76.21326049497293,2.53507336555748],[-76.21014742312292,2.53673960698859],[-76.21133031302537,2.53921859980278],[-76.21773824833872,2.5464580442622946],[-76.22350624455078,2.5476826467648266],[-76.22925115017142,2.553301879794958],[-76.22987758685088,2.5577529049681402],[-76.22191992235935,2.565393552053308],[-76.22541400850832,2.5722738520439634],[-76.22491779219217,2.579825689003826],[-76.22755017515112,2.5879312455864465],[-76.23115126045974,2.5911624165761964],[-76.23135020649431,2.6045855804533176],[-76.22655116151503,2.6194012616714986],[-76.22263674576647,2.62561414463363],[-76.21938654344791,2.628564261823385],[-76.21470877343887,2.6284615461268572]]]}}]}