{"type":"FeatureCollection","features":[{"type":"Feature","properties":{"code":"192579"},"geometry":{"type":"Polygon","coordinates":[[[-76.4112861701837,2.5087799141030587],[-76.40911069543944,2.50644204005755],[-76.3976734118998,2.5077286442742093],[-76.39671725346352,2.5093502790679736],[-76.39076216813066,2.5070070375809337],[-76.37845878069544,2.5075629385302705],[-76.3723596177648,2.510323346127734],[-76.36245451097489,2.5080297403619625],[-76.35629080710555,2.4988085211074917],[-76.34818492862041,2.49596778495021],[-76.34448627908375,2.4913568194818936],[-76.34378452647337,2.485506677452065],[-76.34572926293947,2.474517303255084],[-76.34273622061579,2.4688431596219402],[-76.33251565245303,2.466001203731878],[-76.32634524108158,2.4693657431474207],[-76.32078314009021,2.4691247975772512],[-76.31877633094746,2.463379520688875],[-76.320510357025,2.4630527166234515],[-76.3207768388229,2.4568580473783186],[-76.31535329474985,2.448958941375338],[-76.31304764077998,2.4482534205515094],[-76.30640332926657,2.435130889963034],[-76.31324724296093,2.429210725395876],[-76.3192586118675,2.4328939606360223],[-76.32187583146998,2.431077301258995],[-76.32210477100216,2.425598671747764],[-76.32631643029288,2.4160253528557405],[-76.32239461284342,2.391290708641577],[-76.3308712068042,2.3912405874954743],[-76.3342359498514,2.3929978615161076],[-76.33808881742902,2.402338870669837],[-76.34140761686359,2.4039000083608926],[-76.35233395884705,2.4042721286890014],[-76.35899415054138,2.4009157355666275],[-76.36560955356407,2.4101366997673495],[-76.37592498732164,2.414248121907974],[-76.38314232129545,2.4246568024918247],[-76.3951822423262,2.4258170985405627],[-76.40406347493905,2.433106770075767],[-76.41079249617741,2.4430330380989744],[-76.41823847760577,2.4463730255062615],[-76.42566150625396,2.455400970586652],[-76.44136353420174,2.4561699339725465],[-76.44395042297742,2.458958112603341],[-76.45162566481201,2.4603809546004527],[-76.45817240386992,2.4573568985642282],[-76.4623909053887,2.4583315638236627],[-76.46235288798255,2.4627716463684237],[-76.46451995520925,2.464616300979287],[-76.46432230912603,2.466727747977643],[-76.47921399944539,2.475587154983373],[-76.48643961443832,2.485158527033775],[-76.49039974034315,2.4937150206937986],[-76.4953739763917,2.4939529488136145],[-76.50008902847048,2.4983245288590865],[-76.50230239206559,2.497402002550018],[-76.50218780094326,2.499828316481512],[-76.5049268385336,2.499622096273015],[-76.50784118135039,2.502016397874172],[-76.50742147087317,2.5057532530219646],[-76.50965741803753,2.5071632569710687],[-76.52872876560178,2.5121223800568373],[-76.51904764742176,2.514182165302202],[-76.51085430504264,2.5125937656568453],[-76.49730239867415,2.5132217254596867],[-76.49383499855162,2.5148050044897445],[-76.48973431437935,2.5230443326476575],[-76.48626646277057,2.525578503459826],[-76.473007481514,2.528251801975955],[-76.46015786460288,2.524935825616126],[-76.44106312099984,2.525898918840312],[-76.42825812718121,2.515682847028245],[-76.41714313901497,2.509600044561182],[-76.4112861701837,2.5087799141030587]]]}}]}