{"type":"FeatureCollection","features":[{"type":"Feature","properties":{"code":"192538"},"geometry":{"type":"Polygon","coordinates":[[[-75.96878094228236,2.549401055942724],[-75.9775882710158,2.548448409637615],[-75.99332816416029,2.5322937661941864],[-75.996479243132,2.5252668092718977],[-76.00696396264192,2.5245725735478572],[-76.01570532604381,2.518956065890336],[-76.01885369404101,2.515092333845928],[-76.02201075957663,2.500332619441224],[-76.03075607014091,2.489443637689135],[-76.03774923655578,2.484528414700719],[-76.03880557557784,2.4743361770439947],[-76.04125536062446,2.469768782571407],[-76.06246755630178,2.4547381681797447],[-76.06093743849402,2.458820962594416],[-76.07837316958842,2.454431510274844],[-76.09008624747298,2.4710382477935013],[-76.08896181938553,2.486420029025396],[-76.08756779640464,2.4967789617877543],[-76.08257857286327,2.5010716284103296],[-76.07883019093174,2.508879184517184],[-76.07899822198425,2.5248567908370205],[-76.06876196801619,2.545407022288032],[-76.06596346176559,2.547516530672283],[-76.0572698633481,2.5481628666860274],[-76.05342248456816,2.5520261493010707],[-76.03104958249355,2.559389202266914],[-76.02615623550594,2.560088144143947],[-76.01287966685385,2.5555078674003653],[-76.00274328493879,2.5572567770980186],[-75.98037841705712,2.5551288904459852],[-75.97426898409952,2.5627508167919473],[-75.97236826085941,2.5610299074702993],[-75.97521462671102,2.5560503266059413],[-75.97478661053202,2.551949502565492],[-75.96878094228236,2.549401055942724]]]}}]}