{"type":"FeatureCollection","features":[{"type":"Feature","properties":{"code":"193008"},"geometry":{"type":"Polygon","coordinates":[[[-76.32239461284342,2.391290708641577],[-76.31378813482013,2.3884685297011288],[-76.30952366500611,2.3820576725826186],[-76.30434367463346,2.3791311303806424],[-76.30677400668986,2.3562119453511627],[-76.30982435485907,2.351516799805779],[-76.30846312273945,2.3491665597674114],[-76.30324567854717,2.3441753122511386],[-76.29489530533675,2.3407575673903125],[-76.28292542329837,2.3280696411835606],[-76.26919578972132,2.3210816971998156],[-76.26976471692359,2.3189456436857085],[-76.27940702271138,2.3074731370182917],[-76.29616581751333,2.29824876353058],[-76.30717943724267,2.2989511527469517],[-76.31614557087079,2.297257421047277],[-76.33349531799996,2.2896338790180835],[-76.34709494204446,2.295625069882476],[-76.3520124214358,2.294295995103596],[-76.35641088702556,2.291165317346099],[-76.36110918063349,2.2809786271083112],[-76.36013933465574,2.2709117576230824],[-76.36492273393901,2.271132883049063],[-76.36904995912732,2.2735408835046087],[-76.37160607793135,2.27868187636534],[-76.38766109820483,2.288143603073479],[-76.39290551021685,2.2960102195488616],[-76.41208160259475,2.308322273669148],[-76.41660312647412,2.3092064051336934],[-76.42308188650998,2.314941118888953],[-76.42978564611474,2.3261181036270955],[-76.43452086697977,2.3295978049505948],[-76.43818127799511,2.341711850975855],[-76.44945442827941,2.3549282567690284],[-76.45153035081631,2.3608083511587665],[-76.4682522317309,2.367559352270632],[-76.47215325098728,2.3747424997866915],[-76.48078144868816,2.380358146637775],[-76.47874239581557,2.3886045144847685],[-76.48392967887412,2.395362427758755],[-76.491408410026,2.399394027333301],[-76.4945715053201,2.410179426411787],[-76.49880149968402,2.414038335060809],[-76.4879436499154,2.410430970082132],[-76.48407514384081,2.4111606150821103],[-76.48195439046611,2.408852583353166],[-76.47594957685214,2.409430920804425],[-76.47035713372111,2.4051211121019946],[-76.46580166815329,2.4040875890772213],[-76.45671525920108,2.4099466795854028],[-76.45028306807092,2.4063547628417723],[-76.4471780263001,2.4087067481470967],[-76.4385253033305,2.4074084063159944],[-76.42924863251227,2.413743057900774],[-76.42509819434781,2.4095055754468717],[-76.41703280667309,2.4068390790495755],[-76.40860204422472,2.4137182683223273],[-76.40242206628102,2.414059369795609],[-76.39641794378042,2.4200636301075065],[-76.38314232129545,2.4246568024918247],[-76.37592498732164,2.414248121907974],[-76.36560955356407,2.4101366997673495],[-76.35899415054138,2.4009157355666275],[-76.35233395884705,2.4042721286890014],[-76.34140761686359,2.4039000083608926],[-76.33808881742902,2.402338870669837],[-76.3342359498514,2.3929978615161076],[-76.3308712068042,2.3912405874954743],[-76.32239461284342,2.391290708641577]]]}}]}