{"type":"FeatureCollection","features":[{"type":"Feature","properties":{"code":"193579"},"geometry":{"type":"Polygon","coordinates":[[[-76.8632451502499,2.7250764486436196],[-76.86953286886035,2.723007216125268],[-76.87540784777701,2.715314524706514],[-76.87176835014026,2.709322636558113],[-76.87231006063973,2.696802104797939],[-76.87685731512249,2.6924258628225175],[-76.88954517448047,2.6924326515715507],[-76.89770430777611,2.6854092314631544],[-76.89856205763311,2.677369686492],[-76.90341727202895,2.668239598557591],[-76.90941636955944,2.64526989334621],[-76.9071336313458,2.634932834527774],[-76.90513546009174,2.6317741070290595],[-76.89999648194987,2.6297634710517173],[-76.89742755286585,2.624881853451029],[-76.90399596634984,2.613110378543354],[-76.90371121118523,2.607654834481366],[-76.9025694569267,2.605644745635402],[-76.89429006990423,2.603059379983108],[-76.88799114744097,2.5945325589465824],[-76.87703454045106,2.5873289793630647],[-76.87763386635731,2.570755495504784],[-76.88125101696653,2.5653005654229446],[-76.90355340902204,2.551968179081598],[-76.9089777439674,2.552575074324807],[-76.91500450763004,2.5556066811859637],[-76.92886695324552,2.5556083698886027],[-76.9324835217563,2.5531841210697053],[-76.93248398866922,2.548940960584673],[-76.93007376163558,2.54348519232218],[-76.93067695345724,2.539242096628982],[-76.93549888231104,2.536817965052535],[-76.9403205334853,2.5368184967573484],[-76.94393728094508,2.5319695476332527],[-76.94298622769747,2.5237380839752745],[-76.94579712668036,2.519250978981688],[-76.94469666850273,2.515375705755332],[-76.94634839243923,2.51094709548687],[-76.94634877810518,2.5070719281901006],[-76.93754287582152,2.498767087215299],[-76.93815964719818,2.4903205813688487],[-76.93398773515395,2.4883834111543592],[-76.92043620313848,2.4897448253082644],[-76.90420413751383,2.486927921249503],[-76.88805468564823,2.4600347438247354],[-76.88023853690413,2.4579369319172883],[-76.88520828997179,2.4506685193173325],[-76.89740516881443,2.4429467610275992],[-76.90553610941532,2.4397675819209894],[-76.91366690911957,2.4374969885850533],[-76.92676554487457,2.4420417449808838],[-76.93128251995267,2.4420422530315022],[-76.93896172849009,2.438408493075599],[-76.95838508827427,2.433412808858293],[-76.96470910679187,2.4297787691660346],[-76.97193671696328,2.423009933832418],[-76.97600258424256,2.414378114985425],[-76.98006888449612,2.3989314143479987],[-76.99226544349312,2.3807592875568844],[-77.00446095039348,2.3766710794208166],[-77.00852621809071,2.373036703427829],[-77.00988165493669,2.3644046151288762],[-77.00852704598697,2.356226712757291],[-77.0112374280834,2.3485033326137454],[-77.01575420467213,2.3462319226944146],[-77.02122076026819,2.3494746976011243],[-77.02989043402738,2.32159701066513],[-77.03448705683638,2.3205866440521277],[-77.0387970989953,2.31239617822672],[-77.04771781248803,2.3134686308861205],[-77.05424043354043,2.3099870135742435],[-77.05853555196995,2.309560902070757],[-77.07198742379154,2.3182275758631476],[-77.08126443810954,2.3193309270496343],[-77.0896193755479,2.316999369698067],[-77.09582961541275,2.3258942003778884],[-77.10306253646132,2.330349732186164],[-77.11211148028104,2.3288647218672622],[-77.11847452407847,2.3296445764594296],[-77.1261650341707,2.31935450203747],[-77.13323033862918,2.317911815213506],[-77.13254005829504,2.3245429132974778],[-77.12877263680718,2.3345754358879276],[-77.12478336689827,2.340149128454925],[-77.1245619319111,2.34572267395464],[-77.11999534785122,2.355589948458089],[-77.11037762492498,2.3669025580249468],[-77.10692605047592,2.374403893314934],[-77.10222631499158,2.3776648150898723],[-77.09465021912956,2.3968987840988802],[-77.08688391282374,2.40101299948941],[-77.08511075759367,2.403465360784537],[-77.08067785460611,2.418402480495274],[-77.07513661557124,2.422638366806382],[-77.07376116112005,2.4258885506129673],[-77.07580155816703,2.4320242119401883],[-77.07890468086413,2.435368327515789],[-77.07839951298422,2.440201499303157],[-77.08496069548886,2.446204798021313],[-77.08372520383693,2.4513343844261044],[-77.07956966459761,2.456547778611764],[-77.07890471377425,2.4674719012162427],[-77.07668813218254,2.471261920671566],[-77.078018091422,2.4821860432761014],[-77.07314154918515,2.489766047219689],[-77.07269818864376,2.5015819415881424],[-77.06949625421794,2.513371490344582],[-77.07114647457155,2.5163406440054246],[-77.07939129255561,2.5220760283052073],[-77.0781831122232,2.528150783209526],[-77.08260371092445,2.532822276633908],[-77.08203337269907,2.540771752666103],[-77.08845053828406,2.5505242714963856],[-77.08816541082325,2.5602768396919373],[-77.09058974603136,2.5651530960217315],[-77.0952957683848,2.5703161757140833],[-77.10328174589887,2.5739015320228305],[-77.10912870489909,2.5796381957051153],[-77.11283670092132,2.5876696200941183],[-77.1204522488668,2.597106419412455],[-77.12597652888456,2.610323703495567],[-77.13043562218928,2.616324303580541],[-77.13877079810464,2.6193540294203785],[-77.1393774588629,2.622112529256924],[-77.15120722177875,2.631863311047823],[-77.15334305212082,2.639099281428514],[-77.14960456997699,2.6567987020993655],[-77.13552188545299,2.6561068060820503],[-77.12973757917104,2.6539951173996315],[-77.12368367079654,2.6555781938265],[-77.1144761575955,2.654784839897843],[-77.10199754309554,2.658567825834723],[-77.09188831720513,2.6591447131821155],[-77.08103936449277,2.6731874848803727],[-77.07737717530028,2.6762597141926108],[-77.07133243034866,2.6778017218243804],[-77.06070422459538,2.6740978477997714],[-77.05185684728184,2.6687348429956046],[-77.04676154915057,2.66192800979627],[-77.03992154970848,2.6658961565242407],[-77.03060140662501,2.663946078327683],[-77.02755699256915,2.669070377509513],[-77.02282150225216,2.6727739615133714],[-77.01150927732283,2.6730379565372573],[-77.00887862214728,2.671450478376414],[-77.0078267157125,2.664571976103275],[-76.99927540848807,2.659946207233304],[-76.98572901868528,2.65901484968839],[-76.97956066728415,2.6611253854866845],[-76.97482317458963,2.668133485915348],[-76.97283708650673,2.67599827587685],[-76.96967977723023,2.6807599904495873],[-76.96678570193018,2.683405292703412],[-76.95163733189855,2.688188031726611],[-76.94679102175797,2.691604499261814],[-76.93758093539378,2.7122387441822298],[-76.9296877017976,2.7185871182755363],[-76.92416203749622,2.7257293862298866],[-76.92053249004084,2.7355601726212058],[-76.89815548550905,2.760736598717415],[-76.89908697160934,2.7633443268238693],[-76.89673180533129,2.7685182843526945],[-76.89613639984793,2.775955492137882],[-76.89075981240342,2.7878510218959036],[-76.8848126645899,2.8142196668966335],[-76.87964139952362,2.811662714025772],[-76.87980963832149,2.807427032374733],[-76.87272216167077,2.80310530608034],[-76.87211865411723,2.798822002398481],[-76.86862423166752,2.7945404460404006],[-76.87254614373364,2.790822054521186],[-76.87176768679484,2.7841218738964244],[-76.86235250636668,2.7778869915203472],[-76.85311388792167,2.757124400058899],[-76.85370176520581,2.745658613234866],[-76.8564773639277,2.7424803844091343],[-76.8632451502499,2.7250764486436196]]]}}]}