{"type":"FeatureCollection","features":[{"type":"Feature","properties":{"code":"193577"},"geometry":{"type":"Polygon","coordinates":[[[-76.87810013031356,2.692159771832735],[-76.87994672559546,2.6903808573246124],[-76.87896237652126,2.68807123768039],[-76.87047915013471,2.675492665766683],[-76.86484849110815,2.6724536345789147],[-76.86131578694255,2.667361568842523],[-76.85960680755414,2.6599111743673802],[-76.85317493524116,2.6529471211033524],[-76.8483825154886,2.6524482771164912],[-76.84468275626244,2.648743165875544],[-76.8424637557739,2.6431736847806633],[-76.8398459859547,2.6422077921359346],[-76.83679384109644,2.6379460374101313],[-76.83376443510218,2.632503581307617],[-76.83686317766256,2.625351419736205],[-76.83607701666085,2.6218554145135045],[-76.83329210539193,2.6193713195959845],[-76.82175624769377,2.6181452865299093],[-76.82196970505231,2.6159438055596524],[-76.8166900483152,2.6134326039826874],[-76.813210412812,2.6061869816689978],[-76.8060011860506,2.604608464327839],[-76.80234701459602,2.5992782719822003],[-76.79888984336282,2.597727129723978],[-76.79103126827948,2.5974252067684347],[-76.78658237095391,2.5950457702754193],[-76.78309693709184,2.596776186519719],[-76.7794267641001,2.595378677118731],[-76.7752541300892,2.596495090553617],[-76.77474991043334,2.5991882040717087],[-76.77642812807761,2.6013765364043593],[-76.77423859041033,2.6010837912698435],[-76.77327663464354,2.6025078910521984],[-76.7720562281865,2.596710779632417],[-76.77906089978785,2.59062403205985],[-76.77786299051087,2.58699112673969],[-76.7733227592621,2.5837705980731016],[-76.77417772203984,2.5807356168920137],[-76.77244548750917,2.579009610609262],[-76.77461263186905,2.5740916663619373],[-76.77207200449476,2.5733110630635565],[-76.76958486127359,2.5675673483793844],[-76.76566288030182,2.5644147781659967],[-76.76361030958077,2.55819127756331],[-76.76437296450024,2.5536217850679463],[-76.76853175258952,2.5509962433086457],[-76.77340672747994,2.5380314953429206],[-76.76919634448643,2.5286163241707413],[-76.76679211532962,2.526504109954203],[-76.76702854398025,2.5226544644870046],[-76.76530520033515,2.5192407891732387],[-76.766654717466,2.5183757867395684],[-76.76362605195038,2.5167376269313877],[-76.76193228014148,2.512124560355005],[-76.76044454650673,2.51280354941872],[-76.75817017878677,2.510713970193592],[-76.75611915072949,2.5054965506839153],[-76.75437073365578,2.5060601814072356],[-76.75112102910339,2.5006447291199265],[-76.74727519298727,2.4995414992897054],[-76.74793187307586,2.4984943689419765],[-76.74204161767403,2.493021625207234],[-76.74047805902933,2.4893846781079674],[-76.73314632213817,2.4865205294568113],[-76.72868131220366,2.480931669419533],[-76.7286367734435,2.477318831069738],[-76.72179940064359,2.47735316665171],[-76.71710774254677,2.474864963106313],[-76.71668016551274,2.472641863245883],[-76.71353714233129,2.4724940565155293],[-76.7138959772389,2.4693312152467684],[-76.71145438785072,2.467003588602495],[-76.70458001580272,2.4690697645896194],[-76.70120731055357,2.4626429594129604],[-76.70002481762998,2.4631631723784153],[-76.69868260038413,2.4602078759521078],[-76.69709558605086,2.4605917997150186],[-76.69678229880549,2.457527120199302],[-76.69416569215474,2.456337757279641],[-76.69357758141422,2.4534323948229826],[-76.68359862525233,2.449440766695375],[-76.67987510694718,2.4402477205952664],[-76.68658896277213,2.4273731865788477],[-76.6924710245724,2.4262761356312694],[-76.69083925036387,2.4240928272403153],[-76.69186944740551,2.421540652513386],[-76.69688151676905,2.4168175199617394],[-76.69489789694819,2.4128740764230656],[-76.70042948199313,2.4089785469928415],[-76.70220012062435,2.4049027449588607],[-76.70198519156457,2.397694585720785],[-76.70712893139535,2.3919161981255],[-76.70541169772724,2.387797055466933],[-76.70799850834129,2.384593026103687],[-76.70875299537033,2.3789422743956266],[-76.71697072314998,2.37796723992534],[-76.7253100128354,2.384885341349218],[-76.7295747572436,2.385750635860518],[-76.74220580749375,2.3948866054577707],[-76.75638203709235,2.4014718751146233],[-76.76674065206595,2.410798582746679],[-76.78037186472244,2.417383506846818],[-76.78745960259755,2.4234184281155535],[-76.79291111105113,2.4310984563215925],[-76.80272635561909,2.433239602683045],[-76.81832817829854,2.4469127819649543],[-76.8310818363804,2.438730014031762],[-76.84184815065106,2.4342606075055073],[-76.85088152590794,2.4370335219924186],[-76.87662519358912,2.456119110400209],[-76.88805468564823,2.4600347438247354],[-76.90420413751383,2.486927921249503],[-76.92043620313848,2.4897448253082644],[-76.93398773515395,2.4883834111543592],[-76.93815964719818,2.4903205813688487],[-76.93754287582152,2.498767087215299],[-76.94634877810518,2.5070719281901006],[-76.94469666850273,2.515375705755332],[-76.94579712668036,2.519250978981688],[-76.94298622769747,2.5237380839752745],[-76.94393728094508,2.5319695476332527],[-76.9403205334853,2.5368184967573484],[-76.93549888231104,2.536817965052535],[-76.93067695345724,2.539242096628982],[-76.93007376163558,2.54348519232218],[-76.93248398866922,2.548940960584673],[-76.9324835217563,2.5531841210697053],[-76.92886695324552,2.5556083698886027],[-76.91500450763004,2.5556066811859637],[-76.9089777439674,2.552575074324807],[-76.90355340902204,2.551968179081598],[-76.88125101696653,2.5653005654229446],[-76.87763386635731,2.570755495504784],[-76.87703454045106,2.5873289793630647],[-76.88799114744097,2.5945325589465824],[-76.89429006990423,2.603059379983108],[-76.9025694569267,2.605644745635402],[-76.90371121118523,2.607654834481366],[-76.90399596634984,2.613110378543354],[-76.89742755286585,2.624881853451029],[-76.89999648194987,2.6297634710517173],[-76.90513546009174,2.6317741070290595],[-76.9071336313458,2.634932834527774],[-76.90941636955944,2.64526989334621],[-76.90341727202895,2.668239598557591],[-76.89856205763311,2.677369686492],[-76.89770430777611,2.6854092314631544],[-76.88954517448047,2.6924326515715507],[-76.87810013031356,2.692159771832735]],[[-76.80836258263344,2.4580012023756126],[-76.81411991903877,2.456903079790891],[-76.81433743668839,2.4514431576490665],[-76.81746718267692,2.4473657522732424],[-76.81499421550745,2.4488952571292657],[-76.81103857978269,2.4467794783309955],[-76.80906400511378,2.4490342418797013],[-76.8052957433884,2.4482981022651984],[-76.80555261850475,2.4534902735110222],[-76.80753118147373,2.4562653127601948],[-76.81069316502146,2.4566909480947743],[-76.80836258263344,2.4580012023756126]]]}}]}