{"type":"FeatureCollection","features":[{"type":"Feature","properties":{"code":"193537"},"geometry":{"type":"Polygon","coordinates":[[[-76.69133222914297,2.3447832657616345],[-76.69347470322373,2.3388020559319216],[-76.69181280593381,2.3270772589448825],[-76.68586963099375,2.314154932176166],[-76.68777386842191,2.309370007712687],[-76.68947423049048,2.307851945308073],[-76.69122837084677,2.3085690556506506],[-76.69576836246847,2.304569190726909],[-76.70085746423354,2.3062865467796883],[-76.70149869505866,2.2995019495360225],[-76.70427557830521,2.292809488400792],[-76.7093487566948,2.288686493196508],[-76.71592548102274,2.2867585604527108],[-76.72394428847889,2.2926760870648195],[-76.73013185838533,2.2921904102275334],[-76.73667078950763,2.2979656446180456],[-76.73891365603328,2.2963349800989477],[-76.7441480684987,2.299260075282291],[-76.7455903573154,2.297078136776747],[-76.74745120166835,2.30243790095858],[-76.75228838438159,2.302916073250742],[-76.75419639619378,2.3060901677375796],[-76.75717152716248,2.3039001035077717],[-76.76059011431772,2.3061730406641914],[-76.7581625189469,2.307223211088001],[-76.75895726230141,2.308656781797481],[-76.75630155323768,2.3120870098936166],[-76.75386839193595,2.3128472088923786],[-76.75353962046,2.3155228481437007],[-76.74783288754031,2.3233570378264403],[-76.74565050886144,2.3233079245539443],[-76.74460564622945,2.329281372727962],[-76.75569956058001,2.3301498975772574],[-76.75726341335934,2.3322539788703125],[-76.76132171541542,2.3310764564093915],[-76.76229151099949,2.3337506908082446],[-76.7645952438387,2.334032682547729],[-76.76726584166477,2.3320539210893685],[-76.77552084637199,2.3340413338062262],[-76.78181491355815,2.341050779437694],[-76.78424953113449,2.3415792199433554],[-76.78934678536342,2.348691235232536],[-76.79506747836183,2.3519508827671984],[-76.79669351386116,2.3553051830090794],[-76.80097301127728,2.3582349997719803],[-76.81157094276807,2.3597072244934907],[-76.81365367153757,2.361259709897638],[-76.81537723012718,2.3603884781876445],[-76.81380739901152,2.3624958587242872],[-76.81453143488602,2.3639101790467407],[-76.81762877362235,2.363619682087574],[-76.81899435913914,2.3658909747643975],[-76.8313547284605,2.3696536448478014],[-76.82990821583041,2.371927944690583],[-76.80601026411273,2.3724127000433555],[-76.79783176421603,2.3680231397373177],[-76.78856206006742,2.3669242540482855],[-76.77929191266014,2.3680192501677197],[-76.77274879886215,2.3663723671101025],[-76.76620643891249,2.3614345060449864],[-76.75203257678857,2.346073573399792],[-76.73622134675719,2.33839096483149],[-76.72258933191557,2.3389360547930096],[-76.71222755550963,2.3449667255088116],[-76.69133222914297,2.3447832657616345]]]}}]}