{"type":"FeatureCollection","features":[{"type":"Feature","properties":{"code":"193597"},"geometry":{"type":"Polygon","coordinates":[[[-77.13406171304933,2.319093165537481],[-77.13679315764858,2.326691813087052],[-77.14565147141991,2.3359226184542194],[-77.14750541492356,2.34008818603661],[-77.14054720526991,2.3519598518143994],[-77.14459807888568,2.364883989670375],[-77.14505650302465,2.3746368417160966],[-77.1435686140951,2.3765643188598347],[-77.13910468093991,2.377079999479122],[-77.13868518746403,2.3831951382358625],[-77.13595442883593,2.3887423185831835],[-77.13659503951021,2.4026365194183086],[-77.13908185568664,2.40848814754753],[-77.14755849284194,2.415790958464413],[-77.15382988287053,2.4178395573404714],[-77.15592051213548,2.4215111166727183],[-77.16125347099148,2.423547850407431],[-77.19252039539009,2.413446288470709],[-77.20393462022002,2.408070634851981],[-77.21872839972627,2.4379404457999954],[-77.22011703572525,2.449512576665825],[-77.22249753151408,2.4552984616070717],[-77.22895218691417,2.465632773455525],[-77.2633312010002,2.502024480403918],[-77.28265685463134,2.515778980692687],[-77.29597847215103,2.521846693851103],[-77.29518496909822,2.5356646469863335],[-77.29771028502029,2.5609089914264587],[-77.29536798352973,2.564982321084642],[-77.2818862128272,2.5763250115667233],[-77.27239531023326,2.578212601595851],[-77.2687942773752,2.580382451787955],[-77.26916775936121,2.5825415136180823],[-77.27765949199585,2.5918690995400766],[-77.27798017271448,2.6011968047613436],[-77.2750724396978,2.6058693255997696],[-77.26209498326784,2.6109604616241313],[-77.24791882566024,2.6133900470312597],[-77.24019092448333,2.619721511472676],[-77.22856055497459,2.6051269402538537],[-77.22809265168092,2.5996446237762143],[-77.2266907600864,2.5987049471597174],[-77.21926870948704,2.6012490290724486],[-77.21391890062881,2.5976099314999033],[-77.2097930309277,2.600258562822205],[-77.20270446412792,2.595418145657277],[-77.19304773032002,2.594635874225162],[-77.17826064803143,2.5994175076725696],[-77.17134561136629,2.6076546524470245],[-77.16950675202906,2.614437386152815],[-77.16337583799253,2.618445724414471],[-77.15666975822143,2.6204787691258957],[-77.15120722177875,2.631863311047823],[-77.1393774588629,2.622112529256924],[-77.13877079810464,2.6193540294203785],[-77.13043562218928,2.616324303580541],[-77.12597652888456,2.610323703495567],[-77.1204522488668,2.597106419412455],[-77.11283670092132,2.5876696200941183],[-77.10912870489909,2.5796381957051153],[-77.10328174589887,2.5739015320228305],[-77.0952957683848,2.5703161757140833],[-77.08902106265754,2.562571551033386],[-77.08845053828406,2.5505242714963856],[-77.08203337269907,2.540771752666103],[-77.08260371092445,2.532822276633908],[-77.0781831122232,2.528150783209526],[-77.07939129255561,2.5220760283052073],[-77.07114647457155,2.5163406440054246],[-77.06949625421794,2.513371490344582],[-77.07269818864376,2.5015819415881424],[-77.07314154918515,2.489766047219689],[-77.078018091422,2.4821860432761014],[-77.07668813218254,2.471261920671566],[-77.07890471377425,2.4674719012162427],[-77.07956966459761,2.456547778611764],[-77.08372520383693,2.4513343844261044],[-77.08496069548886,2.446204798021313],[-77.07839951298422,2.440201499303157],[-77.07890468086413,2.435368327515789],[-77.07580155816703,2.4320242119401883],[-77.07376116112005,2.4258885506129673],[-77.07513661557124,2.422638366806382],[-77.08067785460611,2.418402480495274],[-77.08511075759367,2.403465360784537],[-77.08688391282374,2.40101299948941],[-77.09465021912956,2.3968987840988802],[-77.10222631499158,2.3776648150898723],[-77.10692605047592,2.374403893314934],[-77.11037762492498,2.3669025580249468],[-77.11999534785122,2.355589948458089],[-77.1245619319111,2.34572267395464],[-77.12478336689827,2.340149128454925],[-77.12877263680718,2.3345754358879276],[-77.13406171304933,2.319093165537481]]]}}]}