{"type":"FeatureCollection","features":[{"type":"Feature","properties":{"code":"193587"},"geometry":{"type":"Polygon","coordinates":[[[-76.91663813406359,2.8160540442813726],[-76.91273888372837,2.8109563766186056],[-76.8972664329471,2.808774006167255],[-76.89275744475356,2.8104728872785927],[-76.89013231642815,2.8142181180622288],[-76.8848126645899,2.8142196668966335],[-76.89075981240342,2.7878510218959036],[-76.89613639984793,2.775955492137882],[-76.89673180533129,2.7685182843526945],[-76.89908697160934,2.7633443268238693],[-76.89815548550905,2.760736598717415],[-76.92053249004084,2.7355601726212058],[-76.92416203749622,2.7257293862298866],[-76.9296877017976,2.7185871182755363],[-76.93758093539378,2.7122387441822298],[-76.94679102175797,2.691604499261814],[-76.95163733189855,2.688188031726611],[-76.96678570193018,2.683405292703412],[-76.97283708650673,2.67599827587685],[-76.97482317458963,2.668133485915348],[-76.97956066728415,2.6611253854866845],[-76.98572901868528,2.65901484968839],[-76.99519959102747,2.6590155140622187],[-77.005985276013,2.6632490904914334],[-77.00887886074594,2.6672175910036913],[-77.00887862214728,2.671450478376414],[-77.01150927732283,2.6730379565372573],[-77.02282150225216,2.6727739615133714],[-77.02755699256915,2.669070377509513],[-77.03060140662501,2.663946078327683],[-77.03992154970848,2.6658961565242407],[-77.04676154915057,2.66192800979627],[-77.05185684728184,2.6687348429956046],[-77.06070422459538,2.6740978477997714],[-77.07133243034866,2.6778017218243804],[-77.07737717530028,2.6762597141926108],[-77.08103936449277,2.6731874848803727],[-77.09188831720513,2.6591447131821155],[-77.10199754309554,2.658567825834723],[-77.1144761575955,2.654784839897843],[-77.12368367079654,2.6555781938265],[-77.12973757917104,2.6539951173996315],[-77.13552188545299,2.6561068060820503],[-77.14960456997699,2.6567987020993655],[-77.1468242815572,2.6668497932195123],[-77.14843724452362,2.677842608585138],[-77.15958521998368,2.693684457407187],[-77.16126694358849,2.7052351596446442],[-77.16355127794492,2.7078257857804715],[-77.17401125929848,2.712445571171827],[-77.19197077308235,2.7138530369248315],[-77.20513911050068,2.717573632396409],[-77.23381791199256,2.736958785540992],[-77.22797482302155,2.7386606079979856],[-77.22838521375269,2.7477144945124223],[-77.22552086146987,2.7518302906190684],[-77.21515252565757,2.7494994552341723],[-77.2105143393726,2.750871793504473],[-77.2011010080841,2.7488150905013526],[-77.1946885486521,2.7423682358377732],[-77.19209649606654,2.741819760243459],[-77.17831874166399,2.751149330031012],[-77.16934421800181,2.749448191488341],[-77.1652208587289,2.757877924465731],[-77.1621924492955,2.768680540700416],[-77.16313224418286,2.7706399859514477],[-77.14951066391905,2.769822164346806],[-77.14758061052675,2.7733593926309936],[-77.14149209814684,2.776617635313187],[-77.13435092445536,2.78373575955095],[-77.13063511021306,2.789890568420958],[-77.12295179510471,2.794066692965714],[-77.09759106799538,2.7943437132141185],[-77.08597114849107,2.7993437395157343],[-77.07009317254023,2.795216486559468],[-77.06575198194275,2.795534092234959],[-77.06489747476502,2.802611158990487],[-77.06168600256325,2.810007536579292],[-77.06049600303771,2.8095468632365055],[-77.06127386656522,2.8163724326016677],[-77.05275927473872,2.822386162812279],[-77.04094800116246,2.8202837805062586],[-77.01959272341975,2.803351212857251],[-76.98752446334998,2.7916016334908136],[-76.98015557294445,2.787548991982362],[-76.97654553504367,2.7832931569716948],[-76.94833932140108,2.7717028278155453],[-76.94078629453321,2.7726548992212656],[-76.93384309499811,2.787544082197769],[-76.9347044444039,2.790452225563058],[-76.91885062656786,2.795794240883822],[-76.91659251749564,2.8005779055052926],[-76.91835519495334,2.809433367405518],[-76.91663813406359,2.8160540442813726]]]}}]}