{"type":"FeatureCollection","features":[{"type":"Feature","properties":{"code":"193570"},"geometry":{"type":"Polygon","coordinates":[[[-76.80836258263344,2.4580012023756126],[-76.81069316502146,2.4566909480947743],[-76.80753118147373,2.4562653127601948],[-76.80555261850475,2.4534902735110222],[-76.8052957433884,2.4482981022651984],[-76.80906400511378,2.4490342418797013],[-76.81103857978269,2.4467794783309955],[-76.81499421550745,2.4488952571292657],[-76.81746718267692,2.4473657522732424],[-76.81433743668839,2.4514431576490665],[-76.81411991903877,2.456903079790891],[-76.80836258263344,2.4580012023756126]]]}}]}