{"type":"FeatureCollection","features":[{"type":"Feature","properties":{"code":"193529"},"geometry":{"type":"Polygon","coordinates":[[[-76.73561439494972,2.3901696980686324],[-76.7295747572436,2.385750635860518],[-76.72242613042914,2.3831233879150773],[-76.71697072314998,2.37796723992534],[-76.70676576880157,2.378971359778518],[-76.70076818822383,2.3767757892674126],[-76.69640707978004,2.3723867133577983],[-76.68174029955509,2.364514706815214],[-76.68464753480566,2.3552197842276428],[-76.68817288869252,2.357137577556614],[-76.68719535613536,2.354064918355391],[-76.69009634976823,2.348649875388219],[-76.69269557265505,2.347165862658528],[-76.68994790746041,2.3456878231230007],[-76.71222755550963,2.3449667255088116],[-76.72258933191557,2.3389360547930096],[-76.73622134675719,2.33839096483149],[-76.75203257678857,2.346073573399792],[-76.76620643891249,2.3614345060449864],[-76.77274879886215,2.3663723671101025],[-76.77929191266014,2.3680192501677197],[-76.78856206006742,2.3669242540482855],[-76.79783176421603,2.3680231397373177],[-76.80601026411273,2.3724127000433555],[-76.82990821583041,2.371927944690583],[-76.82642604727329,2.3794004311395156],[-76.8239384721063,2.3791100113135712],[-76.82067270636713,2.384390201812323],[-76.81661414617196,2.3862693318732795],[-76.81076248307568,2.385119666834896],[-76.80942675324525,2.382447638445285],[-76.79837082750441,2.3774534290145652],[-76.79277931408546,2.3794276848662435],[-76.7899024106901,2.378814405051969],[-76.78870475338158,2.382467672505527],[-76.78336370273985,2.3850014905619332],[-76.78063260061197,2.38313174606742],[-76.77900005815684,2.3838639066378278],[-76.7790146034194,2.3816092613599835],[-76.77696282459908,2.382638640789878],[-76.77420959450194,2.3766066433832407],[-76.76959976751948,2.3809616891583687],[-76.76393934022423,2.3819088230115426],[-76.75405773026051,2.3757881008403956],[-76.75109846301763,2.379037909265435],[-76.75209776873135,2.3805444438578434],[-76.7508233721274,2.382735999329327],[-76.74871028784855,2.38383937519842],[-76.74681824260642,2.381827310714357],[-76.7413859793977,2.3825166664786934],[-76.73561439494972,2.3901696980686324]]]}}]}