{"type":"FeatureCollection","features":[{"type":"Feature","properties":{"code":"193528"},"geometry":{"type":"Polygon","coordinates":[[[-76.62102787079527,2.4171571990990515],[-76.61885309333502,2.417611495069707],[-76.61834920792302,2.415535885179338],[-76.62330951988832,2.4165865801088557],[-76.62388106241991,2.41470917371754],[-76.62888573933861,2.417579829324552],[-76.63468524702944,2.416250710322629],[-76.63450230150352,2.418939315148748],[-76.63577614686233,2.41735773921954],[-76.638285590831,2.4177174699005946],[-76.6405825256652,2.4114636744666313],[-76.64464862537244,2.4114050738119204],[-76.64822770406806,2.401918153347424],[-76.65365955384289,2.3972450637803036],[-76.65123121387967,2.3944874987979574],[-76.65730228798822,2.392220852624405],[-76.6727677433035,2.380979768149359],[-76.67847906924743,2.3730854845133535],[-76.68174029955509,2.364514706815214],[-76.69640707978004,2.3723867133577983],[-76.70076818822383,2.3767757892674126],[-76.70866539057971,2.3790912926312444],[-76.70799850834129,2.384593026103687],[-76.70541169772724,2.387797055466933],[-76.70712893139535,2.3919161981255],[-76.70198519156457,2.397694585720785],[-76.70220012062435,2.4049027449588607],[-76.70042948199313,2.4089785469928415],[-76.69489789694819,2.4128740764230656],[-76.69688151676905,2.4168175199617394],[-76.69186944740551,2.421540652513386],[-76.69083925036387,2.4240928272403153],[-76.6924710245724,2.4262761356312694],[-76.68658896277213,2.4273731865788477],[-76.67987510694718,2.4402477205952664],[-76.67409942415571,2.436735488606473],[-76.66947664702502,2.4395403310913935],[-76.65983265562,2.4377896997809216],[-76.65322532587112,2.4345122509347448],[-76.64162756930307,2.4343508121988293],[-76.63926299483285,2.432799083728355],[-76.63982674691238,2.4305051303490472],[-76.63600469250105,2.4264864223014797],[-76.63347879756577,2.4280947325939906],[-76.63010638747966,2.4273271576054753],[-76.63037337835658,2.425393683613379],[-76.62872623098929,2.424080178425754],[-76.62088305374732,2.4235377685853905],[-76.62241648005471,2.4186752615036085],[-76.62102787079527,2.4171571990990515]]]}}]}