{"type":"FeatureCollection","features":[{"type":"Feature","properties":{"code":"194028"},"geometry":{"type":"Polygon","coordinates":[[[-76.70981486638465,2.143038243608544],[-76.70525272313955,2.1367576675314126],[-76.69135064649163,2.1268528476769575],[-76.69105346465608,2.1181779710270234],[-76.68557522286767,2.111301901020454],[-76.6853082844413,2.104820036116621],[-76.68245479251146,2.0983877760808127],[-76.68345333306394,2.0955342502123813],[-76.67906698252705,2.085790662376951],[-76.67980723488313,2.0797752928289697],[-76.67811355871942,2.077192463315896],[-76.67547381725421,2.076522572883107],[-76.67969337704034,2.068069829532817],[-76.67596999654648,2.061617361629942],[-76.68557160583532,2.0564567584272027],[-76.69243349053426,2.056052351174685],[-76.69646935711677,2.058083774032241],[-76.69983696231952,2.0640106831254457],[-76.70870870446481,2.0706620137590335],[-76.71451017236711,2.072036770926161],[-76.72645573482521,2.0689492784985077],[-76.7325988153367,2.0689506401564017],[-76.75546300645942,2.0775393703472105],[-76.75921548262056,2.0857806813422712],[-76.76842820899674,2.09608320814624],[-76.77656665002888,2.1202485322930897],[-76.77822318296262,2.1275374078138043],[-76.77325369214782,2.1375314615117986],[-76.7741558090151,2.1429834697884758],[-76.77686478214531,2.146164238867243],[-76.7750578446354,2.1488897966614786],[-76.76918669461026,2.150705890395159],[-76.76860986999793,2.152471854755106],[-76.76329097303648,2.1494356240163484],[-76.75361634227187,2.1517933140923446],[-76.75167836164468,2.1478431743643682],[-76.74816163227678,2.148945077503754],[-76.74658957766837,2.1466669539116765],[-76.74209611690003,2.1461663430606563],[-76.73907361175509,2.15068507677546],[-76.7361980021405,2.1517763828431384],[-76.72503560277414,2.149225338374549],[-76.70981486638465,2.143038243608544]]]}}]}