{"type":"FeatureCollection","features":[{"type":"Feature","properties":{"code":"194008"},"geometry":{"type":"Polygon","coordinates":[[[-76.83993060929049,2.226412448519852],[-76.83749688748753,2.2248288918103754],[-76.83783215563489,2.222413204775421],[-76.83539093751443,2.2254174848904427],[-76.83429226471299,2.223206775705478],[-76.82793669974956,2.2221390960477834],[-76.82490824197936,2.218968311088986],[-76.82181062762044,2.219487213818695],[-76.82135261691536,2.2166513689340377],[-76.81871193648215,2.216596102489973],[-76.81874323095957,2.2145217493563223],[-76.81211999634712,2.205365778609064],[-76.80887748575014,2.2054488335699602],[-76.8071467486318,2.203821254378454],[-76.80333088852979,2.20547552679551],[-76.80266722120268,2.2031738189596126],[-76.79838700079148,2.209179554058096],[-76.79621222230276,2.20840534253],[-76.78975809449366,2.212148669666533],[-76.78849865350082,2.2105284407537056],[-76.77756604933086,2.2137039483205285],[-76.77692562686161,2.2160335742570396],[-76.77124100339921,2.2202923999785753],[-76.76520648116622,2.2211440367732393],[-76.76447355337768,2.2225353950595377],[-76.76294720995395,2.221103392724899],[-76.76025453660918,2.2225056864404564],[-76.75482939022271,2.2218522356614017],[-76.75460874713633,2.2236439162265356],[-76.75216681424831,2.2238326868508125],[-76.74623851572926,2.2220848642169244],[-76.73897513427016,2.225976989502385],[-76.73725839116918,2.224556714497794],[-76.73106357691364,2.228385118513245],[-76.72852511749613,2.2270223355023404],[-76.731236753264,2.2188452785104573],[-76.73891582399011,2.2120323044808856],[-76.73891705195047,2.206580499835866],[-76.74117625322867,2.201583523894726],[-76.75743813134505,2.183868696126467],[-76.75965272701433,2.175691449901194],[-76.76963609108077,2.161609644695602],[-76.7678303249669,2.1584290411960296],[-76.76876887132505,2.1523973646635],[-76.78123581608781,2.152765487435488],[-76.78785855190563,2.156573532402831],[-76.79456488570202,2.155183242668329],[-76.79572532161893,2.1565863447397646],[-76.80336979451027,2.155780065345482],[-76.80440653038943,2.158001586546675],[-76.80679583478843,2.155963871677784],[-76.8128006484024,2.1567669906681886],[-76.8139597730551,2.15929313345805],[-76.8171561929721,2.1587460184931615],[-76.82279547548922,2.164487881980847],[-76.83349147308797,2.1659321186676834],[-76.8351785322526,2.1639869183740075],[-76.83842764236516,2.166931038715461],[-76.84384463628783,2.165225540604922],[-76.84530250498022,2.162287218622396],[-76.84871262291136,2.1640342400996246],[-76.85877708995486,2.1545265708072634],[-76.86504830926202,2.158793126302726],[-76.86815322144906,2.157376616426234],[-76.86956427646646,2.1592623460028335],[-76.8747840655077,2.156858626953465],[-76.87714864820543,2.1582160528072905],[-76.87969675441371,2.157103438439094],[-76.88378679009219,2.1587804692606483],[-76.88763961447523,2.1652216376655815],[-76.89245450672524,2.165807256489927],[-76.89111062545942,2.170179588326846],[-76.89626028500533,2.1808103065652062],[-76.89996081350642,2.1835910403005983],[-76.90191463831906,2.19081537076886],[-76.90409613665116,2.192383023643231],[-76.90330272204437,2.1977242203238347],[-76.90554628585403,2.1970574830958185],[-76.90559204023322,2.1998418019818473],[-76.90701073657857,2.1999098118571396],[-76.90594998553809,2.2044777544896306],[-76.90837658229128,2.2048019329412796],[-76.9052558670565,2.2061575230251833],[-76.90701111710229,2.2106936034799674],[-76.90464512852361,2.215646916893945],[-76.90613297528705,2.2156798486518596],[-76.90650778396389,2.2195533879241225],[-76.90966628314834,2.2223176295552776],[-76.90900220135893,2.226701972572414],[-76.911047249023,2.2279264804582226],[-76.91404515279442,2.239733686544298],[-76.9167153207315,2.243369487958603],[-76.91834924129961,2.242909048072306],[-76.92078983001323,2.2451791765522557],[-76.92137844880438,2.24737229937017],[-76.92332272041449,2.245329284936929],[-76.92340721210962,2.2489783121220626],[-76.92574929659878,2.247089101267534],[-76.92908310718036,2.2504626333844726],[-76.9307087477577,2.2488609719728743],[-76.93540833308947,2.2535323903209132],[-76.93199793130822,2.2574801512612908],[-76.92973893571855,2.254454296479139],[-76.92777910377316,2.2544812221327106],[-76.92307904535784,2.264500917988073],[-76.91042880951255,2.2652280474176223],[-76.9020510550485,2.2571347848368646],[-76.9037835055521,2.250732784665331],[-76.90044139852478,2.2468391455124674],[-76.90112902033496,2.2427386135497045],[-76.89629806792658,2.238768948840516],[-76.89423851819453,2.2321268340803044],[-76.8859155138964,2.2288294293354625],[-76.88016159603399,2.2312873473055674],[-76.88001699393055,2.228492317190728],[-76.87434118627738,2.2275028927527387],[-76.8733723625715,2.224746766561452],[-76.86446764238838,2.227345470084799],[-76.86400948564449,2.228718923186875],[-76.86148562702544,2.2284653216030392],[-76.86132471279518,2.2262253419155513],[-76.85751690128427,2.2268821608439],[-76.85229140850083,2.224110017688872],[-76.83993060929049,2.226412448519852]],[[-76.75970073471109,2.178617681513515],[-76.7606037504371,2.184413616395034],[-76.76291347086868,2.180031336433558],[-76.76699599068917,2.177946323493245],[-76.76532318985164,2.1760041766453924],[-76.76244158544557,2.1757075388559883],[-76.76165267850234,2.177584054616034],[-76.76333548814245,2.178677692162921],[-76.76218969107634,2.179616698234895],[-76.75970073471109,2.178617681513515]]]}}]}