{"type":"FeatureCollection","features":[{"type":"Feature","properties":{"code":"194007"},"geometry":{"type":"Polygon","coordinates":[[[-76.64973074915503,2.1887080180001135],[-76.64464194769516,2.179827154598115],[-76.64569531451832,2.174257389653121],[-76.64848681913224,2.1729412886765544],[-76.64703001899159,2.169060107047926],[-76.64815962528712,2.1638458921651704],[-76.6472819051333,2.158636649801963],[-76.65102794632963,2.153273905193714],[-76.656384444178,2.150986404262767],[-76.65935219915696,2.1441849189645836],[-76.66641715188808,2.1419051138689724],[-76.67326827702135,2.136524997838194],[-76.67946318692202,2.137724940346004],[-76.68554431611312,2.1357195442832335],[-76.6883450139747,2.135636524289339],[-76.68951255848629,2.1373884483520555],[-76.69378430041735,2.1365671423841377],[-76.70073589410026,2.1427234579224432],[-76.70966940347483,2.142969828526873],[-76.72503560277414,2.149225338374549],[-76.7361980021405,2.1517763828431384],[-76.73907361175509,2.15068507677546],[-76.74209611690003,2.1461663430606563],[-76.74658957766837,2.1466669539116765],[-76.74816163227678,2.148945077503754],[-76.75167836164468,2.1478431743643682],[-76.75361634227187,2.1517933140923446],[-76.76329097303648,2.1494356240163484],[-76.76869627253922,2.1524313762860174],[-76.7678303249669,2.1584290411960296],[-76.76963609108077,2.161609644695602],[-76.75965272701433,2.175691449901194],[-76.75743813134505,2.183868696126467],[-76.74117625322867,2.201583523894726],[-76.73891705195047,2.206580499835866],[-76.73891582399011,2.2120323044808856],[-76.731236753264,2.2188452785104573],[-76.72852511749613,2.2270223355023404],[-76.72948406918232,2.2288888918250223],[-76.72731746681166,2.22922582296394],[-76.7204351500452,2.222806729049239],[-76.7171848685366,2.2224396923124914],[-76.70720611806325,2.216734768423237],[-76.69559299039332,2.2067015866011275],[-76.6945929328881,2.2044455724663408],[-76.69576137317313,2.2030718519692414],[-76.69392136300871,2.200735367349523],[-76.69222042295542,2.201645450532567],[-76.68590309857018,2.197137951523814],[-76.68459869921264,2.194246565600963],[-76.67992940048464,2.1914910184228233],[-76.67854835747681,2.187352778615093],[-76.67509978299461,2.185348762722242],[-76.66483749811795,2.18857044632972],[-76.6550860406403,2.187244541210646],[-76.64973074915503,2.1887080180001135]]]}}]}