{"type":"FeatureCollection","features":[{"type":"Feature","properties":{"code":"194038"},"geometry":{"type":"Polygon","coordinates":[[[-76.81174443176502,2.0640334600418555],[-76.79837038424569,2.0418723060543584],[-76.7965924652699,2.034546233824585],[-76.79756140621828,2.024043592675298],[-76.79443356181991,2.015056648512825],[-76.77663683608858,1.999315060495121],[-76.77610026883019,1.991036755394191],[-76.78299719050881,1.9816017486511441],[-76.78279882348738,1.9788259432122572],[-76.78016707713431,1.9810891492456335],[-76.77170604042357,1.9821366251500194],[-76.78100586662504,1.9650558332230048],[-76.79090115487423,1.959904536396607],[-76.79495080155806,1.9544399677515116],[-76.79983807970638,1.9606465443041543],[-76.80797813025106,1.9809979490199225],[-76.81262498219269,1.9853242930212218],[-76.82053696223909,1.9887943465254239],[-76.8252594160187,1.995471428331257],[-76.83483515586443,2.001719088077209],[-76.83964143079464,1.9999342919062997],[-76.84888095529749,2.0046461475857313],[-76.85419174298966,2.0028410417319265],[-76.86830587008677,2.003733177564527],[-76.8721208765815,2.0088466390191115],[-76.86913025418312,2.019193236641911],[-76.87373819397357,2.0218565633793446],[-76.87831637269443,2.021404962956524],[-76.88131428572183,2.0242686909747363],[-76.88661737037955,2.0257434220106916],[-76.88010940566147,2.0362959025128475],[-76.87837714541973,2.0424893653948857],[-76.87869783436594,2.0481975196221356],[-76.88476324689844,2.0558829985735656],[-76.88188672299839,2.0649362855060645],[-76.88351904948058,2.0764443947966242],[-76.88265424245105,2.0802589950565675],[-76.87782370656186,2.082485411644143],[-76.87167659661253,2.081711553900277],[-76.86860320104648,2.080165023178324],[-76.86783567439477,2.073593898719821],[-76.85592643961172,2.067021242910471],[-76.85054757930925,2.0677935446208267],[-76.84593672902645,2.0712716508299422],[-76.84017376395519,2.0712707920804405],[-76.8347955402586,2.0677912028571654],[-76.82096509360366,2.0640349739092585],[-76.81174443176502,2.0640334600418555]]]}}]}