{"type":"FeatureCollection","features":[{"type":"Feature","properties":{"code":"194528"},"geometry":{"type":"Polygon","coordinates":[[[-76.31455375371098,1.5782813407961953],[-76.26724159672625,1.5647822408372463],[-76.25201276238039,1.563535108244423],[-76.22929556037627,1.5658241919484226],[-76.24392571159245,1.5460048478559543],[-76.26342243840907,1.530901950410282],[-76.27277465552936,1.5257808291158312],[-76.27480799643223,1.4882778262625038],[-76.27453421474928,1.4557948632021862],[-76.29331048055764,1.4579920010596652],[-76.30682856248012,1.4641320754336675],[-76.31483683971334,1.4578514314792983],[-76.31594409486763,1.4544468887351059],[-76.31434124354797,1.4480945561664953],[-76.315171574099,1.4444141213753028],[-76.33388678436029,1.4124466928954575],[-76.3368018049207,1.402580016945592],[-76.34294354228626,1.3984176961562866],[-76.3446294989605,1.3869639040573247],[-76.35139746731704,1.372313683813843],[-76.37689566942316,1.368152992077455],[-76.38642520648881,1.363623376412363],[-76.38966744146313,1.3558213944639874],[-76.39945379502387,1.351776187566486],[-76.40844092430598,1.3405752041221604],[-76.40804550461263,1.337258188006956],[-76.41004388566893,1.334414958905029],[-76.41159524390008,1.3343016512789632],[-76.4124482773197,1.3361837792498363],[-76.41387512612886,1.3348664719102317],[-76.41159975053517,1.3307216171602363],[-76.41008210053604,1.3320633263554669],[-76.40468061449815,1.3290858855048668],[-76.40139099094944,1.3251702736775997],[-76.40108169303255,1.322055839141285],[-76.40347708786817,1.317157101058001],[-76.41030593076584,1.3128240793794248],[-76.40855847939963,1.307866033072969],[-76.41431257723951,1.3022126022721636],[-76.41547093570256,1.2974862620083059],[-76.42037481085617,1.2953570558644856],[-76.4202824227794,1.2870727816832073],[-76.4227026102788,1.2841152555935196],[-76.43207194068259,1.286384186966302],[-76.4364288921617,1.2845757818689663],[-76.45047238994039,1.2871587234822641],[-76.45878508821602,1.2859384291254514],[-76.4611180843587,1.2804673648373637],[-76.46562615003927,1.275813655241052],[-76.47024571328706,1.2746703490627738],[-76.46947209002809,1.272386727416972],[-76.47211118563138,1.268453698915664],[-76.47127226552846,1.2640467651301606],[-76.47317895064981,1.2623615499630318],[-76.47274952241924,1.2590458255716044],[-76.48301677878703,1.2626804638173894],[-76.49311086188976,1.2494949709494563],[-76.49904006440977,1.248697177234419],[-76.50699106048,1.2450100565384332],[-76.51137862355068,1.2365234938843628],[-76.51195025144295,1.2259221068266015],[-76.51482985244303,1.2199346564077018],[-76.52562616123976,1.2104212895438309],[-76.53783130361802,1.2072788875416336],[-76.53759889103543,1.2122033294887729],[-76.54281836125949,1.2220237008427262],[-76.56284617373586,1.2337936320581093],[-76.56646167369485,1.2387013577005632],[-76.5638912873078,1.2480347409530168],[-76.57051369505245,1.2514368894830454],[-76.57261238936366,1.2547818308980254],[-76.57405300798968,1.272907464888135],[-76.58547568456021,1.3001947116612769],[-76.58415612081774,1.3109764001191593],[-76.57838731522139,1.3193434690654158],[-76.57525937826324,1.328217324660102],[-76.57664783222782,1.3331246718357193],[-76.58142390591502,1.337274223482666],[-76.58592624317077,1.3448718909265267],[-76.5862227369783,1.350006229764233],[-76.58427057412877,1.3509495388397],[-76.58200439075432,1.3497762216802585],[-76.57948579673251,1.3514328296902818],[-76.5797380191749,1.3533417372759118],[-76.58266680955217,1.3539858467116233],[-76.57952359816574,1.3581722844780302],[-76.57869946398091,1.36258782735581],[-76.57846393213214,1.3713288945662612],[-76.58030988772276,1.378918566897994],[-76.5743748775879,1.386991925002235],[-76.57374923383759,1.3917534554837516],[-76.57768507821453,1.3953643963570244],[-76.59078574205819,1.3950657057963554],[-76.59103734434973,1.4005399490002333],[-76.59463107012374,1.4027021804901665],[-76.59515727993755,1.4053240106004523],[-76.59795058535428,1.406612416648386],[-76.60060476820928,1.4110749634630793],[-76.59890280177041,1.4175841078047142],[-76.60570154009866,1.423035371488993],[-76.61149254256986,1.4243005841012177],[-76.6131407924276,1.4292001305403232],[-76.6184581899198,1.4268768233546325],[-76.62303617015124,1.4275668404075077],[-76.62548461719416,1.4341452009875297],[-76.63013098679625,1.4349271145216562],[-76.63512086237017,1.4387691423151523],[-76.63560178368925,1.4428171743442135],[-76.63282872110659,1.4488840020136422],[-76.62568764923088,1.4546598082181958],[-76.62574376825381,1.4643206722512332],[-76.62261624987178,1.468508811061497],[-76.62124841823652,1.4750090151522954],[-76.61814673741588,1.4781834551958468],[-76.60963551476709,1.4806685826696366],[-76.59581572689041,1.4810162558906086],[-76.58920926926078,1.4860736744270184],[-76.57930239354971,1.489459693893025],[-76.57358962675778,1.4954621235772265],[-76.56594085394829,1.499238035886549],[-76.56039716310647,1.507011170022281],[-76.56130445921025,1.5187118993974877],[-76.55187697449577,1.5214939659944093],[-76.54537737718601,1.520996462068183],[-76.54162977687088,1.5229878229758356],[-76.53998134395039,1.5273882642037506],[-76.54206920259116,1.5337224879564246],[-76.53803448580737,1.5365395092576932],[-76.53675690720223,1.5412803701014468],[-76.52064748951858,1.5481587983267104],[-76.51038521081256,1.5546437722122732],[-76.48708735221925,1.5799088346269627],[-76.46843840862317,1.5953268900549915],[-76.45496297415502,1.608959000541745],[-76.44253714343887,1.6222895480278794],[-76.43821496771511,1.6305894339666338],[-76.43009654325971,1.6365625900629652],[-76.42348184163484,1.6283696302644444],[-76.3936200875055,1.6178443860055154],[-76.35716532366092,1.600826481281615],[-76.32979698728053,1.5843399121290531],[-76.31455375371098,1.5782813407961953]]]}}]}