{"type":"FeatureCollection","features":[{"type":"Feature","properties":{"code":"194527"},"geometry":{"type":"Polygon","coordinates":[[[-76.45111912704675,1.8742320164813009],[-76.44716411044436,1.8682394125369228],[-76.44423416409768,1.8559545329532625],[-76.44722531305865,1.8255681795511123],[-76.44356278448015,1.8007002738692108],[-76.43691735196444,1.7769356844066806],[-76.42349737831597,1.7427026248260518],[-76.42612886550148,1.7277740833543476],[-76.43395664387356,1.7064980255103706],[-76.43858049984044,1.6715059198149902],[-76.43470500549893,1.6475677158856001],[-76.43009654325971,1.6365625900629652],[-76.43821496771511,1.6305894339666338],[-76.44253714343887,1.6222895480278794],[-76.45496297415502,1.608959000541745],[-76.46843840862317,1.5953268900549915],[-76.48708735221925,1.5799088346269627],[-76.51038521081256,1.5546437722122732],[-76.52064748951858,1.5481587983267104],[-76.53675690720223,1.5412803701014468],[-76.53803448580737,1.5365395092576932],[-76.54206920259116,1.5337224879564246],[-76.53998134395039,1.5273882642037506],[-76.54162977687088,1.5229878229758356],[-76.54537737718601,1.520996462068183],[-76.55187697449577,1.5214939659944093],[-76.56130445921025,1.5187118993974877],[-76.56039716310647,1.507011170022281],[-76.56594085394829,1.499238035886549],[-76.57358962675778,1.4954621235772265],[-76.57930239354971,1.489459693893025],[-76.58920926926078,1.4860736744270184],[-76.59581572689041,1.4810162558906086],[-76.60963551476709,1.4806685826696366],[-76.61814673741588,1.4781834551958468],[-76.62124841823652,1.4750090151522954],[-76.62261624987178,1.468508811061497],[-76.62574376825381,1.4643206722512332],[-76.62588984514383,1.454224308062976],[-76.6319147103016,1.4500548097733486],[-76.63426706996,1.4462555549042122],[-76.63525154861793,1.448751038794171],[-76.6394633014969,1.4501539341486023],[-76.64703895512866,1.462206856749674],[-76.65734642359894,1.4653817873602861],[-76.66668535015657,1.472327384194898],[-76.6700043645356,1.4722128784333108],[-76.67573437933697,1.4688086545062902],[-76.68217341063837,1.4609419043333673],[-76.68919267995278,1.4556515703060313],[-76.70272795949109,1.4530750564584878],[-76.7050701581374,1.451004657686326],[-76.72041360006068,1.4513723752519923],[-76.73365836618473,1.448680977176025],[-76.74247869648855,1.4429301364135654],[-76.74501928992424,1.443251756100267],[-76.75068069218304,1.4395943183122313],[-76.75244296443435,1.440192432713161],[-76.75795138072624,1.4324632778648834],[-76.76168220405862,1.4301400539830524],[-76.76979289771162,1.4314510723966123],[-76.77542318547046,1.4358211190343013],[-76.78162650494562,1.4381206558280724],[-76.80231065298233,1.440903001132881],[-76.8162423354051,1.4462891736616825],[-76.81602853454672,1.4429623451763973],[-76.81975167232821,1.4452020656963782],[-76.82359730995489,1.4448885717340545],[-76.8255961743792,1.4468180985637105],[-76.82678643204383,1.442095051372803],[-76.82910601215383,1.44344727330747],[-76.83136438553578,1.442462656838245],[-76.83249351771929,1.4442204831325967],[-76.84055790574786,1.4468850244606415],[-76.84316731021562,1.4494963480021283],[-76.84250338372107,1.4511394546188399],[-76.84402962430056,1.4532585789406198],[-76.85256713599699,1.4580474310261025],[-76.86235608226133,1.4590745519961956],[-76.86458384405171,1.465579423159113],[-76.87032865402716,1.4669434331019602],[-76.87402147949382,1.4728761940330628],[-76.87897355363458,1.4754651252956137],[-76.88257456900914,1.483733406167289],[-76.88645050352403,1.4870383411682724],[-76.88675551077864,1.4922317887112513],[-76.89369845320311,1.494889713040152],[-76.89642234389208,1.4983485575493773],[-76.89729187764345,1.5022539939663488],[-76.8956975058324,1.5104751598294115],[-76.89726174736296,1.5154890063415678],[-76.88665596371351,1.522335951884486],[-76.87866777093421,1.5221277601516476],[-76.8710993133148,1.5199559980848676],[-76.8589293611542,1.5240781036863496],[-76.8522851781961,1.5342835815120566],[-76.85208589483233,1.5386888893299329],[-76.85623606765864,1.5422157591410723],[-76.85876240790947,1.5524035734665063],[-76.85831179890522,1.5645060402575268],[-76.85329188561059,1.573866650497223],[-76.84295380349187,1.5820137160483227],[-76.83801658314644,1.6036091022090204],[-76.83312690049951,1.6072027158828064],[-76.84400532528917,1.6245834623263704],[-76.85239826059325,1.630648858403788],[-76.84962074999669,1.6353713543495019],[-76.85148286139082,1.6388160238354885],[-76.85031636897594,1.6428131315048518],[-76.85144579323713,1.648850420248209],[-76.84848524146958,1.6580054756817049],[-76.84824055031174,1.665986362405306],[-76.83111203556649,1.6850276290542752],[-76.82007966733005,1.692020193830274],[-76.81131303406704,1.691169469264139],[-76.80923028884246,1.6953252255048028],[-76.80987844725632,1.6995220628819538],[-76.80408778931337,1.7012864290422272],[-76.80417957060905,1.7075744736689558],[-76.80047130616333,1.7152626070305246],[-76.79526869828283,1.716956919800225],[-76.79105670371985,1.727327437967574],[-76.78290756277175,1.7352409257106842],[-76.77451484241215,1.7484181653274504],[-76.766657069514,1.7529414046489364],[-76.76484832811593,1.759978602801823],[-76.77072272184876,1.7727738377294031],[-76.76776284062572,1.7775686259850545],[-76.76441272100271,1.7782366981314794],[-76.759598708071,1.7761185641998054],[-76.75432712563611,1.7695814760465396],[-76.74910823956736,1.7702401471998428],[-76.74415645133365,1.7784489912930894],[-76.73333691927644,1.7812131300800047],[-76.73456591631384,1.7844011743611645],[-76.73274215656966,1.789816136081356],[-76.72081704263411,1.804449442559246],[-76.70054448654935,1.8144670619891485],[-76.69187734790097,1.8166429697076865],[-76.67932024781015,1.8141074958588206],[-76.66413642427955,1.8076176954925813],[-76.6523328372827,1.797460952472477],[-76.64558889231495,1.797839734022773],[-76.64152321426911,1.8051553572765329],[-76.63622005967733,1.8100747577984748],[-76.63386170728438,1.811367930677477],[-76.62972668547326,1.8102641763415477],[-76.62397339598925,1.8159029240685527],[-76.62151727985042,1.8216261326373342],[-76.61156793666248,1.8315643851012169],[-76.60779940754202,1.8380259423790335],[-76.59717870222005,1.849782699245793],[-76.58943439841346,1.8637292179803353],[-76.58794635521753,1.8699138054034279],[-76.58243788750349,1.8707120032963758],[-76.57669356912356,1.8672999210400576],[-76.55702272081788,1.8729308639167357],[-76.54873733591864,1.8691997299947616],[-76.53836915437267,1.8581706363192438],[-76.52784834784319,1.8687003779573388],[-76.51560169855333,1.876058136501058],[-76.49569622445676,1.8942626540892888],[-76.4894786877922,1.8954536532609154],[-76.47977284791097,1.8934579852359548],[-76.4736311105454,1.8963490461709966],[-76.47190673434397,1.8960381531398411],[-76.4711211760096,1.8936465398873565],[-76.47404351291004,1.8896284849008111],[-76.47387578421967,1.8873439325145682],[-76.46646627547682,1.8822771808623315],[-76.45718887446446,1.8794682708872301],[-76.45111912704675,1.8742320164813009]],[[-76.57290496994733,1.7054034273982097],[-76.57608208496987,1.7042230458670815],[-76.575341568304,1.7005331370634167],[-76.57119954279938,1.7016060124126966],[-76.57290496994733,1.7054034273982097]]]}}]}