{"type":"FeatureCollection","features":[{"type":"Feature","properties":{"code":"194507"},"geometry":{"type":"Polygon","coordinates":[[[-76.58794635521753,1.8699138054034279],[-76.58943439841346,1.8637292179803353],[-76.59717870222005,1.849782699245793],[-76.60779940754202,1.8380259423790335],[-76.61156793666248,1.8315643851012169],[-76.62151727985042,1.8216261326373342],[-76.62397339598925,1.8159029240685527],[-76.62972668547326,1.8102641763415477],[-76.63386170728438,1.811367930677477],[-76.63622005967733,1.8100747577984748],[-76.64152321426911,1.8051553572765329],[-76.64558889231495,1.797839734022773],[-76.6523328372827,1.797460952472477],[-76.66322768629936,1.8071557036865329],[-76.67798459511289,1.813644289462161],[-76.68861944049104,1.8164851315490296],[-76.70054448654935,1.8144670619891485],[-76.71359592707722,1.8074169034036345],[-76.72237518858589,1.818759322376934],[-76.72213008090887,1.8206919736149985],[-76.71074836617538,1.8262927594716984],[-76.70783557527835,1.8301117234132676],[-76.70706955220959,1.8515382794216748],[-76.70108904172082,1.872205666930654],[-76.69077011331552,1.8847239494870678],[-76.68181795622127,1.891371548931204],[-76.67693076549057,1.8998188240526588],[-76.67568013207944,1.9074881472005245],[-76.66064925337804,1.9260557142538346],[-76.65072030214833,1.934954932269477],[-76.65270998978002,1.9485673521957665],[-76.64608104114097,1.9518482360400071],[-76.64101022199856,1.9629576922139336],[-76.63217373794816,1.9664508280820314],[-76.62280595535032,1.9746039028227642],[-76.6236914381883,1.969992076548067],[-76.62127282934819,1.9564513514065993],[-76.61084287543076,1.946007981456546],[-76.61525327403916,1.935326838681533],[-76.61910555746141,1.9317722060645792],[-76.61900680229701,1.927178750858559],[-76.61047734741925,1.9270074030789601],[-76.60608947170203,1.9253766963936982],[-76.59954413749665,1.9090466798466537],[-76.59583565604953,1.904683388019464],[-76.59337847958648,1.9052004210406608],[-76.58917418908646,1.9101334278570903],[-76.58600776369548,1.9078767843154765],[-76.58402494297445,1.8957441491916711],[-76.58444427395636,1.886906739542951],[-76.59170040078197,1.8798686620717717],[-76.58982325252975,1.871310952792669],[-76.58794635521753,1.8699138054034279]]]}}]}