{"type":"FeatureCollection","features":[{"type":"Feature","properties":{"code":"194509"},"geometry":{"type":"Polygon","coordinates":[[[-76.79641375075653,1.844026920930844],[-76.7938814969612,1.8392880346967218],[-76.78194750345295,1.8330499980874606],[-76.77763717641545,1.8286347267184624],[-76.77437722960406,1.8213487020403818],[-76.7736523072121,1.8079226811499325],[-76.76682526820264,1.7980916654159387],[-76.75686142088983,1.7907915315349783],[-76.75387308266227,1.782030464202876],[-76.7524461855163,1.769434124916188],[-76.75565424740267,1.7706081414165737],[-76.759598708071,1.7761185641998054],[-76.76441272100271,1.7782366981314794],[-76.76776284062572,1.7775686259850545],[-76.77072272184876,1.7727738377294031],[-76.76484832811593,1.759978602801823],[-76.766657069514,1.7529414046489364],[-76.77451484241215,1.7484181653274504],[-76.78290756277175,1.7352409257106842],[-76.79105670371985,1.727327437967574],[-76.79526869828283,1.716956919800225],[-76.80047130616333,1.7152626070305246],[-76.80413348198607,1.7077463048165669],[-76.8046361003569,1.7005274096670178],[-76.80987844725632,1.6995220628819538],[-76.80909952546153,1.702638563559276],[-76.81602052092262,1.7115343928568336],[-76.81891924066912,1.7250520006673469],[-76.82514537614156,1.726771682028641],[-76.82402384414826,1.7339079973576759],[-76.82708340819084,1.7464715159582624],[-76.83083025877147,1.7524695819608382],[-76.83723924515306,1.7570577468585498],[-76.83772667239947,1.7624619037616753],[-76.84006929167879,1.7643590593346516],[-76.8399086623271,1.768583504222761],[-76.8458453776197,1.7860269434938232],[-76.84358673581426,1.7990707642910593],[-76.84802728321506,1.80212807090237],[-76.84853791418158,1.8063333785320879],[-76.85371066637578,1.8117985745271312],[-76.85809807620853,1.8269854566457298],[-76.86905392935006,1.8416825255313256],[-76.86832084626673,1.8468219746998784],[-76.86076813924444,1.8438983018525619],[-76.85319233237482,1.8462300124421063],[-76.84855264867758,1.844944077741502],[-76.8459515427125,1.8471487036889584],[-76.84141888491439,1.847211923079044],[-76.832828287072,1.8436006788152213],[-76.82803638462599,1.8459479250573736],[-76.82064397888223,1.8423362334210651],[-76.81862956235017,1.8427355385702526],[-76.81656209258233,1.8372023162448272],[-76.81183135984048,1.8362407410017454],[-76.80467527784623,1.8379641185854894],[-76.7993644479879,1.8432271536345866],[-76.79641375075653,1.844026920930844]]]}}]}