{"type":"FeatureCollection","features":[{"type":"Feature","properties":{"code":"195018"},"geometry":{"type":"Polygon","coordinates":[[[-76.84175233066156,1.6742712269125946],[-76.8484085638807,1.6654115545687205],[-76.84848524146958,1.6580054756817049],[-76.85144579323713,1.648850420248209],[-76.85031636897594,1.6428131315048518],[-76.85148286139082,1.6388160238354885],[-76.84962074999669,1.6353713543495019],[-76.85239826059325,1.630648858403788],[-76.85589271698154,1.6379669365498444],[-76.86318741965755,1.6365453523379188],[-76.86704792959154,1.6379099556920664],[-76.88465767727388,1.6542292702662849],[-76.88929467262238,1.655461420508459],[-76.89491086249114,1.6636789837373271],[-76.90044285377093,1.6607985065042499],[-76.90371631431702,1.6639455786639132],[-76.90415102462839,1.667739872326365],[-76.90755411109802,1.672595483701059],[-76.91225368923062,1.6768346990805867],[-76.91256632958567,1.688795658351637],[-76.9160535642506,1.6970788629527647],[-76.9161369637398,1.7023213394359686],[-76.9204174597736,1.7090544960416878],[-76.9362100472274,1.7279611210529993],[-76.95529716904298,1.7436071863011762],[-76.96596715835886,1.7498360574306844],[-76.96757098155666,1.7781496682401894],[-76.98098778863061,1.7934602061735063],[-76.98303844953392,1.8031960292679514],[-76.97530347267252,1.8028095971337734],[-76.96863041310536,1.7967882307374907],[-76.96024549451073,1.7935231375996636],[-76.94205216946244,1.793407111800036],[-76.92501409183853,1.7894748443462163],[-76.918766604871,1.787095561091121],[-76.90659703837628,1.7778070271884872],[-76.90362034828871,1.7718907203092158],[-76.90400086893533,1.7671572776213225],[-76.89049374301095,1.7562217115369094],[-76.88630284077561,1.7509299428322151],[-76.88420778406567,1.7440646786711795],[-76.88253822590741,1.7264433784940252],[-76.87475348374096,1.7179587318283325],[-76.87281522749117,1.7068678760658145],[-76.8687067333264,1.69821899638589],[-76.84175233066156,1.6742712269125946]]]}}]}