{"type":"FeatureCollection","features":[{"type":"Feature","properties":{"code":"195009"},"geometry":{"type":"Polygon","coordinates":[[[-76.93650224625895,1.9187707406440495],[-76.93715600968454,1.9176965170066183],[-76.93181590932369,1.9178723714213106],[-76.92781026969527,1.9149571677981498],[-76.92323952661383,1.9058883369854698],[-76.91876844269774,1.9010840963145483],[-76.90822439850956,1.8948933474923138],[-76.90126658172096,1.8783677890554031],[-76.90270041982546,1.876057335344342],[-76.90220472184433,1.8730915611456567],[-76.8978101859334,1.8679356805509428],[-76.89764158718066,1.862949338705505],[-76.89182849170726,1.8544737701019471],[-76.88660239625648,1.8521360266686315],[-76.88366499575847,1.8477710728782881],[-76.87910243907947,1.8497267859114004],[-76.87531460095073,1.8482422301640327],[-76.8844893099207,1.8438369727398367],[-76.89038712951725,1.8385440562933582],[-76.89156874209408,1.8350864870528198],[-76.89675879063452,1.833965862145817],[-76.90390000957751,1.8457627395837335],[-76.92211925651947,1.8457950090246413],[-76.93109867351114,1.8577587224647232],[-76.9482420235397,1.8544897119894017],[-76.96548497308396,1.847698091511802],[-76.96679034020593,1.8418122028769517],[-76.96898155731986,1.842762241051787],[-76.96902206047156,1.8403769640337373],[-76.9675841363649,1.8395957097312703],[-76.96895018570928,1.8396619630267423],[-76.96857005175707,1.8376243201488478],[-76.96995247699164,1.8371015659018894],[-76.96917186340886,1.8329422605060586],[-76.97196206498609,1.8245639342279674],[-76.98154446296871,1.816582973456491],[-76.99999993801498,1.8293890317131627],[-77.00617962902328,1.840389127423407],[-77.00316623382224,1.858989355754204],[-76.99227181675144,1.8824348554986159],[-76.9919437672421,1.904366624638385],[-76.99999983105698,1.917244495950797],[-77.00797213439932,1.9367631224223487],[-77.00876672760126,1.966930048357142],[-76.99198200679183,1.9499929010536334],[-76.98632871071703,1.9477950988222688],[-76.98128877878878,1.9429800605333867],[-76.96682768089693,1.9380450636806472],[-76.96359112086839,1.9348833207884581],[-76.95863869500027,1.9347482276644996],[-76.95107967539786,1.9318292414297957],[-76.94237538220659,1.9216217128897028],[-76.93650224625895,1.9187707406440495]]]}}]}