{"type":"FeatureCollection","features":[{"type":"Feature","properties":{"code":"195069"},"geometry":{"type":"Polygon","coordinates":[[[-77.13565731487762,1.939285872380367],[-77.1295158017125,1.9286937639310509],[-77.11809400960254,1.9269068481401064],[-77.10913660847984,1.920057067181233],[-77.10676376224649,1.9213254504817883],[-77.10583343005874,1.917575765513618],[-77.09999675239834,1.9170614979743164],[-77.09963831344106,1.9142155877227651],[-77.0962042862783,1.9125832622689813],[-77.09415215367375,1.9083842260817505],[-77.08913229282967,1.9057932790718723],[-77.08776604396752,1.8896668890013189],[-77.08237942200935,1.8856978968935891],[-77.08215808986643,1.8808047514807527],[-77.08381380004619,1.8762478656337862],[-77.09043946383986,1.872421831149893],[-77.09602044395052,1.8647631626665202],[-77.09928390083627,1.855429741361661],[-77.10398488896362,1.8488212422736297],[-77.10828671592367,1.846502627871189],[-77.1121092454755,1.841023106700277],[-77.12519423379825,1.833916061873765],[-77.13447020938935,1.8194640132476252],[-77.18200163957499,1.8185317085071233],[-77.19254751233399,1.8167404434327636],[-77.21106392774175,1.7938824589606384],[-77.21751799692964,1.7900236984073672],[-77.22691359581222,1.7895658594522388],[-77.23349050217456,1.7841250879385484],[-77.23843350236695,1.7830190885126171],[-77.24018545111227,1.7874654496989706],[-77.2470954144705,1.7957573271557976],[-77.26626910029285,1.7997041624979602],[-77.27444033012938,1.7991654653350793],[-77.2794639807841,1.794656943026041],[-77.28138357491594,1.7892734279926685],[-77.29029571942561,1.782328100610016],[-77.29341353342403,1.7684910822073903],[-77.29596223612901,1.765883551561899],[-77.29555259204716,1.7696446172749916],[-77.29823141021427,1.7753879545207383],[-77.30495213397842,1.7863206718193965],[-77.30846917290751,1.7875895199759384],[-77.30362449490525,1.797582178077505],[-77.30474681982776,1.7996705159724797],[-77.30877477460194,1.8007143532472583],[-77.30959901985858,1.804021133274091],[-77.30425056957296,1.8072359746535653],[-77.30431924279367,1.8100312114853523],[-77.29989401610112,1.817085857165523],[-77.295765480677,1.8179663613132675],[-77.29414162341891,1.8333225312411514],[-77.28734373149888,1.8455880143988566],[-77.28913661842705,1.8486388665049276],[-77.28039201748817,1.8506573587546882],[-77.27901912385886,1.8545573074023878],[-77.28031564946048,1.860668913459051],[-77.25898323810873,1.8681960462012057],[-77.25295561775346,1.872844819273439],[-77.25077402377616,1.8778509113290056],[-77.24684505453746,1.880206506467573],[-77.24682212746842,1.883973029096694],[-77.24335842253987,1.8879506632069365],[-77.24673028343773,1.8921608405119628],[-77.24361729694846,1.8998604060405455],[-77.24605157822413,1.9078480218635718],[-77.24552531698822,1.9112478769667973],[-77.24006898822455,1.9163251835245774],[-77.23615542505479,1.9147035240482069],[-77.22315509194948,1.9211149920616322],[-77.21961446980492,1.9166047275709275],[-77.21731784453198,1.9170716651570388],[-77.21650151828271,1.9281370690241602],[-77.2197977506031,1.931824990876862],[-77.21898120838091,1.9362917584196566],[-77.21641816198814,1.9370246522695425],[-77.21187092498889,1.9352697385244255],[-77.2049116714661,1.9458108022862461],[-77.20231795794587,1.9535548037307535],[-77.19925820466977,1.95658744006289],[-77.19619927003396,1.9468658321009684],[-77.19258223461031,1.9410697192988664],[-77.18632647587958,1.9420615214959867],[-77.18402191617258,1.938864205805487],[-77.17756711473362,1.936801519323808],[-77.17413401728288,1.9337918964498613],[-77.1681827999223,1.9358999413604465],[-77.1659399601362,1.9416783186712792],[-77.16371937481773,1.9431610211651673],[-77.15506743552129,1.9391873414164138],[-77.1526867659257,1.9412770666803567],[-77.14420225398595,1.9367228506702077],[-77.13565731487762,1.939285872380367]]]}}]}