{"type":"FeatureCollection","features":[{"type":"Feature","properties":{"code":"195501"},"geometry":{"type":"Polygon","coordinates":[[[-76.96882960596616,2.1298605535340016],[-76.97335078223199,2.126921791378038],[-76.97260538354948,2.12538602536398],[-76.98143095788168,2.1205069912109025],[-76.9804310752117,2.1084875022476695],[-76.98298891048626,2.1101493964522433],[-76.98683580486971,2.1085523928567795],[-76.98889037385459,2.1097756594124917],[-76.9888449989707,2.108068138355577],[-76.98950403316422,2.1066262526883293],[-76.98995328873809,2.111272420715636],[-76.99129933590393,2.1116054283463086],[-76.98466157762624,2.1178150974255914],[-76.98144645033977,2.1241504072136195],[-76.96882960596616,2.1298605535340016]]]}}]}