{"type":"FeatureCollection","features":[{"type":"Feature","properties":{"code":"196067"},"geometry":{"type":"Polygon","coordinates":[[[-77.23689797803684,3.108891096871332],[-77.24000342090022,3.101611153373881],[-77.23864058235341,3.0955420045096957],[-77.24093436706818,3.092365768805564],[-77.23842083606888,3.0822910954984764],[-77.2360214364781,3.079285715978358],[-77.22796790366033,3.0776328638403925],[-77.22313905441683,3.063988620817213],[-77.22886037990742,3.0381566130089936],[-77.23455716367414,3.0304204410973625],[-77.23512463151644,3.0271273187872225],[-77.2325924106313,3.018109535747385],[-77.23357471413328,3.0095376277908485],[-77.23250290425045,3.0018596904084234],[-77.23488738525401,2.9905298307751877],[-77.23191232010561,2.984696874019903],[-77.22640833845787,2.9788916307051068],[-77.22238452419322,2.9775882073395223],[-77.21053427470241,2.9800737359058758],[-77.2024994636522,2.977515462514816],[-77.1944555457435,2.9681345055683437],[-77.19057175907,2.9588906472087046],[-77.18140561702614,2.952383951588729],[-77.23749944721726,2.9467099138851722],[-77.24378920934299,2.9480363568796975],[-77.24682108154235,2.944505782618535],[-77.24985347104831,2.9445053167340802],[-77.25336417477155,2.9414560247753343],[-77.254480882341,2.938407109226546],[-77.26038560587216,2.9358387951511986],[-77.2618214669231,2.932629353094967],[-77.26708799044928,2.931505244853156],[-77.2691618314185,2.926049265759957],[-77.2723533466932,2.9236418155211936],[-77.27378856805291,2.917062706235015],[-77.2804258398773,2.9121174691801457],[-77.27323124476754,2.913361145177589],[-77.2706828547091,2.912439921905218],[-77.26930257994786,2.909518486948855],[-77.27680678150716,2.8987468998533927],[-77.26553326818265,2.892017186473197],[-77.26717141256415,2.8884703031706067],[-77.27243805024744,2.886148300050081],[-77.27356730481563,2.8825203939889548],[-77.27185801895132,2.877218761492088],[-77.26657349665265,2.871823863656971],[-77.2587547675463,2.876638060679909],[-77.25180542923778,2.8782497782024166],[-77.24288031812489,2.8767807334251643],[-77.24081710816591,2.8740327082756494],[-77.23646905991376,2.8754902509517706],[-77.23050659139204,2.8742669041775457],[-77.22536921247826,2.8703888346159943],[-77.23017336470309,2.8509491668187934],[-77.229156808923,2.8497658254300973],[-77.22461622286153,2.85126907620554],[-77.2214721290714,2.850533369565369],[-77.21927666654682,2.84394336290228],[-77.22174862584257,2.8402321046603447],[-77.23032380013251,2.835850044785616],[-77.23013647446993,2.8318390839955327],[-77.23872477477175,2.8217907799546538],[-77.24584311909621,2.8271847172244975],[-77.2485437289319,2.828381445849402],[-77.24913886187795,2.8272334180915095],[-77.25114560108665,2.8076331816207016],[-77.25005446779727,2.7954761456696815],[-77.2542053111681,2.7662720291089613],[-77.24984908474096,2.7503669619253515],[-77.24673603860202,2.7448961136101957],[-77.2416161668653,2.737653015094452],[-77.22897397755423,2.725165647520157],[-77.22683007290993,2.7145703704394464],[-77.21830820793798,2.691859854340123],[-77.21908648489932,2.6902980687302716],[-77.22736426138084,2.692901061887369],[-77.23844290027466,2.691760203402282],[-77.25499940866075,2.699010780752019],[-77.27368391682751,2.7122147403338204],[-77.27605650492183,2.7302554311426093],[-77.27968848772906,2.7395650522306596],[-77.27647679852595,2.757142037848098],[-77.27726968142798,2.762611489538301],[-77.28536474481155,2.7778296075131266],[-77.29020981156509,2.7829806883665924],[-77.3061552471745,2.787531647299261],[-77.30810889200967,2.829972508132414],[-77.31077945486874,2.8380669338816915],[-77.31810323778541,2.8482912640872087],[-77.32741160828738,2.853718150598411],[-77.33661335706807,2.854636298827643],[-77.34576117637994,2.853034672383103],[-77.35187254898017,2.850050055060592],[-77.35728998307621,2.850810097736087],[-77.35515299676479,2.8589264632495883],[-77.35073601509583,2.8648876575309714],[-77.34345643361019,2.870399028538259],[-77.34276299595751,2.873867317235124],[-77.34431145912293,2.8752879028293137],[-77.34749305815484,2.874709501614575],[-77.35931919478236,2.8852919077371553],[-77.37329656987777,2.9034157666355327],[-77.3835435700417,2.9013528652093896],[-77.38815903186077,2.893679475599754],[-77.39237051014555,2.8910698911545296],[-77.3968189847813,2.8937432122963855],[-77.39886388743497,2.8990906372248446],[-77.40684424656757,2.897290987258657],[-77.42450683048429,2.8966284224219407],[-77.42956542247362,2.897853919669444],[-77.43344159661558,2.896493951505761],[-77.43923938166523,2.8975880672783774],[-77.44157500547851,2.900808981610851],[-77.44737302089925,2.9042701267459847],[-77.452172066907,2.904093893864456],[-77.45452965311023,2.9021640729001774],[-77.45758151411843,2.9036975701700953],[-77.4617623427593,2.902337429227998],[-77.46524930180163,2.903826678787027],[-77.46874358541157,2.902028140567154],[-77.47371075606009,2.902114020659667],[-77.48169159033313,2.9068458918874285],[-77.48610898646433,2.906897436398026],[-77.49482939123612,2.913937797011613],[-77.50142123778289,2.91553259871165],[-77.50785360991898,2.9131043142842827],[-77.50754097676304,2.915865445905297],[-77.5162153175944,2.9152064723898548],[-77.51838248046624,2.916846390834735],[-77.5182450126685,2.9189444917345213],[-77.52102248212736,2.920064179730389],[-77.52682824480559,2.919631192060251],[-77.52875105899096,2.91739789005004],[-77.53070441072003,2.919868145216583],[-77.53219958925018,2.9180871758802596],[-77.5370219161112,2.918548675062368],[-77.53644954774023,2.9169036144048732],[-77.53832656640873,2.9168932477043086],[-77.53880702287177,2.913651081635578],[-77.54801625974244,2.9152337703396256],[-77.54841254949815,2.9124658489411104],[-77.55258655442293,2.91662225001528],[-77.55205927605738,2.9193789439067928],[-77.55382946834453,2.9193052734838716],[-77.55415029510198,2.917561524510745],[-77.55788087572193,2.9192606051399252],[-77.55866695959048,2.9170526007588364],[-77.55946775944301,2.9203999209613016],[-77.56784541003435,2.921469047637629],[-77.57229359979146,2.9250883055255485],[-77.57439951582603,2.922711288957771],[-77.5825096314943,2.920059750228461],[-77.59023823612586,2.920449060973283],[-77.59435060649048,2.9222365814884483],[-77.59767765197716,2.9153905553731647],[-77.60452908050098,2.9141416980822896],[-77.60511687859503,2.908854613933272],[-77.60817647657626,2.9061215978738346],[-77.61214324724818,2.906764045346449],[-77.61448600536721,2.911018845743911],[-77.61606459881313,2.9112153358577757],[-77.6186362974928,2.907450485476204],[-77.61464611638382,2.9024453694125896],[-77.61661486595432,2.8991527623521165],[-77.62297761561717,2.900198711019357],[-77.653923352275,2.916162343890676],[-77.66614645948721,2.9181353162461505],[-77.6732495746349,2.9233346670491756],[-77.68415254937588,2.926877056057947],[-77.68612840651258,2.9298618554147993],[-77.68515958383512,2.939878578042851],[-77.67582066859035,2.953791131434741],[-77.67726251106302,2.962038086522341],[-77.67368415639089,2.9722325692690674],[-77.65923338200503,2.9836236932231373],[-77.65610514474167,2.993837141478366],[-77.6489409133689,3.00077744594779],[-77.65019281176433,3.0027724588548494],[-77.6547621427942,3.0036404417149356],[-77.65428986450604,3.0078434147800976],[-77.65687594081214,3.011078876432009],[-77.66911369818803,3.0153564084944833],[-77.67260861017638,3.0128654209552224],[-77.6754385353459,3.005351436850674],[-77.67933823408208,3.001953106927715],[-77.68342710042134,2.9918493225267184],[-77.68615818506572,2.988863635624],[-77.68788300966804,2.988983069682149],[-77.68977523591604,2.991937916679035],[-77.68970603716116,2.997958299884317],[-77.67927688440051,3.022381163521345],[-77.6658783661199,3.036417528022696],[-77.65703654445275,3.0352246776545257],[-77.64918515612578,3.0422993399114375],[-77.64788054902283,3.044964889113203],[-77.64886493306403,3.0481101872094882],[-77.65907298610983,3.0523701915261086],[-77.65859249467974,3.057994035064098],[-77.6317056987408,3.0799449126658374],[-77.61957422678546,3.0860851423346958],[-77.60392569121836,3.106856963039263],[-77.5993856152644,3.1115689472740087],[-77.595616835204,3.112662760684543],[-77.59541072915255,3.1154503788141596],[-77.58273821929919,3.13446788946942],[-77.58153265018234,3.1331187960568627],[-77.57746605065205,3.1359862706912054],[-77.57713768438242,3.1407430713655913],[-77.56894302251158,3.1535757179466373],[-77.55379094288776,3.1846231984228552],[-77.55353119944522,3.194504616067775],[-77.55846772044976,3.200892957494318],[-77.55327934621369,3.213049856662451],[-77.54336816647071,3.2156091029601725],[-77.52682793421599,3.2235241415946234],[-77.51907561781371,3.2242255507052278],[-77.49720873516935,3.221152760891812],[-77.48059911286941,3.2097051209360643],[-77.4738321708985,3.2109285767251663],[-77.4665453615188,3.2173853949398676],[-77.46694981093748,3.2207583490721277],[-77.46949804570113,3.2232284324887814],[-77.4688646906888,3.225670339665726],[-77.4636000522978,3.2251489727877356],[-77.46209754200095,3.2266614435503698],[-77.463539297056,3.2295682807936146],[-77.4708332849645,3.23282162089032],[-77.47042904226277,3.2374151450019895],[-77.46481338512723,3.238174103699066],[-77.45868645013479,3.234105280676033],[-77.45463539448468,3.2339327008222654],[-77.45449619478978,3.2381644867330692],[-77.45166941356905,3.2436656494198814],[-77.44521320933455,3.247528890897229],[-77.43699514525412,3.2496675062616305],[-77.43936815500984,3.2558884038763267],[-77.4384450095784,3.25809810415916],[-77.43672559561219,3.2581373268999414],[-77.43468264905619,3.2519369024904563],[-77.42954277822622,3.2539324491592083],[-77.41578035893008,3.2430606331412264],[-77.4159633116551,3.2346953218032013],[-77.4074013816479,3.2255862943146667],[-77.40652121380089,3.218290325625844],[-77.40273798617994,3.212624191503096],[-77.39271081149059,3.2137811471704936],[-77.38218724667826,3.203914213081532],[-77.38049642238565,3.1999816247536046],[-77.38396313345163,3.194617311770571],[-77.3811139075014,3.182729480933233],[-77.38378022186436,3.17736539112218],[-77.36864104096662,3.170066758767291],[-77.36459790432394,3.16611775649676],[-77.36403552212988,3.1625063661941226],[-77.36740051611702,3.150203624620815],[-77.36526619964235,3.1463669478137035],[-77.35313991515108,3.1447901541422425],[-77.34718800667719,3.1399386678504584],[-77.34539164875542,3.140164852185137],[-77.34056609052806,3.1495335377555307],[-77.33396249094017,3.1520301591028783],[-77.33144483691484,3.1551339256049573],[-77.33054468848655,3.163931122122733],[-77.32485012101341,3.161839190849605],[-77.32069624476566,3.1637588096640457],[-77.32159621218801,3.1712074372749726],[-77.31968829499255,3.174932290498532],[-77.31721805730956,3.174594280523422],[-77.30658211664007,3.1694908669522874],[-77.30275967450592,3.164433653076003],[-77.29101698673281,3.157400383573531],[-77.28708021161543,3.156529049019298],[-77.28205230423708,3.159902658269459],[-77.27985529493492,3.1592050492539556],[-77.27832173081623,3.1492723370099043],[-77.28834745025944,3.1471711857495848],[-77.29023143148373,3.143173078434131],[-77.2889802283155,3.1396967257194888],[-77.2852709107446,3.1378003466206223],[-77.27847389814286,3.1391861286915628],[-77.27881758409222,3.133886095422781],[-77.27674225702356,3.1311062152947216],[-77.27517816461716,3.132004639024899],[-77.27340045955737,3.139314257202784],[-77.27048586888594,3.14075947605221],[-77.26856329535616,3.1338246768356157],[-77.26099450143602,3.1340317568220826],[-77.25895759595136,3.1287835508856006],[-77.25479933339625,3.1240053915169597],[-77.25357847031074,3.116203995780836],[-77.25208317865196,3.1148126981726705],[-77.24944364493217,3.1168800887504062],[-77.24843618572612,3.124753079512516],[-77.24499528239664,3.126174569107718],[-77.24369090772171,3.123224365528756],[-77.24494195353833,3.115849289041421],[-77.23832682613823,3.111817516688575],[-77.23689797803684,3.108891096871332]],[[-77.24683990306892,2.84772779894314],[-77.2492456162683,2.8463737854615943],[-77.24934138277877,2.8438150122474894],[-77.24787820423762,2.8437700065744025],[-77.24683990306892,2.84772779894314]]]}}]}