{"type":"FeatureCollection","features":[{"type":"Feature","properties":{"code":"196030"},"geometry":{"type":"Polygon","coordinates":[[[-77.67065795399515,2.7852463307802395],[-77.6682571228124,2.783869057014215],[-77.66831676219408,2.7804512720441608],[-77.665273281964,2.7763173393536817],[-77.66174953450428,2.773702300049365],[-77.66264395142241,2.769462884123527],[-77.66844653518484,2.7713076662612366],[-77.6717733996656,2.7769951127983745],[-77.67347094174482,2.7838398235356294],[-77.67065795399515,2.7852463307802395]]]}}]}