{"type":"FeatureCollection","features":[{"type":"Feature","properties":{"code":"760008"},"geometry":{"type":"Polygon","coordinates":[[[-76.59090770711339,3.4596733078266766],[-76.59141269707271,3.4575747842369537],[-76.59003466328767,3.458995755497142],[-76.58667552319531,3.457520733411968],[-76.58656764574579,3.4555966347018625],[-76.58461232454925,3.455879064557962],[-76.58470952470861,3.453519626129662],[-76.58260366420996,3.4540317113139167],[-76.57907670183897,3.4496190994972835],[-76.5708977525129,3.449349836790816],[-76.55448087165382,3.4454079503140633],[-76.55491080279279,3.443032901156812],[-76.55979867435241,3.4418151018015806],[-76.5562606963336,3.438523781322658],[-76.55615845269216,3.436791039769844],[-76.55813382337561,3.436436907929817],[-76.55669877068044,3.4336460471209307],[-76.56105454356441,3.4335466049569163],[-76.56443751472682,3.4284087930688543],[-76.57170071312316,3.4274936921148083],[-76.57361071600008,3.4285999671633363],[-76.57922924454715,3.424698037735368],[-76.57749041255772,3.4237206306481767],[-76.57801147398823,3.42162094594687],[-76.57658130433822,3.4224417664898965],[-76.57528129540174,3.421235630701233],[-76.57631127441357,3.4195010934877814],[-76.57254261982314,3.4201761209909023],[-76.57217061365219,3.418429980888959],[-76.5732564154955,3.411540948392883],[-76.58018533099244,3.4104946017183693],[-76.58085855049364,3.4061719899349896],[-76.57836640287121,3.407428096717183],[-76.5809064676875,3.4016618272601136],[-76.57932170050111,3.3959057393839203],[-76.57740524106208,3.3948705883346975],[-76.57369541749745,3.397415044600507],[-76.5686473475036,3.3982937726279943],[-76.5683702933166,3.401784765221919],[-76.56077776500001,3.4012978964197487],[-76.55847586587379,3.3987469609660934],[-76.56690645451533,3.3877066253854196],[-76.5689586642531,3.3882140640663465],[-76.57322141348283,3.3801857918537053],[-76.57128461659295,3.376891948605305],[-76.57241530172467,3.3743180655137053],[-76.56778038691539,3.3697069828028816],[-76.56920539789775,3.3666416450839733],[-76.56488955635149,3.365071046750188],[-76.56482767290822,3.3630496614916296],[-76.56267451228132,3.3617055827647846],[-76.5607006924892,3.3619506184508623],[-76.56097340150654,3.3633587917723275],[-76.56062263884428,3.3639678518869687],[-76.55836437961943,3.3630548890649266],[-76.55979788142326,3.3604429731405503],[-76.55905053589908,3.35374887575324],[-76.56381946808142,3.3500849515782534],[-76.5506687725661,3.3456873961600877],[-76.55174065341146,3.341716545656709],[-76.54971445092815,3.3308859331597773],[-76.55111149650156,3.3224206109289867],[-76.5472138813899,3.3197176490453444],[-76.5430652573981,3.3127518834244825],[-76.54358746245668,3.310349533232113],[-76.53587489638625,3.301255781200325],[-76.53649365882762,3.2983489048762635],[-76.53290761140545,3.297086679889503],[-76.53134643463363,3.2905197669031736],[-76.52740255914904,3.287030591567202],[-76.53245715872447,3.286510184226074],[-76.53361719046347,3.2856121914132927],[-76.53261160096599,3.2838109278207526],[-76.53507923566099,3.2836444414889456],[-76.53587328173148,3.2814841979783864],[-76.53898005642793,3.282502745851616],[-76.54386074225965,3.279032433179907],[-76.54308017392839,3.283649938514202],[-76.54607887885652,3.285161177202724],[-76.54816159014246,3.283422642433152],[-76.55189279297014,3.2864676108195567],[-76.55293761343597,3.2843503994008643],[-76.55872912395779,3.281182749134814],[-76.55982028295819,3.285084247645443],[-76.57092898425532,3.2913438342392283],[-76.57543066639317,3.301161791838524],[-76.58475352867868,3.3053206745445323],[-76.58686716420272,3.3092515042357036],[-76.59918924152385,3.3075614646447207],[-76.60977914293551,3.3108435579372895],[-76.62114706316942,3.3051828539910275],[-76.62860867589558,3.3071096575048955],[-76.64193020599771,3.299930330652842],[-76.64807216036468,3.2988783943932276],[-76.65424443321706,3.3018822518183697],[-76.66624593369221,3.3122886914260334],[-76.67441721803624,3.31610604174125],[-76.68077267912696,3.3227485966748986],[-76.68293195693002,3.3275270830882278],[-76.68654842156809,3.374243288486582],[-76.7003657463249,3.416788484813253],[-76.69849165254698,3.4212425449202897],[-76.69995147528022,3.4239695600176105],[-76.70015671949676,3.4327781321380826],[-76.69597877666558,3.4426335764672444],[-76.68512148945507,3.4541640389559234],[-76.68052961393676,3.455001035871362],[-76.66632603496623,3.452174841891292],[-76.64354154093968,3.4589625265193717],[-76.634916908849,3.458391796457363],[-76.62134968794294,3.4630544452760432],[-76.61065246649753,3.460514192254834],[-76.60668290154729,3.457073509012048],[-76.601272557534,3.4578701416155013],[-76.59772883052153,3.4614598245819366],[-76.59090770711339,3.4596733078266766]]]}}]}