{"type":"FeatureCollection","features":[{"type":"Feature","properties":{"code":"760043"},"geometry":{"type":"Polygon","coordinates":[[[-76.54809285212986,3.4453108108328365],[-76.54832253522602,3.4428828801897566],[-76.53778676691473,3.438700209608328],[-76.54362597248684,3.4310485900699064],[-76.5481878925599,3.4204068099038523],[-76.5474196501122,3.4089288288368493],[-76.55557473340116,3.410188830330924],[-76.55113187714693,3.4288720159206036],[-76.55987169377124,3.4297107395910302],[-76.56194504211652,3.4314611395018915],[-76.56009939814402,3.4340296428106853],[-76.55666750397097,3.4337217908840216],[-76.55813382337561,3.436436907929817],[-76.55615845269216,3.436791039769844],[-76.5562606963336,3.438523781322658],[-76.55979850054564,3.441747905424279],[-76.55436892260036,3.443400789443956],[-76.5546789178012,3.4457168677071763],[-76.55726806503668,3.4469328518613906],[-76.55159487476976,3.447541290796778],[-76.54809285212986,3.4453108108328365]]]}}]}