{"type":"FeatureCollection","features":[{"type":"Feature","properties":{"code":"760510"},"geometry":{"type":"Polygon","coordinates":[[[-76.57467396512737,3.6541564243356675],[-76.56794813206085,3.6524947584453002],[-76.56842314189231,3.6501274791712603],[-76.56410543886506,3.650102137319152],[-76.56128618172977,3.646833416864638],[-76.56248664977176,3.645528706917446],[-76.56636600488645,3.6464660438272176],[-76.56409781502066,3.6415517608352275],[-76.56699057185739,3.637780689404906],[-76.56962560922648,3.641508651610195],[-76.56631029929741,3.643749106438122],[-76.56749256904897,3.645943135313871],[-76.5689099572154,3.6457295740826794],[-76.5687912132422,3.6478641127009155],[-76.57079806455113,3.6464867761999358],[-76.5742913228039,3.6488947509444074],[-76.57206131283817,3.6491107660394846],[-76.5749125730477,3.6521003733651014],[-76.57467396512737,3.6541564243356675]]]}}]}