{"type":"FeatureCollection","features":[{"type":"Feature","properties":{"code":"760538"},"geometry":{"type":"Polygon","coordinates":[[[-76.53333327039422,4.021365988780246],[-76.52280076635952,4.004083716736261],[-76.53184921549837,3.986409250194697],[-76.53615369892549,3.9811810094128077],[-76.5379534157405,3.9751832611989357],[-76.54747631935186,3.967382451675064],[-76.54923104694882,3.961097855416085],[-76.54692920438697,3.952306530276644],[-76.55124852515428,3.946561627741346],[-76.55548769219706,3.943635459892448],[-76.56344365872997,3.9414473455896655],[-76.5744804708666,3.9247559600526074],[-76.58015473688442,3.9218661466182994],[-76.58886093989344,3.922443894772073],[-76.60381335254442,3.9128182857485854],[-76.61987380813667,3.911140081474059],[-76.62248794446845,3.902575640010241],[-76.62519274417895,3.9004800433679634],[-76.62995951457509,3.9039771222846866],[-76.63945797519312,3.9069741878754485],[-76.64361322749699,3.8908106113802887],[-76.64160193845862,3.8821849302782994],[-76.64247431379664,3.870151923466551],[-76.63746764684169,3.8537563848466334],[-76.64025075525086,3.8456385023804387],[-76.64446882482378,3.844603439777245],[-76.6535252135389,3.849306464220774],[-76.66341317413514,3.8751055382142],[-76.6684567200104,3.8786331083946948],[-76.67407210152334,3.877329112186601],[-76.67600249944383,3.8707862575561194],[-76.67942032863698,3.866131280918637],[-76.6910097702472,3.8625352977132934],[-76.6981664795914,3.8569911913807005],[-76.7054685058066,3.8573239778962147],[-76.71728662058251,3.851432462652326],[-76.71962130439931,3.8526407129187987],[-76.74045805993609,3.8512600823164576],[-76.7527721493442,3.8557678466633547],[-76.76362183842139,3.8551858705824316],[-76.77326547604224,3.8582607131671125],[-76.78281780545092,3.8636159871688847],[-76.79151547958617,3.8739282049867256],[-76.80363909321221,3.8760947291957564],[-76.81832618414848,3.881211654444712],[-76.82239278367877,3.88371844400325],[-76.82591034094293,3.889483985323068],[-76.82890876202094,3.890661636339246],[-76.83020572573912,3.8968085704249233],[-76.83450102620299,3.8969409710863374],[-76.8406200668706,3.9013891618719185],[-76.84074996944514,3.9076663152923743],[-76.83788079582382,3.9126352877721047],[-76.8386591756294,3.92205117371185],[-76.84855458729169,3.924146913307652],[-76.85155307727536,3.933955669431782],[-76.86287558148769,3.9412825798421522],[-76.88531459904652,3.9682725511914896],[-76.8839489014295,3.9746431746102644],[-76.88506262651566,3.9842625759546877],[-76.88879347658752,3.988761336287382],[-76.88830516179524,3.992736835350911],[-76.88381876642694,3.998754020099966],[-76.86863577902011,4.006120980118908],[-76.86067004022635,4.0156125285747635],[-76.86067023871578,4.029604026242794],[-76.85445184021643,4.0327261627851385],[-76.85208699012361,4.036223523495153],[-76.84138212837877,4.043340785898067],[-76.8255892467904,4.031842652499961],[-76.8250933760309,4.021099238558861],[-76.81837938239465,4.0092290815061915],[-76.80743837482083,4.005786823717926],[-76.79344509383344,4.009686960570605],[-76.77147934495292,3.9929593214063175],[-76.76447537989162,3.9973188038824787],[-76.7532520278225,3.9987968958685656],[-76.74342529040939,3.9939412824369924],[-76.71945288665245,3.9943492912952365],[-76.70719944038598,3.997481165131319],[-76.66893678052304,4.014338191620482],[-76.6141401176817,4.027132667557453],[-76.58812303650001,4.026446984361371],[-76.55830617388665,4.01319239455438],[-76.54780836538879,4.010626453095881],[-76.5404383889479,4.0135158839495375],[-76.53333327039422,4.021365988780246]]]}}]}