{"type":"FeatureCollection","features":[{"type":"Feature","properties":{"code":"760548"},"geometry":{"type":"Polygon","coordinates":[[[-76.5053799055155,3.855462939167637],[-76.48023278797416,3.852499324698215],[-76.47949229496248,3.84929934637006],[-76.48171287822407,3.8360368303565906],[-76.4665150020549,3.8300255725217767],[-76.47169511172689,3.8233444077991408],[-76.47091764517825,3.8199646803444693],[-76.47325147641624,3.8072680185469494],[-76.48132393771857,3.8030134063544665],[-76.48747403323654,3.8057661284009896],[-76.49031169640756,3.8046292407324245],[-76.48737474533885,3.8012350389777225],[-76.48584860040455,3.7950243949349556],[-76.48357516342503,3.793904905428519],[-76.48320092244842,3.7883009406559722],[-76.48729002841486,3.7852201536734924],[-76.4972780163589,3.7817663845281118],[-76.49606455394576,3.777351532763703],[-76.4980635726364,3.773170566311535],[-76.4961865118018,3.764951622912747],[-76.51156829097687,3.7672604403717855],[-76.51453641619514,3.7642318951839684],[-76.5177863182085,3.7639610270787216],[-76.52131899769142,3.7578661548103014],[-76.52502657410912,3.758048264212391],[-76.52531687257886,3.756274911521359],[-76.53366416663243,3.750476920783285],[-76.53596754465894,3.750432020011317],[-76.53663151743348,3.7485006491842228],[-76.54458235718045,3.7430713406908467],[-76.54493235879534,3.74482362676531],[-76.55594966549114,3.7445827686127586],[-76.56194725738175,3.748226713234942],[-76.56568932570462,3.751589054868816],[-76.56041732880738,3.7573931494133035],[-76.55962121968116,3.766278620237756],[-76.55172217435631,3.7930777661346156],[-76.54123348711511,3.800052768197702],[-76.53578719595043,3.809755995834962],[-76.52203654820738,3.8179424476492727],[-76.52245072257853,3.816178133939559],[-76.5210026765406,3.815809253205373],[-76.52142394613668,3.818660304641071],[-76.51974522661249,3.8182590361951156],[-76.51784483350247,3.823021125120931],[-76.5158239028155,3.8227711169153054],[-76.51457664680959,3.828518150383502],[-76.5168686698023,3.832373061476403],[-76.51634276954968,3.8363600348731666],[-76.5182199178019,3.8362386364898384],[-76.51914574335456,3.8310447354036796],[-76.52214127348066,3.8412210856803313],[-76.52101972297538,3.8448168858228655],[-76.5053799055155,3.855462939167637]]]}}]}