{"type":"FeatureCollection","features":[{"type":"Feature","properties":{"code":"760557"},"geometry":{"type":"Polygon","coordinates":[[[-76.40076995667852,3.7399011666269075],[-76.40212105658242,3.737310926157022],[-76.40717105901979,3.7341843611412173],[-76.40878940176901,3.7308042109966095],[-76.40920920583454,3.7277011952575663],[-76.406447127018,3.724410914534076],[-76.41229881582535,3.72043264278949],[-76.41281820912212,3.7075573775504154],[-76.41950147598129,3.7062653513847863],[-76.42024863947114,3.701634913385817],[-76.42573475604388,3.6972154161464914],[-76.42613941217951,3.6916205325214264],[-76.42397244882551,3.683900952472925],[-76.42735273575295,3.680271095456362],[-76.43026719684059,3.6828538128692117],[-76.43655334810467,3.681205839662539],[-76.4526370094739,3.6877473830288636],[-76.45616974757809,3.6928590601356177],[-76.47371723335033,3.698312778712193],[-76.47663208216085,3.6973206412428112],[-76.47923432558332,3.6993632679531743],[-76.50480831978933,3.6973920202958084],[-76.51138514696157,3.7058129343786277],[-76.51297943341189,3.7112221481335723],[-76.51754964890227,3.713453045645224],[-76.52134226208966,3.7194243227770585],[-76.52499682126705,3.7213279143433624],[-76.52411121707286,3.7232438708740005],[-76.52929164659048,3.732265173244116],[-76.53013161570476,3.7421716314075297],[-76.5319316554507,3.742687639071562],[-76.53399955510753,3.74855663862337],[-76.5365253883362,3.749055025981704],[-76.52531687257886,3.756274911521359],[-76.5248205698735,3.7581679389260785],[-76.52131899769142,3.7578661548103014],[-76.5177863182085,3.7639610270787216],[-76.51453641619514,3.7642318951839684],[-76.51156829097687,3.7672604403717855],[-76.4961865118018,3.764951622912747],[-76.4980635726364,3.773170566311535],[-76.49606455394576,3.777351532763703],[-76.4972780163589,3.7817663845281118],[-76.48729002841486,3.7852201536734924],[-76.48320092244842,3.7883009406559722],[-76.48357516342503,3.793904905428519],[-76.48584860040455,3.7950243949349556],[-76.48737474533885,3.8012350389777225],[-76.49031169640756,3.8046292407324245],[-76.48747403323654,3.8057661284009896],[-76.48132393771857,3.8030134063544665],[-76.47325147641624,3.8072680185469494],[-76.47091764517825,3.8199646803444693],[-76.47169511172689,3.8233444077991408],[-76.4665150020549,3.8300255725217767],[-76.46213535593478,3.825162488483727],[-76.43743031749545,3.8234475986361645],[-76.44029972457326,3.803884681259035],[-76.44390053425928,3.797905588992478],[-76.45382729182114,3.7891888794146666],[-76.4555667223641,3.7848287068536024],[-76.45384246649047,3.774359324506918],[-76.45458963717942,3.7696242815624714],[-76.45149197242682,3.7647615595362254],[-76.45372809956865,3.7596540177967768],[-76.44666322499916,3.752794483089019],[-76.44331334500322,3.752916931512175],[-76.44443488625251,3.7455648777391275],[-76.4305413487628,3.738700802457629],[-76.42682607753818,3.7339624777530958],[-76.42397174331393,3.733586186062155],[-76.42261462599288,3.7292237653257416],[-76.4172737409304,3.7302166864682818],[-76.40076995667852,3.7399011666269075]],[[-76.4396229764858,3.7031580696661877],[-76.43883765983537,3.7040275170284076],[-76.44400173403159,3.701765627401471],[-76.45170306745291,3.7037931308645966],[-76.45279321755118,3.7023724856207423],[-76.45069125690657,3.702603271207238],[-76.44584461355066,3.698709154857056],[-76.4461251325605,3.696618782702785],[-76.44412398499378,3.697500140457805],[-76.44359654310585,3.693986658911342],[-76.43768347993432,3.692227480215138],[-76.43365563623189,3.7000491938616733],[-76.4396229764858,3.7031580696661877]]]}}]}