{"type":"FeatureCollection","features":[{"type":"Feature","properties":{"code":"761020"},"geometry":{"type":"Polygon","coordinates":[[[-76.31627384850617,4.208817944093994],[-76.31806565042751,4.210310278980501],[-76.31754351530299,4.208595094998373],[-76.31991999708066,4.206148009613344],[-76.32454508512166,4.20560308625943],[-76.32450872350796,4.208405937679686],[-76.32042378684753,4.215252787577413],[-76.32187340948781,4.217126507002263],[-76.32040335786536,4.216087651503017],[-76.31791388727879,4.21862758776399],[-76.31452028819143,4.216698206973092],[-76.31275506019631,4.217783239541404],[-76.31238645405625,4.214818663478297],[-76.31439479660685,4.213779650627316],[-76.3136776194155,4.212671241560599],[-76.31627384850617,4.208817944093994]]]}}]}