{"type":"FeatureCollection","features":[{"type":"Feature","properties":{"code":"761048"},"geometry":{"type":"Polygon","coordinates":[[[-76.30069021383264,4.049171887343107],[-76.30832077601048,4.047756146741563],[-76.3093660438488,4.0458039849204965],[-76.30680241124378,4.042957670491035],[-76.30970896258003,4.039065434133761],[-76.3037050725074,4.037984777588349],[-76.30392526719288,4.030140126588321],[-76.29738730897719,4.026204911618208],[-76.29983674641028,4.022409465071746],[-76.29763940080738,4.014446638827167],[-76.29975958648185,4.013607167479051],[-76.30258304891862,4.01769082784233],[-76.3065044961287,4.020001506782307],[-76.31125057631829,4.019160554476969],[-76.3081144200475,4.013608915831355],[-76.30837362150083,4.007265329137908],[-76.30342257168883,4.003538539357123],[-76.30316253616866,4.000008910234669],[-76.306398375259,3.9988325159752094],[-76.31051078059062,4.002678318152732],[-76.31072390884754,3.996231815216504],[-76.31276832916166,3.993301154102255],[-76.31686613780869,3.99346210227111],[-76.31948286581559,3.998428281500992],[-76.32087953086528,3.9924191782532716],[-76.3249761938273,3.990173089617258],[-76.32350401435724,3.9889668221879333],[-76.31546925678606,3.991173058676395],[-76.31118199668583,3.988977946850639],[-76.31062539742402,3.987211882731799],[-76.31118168712459,3.984473670980776],[-76.31592705048973,3.9793120434492835],[-76.320818328251,3.983112729910431],[-76.32325955459896,3.983070344708892],[-76.32061935650535,3.9754795709152404],[-76.32640269913668,3.974829326819929],[-76.32323682396242,3.9709963637187684],[-76.32602919761024,3.964737003382311],[-76.31889577220471,3.9612626571590113],[-76.32564802287419,3.956896823021907],[-76.32872293950675,3.947992774411773],[-76.32328245698545,3.943092441214162],[-76.32074230475155,3.938183432075448],[-76.32915760868042,3.9427208289366718],[-76.33288131621902,3.9419007714979557],[-76.3273871942497,3.935322478795115],[-76.32716649048518,3.932957663669413],[-76.33883915777784,3.9307612323519265],[-76.33973196621184,3.9291021591651543],[-76.33140107787335,3.924576273661046],[-76.32856252715646,3.9185796824449994],[-76.34006042709814,3.91907317338854],[-76.34785038963884,3.9140953532177605],[-76.34559187536024,3.911304882188574],[-76.3416549202654,3.914191616465928],[-76.33703884549465,3.913791354865225],[-76.34302779435433,3.9117654855972432],[-76.34285318229814,3.9093899777546426],[-76.33959446550398,3.907617580486715],[-76.33915956390234,3.9056024059925107],[-76.34771312033052,3.9011056346676583],[-76.34708778614146,3.8941666394056256],[-76.34835408376057,3.891294476101848],[-76.35188023777573,3.892483806111329],[-76.36665066238083,3.89058241438363],[-76.37450513500693,3.8982450968781563],[-76.38212822863517,3.8977729409746757],[-76.3871318010066,3.8963415577624687],[-76.39237666039111,3.8910822806423084],[-76.3969010793362,3.8929999865536615],[-76.40953275590778,3.884636221993219],[-76.42644458295655,3.885845741357741],[-76.42930435249951,3.8841731678060114],[-76.4407494367756,3.869348037258021],[-76.45964093134063,3.873183643456457],[-76.46071932942624,3.8754007649804976],[-76.45813762708616,3.8755062492443244],[-76.4563289031716,3.8788761612436247],[-76.45824398963993,3.8808466344837598],[-76.45555023128833,3.8863968754760094],[-76.4568476845451,3.8881052336851667],[-76.45502384766775,3.8935882916698574],[-76.4485613545072,3.9001637314731283],[-76.44782985522534,3.9046432856417823],[-76.44995050575585,3.907175149657405],[-76.44867597853965,3.9154126698133496],[-76.42480350957072,3.9396167693284383],[-76.42105674743618,3.9383190044536036],[-76.41947756572114,3.9399544666570137],[-76.40897126948715,3.938686834119494],[-76.40452338106371,3.9401729993793424],[-76.39223228145966,3.9551702315553143],[-76.39245269931718,3.9567551334676523],[-76.38318261258797,3.9629104503882786],[-76.39088154048221,3.9716696048172935],[-76.39456614457936,3.980153530544726],[-76.3970685478306,3.982408924528727],[-76.40527892841698,3.9868545308382295],[-76.41290785537115,3.9839055336223623],[-76.41905790666607,3.98928353928909],[-76.41557053418984,3.9954613801293135],[-76.41516611048218,3.9986853119121406],[-76.41690573025858,4.002045496902099],[-76.41556265940545,4.010776776425075],[-76.41288513399059,4.013328011155522],[-76.41046667221775,4.025282085003937],[-76.40281437596417,4.017905422658259],[-76.39821320846772,4.009595937237066],[-76.39573335381868,4.01126391056539],[-76.39372707226698,4.010578381635696],[-76.38869180432556,4.014049858504336],[-76.37772742950932,4.014458693201959],[-76.37282214950318,4.019813847904345],[-76.36468878692017,4.022473718046513],[-76.36388024083857,4.026791953806992],[-76.35848534711721,4.030676591002475],[-76.3631169482847,4.041075094119208],[-76.36249130350598,4.045965423656412],[-76.35587556418261,4.0529974343452295],[-76.35414375954093,4.052449925486883],[-76.35070319251213,4.054522072611292],[-76.34574388842049,4.051922378697782],[-76.32854616360754,4.058965868862003],[-76.31747584995588,4.060188609883539],[-76.31665998856266,4.058787377520673],[-76.31448532114575,4.059985700231493],[-76.31102936450316,4.059174224117157],[-76.3061000631651,4.06068637606262],[-76.30369211310324,4.067041665403451],[-76.29885180289637,4.06474167198121],[-76.2960132789189,4.059824923812528],[-76.30069021383264,4.049171887343107]]]}}]}