{"type":"FeatureCollection","features":[{"type":"Feature","properties":{"code":"761027"},"geometry":{"type":"Polygon","coordinates":[[[-76.36324503462976,4.302731582685681],[-76.36454745115014,4.300049281183703],[-76.36333473847156,4.295201142472365],[-76.34604086456756,4.287667188070998],[-76.3411119704927,4.282328267333696],[-76.3399857446878,4.2693727372982835],[-76.34303427559905,4.256421204818935],[-76.34607549634092,4.251089911011377],[-76.35314110521836,4.244414940598006],[-76.35224633760134,4.231252189679481],[-76.32496108909203,4.215670085328441],[-76.32243341803655,4.212272054682273],[-76.32454508512166,4.20560308625943],[-76.31988524703638,4.20616899909669],[-76.31735514062905,4.210537279898574],[-76.30763645858605,4.201134175442462],[-76.30510140434171,4.196244104044297],[-76.31734615409829,4.194682721583888],[-76.32392236111968,4.197716652725205],[-76.33110226698489,4.179265720309502],[-76.33150617338595,4.172410226352383],[-76.33325343449025,4.1735082964865455],[-76.3360686447042,4.171475292912817],[-76.34147835005467,4.172229245151755],[-76.34443862619969,4.163090093553365],[-76.3474525572193,4.162768508833722],[-76.35075563999527,4.158992958536203],[-76.3703182992333,4.1622023368290115],[-76.37763525946235,4.161465169800408],[-76.3845321801125,4.154466719247921],[-76.38220542353065,4.147887333310678],[-76.38326609846632,4.145055115742821],[-76.38594405377017,4.143968988911638],[-76.3926808551762,4.147412202123007],[-76.39325314641394,4.161228612594471],[-76.39468784532482,4.161975318427437],[-76.40484271555107,4.154816187101062],[-76.42010264999868,4.157159297975909],[-76.43056979959664,4.161523752971618],[-76.44409738638495,4.1625380112110975],[-76.4628736347097,4.156076729555878],[-76.46404865805528,4.173775355240707],[-76.45929613261649,4.197287094910848],[-76.46177533214757,4.207115635183698],[-76.47357859312814,4.233284365357008],[-76.47050351091639,4.248006826488336],[-76.47027417440535,4.260437505282539],[-76.46540686758232,4.263180343996453],[-76.44923142388893,4.265090449717604],[-76.4270365709254,4.271233255634968],[-76.41202973926693,4.27827689903711],[-76.41019864672762,4.281227678543871],[-76.40922907637241,4.289123839087495],[-76.4110141635926,4.29248303368729],[-76.40586494422007,4.30042349850612],[-76.38807998901336,4.30080142850602],[-76.3843719559672,4.303546411522575],[-76.37675773574102,4.302812028487892],[-76.37121032193727,4.305023409245848],[-76.36878415712994,4.302312926361992],[-76.36324503462976,4.302731582685681]]]}}]}