{"type":"FeatureCollection","features":[{"type":"Feature","properties":{"code":"761508"},"geometry":{"type":"Polygon","coordinates":[[[-76.13279667646003,4.8326019699960625],[-76.13221643227627,4.813921304090513],[-76.1372375354789,4.802887626646736],[-76.1370390872105,4.793157763376655],[-76.14646960480195,4.786235611946154],[-76.15164170084978,4.776475711983892],[-76.15084055749747,4.76735644120788],[-76.14819396351982,4.760794657064366],[-76.14829986944505,4.74907652849862],[-76.15263443481581,4.742752482213064],[-76.1596151776451,4.7390105609574675],[-76.16089692452772,4.735827253682544],[-76.17148756024733,4.729149088926704],[-76.1781854135067,4.722733535939653],[-76.18659640414762,4.728967689149954],[-76.19323046928827,4.728835768771205],[-76.19936625402852,4.7315622110260165],[-76.21314883388334,4.745281810089409],[-76.21320232934937,4.747478185870989],[-76.20965202647545,4.755690705617781],[-76.20068110544742,4.761309894424926],[-76.19626676893267,4.768811426147465],[-76.19245921556086,4.770841789709209],[-76.19010898477848,4.774452574259271],[-76.18347851610133,4.773997867940011],[-76.18184421398104,4.775317801921858],[-76.18208774916951,4.777550829337883],[-76.1891288543755,4.779827932714966],[-76.19866152099166,4.7857683493721765],[-76.20958051166804,4.788325080099469],[-76.22145145753609,4.794732326356325],[-76.22479669925622,4.800445390368168],[-76.22510437326235,4.807659676038327],[-76.20698742549769,4.816158345517749],[-76.18792844392635,4.8297382502053665],[-76.16495547752373,4.8402992523822945],[-76.14493524775406,4.840759303517302],[-76.13816790880435,4.843625695201638],[-76.1366270890237,4.836173206817477],[-76.13279667646003,4.8326019699960625]]]}}]}