{"type":"FeatureCollection","features":[{"type":"Feature","properties":{"code":"761527"},"geometry":{"type":"Polygon","coordinates":[[[-76.0955227416942,4.648291950800058],[-76.09311193256212,4.646527551729605],[-76.09091745631389,4.646964743672811],[-76.09025347634025,4.651146266512342],[-76.08871807542323,4.650923987173883],[-76.08741341586972,4.642557241158556],[-76.07732824627834,4.6379203075166515],[-76.077991652381,4.63417905783399],[-76.08150606775325,4.631102211843256],[-76.07624836312169,4.625811700923805],[-76.08063870812936,4.623836737503609],[-76.08096280533408,4.620158969463887],[-76.07738644069826,4.617075193827475],[-76.07895966773111,4.611702314946683],[-76.08674379488889,4.60927741820899],[-76.082445489316,4.607115391379125],[-76.08362302000444,4.604197240239728],[-76.08232340290459,4.604884286122115],[-76.0788806020987,4.6013610765378985],[-76.07741935600103,4.606457986238524],[-76.071860809307,4.603324510088953],[-76.06988385687902,4.604899995581604],[-76.06538772318856,4.604010667397063],[-76.06114726133666,4.600475490855672],[-76.05325246245098,4.598703150152062],[-76.0479951979928,4.593412523018628],[-76.04495967173716,4.585582812203029],[-76.04606343224373,4.586929370504777],[-76.05038152196539,4.586239421329083],[-76.05545570925699,4.587668536825561],[-76.05902599065536,4.586154074998262],[-76.0611089261418,4.59062705536229],[-76.06335230894558,4.590778317659499],[-76.0630401077355,4.59489692655643],[-76.06604516329617,4.59725488402745],[-76.06964722151145,4.597184306131169],[-76.07469725788741,4.590252488369458],[-76.08303746082981,4.587105224919469],[-76.09960133594961,4.5719944958840415],[-76.10266021093577,4.5712679958612625],[-76.10552896289568,4.573693979662664],[-76.11470759331701,4.569170817474344],[-76.12020891027021,4.569646137895461],[-76.12337566270588,4.567388218056692],[-76.12316130134639,4.565966100083074],[-76.12789228502822,4.564695803879488],[-76.13454529099471,4.558665191784883],[-76.13847441552821,4.55730163949903],[-76.1466223326297,4.563964323109587],[-76.14749996639438,4.567257291153396],[-76.1457449827152,4.570894384291478],[-76.1472407988797,4.573435424071249],[-76.15252847746842,4.575450187188494],[-76.16106508413549,4.5840629459102615],[-76.16153882795419,4.587923334488039],[-76.15984510036833,4.5894633716239355],[-76.1569832852532,4.603281987076173],[-76.15207017365725,4.608438540272232],[-76.14547789824996,4.608186878331026],[-76.12654058862768,4.6425111607630924],[-76.11239668709118,4.662183515737013],[-76.10910490072786,4.662839377185378],[-76.09923713154359,4.659303624716188],[-76.0955227416942,4.648291950800058]]]}}]}