{"type":"FeatureCollection","features":[{"type":"Feature","properties":{"code":"761528"},"geometry":{"type":"Polygon","coordinates":[[[-76.08479158884478,4.723644275268953],[-76.07951138189094,4.72298905042652],[-76.07880937011299,4.719986190590589],[-76.07546718492398,4.718273602397346],[-76.07213379703228,4.7136185105742925],[-76.06215429682436,4.716564527363801],[-76.05525685783914,4.716448706224185],[-76.0514422647783,4.712793034272011],[-76.0482760286207,4.714082993268164],[-76.04233193630995,4.706205090664582],[-76.04254546977324,4.701973356175927],[-76.03542765612508,4.701714637062139],[-76.03519894799246,4.6994742357132395],[-76.0374566004362,4.69630685284227],[-76.0358084359392,4.693376028205705],[-76.02920189089195,4.6970369822386715],[-76.02508869263113,4.696611454890558],[-76.01764980951305,4.699399633521352],[-76.01588024766119,4.698580377239352],[-76.01551373645856,4.669099842069102],[-76.01810017683329,4.6629888664477335],[-76.02263246439207,4.65796860142575],[-76.0247999357967,4.64267295225477],[-76.02952229495958,4.6415209865904785],[-76.03227705023693,4.637947439887171],[-76.02821789457357,4.630908734037575],[-76.02860648232326,4.627862860621747],[-76.03675580324887,4.620867116929901],[-76.03536682375011,4.6179158016046244],[-76.03111702775391,4.621052612993253],[-76.02664612484375,4.619063596934495],[-76.02167908377902,4.620506801065062],[-76.01593379969154,4.615108280026902],[-76.01550660215281,4.610030799662354],[-76.01690313761873,4.607084784929782],[-76.01156172702213,4.60509553747147],[-76.01190534509425,4.602776336856721],[-76.01691858791071,4.601236041581785],[-76.02364780558156,4.606129101633883],[-76.025577703679,4.605018721042825],[-76.02515098230913,4.6011042106775335],[-76.02006897782593,4.592030769356995],[-76.02268605961706,4.58696854182341],[-76.03275769593336,4.588271838690559],[-76.03727418867197,4.5859044730273695],[-76.03957883476812,4.582628557588976],[-76.04270636549148,4.583528792406469],[-76.04690563102139,4.588348027769257],[-76.0479951979928,4.593412523018628],[-76.0506225631807,4.596938347932166],[-76.06114726133666,4.600475490855672],[-76.07224998326899,4.606903322417963],[-76.07207977191837,4.610987670809266],[-76.07612619340648,4.611368659397215],[-76.0777916491075,4.6197612244620245],[-76.08042271771694,4.621415013511125],[-76.07975965305712,4.624936140499244],[-76.07624836312169,4.625811700923805],[-76.08150761350237,4.6300015685459925],[-76.077991652381,4.63417905783399],[-76.07732824627834,4.6379203075166515],[-76.08741341586972,4.642557241158556],[-76.08871807542323,4.650923987173883],[-76.09025347634025,4.651146266512342],[-76.09091745631389,4.646964743672811],[-76.09311193256212,4.646527551729605],[-76.0955227416942,4.648291950800058],[-76.09923713154359,4.659303624716188],[-76.11085974248198,4.663061924947385],[-76.11928962458353,4.653704148066822],[-76.11453897708071,4.66707501667031],[-76.11104479734342,4.685854565267164],[-76.10658153678963,4.686791523710042],[-76.09268827595099,4.699929462424393],[-76.09631199625102,4.712886919761104],[-76.09324486698523,4.719006090012499],[-76.09341310475463,4.729074323212501],[-76.08713302027297,4.727238906072387],[-76.0843790836359,4.725351444598573],[-76.08479158884478,4.723644275268953]]]}}]}