{"type":"FeatureCollection","features":[{"type":"Feature","properties":{"code":"761540"},"geometry":{"type":"MultiPolygon","coordinates":[[[[-76.08751000924798,4.533045608778934],[-76.08661934820196,4.5301652251341125],[-76.08857855896804,4.530794092023257],[-76.08751000924798,4.533045608778934]]],[[[-76.09466815738324,4.545596402460205],[-76.09414523138645,4.53487112613135],[-76.09612500997446,4.531863339027382],[-76.0906219786076,4.5314975004261555],[-76.095134457335,4.530649816964512],[-76.09571425208935,4.527463935497963],[-76.10093849737206,4.527695952130216],[-76.10198225751361,4.523689012550392],[-76.10529969426187,4.525668566937952],[-76.10419287928102,4.527985172792228],[-76.10854597924282,4.528656751927599],[-76.10816416378714,4.530358933310993],[-76.11116230101499,4.528582848048188],[-76.11472911759046,4.529390652622737],[-76.11498249497379,4.531957758278111],[-76.11195472626008,4.532297292405019],[-76.106816431004,4.535969832871444],[-76.1131278973807,4.539332854305826],[-76.11490395487556,4.538506211749677],[-76.1154624495569,4.541988078973134],[-76.11215837639077,4.542571345749423],[-76.10646519628659,4.539209154268121],[-76.09660039930122,4.545065582138591],[-76.09466815738324,4.545596402460205]]]]}}]}