{"type":"FeatureCollection","features":[{"type":"Feature","properties":{"code":"761530"},"geometry":{"type":"Polygon","coordinates":[[[-76.19613944980574,4.574620769894409],[-76.1984231588691,4.572614057425255],[-76.19711022858087,4.569104081839328],[-76.19897787196732,4.569293250470878],[-76.20216545139249,4.573625349636529],[-76.20303134034356,4.572907000020734],[-76.20382217150274,4.5742099009375465],[-76.20211114139994,4.574950325043574],[-76.20002368179485,4.580578881933604],[-76.20199023461208,4.582731481030919],[-76.19748111683481,4.582101563073536],[-76.19905698902181,4.578557200483601],[-76.19758577320243,4.578983252337366],[-76.19613944980574,4.574620769894409]]]}}]}