{"type":"FeatureCollection","features":[{"type":"Feature","properties":{"code":"762007"},"geometry":{"type":"Polygon","coordinates":[[[-76.02733959849189,4.941446432173393],[-76.02831528705167,4.940780525926982],[-76.02697264711588,4.937552261315773],[-76.02111341879646,4.936567566684914],[-76.01668820033143,4.9316537927720105],[-76.01383479376233,4.931090333798636],[-76.01187343046604,4.925869114193858],[-76.00190152941985,4.921309116279815],[-75.99403562154134,4.912701887493483],[-75.98857253591035,4.912905987053534],[-75.98644352825596,4.90767260097374],[-75.98684090404703,4.896837119829911],[-75.98912954963447,4.891866967726571],[-75.98917594164806,4.887582543042356],[-75.98765680966324,4.8863459118761625],[-75.98944219101799,4.881112146301064],[-75.99927739971207,4.881251259606813],[-76.01446764175245,4.887410238811242],[-76.01771017703203,4.887609219812873],[-76.02269974201636,4.883172644257115],[-76.02303569922015,4.8801742149515235],[-76.00957754567162,4.870311209513034],[-76.009043710985,4.861619806820272],[-76.01189677096897,4.851489387814922],[-76.01572708994439,4.850369786208205],[-76.02305097673377,4.85309659047482],[-76.04824486269865,4.8521099572298],[-76.06117699566676,4.859150448455637],[-76.06422887518687,4.849683939489751],[-76.06204615095129,4.843096082271529],[-76.0660598720811,4.842096240739238],[-76.07051524859452,4.837310826737109],[-76.07618453386522,4.839818727013608],[-76.08215043429959,4.839084446823165],[-76.08998662430304,4.840717255644904],[-76.09208501728057,4.844288432816654],[-76.09496131698012,4.845227872891371],[-76.10274285143436,4.842649850318651],[-76.1078019000521,4.8378949646042315],[-76.114973661681,4.836984114203119],[-76.12000129549358,4.828853654913303],[-76.13223150307294,4.832288682750686],[-76.13629085619726,4.835693517572565],[-76.13816790880435,4.843625695201638],[-76.1238314828284,4.862251448447296],[-76.11588123032209,4.89073130493307],[-76.10143321113372,4.913878837111895],[-76.09394072970537,4.910059313697616],[-76.08517767850765,4.91166846731295],[-76.07667703030484,4.910347368105761],[-76.06366567126724,4.925052312804155],[-76.04676403094169,4.931124681721883],[-76.03444154121513,4.940716754263235],[-76.02733959849189,4.941446432173393]],[[-76.03575814201469,4.917061069664385],[-76.03668032173863,4.91750669792151],[-76.03715112009797,4.916202624580251],[-76.03575814201469,4.917061069664385]],[[-76.04291312049014,4.9049339665328375],[-76.03739251921127,4.9160329058535694],[-76.0395066638144,4.912268141861205],[-76.04167666004537,4.910987635280264],[-76.04297857879959,4.91215770461821],[-76.04187431435616,4.909972456584683],[-76.04280258657354,4.907198150615045],[-76.04636009780114,4.904902016937569],[-76.04291312049014,4.9049339665328375]],[[-76.04658485054387,4.89783637514995],[-76.04749553845107,4.89855827494938],[-76.04771654149232,4.897708964491642],[-76.04658485054387,4.89783637514995]]]}}]}