{"type":"FeatureCollection","features":[{"type":"Feature","properties":{"code":"762037"},"geometry":{"type":"Polygon","coordinates":[[[-75.74012656427522,4.710675896901137],[-75.73909883755249,4.709373102942379],[-75.73554342846143,4.709685467674831],[-75.73459756987694,4.707776068493672],[-75.73388774296433,4.709641584032511],[-75.73329219555586,4.707734555411378],[-75.73171329049188,4.708187480468155],[-75.73143128332572,4.71015269836704],[-75.73014966396994,4.7077284536619],[-75.72924899926352,4.70925456465767],[-75.7258840135039,4.709541261521736],[-75.72529719551557,4.711274212876845],[-75.72118478195637,4.710725989250932],[-75.7198799084868,4.712743445859076],[-75.71633140950104,4.712404249061308],[-75.71366933437815,4.714381150067197],[-75.70784809569687,4.677647100315312],[-75.7175913482601,4.680765367856907],[-75.72460271502223,4.679558523471371],[-75.73459796479887,4.683503147662066],[-75.73622314977621,4.682375066546854],[-75.7490099401623,4.684953546776512],[-75.76103441192953,4.690501934515339],[-75.76180487272774,4.689281201013557],[-75.76292692305611,4.690964900256461],[-75.76613063051684,4.6907714759297505],[-75.77028165592196,4.692954147714772],[-75.77414173596696,4.697756941367004],[-75.7757287143047,4.695974937417532],[-75.78074104386423,4.697791337627052],[-75.78088687804183,4.699330237305503],[-75.7847696455288,4.698631153503413],[-75.78535005323488,4.700286711473666],[-75.78827243332995,4.699976276099392],[-75.78867695165428,4.701113343745362],[-75.79278147294559,4.699271522493689],[-75.79670340249521,4.701180741697385],[-75.79690896552898,4.7033271979075835],[-75.79984655526044,4.702103041749069],[-75.80264615063163,4.703046757059326],[-75.80575930887079,4.700048067557873],[-75.80678886930656,4.702504545708393],[-75.80871904199813,4.701507935542509],[-75.80950544262697,4.703895602661021],[-75.81189323110169,4.702105903904624],[-75.81528100611905,4.704203341458992],[-75.81937003495227,4.70282750854102],[-75.8204161204024,4.705528687105357],[-75.8264663253554,4.702193360599551],[-75.82793879896002,4.703295601068078],[-75.82763342146603,4.710915438647305],[-75.83083058186168,4.712576820687502],[-75.82796920691999,4.717137903608375],[-75.83185978131411,4.717806036432876],[-75.83308904471812,4.719513593485317],[-75.83790260924889,4.715521043873196],[-75.84284735882204,4.715655892227858],[-75.84716584552245,4.712585678662947],[-75.84988921890482,4.7140444184461785],[-75.85149116416659,4.712662865330856],[-75.85660335035237,4.713027325819098],[-75.85653490955968,4.727006896639239],[-75.85169689997866,4.731435760933039],[-75.85101872132765,4.7340140755834454],[-75.8445177695591,4.727770992406704],[-75.84135110351258,4.7285383185121646],[-75.83803961938969,4.73343541828649],[-75.83036500696193,4.737907589266285],[-75.82297185251201,4.733684478268117],[-75.81936275357924,4.73429494837751],[-75.81487642711664,4.728552567583222],[-75.81317489982268,4.729516823975928],[-75.81254930132388,4.727896792524064],[-75.81176344062737,4.729537960526557],[-75.81193131638503,4.72704130421215],[-75.80910046870258,4.728969727523008],[-75.80701031149277,4.726848613164975],[-75.80631643469513,4.728078592364966],[-75.80267704093114,4.728031770462451],[-75.80082322598275,4.725426838691192],[-75.80130332146246,4.723443260008025],[-75.7995031007107,4.723560850068736],[-75.80018947399168,4.720904684376535],[-75.79691609160722,4.720300235798106],[-75.796893059637,4.718740083354987],[-75.79343693947203,4.718903761010324],[-75.79177422971247,4.716538755622707],[-75.78660090056206,4.718236714221121],[-75.78526635961117,4.72174712792355],[-75.78164940440598,4.719357566413919],[-75.77685003958106,4.72165168434401],[-75.77466017384063,4.718710441584733],[-75.77364540035143,4.719859527610026],[-75.77166254363493,4.718267440998261],[-75.77057929747127,4.714475062295776],[-75.76465061945697,4.714741294182147],[-75.76091916466089,4.711022991109019],[-75.75824156314127,4.711731559208033],[-75.75416780256569,4.709758571425937],[-75.74701118783821,4.712523733513137],[-75.74390549197796,4.710316377050788],[-75.74012656427522,4.710675896901137]],[[-75.73594908527161,4.7033818431723375],[-75.74332569619514,4.705860026602238],[-75.74110359598086,4.704162773515407],[-75.74105779840704,4.70042607366247],[-75.73415071674481,4.699995197384851],[-75.73594908527161,4.7033818431723375]]]}}]}