{"type":"FeatureCollection","features":[{"type":"Feature","properties":{"code":"762040"},"geometry":{"type":"Polygon","coordinates":[[[-75.77325506424944,4.677901785877566],[-75.77336787102399,4.672962765757688],[-75.77161528258745,4.670873634933514],[-75.77391547552753,4.671553881782472],[-75.77372519720649,4.670367183557403],[-75.7750844331191,4.669271828511512],[-75.77399233412228,4.670600905347328],[-75.77638475778741,4.672024351040193],[-75.78204378948618,4.673213946387818],[-75.78230002696819,4.670898459479076],[-75.78435888044459,4.671317979694379],[-75.7895913265279,4.675271625382891],[-75.78709081046873,4.674911267351888],[-75.78681482277659,4.676769767884309],[-75.78532435039943,4.677566001452078],[-75.78485556881589,4.675849069117646],[-75.78015845688839,4.676826643840968],[-75.77732130176798,4.6743518491291525],[-75.77695382588632,4.676746950858615],[-75.77519458651199,4.675421932256995],[-75.77325506424944,4.677901785877566]]]}}]}