{"type":"FeatureCollection","features":[{"type":"Feature","properties":{"code":"762018"},"geometry":{"type":"Polygon","coordinates":[[[-76.06634256933216,4.840932884045628],[-76.0617501353696,4.841893598482272],[-76.05164426117335,4.8376482978083],[-76.04377147198602,4.8375852686801295],[-76.03993762236746,4.827187293154395],[-76.04468652357485,4.814304532626295],[-76.04274575792527,4.8128573360818905],[-76.03694320707302,4.811878110708335],[-76.0330704082794,4.814136394615787],[-76.0098528741321,4.81507074081469],[-76.0056727438037,4.807624658599025],[-75.9978274839657,4.800048605931579],[-75.9991670221188,4.798265761744574],[-75.99776914145002,4.796081375545839],[-75.99894033898943,4.795554088952713],[-75.99710469764887,4.7943678730672445],[-75.99504087268127,4.7881972786329925],[-75.99205449877894,4.788714261260509],[-75.99131132564605,4.790279404735202],[-75.98810009409988,4.787036739871837],[-75.98714152088058,4.7912126782685505],[-75.98157358553476,4.790897670438824],[-75.96989313396068,4.788247424461758],[-75.96703544907069,4.785850592891961],[-75.96703858170662,4.783905751524742],[-75.97129247398937,4.784929601019201],[-75.9729790065914,4.78210350988337],[-75.97233623413098,4.7789922223811345],[-75.96736234261061,4.77484094706449],[-75.96696625751497,4.76966579962766],[-75.96882032237482,4.764214596621514],[-75.98498688443863,4.758925342458838],[-75.98514780483953,4.756186035416533],[-75.97886036288008,4.747105763180798],[-75.97867049799294,4.743223856500208],[-75.9875965799556,4.743529654627139],[-75.99539477929238,4.738240262653164],[-75.9957683661795,4.7356165731188185],[-75.99216696102525,4.731258012127171],[-75.99042750477122,4.7248623893276545],[-75.99691242003553,4.722895302748725],[-76.00546590755812,4.717049740373454],[-76.00776216979085,4.7079287099322755],[-76.01588024766119,4.698580377239352],[-76.01764980951305,4.699399633521352],[-76.02508869263113,4.696611454890558],[-76.02920189089195,4.6970369822386715],[-76.0358084359392,4.693376028205705],[-76.0374566004362,4.69630685284227],[-76.03519894799246,4.6994742357132395],[-76.03542765612508,4.701714637062139],[-76.04254546977324,4.701973356175927],[-76.04233193630995,4.706205090664582],[-76.04880166147825,4.714379322524849],[-76.0514422647783,4.712793034272011],[-76.05525685783914,4.716448706224185],[-76.06215429682436,4.716564527363801],[-76.07213379703228,4.7136185105742925],[-76.07546718492398,4.718273602397346],[-76.07880937011299,4.719986190590589],[-76.07951138189094,4.72298905042652],[-76.08297585198073,4.72269624358546],[-76.08479158884478,4.723644275268953],[-76.08502028874989,4.7260005512364955],[-76.0925891083811,4.7294257728744356],[-76.09026153315898,4.732691038790563],[-76.08978806496287,4.736869912362181],[-76.10472030368538,4.741041907710269],[-76.11164771868471,4.740109051724573],[-76.11410413821403,4.742173452619966],[-76.11674431059663,4.741723361950733],[-76.1177665814318,4.7470735883566135],[-76.13124848994562,4.761763254512914],[-76.13401721250085,4.761288976932576],[-76.14009037126237,4.7715004937727485],[-76.14531750235477,4.775947770272921],[-76.14736225691269,4.784318250563047],[-76.14201381485458,4.790296094300402],[-76.1370390872105,4.793157763376655],[-76.1372375354789,4.802887626646736],[-76.13235407285231,4.812984535909493],[-76.13279667646003,4.8326019699960625],[-76.12000129549358,4.828853654913303],[-76.114973661681,4.836984114203119],[-76.1078019000521,4.8378949646042315],[-76.10274285143436,4.842649850318651],[-76.09496131698012,4.845227872891371],[-76.09208501728057,4.844288432816654],[-76.08998662430304,4.840717255644904],[-76.08215043429959,4.839084446823165],[-76.07618453386522,4.839818727013608],[-76.07186609241626,4.837359182047464],[-76.06634256933216,4.840932884045628]],[[-75.99915191738353,4.787816619146668],[-75.99624815724025,4.790961409192391],[-75.9982389144522,4.7902558132922195],[-75.99915191738353,4.787816619146668]],[[-75.9997961214359,4.788768716263462],[-76.00253173945492,4.788527195793904],[-75.99978840091791,4.788569210756123],[-75.9997961214359,4.788768716263462]],[[-75.9881362572242,4.786465741386337],[-75.98747024504814,4.786412569879701],[-75.98809547536456,4.786969928132066],[-75.9881362572242,4.786465741386337]]]}}]}