{"type":"FeatureCollection","features":[{"type":"Feature","properties":{"code":"762017"},"geometry":{"type":"Polygon","coordinates":[[[-75.98944219101799,4.881112146301064],[-75.98872499737155,4.87589183172571],[-75.98119542516378,4.866609277187877],[-75.97530477278315,4.861180442806528],[-75.96807136939498,4.859748475438948],[-75.96255536216887,4.862264699929142],[-75.95500963415753,4.86304042738152],[-75.93661454514216,4.857326971533098],[-75.92921392008577,4.860944997346905],[-75.92600972822868,4.866817433953656],[-75.92101224423692,4.870424757794638],[-75.91899064094855,4.869281503038451],[-75.91908960180149,4.8713617326926055],[-75.91433612916705,4.874562547144535],[-75.91149764735582,4.861695958875032],[-75.90092327234083,4.852225565481774],[-75.90115231471731,4.850083218927921],[-75.90637078632369,4.848271643142255],[-75.90257146152044,4.8379886258928195],[-75.91048358863418,4.827024656282958],[-75.91076586628071,4.8167950357691325],[-75.9131008246917,4.814461334114924],[-75.91614420619129,4.813555094221556],[-75.92137844587836,4.816878201801842],[-75.93473071921267,4.809754295660241],[-75.93772877005136,4.800893225662946],[-75.94407662272431,4.795773464997978],[-75.94994028054572,4.800042803458894],[-75.95286573671234,4.807090841395905],[-75.95652530234793,4.807588521185778],[-75.96146848457465,4.805769733961199],[-75.96380758760898,4.7993954616283645],[-75.9543197096645,4.785410997478664],[-75.95443046572467,4.782442231540699],[-75.95620201041373,4.780714296928181],[-75.96703858170662,4.783905751524742],[-75.96703544907069,4.785850592891961],[-75.96989313396068,4.788247424461758],[-75.98714152088058,4.7912126782685505],[-75.98405501781463,4.79222252757495],[-75.98821420185425,4.794758674025218],[-75.98728137980714,4.796039008856326],[-75.98871041714199,4.795016782244147],[-75.99192287253476,4.796846598486354],[-75.99190591557448,4.801841971085537],[-75.9978274839657,4.800048605931579],[-76.0056727438037,4.807624658599025],[-76.0098528741321,4.81507074081469],[-76.0330704082794,4.814136394615787],[-76.03694320707302,4.811878110708335],[-76.04274575792527,4.8128573360818905],[-76.04468652357485,4.814304532626295],[-76.03993762236746,4.827187293154395],[-76.04377147198602,4.8375852686801295],[-76.05164426117335,4.8376482978083],[-76.0617501353696,4.841893598482272],[-76.06634256933216,4.840932884045628],[-76.06378639087853,4.843446807909913],[-76.06204615095129,4.843096082271529],[-76.06422887518687,4.849683939489751],[-76.06117699566676,4.859150448455637],[-76.04824486269865,4.8521099572298],[-76.02305097673377,4.85309659047482],[-76.01572708994439,4.850369786208205],[-76.01189677096897,4.851489387814922],[-76.009043710985,4.861619806820272],[-76.00957754567162,4.870311209513034],[-76.0234325669606,4.881458744799659],[-76.01771017703203,4.887609219812873],[-75.99927739971207,4.881251259606813],[-75.98944219101799,4.881112146301064]]]}}]}