{"type":"FeatureCollection","features":[{"type":"Feature","properties":{"code":"762528"},"geometry":{"type":"Polygon","coordinates":[[[-75.95412429324466,4.372605240619407],[-75.95077811358493,4.366795714869966],[-75.94891648453029,4.366369086059933],[-75.94948781006053,4.364540759002523],[-75.9469023518484,4.3625200432600195],[-75.94752722118142,4.356523710183069],[-75.94604009021401,4.3511356154951955],[-75.94811491745963,4.348264131991925],[-75.9474740651014,4.344638126492612],[-75.94949659090275,4.339831137823353],[-75.95070950926981,4.338074957037065],[-75.95134224515971,4.338842738742528],[-75.95204977864552,4.338525747047186],[-75.9546618118124,4.32407511047262],[-75.96606735967276,4.320625726606124],[-75.96899154879821,4.318209255898012],[-75.98035770319638,4.328595265495039],[-75.98461573598865,4.3262890767350655],[-75.98546211744207,4.324127686511076],[-75.98025134167108,4.3203859647733225],[-75.98179229000704,4.317507923920573],[-75.98054893796893,4.314665945404727],[-75.98156407346994,4.312581656487964],[-75.9866602509195,4.307479421511914],[-75.99078002298495,4.30648399199805],[-75.99470245235761,4.300957300282619],[-75.99715847285125,4.302157130690205],[-75.99895894248618,4.299598091109431],[-76.00046217680654,4.30103049762198],[-76.00400982218503,4.298549083854141],[-76.01235659070443,4.301960502765041],[-76.01504249998271,4.3022253472824445],[-76.01539356089336,4.300746402717493],[-76.01673591800738,4.303743332553836],[-76.01955193657716,4.30437395807968],[-76.02113901878761,4.29813348406168],[-76.02728122923679,4.2886030584217],[-76.02450304603883,4.287506306750913],[-76.02737204791026,4.276543844837761],[-76.02968462946893,4.275603302272657],[-76.02954722234932,4.272345852519663],[-76.03153819347733,4.273604257870886],[-76.03305659321103,4.2721941325655735],[-76.03293435973234,4.269352608621318],[-76.03087383606527,4.268732126624059],[-76.03303331235776,4.266119216195705],[-76.0308440832232,4.264951533872818],[-76.03458990947507,4.263088984362184],[-76.03199574755388,4.260825583953192],[-76.03655870224014,4.259916904594263],[-76.03756582308853,4.2552572752828155],[-76.04355547848826,4.253246821339758],[-76.05166513855653,4.254517901216559],[-76.05441178559306,4.253037034492536],[-76.05487765462738,4.250645551852301],[-76.0641857052837,4.253221247059628],[-76.06881708225075,4.249887548578329],[-76.08046718448611,4.247004304834888],[-76.08175694499283,4.243817044226887],[-76.08821094424661,4.2465859662999605],[-76.09282717328375,4.245341312253629],[-76.09813756502558,4.250673770258118],[-76.1048057106944,4.252473679391869],[-76.10763654912085,4.2601131458250165],[-76.10972663639654,4.262335590567545],[-76.11115403850778,4.261563742400369],[-76.1120774585334,4.267653504337943],[-76.11628882471797,4.269770103833366],[-76.11940880667322,4.274059336486346],[-76.12475752538239,4.276023064172023],[-76.13924561783347,4.288422328161005],[-76.14431989151433,4.299532131948524],[-76.15355901903837,4.30694885213029],[-76.17142030730571,4.317468840019558],[-76.16478244926907,4.322596726408847],[-76.16239381849994,4.326761071173053],[-76.16455307779103,4.335427089847542],[-76.1638586569473,4.337984561053418],[-76.16073909665346,4.339464229641919],[-76.15386418158783,4.338404674680135],[-76.15052231521605,4.3411826614455435],[-76.15277311720416,4.346688621816725],[-76.15565768043933,4.347752346084462],[-76.16191386185994,4.346582294230018],[-76.1622416676284,4.348306335159123],[-76.15693110310826,4.349638039665592],[-76.14258745026666,4.346855703616768],[-76.13791024178727,4.354068731501684],[-76.13829198628048,4.358546674100921],[-76.14023744574166,4.3605586964188205],[-76.14376979715144,4.35769059134924],[-76.15243776163919,4.3584829209492],[-76.14908844420137,4.364487183317976],[-76.14920990120595,4.370999816136589],[-76.146539828914,4.374894715131518],[-76.14155731287468,4.3748460749426386],[-76.13467596901489,4.371533703273826],[-76.13067704511604,4.373059494423899],[-76.11520402149233,4.368897662144832],[-76.1052779241906,4.356610938563733],[-76.09193439981681,4.351361515979761],[-76.08795171194004,4.3522787478667055],[-76.08486960546583,4.34904979625594],[-76.08164221811609,4.350031073372293],[-76.07639325524593,4.346198920683889],[-76.0735471259361,4.347087642087331],[-76.06930526951618,4.353051904212805],[-76.06625356688818,4.35217032225728],[-76.06226371488083,4.3553384178389365],[-76.05879991739243,4.355039707737831],[-76.05371866058692,4.363945729929128],[-76.04580666408543,4.36570572212338],[-76.04089359465564,4.369464793686461],[-76.03379828950045,4.37003069726768],[-76.02899946563633,4.365781815556886],[-76.02289597090578,4.366019670657295],[-76.02027900738551,4.362655837781745],[-76.01515749528295,4.360128494799426],[-76.00406636904,4.360231159073862],[-75.99934919117055,4.358566296784147],[-75.98505661284139,4.369350400025098],[-75.97966576295602,4.365254097017953],[-75.9736553566716,4.367085059973533],[-75.97313692496857,4.372418997906777],[-75.96907038508795,4.375571756325144],[-75.96551486801042,4.372003836230817],[-75.95412429324466,4.372605240619407]]]}}]}