{"type":"FeatureCollection","features":[{"type":"Feature","properties":{"code":"762537"},"geometry":{"type":"Polygon","coordinates":[[[-75.8723603084436,4.411184110561351],[-75.86582133309827,4.408752085688548],[-75.86639360685245,4.40649104144137],[-75.87042999794068,4.404490495513528],[-75.86728587946794,4.398527257716864],[-75.86420340481135,4.397630529888374],[-75.8620825311088,4.3939309239002],[-75.86054130612183,4.393819917928511],[-75.86100676069384,4.392157674053465],[-75.85871017141636,4.389903804221319],[-75.85992320188365,4.3896526513591425],[-75.85937435707842,4.387890973547599],[-75.85692564264048,4.387104338433858],[-75.85688694646228,4.3790638946039735],[-75.85906941872946,4.374607941134286],[-75.85660493621077,4.371082948230708],[-75.85684930752296,4.366877535699871],[-75.85548375697323,4.366777543319131],[-75.85736039614642,4.365528409377191],[-75.85464416529737,4.363822557482422],[-75.85665811697339,4.360500412524402],[-75.85950457744173,4.360349090577529],[-75.8593742274947,4.35880284164881],[-75.86268568590651,4.356537762821631],[-75.86230395786845,4.354486509535434],[-75.8644258394446,4.354023760795712],[-75.86357842440646,4.350294049209651],[-75.8659966969459,4.34824787231571],[-75.86442497760976,4.345448793222715],[-75.86785107959452,4.340434784216598],[-75.86854537908204,4.333604734955827],[-75.87122387843198,4.331399022973073],[-75.87235980039299,4.327179755264638],[-75.87910363428892,4.321285863290086],[-75.88242476314576,4.312229803676587],[-75.8868339955003,4.310406034676419],[-75.88760134525995,4.305073357613651],[-75.89291706330556,4.303557693537016],[-75.895708083523,4.298482113734224],[-75.90051498683158,4.298743568505074],[-75.90205057595358,4.287316127160352],[-75.91143280508345,4.273614681135825],[-75.91725507529253,4.271591548553431],[-75.9226754867297,4.267971829923226],[-75.92576819438938,4.2671658045542245],[-75.92220406102041,4.268469262886924],[-75.92195311384677,4.275148738906921],[-75.92900265125297,4.275970848088434],[-75.9303386741895,4.274640950555522],[-75.93286057671088,4.2760585721783855],[-75.93226706356177,4.280731533190249],[-75.93464448533592,4.28392728050585],[-75.93094957624476,4.291483701234029],[-75.93190660165806,4.294433765973281],[-75.93714177105716,4.285254453694563],[-75.93725641360163,4.277039387524098],[-75.94036679813132,4.277161578836626],[-75.94030873123825,4.275318165555916],[-75.93778519966395,4.274992298401628],[-75.93714153862913,4.272519646964042],[-75.93988424775932,4.268504263871137],[-75.9383117879446,4.267580264832418],[-75.93874124291466,4.264164951209693],[-75.93669960659446,4.263065072045151],[-75.9371931078224,4.260501999941312],[-75.93591103389502,4.260391588409391],[-75.93322171327287,4.253327641495048],[-75.9400595355022,4.248765789299227],[-75.94765074946923,4.248014959411762],[-75.94968252302573,4.242683924771711],[-75.95246444255531,4.2434499900066385],[-75.9522026113745,4.249545625379426],[-75.95397695445564,4.2472622063368135],[-75.95676036625537,4.247012259837732],[-75.95853614812756,4.243712829061167],[-75.96258456685109,4.2434646874786495],[-75.96512005304123,4.239658327100187],[-75.97600708589476,4.234085879977044],[-75.9972571827642,4.235639893646805],[-76.01714007020621,4.23998683940863],[-76.02361879527501,4.245895335266937],[-76.02991367390229,4.246228321300293],[-76.0376879619505,4.250665379195652],[-76.03732899026,4.252218933151539],[-76.0354448887079,4.251043780222176],[-76.03544486299688,4.254406161965335],[-76.03346054383508,4.254064957647813],[-76.034353712224,4.256261613165748],[-76.03550582495558,4.256772907477682],[-76.03555941915215,4.255439332234346],[-76.03748192377634,4.257368385980499],[-76.03645952438586,4.2600026653874465],[-76.03199574755388,4.260825583953192],[-76.03458990947507,4.263088984362184],[-76.0308440832232,4.264951533872818],[-76.03303331235776,4.266119216195705],[-76.03087383606527,4.268732126624059],[-76.03293435973234,4.269352608621318],[-76.03305659321103,4.2721941325655735],[-76.03153819347733,4.273604257870886],[-76.02954722234932,4.272345852519663],[-76.02968462946893,4.275603302272657],[-76.02737204791026,4.276543844837761],[-76.02450304603883,4.287506306750913],[-76.02728122923679,4.2886030584217],[-76.02108594086923,4.298251514295771],[-76.02083355490447,4.303273233535435],[-76.01889549714411,4.304419953114461],[-76.01662235224228,4.303639764278444],[-76.01539356089336,4.300746402717493],[-76.01504249998271,4.3022253472824445],[-76.01235659070443,4.301960502765041],[-76.00388037623895,4.29853195411556],[-76.00046217680654,4.30103049762198],[-75.99895894248618,4.299598091109431],[-75.99715847285125,4.302157130690205],[-75.99470245235761,4.300957300282619],[-75.99078002298495,4.30648399199805],[-75.9866602509195,4.307479421511914],[-75.98156407346994,4.312581656487964],[-75.98054893796893,4.314665945404727],[-75.98179229000704,4.317507923920573],[-75.98025134167108,4.3203859647733225],[-75.98546211744207,4.324127686511076],[-75.98461573598865,4.3262890767350655],[-75.98035770319638,4.328595265495039],[-75.96899154879821,4.318209255898012],[-75.96606735967276,4.320625726606124],[-75.95456255785336,4.3241992743379],[-75.95204977864552,4.338525747047186],[-75.95070950926981,4.338074957037065],[-75.94949659090275,4.339831137823353],[-75.9474740651014,4.344638126492612],[-75.94811491745963,4.348264131991925],[-75.94604009021401,4.3511356154951955],[-75.94752722118142,4.356523710183069],[-75.9469023518484,4.3625200432600195],[-75.94948781006053,4.364540759002523],[-75.94910641009557,4.366600498996377],[-75.95077811358493,4.366795714869966],[-75.95143008957746,4.372077506653795],[-75.94642855660754,4.375101589429505],[-75.94024116050787,4.3879829276216356],[-75.9313835368215,4.3885722714647954],[-75.9174570171802,4.400713487912981],[-75.91474230225543,4.397101743826056],[-75.91318574010512,4.400312923950139],[-75.91115685647213,4.398807190514447],[-75.91111075653623,4.404534776134653],[-75.90834910863714,4.405038427061811],[-75.90378640591928,4.410233892408996],[-75.90137567289196,4.408819623508748],[-75.89861311070746,4.40989056847144],[-75.8907698820434,4.408313334626541],[-75.8883135159931,4.410830195722667],[-75.88505927086698,4.40937426770131],[-75.88035549874576,4.413459634250728],[-75.87756363212009,4.409631272401384],[-75.8723603084436,4.411184110561351]]]}}]}