{"type":"FeatureCollection","features":[{"type":"Feature","properties":{"code":"762538"},"geometry":{"type":"Polygon","coordinates":[[[-75.89167672974622,4.291096913258741],[-75.89072523118301,4.283964047325867],[-75.88866538011735,4.282305715646146],[-75.88671139898145,4.274810868800046],[-75.88681115173512,4.270725519734128],[-75.87599094810491,4.262529393361092],[-75.86113081040202,4.246585703018695],[-75.85664180998884,4.23911693541794],[-75.86062773231731,4.229055382980505],[-75.8616338874582,4.216826727320893],[-75.86070260704645,4.208407712771418],[-75.85650678474212,4.2029577768065],[-75.85148622661404,4.2001996523514435],[-75.84896086749734,4.201990324014446],[-75.84490130148544,4.200166624948395],[-75.84020990872676,4.200715185903448],[-75.82943592433179,4.213735716591373],[-75.81646603312504,4.218025569395252],[-75.81674106333719,4.210828793987389],[-75.822051015934,4.1931056882853],[-75.83319799997543,4.1739333569217365],[-75.83818760815439,4.158993509781396],[-75.84227673983185,4.155447949055883],[-75.84306357343496,4.148916411406901],[-75.8412320839168,4.14398329146178],[-75.84255992867844,4.138399662083145],[-75.84078138955181,4.131992371603246],[-75.84231603147822,4.124395145361234],[-75.83717311028772,4.116688590537251],[-75.83316721252021,4.114642983400472],[-75.8341217233916,4.1095289172217235],[-75.83949226565096,4.102485808609742],[-75.83916506254991,4.097907095098776],[-75.82758219680107,4.09964407794854],[-75.79977309875358,4.091611053302984],[-75.79359266520976,4.087713500926384],[-75.78345287195083,4.088070620391875],[-75.77982884928872,4.074136068614507],[-75.75510083955726,4.075608240885515],[-75.75322471049162,4.077016064536508],[-75.75162225717924,4.068698128403128],[-75.74645656215762,4.0625881668260035],[-75.7396973571598,4.057854244883913],[-75.73827814247943,4.054509061784984],[-75.73820961529754,4.051710259342997],[-75.74338205690208,4.0481697739813285],[-75.7555057209218,4.030890133721755],[-75.75917566868463,4.028712192772275],[-75.76203693255457,4.0241438706445365],[-75.76945295545232,4.019959769499565],[-75.7728629180886,4.0142322013629155],[-75.77334359875209,4.009183068987909],[-75.77599896225917,4.005911677668166],[-75.78014968633062,4.004894413291197],[-75.78326978038609,4.008038289051456],[-75.7871380015821,4.0092050684018545],[-75.79183045260811,4.007916254062195],[-75.79678948107716,3.9886475545492885],[-75.79261694991055,3.984940419333441],[-75.79166334509699,3.9707734014945117],[-75.79725526372232,3.960361259173112],[-75.80584610324871,3.9527337792375192],[-75.80503764149944,3.9479130886285247],[-75.80906658049315,3.9387307691839055],[-75.80732667583817,3.9307544590294583],[-75.81233196570861,3.919458520515832],[-75.81603971490466,3.9186408583198045],[-75.82218902469248,3.9028796609885603],[-75.82372344344691,3.912199379325216],[-75.81914494590887,3.940616516244006],[-75.82418007501053,3.9521255747870327],[-75.83000992998325,3.955286373568981],[-75.83441163413852,3.9608425774709417],[-75.8341214817076,3.9667279128037762],[-75.8385392573341,3.9743766074516316],[-75.84445987750132,3.980197862587943],[-75.84677205385361,3.986494567729153],[-75.84006584141343,4.003918595147695],[-75.84975469862337,4.014026593077688],[-75.85607959748779,4.02590891043468],[-75.85845322842277,4.026557809327187],[-75.85510363227701,4.034329314410002],[-75.85662964865605,4.038864643073282],[-75.85506499574848,4.048805317519282],[-75.85688098149564,4.058083762400827],[-75.86196928416086,4.061716994765732],[-75.86177175943385,4.063597289023562],[-75.85953544203016,4.063627221843092],[-75.86028308683109,4.069379114702201],[-75.86513557174055,4.071955878461324],[-75.87323838135319,4.080612100192354],[-75.8867964264951,4.080288844253687],[-75.89583814961992,4.082897704675304],[-75.89866819614565,4.081742334866249],[-75.90141535328968,4.084168895623975],[-75.90074328153031,4.092723822966036],[-75.90442119149509,4.104444002246169],[-75.90302476710099,4.116465208708405],[-75.90915945655001,4.130727384219881],[-75.90358935530423,4.136619149375292],[-75.90145248006462,4.143056768625058],[-75.89803497791621,4.14701004407425],[-75.89889689502229,4.150221008225401],[-75.90972295871796,4.156237788796545],[-75.913424123825,4.166803599970592],[-75.91375931483913,4.175349875025802],[-75.9200005900139,4.1763565135346425],[-75.92380794489628,4.181411763085748],[-75.93358139047496,4.182563693783038],[-75.93889123097159,4.185548346072608],[-75.94156196660896,4.181967328762823],[-75.94886384575688,4.181339376159087],[-75.95451697830936,4.176547076734266],[-75.96049836091743,4.179138153327926],[-75.96191813609892,4.185259563527097],[-75.96097891199713,4.190294348100565],[-75.96545812986506,4.192552655662155],[-75.97121046186913,4.190863882083875],[-75.97183598529165,4.196703326254635],[-75.97004353030928,4.20094068838074],[-75.97342322279695,4.20545778481511],[-75.97050858790249,4.211169567387515],[-75.974537396284,4.219178199433429],[-75.98027451968011,4.2188529606575],[-75.97952791669144,4.219717083772821],[-75.98177871970802,4.221082713512601],[-75.98658027203015,4.220934585908196],[-75.9916390275418,4.226662291856144],[-75.99331662606369,4.225679683935141],[-76.00258412831681,4.230227584279817],[-76.0037283559796,4.233958287284395],[-76.0116936114054,4.236824247022923],[-76.0121897413324,4.238676777446528],[-76.01701898652624,4.238881237989915],[-76.01714007020621,4.23998683940863],[-76.01493969275475,4.239987776319765],[-75.9972571827642,4.235639893646805],[-75.97600708589476,4.234085879977044],[-75.96512005304123,4.239658327100187],[-75.96258456685109,4.2434646874786495],[-75.95853614812756,4.243712829061167],[-75.95676036625537,4.247012259837732],[-75.95397695445564,4.2472622063368135],[-75.9522026113745,4.249545625379426],[-75.95246444255531,4.2434499900066385],[-75.94968252302573,4.242683924771711],[-75.94765074946923,4.248014959411762],[-75.9400595355022,4.248765789299227],[-75.93322171327287,4.253327641495048],[-75.93359362482715,4.258512605415717],[-75.93217267002211,4.2609533669076995],[-75.93090581190177,4.2596952803736485],[-75.92785698479906,4.260636089305365],[-75.9263764461482,4.2577259363634425],[-75.92250847383531,4.258397644054128],[-75.92262792434855,4.265833217644115],[-75.92548858452267,4.265017588678916],[-75.92691726910175,4.266467486941849],[-75.91143280508345,4.273614681135825],[-75.90205057595358,4.287316127160352],[-75.90051498683158,4.298743568505074],[-75.89494825270663,4.298988934321187],[-75.89291706330556,4.303557693537016],[-75.88760134525995,4.305073357613651],[-75.8868339955003,4.310406034676419],[-75.88242476314576,4.312229803676587],[-75.88513275308497,4.308996693044207],[-75.8846664531332,4.30625872194878],[-75.88633751178907,4.303863170789896],[-75.89350927444644,4.298537804925047],[-75.89424265886339,4.29385048891254],[-75.89167672974622,4.291096913258741]]]}}]}