{"type":"FeatureCollection","features":[{"type":"Feature","properties":{"code":"762540"},"geometry":{"type":"Polygon","coordinates":[[[-75.82000875946295,4.337530377182986],[-75.82227915533792,4.332332189548424],[-75.81945794004815,4.33159743524601],[-75.82105276848768,4.331198310074228],[-75.82202662950499,4.327767185176242],[-75.82854826119569,4.3263115152939235],[-75.82831553802345,4.320756801605171],[-75.83029502350541,4.322040427452293],[-75.82952606114793,4.32549170468144],[-75.83000085603487,4.325991729320265],[-75.83167997048105,4.324771986208646],[-75.83190757612329,4.326113885665734],[-75.83408203990854,4.326059012086716],[-75.835975080683,4.3239003852878],[-75.8351758481769,4.328658053967672],[-75.83187534987695,4.332523302964773],[-75.83222265491554,4.33501233543484],[-75.8340719889398,4.335205007970046],[-75.83412215533747,4.336041835192475],[-75.83321422365617,4.336084743871197],[-75.83301845653745,4.337080751369797],[-75.84240968351088,4.341527484852293],[-75.85359481351378,4.343699273658615],[-75.85033351224354,4.3449082808587605],[-75.84168451943498,4.3422868816659275],[-75.831476398512,4.342362681993336],[-75.82955167039506,4.340760324326141],[-75.82874705193547,4.343683488094371],[-75.8275633094542,4.3435252982083625],[-75.82866595410064,4.339654671485334],[-75.82537900964468,4.342102284461362],[-75.82424883359204,4.33876590585885],[-75.82000875946295,4.337530377182986]]]}}]}