{"type":"FeatureCollection","features":[{"type":"Feature","properties":{"code":"762548"},"geometry":{"type":"Polygon","coordinates":[[[-75.79491933857537,4.309804153090511],[-75.7949345646669,4.304098195616518],[-75.78974691445433,4.300812672468055],[-75.78738916472872,4.293047061389359],[-75.78988377032874,4.287054337117183],[-75.79321753668728,4.285434298466214],[-75.79490443952864,4.275675767360951],[-75.79733783531526,4.273898795580749],[-75.79646802491288,4.269613078144289],[-75.79888727138734,4.263466454648267],[-75.80795903223276,4.25614197444753],[-75.81076658054997,4.246508373397262],[-75.81553506330295,4.240939616325875],[-75.81894537149589,4.233627620388916],[-75.8168398257007,4.231180285092364],[-75.8168630294208,4.218942184216701],[-75.82943592433179,4.213735716591373],[-75.84020990872676,4.200715185903448],[-75.84490130148544,4.200166624948395],[-75.84896086749734,4.201990324014446],[-75.85148622661404,4.2001996523514435],[-75.85662816667036,4.203078890311247],[-75.86149313584355,4.210878145858544],[-75.86062773231731,4.229055382980505],[-75.85664180998884,4.23911693541794],[-75.86113081040202,4.246585703018695],[-75.87599094810491,4.262529393361092],[-75.88681115173512,4.270725519734128],[-75.88671139898145,4.274810868800046],[-75.88866538011735,4.282305715646146],[-75.89072523118301,4.283964047325867],[-75.89167672974622,4.291096913258741],[-75.874039676915,4.3040600229155075],[-75.8590214531988,4.307624312607743],[-75.84232236462725,4.319079557895975],[-75.84160049773806,4.323384203817],[-75.83595813195029,4.323847152074563],[-75.83297415226218,4.32635121831737],[-75.83200290863101,4.324791235567261],[-75.83000085603487,4.325991729320265],[-75.83029502350541,4.322040427452293],[-75.82831553802345,4.320756801605171],[-75.82854826119569,4.3263115152939235],[-75.82202662950499,4.327767185176242],[-75.82105276848768,4.331198310074228],[-75.81945794004815,4.33159743524601],[-75.82227915533792,4.332332189548424],[-75.82218738946887,4.3340430561288485],[-75.80894297301529,4.335386729649315],[-75.8027184377994,4.333165160111378],[-75.79739628890269,4.336358418596092],[-75.79633704144521,4.333916806582181],[-75.79225834640243,4.336935017979556],[-75.79214157806729,4.331389690885658],[-75.79701730989143,4.3227808690418215],[-75.79581909105332,4.3196665116386725],[-75.79720785560755,4.313248659054125],[-75.79491933857537,4.309804153090511]]]}}]}