{"type":"FeatureCollection","features":[{"type":"Feature","properties":{"code":"763041"},"geometry":{"type":"Polygon","coordinates":[[[-76.28625361447001,3.894978592717223],[-76.31329848819473,3.904473412648713],[-76.30740761161366,3.908972444490246],[-76.31107616892217,3.9110737911546494],[-76.3099589286195,3.915804605143478],[-76.30388154398764,3.9141016256886587],[-76.2991377500258,3.919560138864256],[-76.29504266777991,3.926609865503849],[-76.2982675004784,3.927375884458854],[-76.29576490388001,3.9298950410387192],[-76.294767598487,3.926912148414317],[-76.28607215710048,3.9434490104629276],[-76.2850771369067,3.950016141479068],[-76.28084830262594,3.945737554234597],[-76.27945527620591,3.9371803828309453],[-76.276221460062,3.9350908396013438],[-76.28150752296756,3.931352505553207],[-76.2837977544134,3.9212704706545765],[-76.28839021511556,3.91357555574308],[-76.28775636336553,3.910772711521986],[-76.29063307135675,3.9071677592694414],[-76.28922977799505,3.9029892847335077],[-76.28326123240646,3.9007356103054462],[-76.28625361447001,3.894978592717223]]]}}]}