{"type":"FeatureCollection","features":[{"type":"Feature","properties":{"code":"763029"},"geometry":{"type":"Polygon","coordinates":[[[-75.82224290479604,3.9180416578835775],[-75.82895714937229,3.9188377793510654],[-75.8368382823138,3.9279986526838684],[-75.84739755979257,3.9326824349678873],[-75.85443937668083,3.9289153353824986],[-75.86046755033817,3.9280556767362214],[-75.86722765008096,3.9229606449715675],[-75.87307119465203,3.9268337101318593],[-75.8801135812974,3.927312917037227],[-75.88492038176173,3.925204742542917],[-75.89045142481746,3.926562092291988],[-75.90854989044158,3.920499540886567],[-75.9240149559771,3.9046618973660543],[-75.9275403016365,3.9039067212805207],[-75.93201870189262,3.907326025260204],[-75.93884679505567,3.903190431635096],[-75.94697303361733,3.9060269408935824],[-75.948544716958,3.9045926039944447],[-75.95393081441046,3.9058645446776836],[-75.95742493449808,3.90490859604364],[-75.960355439289,3.907233938517095],[-75.96488707995746,3.907977448979125],[-75.97813157148738,3.907189176584893],[-75.98207701431835,3.9053131575625457],[-75.98900405085084,3.897649825092344],[-75.99809415602545,3.8940539961533887],[-76.00307602620285,3.8964813066456827],[-76.01493780864809,3.8945457222895357],[-76.02225640718603,3.900135995406856],[-76.02651946186313,3.9006737073218005],[-76.03145258900736,3.898996988118256],[-76.04238727988718,3.901586962221529],[-76.05163517899751,3.89960691623844],[-76.05471504346701,3.9024616916644845],[-76.06097223276129,3.901135654904806],[-76.0669012810149,3.903169373246044],[-76.07273028443717,3.900440674588367],[-76.07826472135326,3.9050383443517944],[-76.08231662855377,3.905352294942645],[-76.08898373960938,3.9210033213975066],[-76.08876955205665,3.9260812316510396],[-76.08656488291462,3.9271240775072442],[-76.08598427774751,3.937495586064756],[-76.08809053728186,3.9388040868510643],[-76.08696159536021,3.9408592081096003],[-76.08940295129196,3.9509274845041773],[-76.09347026661828,3.952142806341442],[-76.08249592105182,3.957179301214751],[-76.07483385253744,3.9704850107855805],[-76.07817438707616,3.9776954521376524],[-76.07950352561852,3.995327394637968],[-76.07379933089499,4.021901475145569],[-76.08269660515424,4.034931726672198],[-76.09275399959859,4.039055514805682],[-76.08759382525636,4.044234805837391],[-76.08498350856013,4.0563948139873105],[-76.06592796918585,4.073747031435403],[-76.06123466660944,4.083374320934013],[-76.07093728129496,4.082775485594823],[-76.07319441540369,4.084261458535991],[-76.07072542213609,4.085874291918685],[-76.07108377264734,4.088225613878535],[-76.0668719601187,4.083719709984166],[-76.05542746411169,4.0897947898763505],[-76.05471730089835,4.091510119897293],[-76.05302377180186,4.091154740556533],[-76.05201653576785,4.094567279441321],[-76.04954545476198,4.092299692242875],[-76.04118335730686,4.095140405774373],[-76.03252367178135,4.0948284462483],[-76.02620595967329,4.100800085391938],[-76.02358075421466,4.098526570250783],[-76.02163532869207,4.100571936732024],[-76.01641729828754,4.101361777501097],[-76.0149671058901,4.103408352402312],[-76.01320461869432,4.102445310600217],[-76.0110302269,4.104839569006799],[-76.0076508532295,4.101781761544032],[-76.0043616163752,4.1028758937717384],[-76.0010583351098,4.101859897464351],[-76.00050860275871,4.103879389360259],[-75.99326048030122,4.109327834083615],[-75.99413861388899,4.112511113590585],[-75.9922686091985,4.112819920940353],[-75.98935421701646,4.1188161604290485],[-75.98415137567952,4.122406966454719],[-75.98331207710976,4.1270486566432965],[-75.9806646665487,4.127881319701942],[-75.97909966911288,4.1306430467911355],[-75.98059570022184,4.135445064997725],[-75.97601720988291,4.142429486565845],[-75.97707072480176,4.144094056777931],[-75.97360665066236,4.146928247927008],[-75.97465191850068,4.149664210474214],[-75.97282029219969,4.149030984017259],[-75.97276775627051,4.151185618402337],[-75.97114236457622,4.151184462432923],[-75.97156150838163,4.152500037875313],[-75.96400902453138,4.159401595772863],[-75.96126957247867,4.167128734873813],[-75.95922429238664,4.165535655815006],[-75.95564666893716,4.16895951682352],[-75.95594348053339,4.1739553625063195],[-75.95389895017593,4.177357088346469],[-75.94886384575688,4.181339376159087],[-75.94156196660896,4.181967328762823],[-75.93889123097159,4.185548346072608],[-75.93358139047496,4.182563693783038],[-75.92380794489628,4.181411763085748],[-75.9200005900139,4.1763565135346425],[-75.91453048217738,4.176036453995323],[-75.91260800429268,4.163031011587577],[-75.90972295871796,4.156237788796545],[-75.89889689502229,4.150221008225401],[-75.89787431462594,4.1475709350266925],[-75.90145248006462,4.143056768625058],[-75.90358935530423,4.136619149375292],[-75.90915945655001,4.130727384219881],[-75.90302476710099,4.116465208708405],[-75.90442119149509,4.104444002246169],[-75.90074328153031,4.092723822966036],[-75.90141535328968,4.084168895623975],[-75.89866819614565,4.081742334866249],[-75.89583814961992,4.082897704675304],[-75.8867964264951,4.080288844253687],[-75.87323838135319,4.080612100192354],[-75.86501418261315,4.0718528429191],[-75.86051977259234,4.069894829260079],[-75.85953544203016,4.063627221843092],[-75.86177175943385,4.063597289023562],[-75.86196928416086,4.061716994765732],[-75.85688098149564,4.058083762400827],[-75.85506499574848,4.048805317519282],[-75.85662964865605,4.038864643073282],[-75.85510363227701,4.034329314410002],[-75.85845322842277,4.026557809327187],[-75.85607959748779,4.02590891043468],[-75.84975469862337,4.014026593077688],[-75.84006584141343,4.003918595147695],[-75.84700833646542,3.9872724569676734],[-75.84445987750132,3.980197862587943],[-75.8385392573341,3.9743766074516316],[-75.8341214817076,3.9667279128037762],[-75.83441163413852,3.9608425774709417],[-75.83000992998325,3.955286373568981],[-75.82418007501053,3.9521255747870327],[-75.81914494590887,3.940616516244006],[-75.82224290479604,3.9180416578835775]]]}}]}