{"type":"FeatureCollection","features":[{"type":"Feature","properties":{"code":"763007"},"geometry":{"type":"Polygon","coordinates":[[[-76.03736739333209,4.255556568510826],[-76.03855424068132,4.248422505470899],[-76.03640366041668,4.234770466853433],[-76.0386842625552,4.234200315804571],[-76.04256725424267,4.221964336605822],[-76.05689014488667,4.20212716446224],[-76.05904207652475,4.196388438752706],[-76.0602461523431,4.1865815307397725],[-76.0581097337319,4.1803587377055464],[-76.06097714665964,4.174334513267468],[-76.05972281599765,4.171597790701242],[-76.06526861514669,4.171994928922004],[-76.06694078349204,4.168647833948455],[-76.06908580811023,4.168172130946743],[-76.07813700833282,4.1705760310019855],[-76.09005441820545,4.1674810844229455],[-76.09743486933337,4.172275014957563],[-76.11029660643953,4.176357974951486],[-76.12078705128897,4.171107673049164],[-76.1255473311844,4.1754197114150315],[-76.13182366185083,4.177580439322014],[-76.1365011541804,4.1811746155538],[-76.13697257166211,4.185481442801461],[-76.14482529387908,4.1943426238705115],[-76.15686559234825,4.183195180115263],[-76.17480833223465,4.19322294101687],[-76.17622721987027,4.1908702584275375],[-76.18741292682938,4.191612172746773],[-76.19458472342535,4.19493881405549],[-76.20783664956622,4.195388362735514],[-76.22047161818233,4.204142260794811],[-76.22022768498664,4.207917657854409],[-76.22205152186405,4.21093525012941],[-76.2258275637571,4.211829513809562],[-76.22569824842321,4.216839879043846],[-76.23474702049305,4.214097022846431],[-76.23544906723805,4.215550756171467],[-76.2365320573195,4.229106818476168],[-76.23071031161606,4.23129654846224],[-76.22659792273947,4.23109422296551],[-76.22453783924584,4.234014260268509],[-76.22514152677678,4.236845141889546],[-76.22882621829154,4.240067688360341],[-76.22752176751186,4.247914301628725],[-76.22242437547163,4.246520661228487],[-76.21582461917347,4.249632259320322],[-76.2102934455055,4.24754406849263],[-76.2138110295092,4.2582047977120965],[-76.20856117703624,4.266181375261567],[-76.20338127408121,4.269981079560068],[-76.20273216641488,4.272489523882655],[-76.20872128908132,4.278921954639941],[-76.20044306419891,4.281538641509144],[-76.19798718048816,4.284771188554998],[-76.20073314772418,4.289753740589788],[-76.20710469571276,4.288677143306984],[-76.20738631721304,4.290532802252812],[-76.19421006078733,4.291409373636327],[-76.18963179464885,4.296579507415856],[-76.18466502200766,4.2979022942972165],[-76.18879303189766,4.301396268345968],[-76.188938038179,4.303523017540613],[-76.18168251504915,4.308448064211973],[-76.17940128041846,4.315230290895556],[-76.17617352180105,4.312144808044593],[-76.1760515125228,4.30297317411771],[-76.1741207268795,4.302853896382828],[-76.17367865806187,4.314844839895557],[-76.17142030730571,4.317468840019558],[-76.15355901903837,4.30694885213029],[-76.14431989151433,4.299532131948524],[-76.13943678370043,4.288614129605435],[-76.12475752538239,4.276023064172023],[-76.11940880667322,4.274059336486346],[-76.11628882471797,4.269770103833366],[-76.1120774585334,4.267653504337943],[-76.11115403850778,4.261563742400369],[-76.10972663639654,4.262335590567545],[-76.10763654912085,4.2601131458250165],[-76.10488214762768,4.252556854680563],[-76.09813756502558,4.250673770258118],[-76.09282717328375,4.245341312253629],[-76.08821094424661,4.2465859662999605],[-76.08175694499283,4.243817044226887],[-76.08046718448611,4.247004304834888],[-76.06881708225075,4.249887548578329],[-76.0641857052837,4.253221247059628],[-76.05487765462738,4.250645551852301],[-76.05441178559306,4.253037034492536],[-76.05166513855653,4.254517901216559],[-76.04355547848826,4.253246821339758],[-76.03736739333209,4.255556568510826]],[[-76.14653219375674,4.2180486270764845],[-76.14774594927604,4.220205751320918],[-76.14674190449915,4.222916587988948],[-76.15033449281572,4.21800544071823],[-76.15419829479424,4.22263506110545],[-76.15820162351235,4.222600284321686],[-76.16006171915916,4.219484127144142],[-76.15984790904486,4.214633941832176],[-76.16285642017237,4.216175227497274],[-76.16462284733149,4.214177312325376],[-76.16317054251311,4.21231125376886],[-76.16440276371782,4.206003045498107],[-76.16276067423081,4.2037411445583075],[-76.16443218025915,4.198169820494456],[-76.16235079566405,4.198054351082192],[-76.16146328782276,4.191682035875488],[-76.15999619091565,4.193820460978031],[-76.15515916349727,4.194521698338747],[-76.15243367049487,4.200478162813056],[-76.1541283473332,4.207550224138856],[-76.14653219375674,4.2180486270764845]]]}}]}