{"type":"FeatureCollection","features":[{"type":"Feature","properties":{"code":"763023"},"geometry":{"type":"Polygon","coordinates":[[[-76.1945344963496,4.092005052717241],[-76.20046949620007,4.089562054362773],[-76.2019385008681,4.087430048798467],[-76.20784549828568,4.093038050207895],[-76.21702404746003,4.091349705490131],[-76.21717220283239,4.093951693858912],[-76.21447190050105,4.09622275924994],[-76.21543399922132,4.097217600494673],[-76.21366154744595,4.099609344359351],[-76.21303049305959,4.098169802512643],[-76.2103961272635,4.099186302756834],[-76.21524090296776,4.104572849638714],[-76.21433105529809,4.105170141285612],[-76.2099798908651,4.101078674015184],[-76.21052456430743,4.102598872494923],[-76.20822465521746,4.105939708367316],[-76.20680760438017,4.105827393188292],[-76.20451724129373,4.111859637421105],[-76.19731442070076,4.104432339708012],[-76.19665361552921,4.0962993072550375],[-76.1945344963496,4.092005052717241]]]}}]}