{"type":"FeatureCollection","features":[{"type":"Feature","properties":{"code":"763010"},"geometry":{"type":"MultiPolygon","coordinates":[[[[-76.17041948258236,4.158680479646648],[-76.17152090646755,4.159234444038702],[-76.1709292362874,4.159823761142377],[-76.17041948258236,4.158680479646648]]],[[[-76.15889093505365,4.184010791596961],[-76.15283603423211,4.182726433498772],[-76.15666637069103,4.182198061898816],[-76.1599611642203,4.173701287838924],[-76.16365217962812,4.169996667165037],[-76.16547080538726,4.162679234880898],[-76.16819448935928,4.163034156564777],[-76.16902316308938,4.161026417709991],[-76.17084654436673,4.162330275078318],[-76.1714569620255,4.1601267444221435],[-76.17549816108249,4.1640149636829165],[-76.17253887532769,4.172665964011344],[-76.17616390586346,4.174442402029911],[-76.17617128185321,4.174865127900546],[-76.17179907960002,4.174799029899873],[-76.16703095885885,4.188992368668266],[-76.15889093505365,4.184010791596961]]]]}}]}