{"type":"FeatureCollection","features":[{"type":"Feature","properties":{"code":"763038"},"geometry":{"type":"Polygon","coordinates":[[[-76.09671866093487,3.953365876464602],[-76.10155946068045,3.9441265936457057],[-76.10141692780331,3.9370686291815105],[-76.11135343191489,3.9229086787995584],[-76.11439064378783,3.915172828790446],[-76.11567181474265,3.914713742334527],[-76.12089767879382,3.9188655164458055],[-76.12539222456905,3.918962796823621],[-76.12916156513063,3.9125184474460184],[-76.1416963655023,3.903822297462625],[-76.14922702271696,3.9059652117167047],[-76.14976153823255,3.912088992475958],[-76.1526145035998,3.9170138910515675],[-76.15229422911597,3.9206885686215287],[-76.15493735724237,3.9250955723410925],[-76.16372136192791,3.926713103649206],[-76.17380967855348,3.9252598979152253],[-76.18188161637858,3.9193245525080442],[-76.19419514631392,3.927085208550693],[-76.19491807764115,3.930914786019059],[-76.198121711054,3.933394054455846],[-76.202280110392,3.9322647937169677],[-76.21184363234062,3.937773657381399],[-76.21768837607567,3.938370332991269],[-76.22785102029889,3.931536957747369],[-76.22730926660483,3.9407945591843827],[-76.23113830105558,3.941535439918937],[-76.23363989492253,3.9439387280508527],[-76.24007945175799,3.9440385497101715],[-76.24202866914817,3.9519163494694567],[-76.24878098049578,3.958969383580211],[-76.25631152355334,3.95877406589085],[-76.2591416657242,3.9608679697167304],[-76.26743815780264,3.957813266093467],[-76.2691510678984,3.9590201094505915],[-76.26850178539684,3.961427867193663],[-76.2634383576708,3.961891187747483],[-76.25270874645673,3.9725395705145274],[-76.24365049420379,3.9782723230298984],[-76.2359409147304,3.9896481458161475],[-76.23343083312733,3.9885103726585953],[-76.23093049704556,3.9898652819135805],[-76.22937104908556,3.988499385807188],[-76.22794047731452,3.989310207832091],[-76.22792264103589,3.9927340770681212],[-76.2230453398085,3.9934433959301145],[-76.22249988989205,3.9951567174028924],[-76.22649485223025,3.996515160386366],[-76.22505743925956,4.001287297195574],[-76.2268967171729,4.002753489073314],[-76.22794076733527,4.001481902174305],[-76.20989689863916,4.037947350508205],[-76.19963632714774,4.033959537902376],[-76.19996378941636,4.032980504847558],[-76.1957900169196,4.033256826783543],[-76.19422638936919,4.0355789656584875],[-76.1918387921848,4.035901859585465],[-76.17763242407818,4.033791197288679],[-76.17434322219088,4.025029655844605],[-76.1790362594291,4.017169926848794],[-76.16888078447863,4.015206639336554],[-76.16582892449895,4.022839272797569],[-76.16240280503064,4.0229156583087615],[-76.1533012563761,4.007621390336112],[-76.15243130919083,4.00258850015382],[-76.14181800454122,3.991791448821573],[-76.14117766948954,3.9877958313654744],[-76.13626455892211,3.980359336290917],[-76.1365084921178,3.976667630798204],[-76.12680390076571,3.968827744572309],[-76.1223633358814,3.9685242038767115],[-76.11279564462683,3.962216968512564],[-76.10331160071604,3.9576469412270967],[-76.1007938767566,3.9578259395906343],[-76.09671866093487,3.953365876464602]]]}}]}