{"type":"FeatureCollection","features":[{"type":"Feature","properties":{"code":"763001"},"geometry":{"type":"Polygon","coordinates":[[[-76.14653219375674,4.2180486270764845],[-76.1541283473332,4.207550224138856],[-76.15243367049487,4.200478162813056],[-76.15515916349727,4.194521698338747],[-76.15999619091565,4.193820460978031],[-76.16146328782276,4.191682035875488],[-76.16235079566405,4.198054351082192],[-76.16443218025915,4.198169820494456],[-76.16276067423081,4.2037411445583075],[-76.16440276371782,4.206003045498107],[-76.16317054251311,4.21231125376886],[-76.16462284733149,4.214177312325376],[-76.16285642017237,4.216175227497274],[-76.15984790904486,4.214633941832176],[-76.16006171915916,4.219484127144142],[-76.15820162351235,4.222600284321686],[-76.15419829479424,4.22263506110545],[-76.15033449281572,4.21800544071823],[-76.14674190449915,4.222916587988948],[-76.14774594927604,4.220205751320918],[-76.14653219375674,4.2180486270764845]]]}}]}