{"type":"FeatureCollection","features":[{"type":"Feature","properties":{"code":"763048"},"geometry":{"type":"Polygon","coordinates":[[[-76.09721006002633,3.9525807408200535],[-76.08940295129196,3.9509274845041773],[-76.08696159536021,3.9408592081096003],[-76.08809053728186,3.9388040868510643],[-76.08598427774751,3.937495586064756],[-76.08656488291462,3.9271240775072442],[-76.08876955205665,3.9260812316510396],[-76.08898373960938,3.9210033213975066],[-76.08231662855377,3.905352294942645],[-76.07826472135326,3.9050383443517944],[-76.07268528802012,3.900434960561711],[-76.0669012810149,3.903169373246044],[-76.06097223276129,3.901135654904806],[-76.05471504346701,3.9024616916644845],[-76.05163517899751,3.89960691623844],[-76.04212395129406,3.901586634148373],[-76.03145258900736,3.898996988118256],[-76.02667362025448,3.9006795406477295],[-76.02167543897878,3.89948934366123],[-76.02550859954084,3.8858576126697244],[-76.0202966307765,3.8775046241299833],[-76.0194173360772,3.871247544879054],[-76.01652744139597,3.8657417171769453],[-76.01882182569273,3.861667768396387],[-76.01811328947542,3.8515455244806276],[-76.02329232031121,3.831163633643257],[-76.01953849380499,3.823083419941156],[-76.00663518190999,3.8154682895433325],[-75.99009722457009,3.800773713602439],[-75.98526917751178,3.7937097965129283],[-75.98192339688774,3.7802080904806417],[-75.98499707630396,3.769656781374522],[-75.97961431614743,3.755884742027092],[-75.98171209411629,3.7468010677035295],[-75.97485292142034,3.7318013724076877],[-75.96976589608073,3.7268737772557756],[-75.9683407801972,3.7183010804838545],[-75.97229586467677,3.7202847147029274],[-75.97619476225623,3.7251901911415644],[-75.97887301169465,3.7309954714802984],[-75.98435118354894,3.7371224229277686],[-75.98995458884872,3.751190918030318],[-75.99406732945266,3.7552953354489205],[-76.000259981922,3.7551753429465293],[-76.00484861167575,3.7520254703378555],[-76.0109249678651,3.7513254300842505],[-76.01456407777897,3.7490107021660606],[-76.02101148574462,3.7503522221278445],[-76.02625833105168,3.7465537601879078],[-76.03369984081189,3.746989314850566],[-76.04259618844446,3.7563520303120868],[-76.04641564912379,3.755643416961618],[-76.05329196904188,3.75979781874355],[-76.06064704849285,3.757720646648977],[-76.07410594149155,3.764414892131981],[-76.0829871741044,3.770847187134848],[-76.08316203812899,3.7861785500007272],[-76.08068331168141,3.793024367342184],[-76.08423854902259,3.7972109439483006],[-76.08937305241108,3.796936017608857],[-76.0932559134863,3.8079281542024432],[-76.10566935866922,3.820651423864774],[-76.1214094554453,3.826237422774966],[-76.13299171955526,3.8280378666988213],[-76.14207095100716,3.8324383902020713],[-76.1451686846654,3.828359856624786],[-76.1569719199349,3.821519355302712],[-76.16705835451063,3.8107837246146232],[-76.16895256051049,3.822045948725588],[-76.16302815361792,3.849145723797278],[-76.15464808824356,3.8655243908176544],[-76.18067251250483,3.8814403594919895],[-76.18750740470136,3.8826715347706795],[-76.17851246748364,3.9031156237547293],[-76.1671607555038,3.917478451907016],[-76.15998397404695,3.9212570649063423],[-76.15264425849875,3.9214624315076207],[-76.14922702271696,3.9059652117167047],[-76.1431613685005,3.903992344262406],[-76.13882774312617,3.904952152641215],[-76.13065646700971,3.911131630761872],[-76.12539222456905,3.918962796823621],[-76.12089767879382,3.9188655164458055],[-76.11567181474265,3.914713742334527],[-76.11439064378783,3.915172828790446],[-76.11135343191489,3.9229086787995584],[-76.10141692780331,3.9370686291815105],[-76.10155946068045,3.9441265936457057],[-76.09721006002633,3.9525807408200535]]]}}]}