{"type":"FeatureCollection","features":[{"type":"Feature","properties":{"code":"763027"},"geometry":{"type":"Polygon","coordinates":[[[-76.13079840441861,4.107615629499435],[-76.14936037571618,4.103853582652164],[-76.15759560861596,4.092167417051428],[-76.16154627387806,4.088784066393771],[-76.16362499377863,4.089154864144803],[-76.16872670836273,4.090399335128325],[-76.17845347293547,4.100186157658868],[-76.17906587548828,4.10324228258969],[-76.1767307278439,4.10710187412451],[-76.17897609039954,4.10966492463109],[-76.19242050601287,4.111061924952992],[-76.19340545055525,4.117945318498755],[-76.19304269111097,4.1200688836353265],[-76.19229743538199,4.119403281807877],[-76.1912454178754,4.119356855855699],[-76.19577794300443,4.1213312279214165],[-76.19607127023738,4.111255982800287],[-76.19936808465621,4.113168426171342],[-76.1998036619446,4.111549771803993],[-76.20559861466353,4.11164549717671],[-76.20553674561847,4.1078303816671],[-76.21052456430743,4.102598872494923],[-76.2099798908651,4.101078674015184],[-76.21433105529809,4.105170141285612],[-76.21524090296776,4.104572849638714],[-76.2103961272635,4.099186302756834],[-76.21303049305959,4.098169802512643],[-76.21366154744595,4.099609344359351],[-76.21543399922132,4.097217600494673],[-76.21447190050105,4.09622275924994],[-76.21717220283239,4.093951693858912],[-76.21702330595298,4.091335695017676],[-76.22146313858622,4.089466566560247],[-76.22612958544312,4.090343825971843],[-76.2263777486229,4.092211254413826],[-76.2295279688451,4.091519494150873],[-76.23919490377432,4.098957382765036],[-76.24080639401103,4.0971981115089875],[-76.23919616053104,4.095601011239921],[-76.2402306410358,4.0934099309088765],[-76.23562405570414,4.092852363882685],[-76.23539320841104,4.090801791425406],[-76.23445841072589,4.0923696263341185],[-76.22069904076182,4.084707270884337],[-76.21920231956796,4.086213092766059],[-76.21491203070445,4.083662064752559],[-76.21396732500409,4.085971326498736],[-76.20940450607225,4.081827188573186],[-76.20812509375412,4.083557365190359],[-76.20632874200305,4.077507469798604],[-76.20795310216948,4.071371480398227],[-76.21374646080255,4.073689797580812],[-76.22141905028388,4.070323205394004],[-76.21904056921392,4.066183837384813],[-76.21966898153147,4.064810662990681],[-76.21532997637433,4.068505965975362],[-76.19897545409896,4.0606368483278175],[-76.20952343310825,4.03884114624708],[-76.2155745420622,4.038658880521666],[-76.22507300987928,4.035434682372227],[-76.2282781921266,4.036862780739057],[-76.23379417364163,4.033910054390617],[-76.24130878612459,4.035624029952771],[-76.24423181310999,4.031241549445042],[-76.26207656607852,4.035358770973005],[-76.26613607449764,4.0402372435964935],[-76.27160639830709,4.041272437840348],[-76.27129422177961,4.042799144304297],[-76.27508603278181,4.041877791448144],[-76.29332255241587,4.047034516394149],[-76.2975070783076,4.046842047490543],[-76.29727000379512,4.04805422640743],[-76.30069021383264,4.049171887343107],[-76.2960132789189,4.059824923812528],[-76.29885180289637,4.06474167198121],[-76.30804582395996,4.069369532703263],[-76.30449068226397,4.074551935802049],[-76.29554062010709,4.0725273335752945],[-76.29541085637226,4.075173236439582],[-76.30175866585068,4.084040424641387],[-76.30565738242422,4.079843430941025],[-76.30645146140489,4.074595655921939],[-76.31134167781346,4.07640600786101],[-76.3140198840573,4.079601116513857],[-76.31171543542206,4.083461154392751],[-76.31103595579128,4.090116857963949],[-76.31396604817678,4.094779917131177],[-76.30455072170975,4.09871895070836],[-76.29329024903637,4.10964695465492],[-76.29345737505946,4.1114109330923725],[-76.3005227669355,4.114146439011165],[-76.29223665801277,4.118779264025193],[-76.28712537685635,4.124023265688663],[-76.28729989532422,4.116044110862276],[-76.28291346662564,4.111211099511877],[-76.28308903821869,4.104450413556833],[-76.280830472518,4.1049522636811275],[-76.27542886615231,4.110154071433385],[-76.27571807961522,4.118090719702025],[-76.27244592930487,4.122370628495162],[-76.26671505164018,4.1246372170759855],[-76.264548682726,4.128503974798264],[-76.25868897206698,4.130126667859372],[-76.2559502522654,4.135493240330618],[-76.24846579783087,4.136330280440632],[-76.24789340272042,4.1379284523467845],[-76.25082285849999,4.142944356772489],[-76.2501968949041,4.146245261307172],[-76.23907337375027,4.1509297933257585],[-76.2377073305766,4.153578832939786],[-76.23959937479026,4.157021434227829],[-76.2429796720021,4.157234132595761],[-76.24513896728871,4.156004437245883],[-76.24692439183798,4.150612611368558],[-76.25109040062216,4.150849288902293],[-76.25250133531176,4.156919268748027],[-76.24594004276383,4.163913307282144],[-76.24672597133753,4.168008591102762],[-76.24329063291054,4.167634195859819],[-76.24438967595125,4.165189445039289],[-76.24199799482159,4.163669486186677],[-76.2429968449353,4.162289346151397],[-76.24110627242288,4.162740005549324],[-76.2386368698352,4.1665701517463845],[-76.23299987148897,4.162813237855744],[-76.23141742549734,4.1593647518196235],[-76.23192530743705,4.154982649778731],[-76.2300616605782,4.154492913678837],[-76.23041326553493,4.1499320539300015],[-76.2276749077451,4.146331408794765],[-76.2231116959482,4.147047586339966],[-76.21329272121926,4.140418516344653],[-76.20451082792619,4.137748168430164],[-76.20297005853922,4.135451441341331],[-76.19826260767906,4.13635889582531],[-76.19167045054269,4.132497290600043],[-76.18806114592138,4.131877230264195],[-76.18417799996757,4.135546221575453],[-76.17895197239403,4.135134500039726],[-76.17940944830895,4.130737155452266],[-76.1778752455275,4.130691892668551],[-76.17878399379214,4.129395385578903],[-76.1753502412235,4.131811917993559],[-76.17458737958702,4.12953639533265],[-76.17647995139168,4.126248924314098],[-76.17222972447809,4.124062669435318],[-76.17193236060825,4.1192739705878125],[-76.16591287523329,4.12086127699871],[-76.16387577948677,4.119605491090567],[-76.16215911249054,4.121617616252706],[-76.16009117889513,4.120746040014524],[-76.16029658046341,4.1183263975896125],[-76.15765669090251,4.119547407742459],[-76.15404777297562,4.1186740307013565],[-76.15270495203401,4.120563380395652],[-76.14814278204938,4.121499527397418],[-76.14744086488815,4.119144955559136],[-76.14429806590715,4.11821331519252],[-76.14494612867594,4.1165475129063225],[-76.13676715055345,4.115733098531734],[-76.13413518925591,4.112125594713348],[-76.129999233619,4.110590306924962],[-76.12914506377041,4.109491805873461],[-76.13079840441861,4.107615629499435]]]}}]}