{"type":"FeatureCollection","features":[{"type":"Feature","properties":{"code":"763008"},"geometry":{"type":"Polygon","coordinates":[[[-76.02361879527501,4.245895335266937],[-76.01671378181061,4.2381507054440135],[-76.0121897413324,4.238676777446528],[-76.0116936114054,4.236824247022923],[-76.0037283559796,4.233958287284395],[-76.00258412831681,4.230227584279817],[-75.99953928951419,4.228387892932574],[-75.99530520194901,4.227711177755282],[-75.99331662606369,4.225679683935141],[-75.99137133012482,4.226503687507773],[-75.98658027203015,4.220934585908196],[-75.97416315633586,4.21874761523344],[-75.97050858790249,4.211169567387515],[-75.97342322279695,4.20545778481511],[-75.97004353030928,4.20094068838074],[-75.97183598529165,4.196703326254635],[-75.97121046186913,4.190863882083875],[-75.96545812986506,4.192552655662155],[-75.96097891199713,4.190294348100565],[-75.96191813609892,4.185259563527097],[-75.96049836091743,4.179138153327926],[-75.95451697830936,4.176547076734266],[-75.95620313244456,4.172637926611401],[-75.95564666893716,4.16895951682352],[-75.95922429238664,4.165535655815006],[-75.96126957247867,4.167128734873813],[-75.96400902453138,4.159401595772863],[-75.97156150838163,4.152500037875313],[-75.97114236457622,4.151184462432923],[-75.97276775627051,4.151185618402337],[-75.97282029219969,4.149030984017259],[-75.97465191850068,4.149664210474214],[-75.97360665066236,4.146928247927008],[-75.97707072480176,4.144094056777931],[-75.97601720988291,4.142429486565845],[-75.98059570022184,4.135445064997725],[-75.97951961098966,4.129756418268187],[-75.98331207710976,4.1270486566432965],[-75.98472304676642,4.121677656726945],[-75.98935421701646,4.1188161604290485],[-75.9922686091985,4.112819920940353],[-75.99413861388899,4.112511113590585],[-75.99326048030122,4.109327834083615],[-76.00050860275871,4.103879389360259],[-76.0010583351098,4.101859897464351],[-76.0043616163752,4.1028758937717384],[-76.0076508532295,4.101781761544032],[-76.0110302269,4.104839569006799],[-76.01320461869432,4.102445310600217],[-76.0149671058901,4.103408352402312],[-76.01641729828754,4.101361777501097],[-76.02163532869207,4.100571936732024],[-76.02358075421466,4.098526570250783],[-76.02620595967329,4.100800085391938],[-76.03252367178135,4.0948284462483],[-76.04118335730686,4.095140405774373],[-76.04954545476198,4.092299692242875],[-76.05201653576785,4.094567279441321],[-76.05302377180186,4.091154740556533],[-76.05471730089835,4.091510119897293],[-76.05542746411169,4.0897947898763505],[-76.06707797155337,4.083696798341691],[-76.0702446026329,4.087835183159825],[-76.07648550139766,4.090844941788191],[-76.07632468178412,4.093425067525857],[-76.08180333597795,4.096679097707465],[-76.08386330839988,4.101098070441083],[-76.08249033043825,4.102721054551466],[-76.08408381367497,4.103900749082982],[-76.08378638089948,4.106851986246625],[-76.08661761630475,4.108376823002118],[-76.09092792483028,4.107162102803727],[-76.09276684998787,4.112873781503481],[-76.10260889062562,4.119563968752345],[-76.11074201255309,4.122855048575673],[-76.11583115134204,4.134815275595656],[-76.12439944946533,4.1405565960656645],[-76.12524586588574,4.14343014673841],[-76.13018975465252,4.147216814499529],[-76.13215072302688,4.150945587117519],[-76.13786548705417,4.152129045748666],[-76.14187167689937,4.158868450142677],[-76.13997938174577,4.163623396535229],[-76.14050577256546,4.1677703534217585],[-76.14795953518984,4.179757101917403],[-76.15526137628541,4.183638867701347],[-76.14482529387908,4.1943426238705115],[-76.13697257166211,4.185481442801461],[-76.1365011541804,4.1811746155538],[-76.13182366185083,4.177580439322014],[-76.1255473311844,4.1754197114150315],[-76.12078705128897,4.171107673049164],[-76.11029660643953,4.176357974951486],[-76.09743486933337,4.172275014957563],[-76.09005441820545,4.1674810844229455],[-76.07813700833282,4.1705760310019855],[-76.07266523339098,4.168518978328393],[-76.06694078349204,4.168647833948455],[-76.06526861514669,4.171994928922004],[-76.05972281599765,4.171597790701242],[-76.06097714665964,4.174334513267468],[-76.0581097337319,4.1803587377055464],[-76.0602461523431,4.1865815307397725],[-76.05904207652475,4.196388438752706],[-76.05689014488667,4.20212716446224],[-76.04256725424267,4.221964336605822],[-76.0386842625552,4.234200315804571],[-76.03640366041668,4.234770466853433],[-76.03855424068132,4.248422505470899],[-76.0369632185076,4.256321109593898],[-76.0353984370447,4.255430629553757],[-76.03480358897718,4.256583215368892],[-76.03342323399738,4.254185837696127],[-76.03544486299688,4.254406161965335],[-76.0354448887079,4.251043780222176],[-76.03732899026,4.252218933151539],[-76.03760364097684,4.250587837715045],[-76.02991367390229,4.246228321300293],[-76.02361879527501,4.245895335266937]]]}}]}