{"type":"FeatureCollection","features":[{"type":"Feature","properties":{"code":"763047"},"geometry":{"type":"Polygon","coordinates":[[[-76.31237178023844,3.993684520449335],[-76.30819100301966,3.987139513288639],[-76.30503209862883,3.9867448772684497],[-76.30034840273402,3.9819556024930876],[-76.29715105310493,3.9835239433955394],[-76.29509888656179,3.982759022817163],[-76.28762724549262,3.974037220392006],[-76.28155075149198,3.963554620502066],[-76.2769225369857,3.9604061846276295],[-76.26743815780264,3.957813266093467],[-76.25776984990267,3.960773024931882],[-76.25642517673606,3.958797347772588],[-76.24921975006976,3.9591196040651653],[-76.24661374151924,3.9574769304227857],[-76.24202866914817,3.9519163494694567],[-76.24007945175799,3.9440385497101715],[-76.23363989492253,3.9439387280508527],[-76.23113830105558,3.941535439918937],[-76.22730926660483,3.9407945591843827],[-76.22785102029889,3.931536957747369],[-76.21796760233326,3.9382445925235743],[-76.21430310942958,3.9384086239630847],[-76.202280110392,3.9322647937169677],[-76.198121711054,3.933394054455846],[-76.19491807764115,3.930914786019059],[-76.19419514631392,3.927085208550693],[-76.18251511023061,3.91941284532669],[-76.17342134277214,3.925339152781021],[-76.16372136192791,3.926713103649206],[-76.15460681993062,3.924797389830985],[-76.15264425849875,3.9214624315076207],[-76.16221383900228,3.9205768129152148],[-76.16841252945767,3.916235170831442],[-76.17851246748364,3.9031156237547293],[-76.18750740470136,3.8826715347706795],[-76.18067251250483,3.8814403594919895],[-76.15464808824356,3.8655243908176544],[-76.16302815361792,3.849145723797278],[-76.16895256051049,3.822045948725588],[-76.16705835451063,3.8107837246146232],[-76.17117104060713,3.8099798384060932],[-76.17821308169579,3.805294952603276],[-76.18048691565411,3.8055307251075305],[-76.18932186938207,3.8134530111764775],[-76.19484495023585,3.825082510622849],[-76.19994156683038,3.8302322390743484],[-76.22304397917901,3.840726178571515],[-76.23363495839845,3.8397602180495483],[-76.24095119254702,3.8355051399726108],[-76.24782609938512,3.8360646013899213],[-76.2531814700605,3.838235467683262],[-76.25692835457966,3.8491114118695577],[-76.25939162250774,3.851471023076158],[-76.26278771145445,3.848010524831352],[-76.26739971873508,3.846278237850129],[-76.27336155270774,3.837915760899648],[-76.27746713432327,3.837361282286338],[-76.2797337640418,3.8334231866487585],[-76.28080538057742,3.824568837523316],[-76.28537679728873,3.8178766345271242],[-76.28671423227684,3.809845937247019],[-76.29541627729282,3.8019242980684567],[-76.29899349450744,3.8031194593469877],[-76.30000874930778,3.8003121342018744],[-76.30451269710449,3.7995334695176552],[-76.3046130113878,3.803116071657371],[-76.31156704350792,3.8044255731182375],[-76.31383195778426,3.802134764716129],[-76.3138203425545,3.7987251733475773],[-76.31764789604796,3.7967855729234543],[-76.32096664406038,3.798907281721256],[-76.3282989918464,3.7973894949392957],[-76.33233846826215,3.798889558571375],[-76.33862224793774,3.795838058546508],[-76.34129792935516,3.797369116350751],[-76.34659118313084,3.7959754409835114],[-76.35378559826313,3.7992176574458654],[-76.36470741715641,3.7978263505817154],[-76.36874354804866,3.8089995907606635],[-76.372921988646,3.8114140200103748],[-76.3724032936617,3.8140766381509366],[-76.38294721032298,3.821065628060751],[-76.37842264225378,3.8290358210390423],[-76.3734859145323,3.8276990843634167],[-76.37235750740075,3.828752173507098],[-76.37923144750283,3.8376896896936614],[-76.37865125576968,3.839866216534631],[-76.37505749502867,3.8419701774999453],[-76.37893360129345,3.844100667139969],[-76.37413495329298,3.84988791373911],[-76.37316539733598,3.85475145440563],[-76.36896179486399,3.8539600792003625],[-76.36709280730315,3.8564271554510583],[-76.36540592914446,3.861799284597282],[-76.36574174030943,3.8693071679807645],[-76.35848604440127,3.8712620963122504],[-76.36011149574523,3.873411671788574],[-76.36472752629294,3.8736337464669646],[-76.36530731384823,3.876044658443277],[-76.35636567052182,3.878113411707375],[-76.35528947021783,3.8798413041537287],[-76.35615870983469,3.8845701939266064],[-76.34965893151906,3.8841514409293723],[-76.35252692448842,3.8874403322270723],[-76.34747615791821,3.8927467346402977],[-76.3479340040725,3.900756554537338],[-76.33915956390234,3.9056024059925107],[-76.343195937507,3.91125077994144],[-76.33803128532611,3.912721805499018],[-76.33736697830778,3.9143415356172113],[-76.3416549202654,3.914191616465928],[-76.34527113499195,3.911310242431],[-76.34751444889008,3.91215995809506],[-76.34785038963884,3.9140953532177605],[-76.34006042709814,3.91907317338854],[-76.32856252715646,3.9185796824449994],[-76.33115594654214,3.9243415080019872],[-76.33900711066866,3.927910729076075],[-76.33968617892248,3.929966239085843],[-76.32716649048518,3.932957663669413],[-76.3273871942497,3.935322478795115],[-76.33303283665532,3.941093283683699],[-76.33202634418524,3.9427460494325146],[-76.32837906638088,3.942433598310913],[-76.32074230475155,3.938183432075448],[-76.32328245698545,3.943092441214162],[-76.32872293950675,3.947992774411773],[-76.32564802287419,3.956896823021907],[-76.31889577220471,3.9612626571590113],[-76.32602919761024,3.964737003382311],[-76.32323682396242,3.9709963637187684],[-76.32640269913668,3.974829326819929],[-76.32061935650535,3.9754795709152404],[-76.32325955459896,3.983070344708892],[-76.320818328251,3.983112729910431],[-76.31592705048973,3.9793120434492835],[-76.31118168712459,3.984473670980776],[-76.31062539742402,3.987211882731799],[-76.31118199668583,3.988977946850639],[-76.31546925678606,3.991173058676395],[-76.32350401435724,3.9889668221879333],[-76.32506759665614,3.9899211170863964],[-76.32087953086528,3.9924191782532716],[-76.31948286581559,3.998428281500992],[-76.31651520545336,3.993220460445343],[-76.31237178023844,3.993684520449335]],[[-76.31329848819473,3.904473412648713],[-76.31264492634386,3.894268506637104],[-76.3186562890798,3.891983837008354],[-76.31682303783958,3.8882848563132484],[-76.3172926308643,3.879447351019394],[-76.30965729774164,3.877473077684158],[-76.30224117199964,3.8659148513611967],[-76.29664967297884,3.860778995570797],[-76.299139428444,3.842974658336402],[-76.29603614942368,3.84282688348776],[-76.29258806139478,3.846176454950921],[-76.29386877777802,3.853023373754297],[-76.29165214990633,3.8597225166806197],[-76.29299290882068,3.8633343666970745],[-76.28940764712866,3.8634845357598806],[-76.29366866548958,3.864948674866355],[-76.29680220437416,3.8750430603311656],[-76.29601940637946,3.879777303147364],[-76.29133918662035,3.8856987368125715],[-76.2908052501179,3.888982941497659],[-76.28915320839263,3.8899599886299825],[-76.28378238125464,3.888198492852723],[-76.27673640225959,3.888630558009936],[-76.27278134760485,3.8861378766258667],[-76.26467182740475,3.8874673072458563],[-76.26570213448974,3.8888632081627748],[-76.28315090109305,3.8916217748480904],[-76.28625361447001,3.894978592717223],[-76.28326123240646,3.9007356103054462],[-76.28911671410987,3.9029113915255493],[-76.29043117677747,3.9056524232659626],[-76.28771024080385,3.9109441816862045],[-76.28817364157618,3.9141131020787725],[-76.2837977544134,3.9212704706545765],[-76.28150752296756,3.931352505553207],[-76.276221460062,3.9350908396013438],[-76.27945527620591,3.9371803828309453],[-76.28084830262594,3.945737554234597],[-76.2850771369067,3.950016141479068],[-76.28607215710048,3.9434490104629276],[-76.294767598487,3.926912148414317],[-76.29576490388001,3.9298950410387192],[-76.2982675004784,3.927375884458854],[-76.29504266777991,3.926609865503849],[-76.2991377500258,3.919560138864256],[-76.30388154398764,3.9141016256886587],[-76.3099589286195,3.915804605143478],[-76.31107616892217,3.9110737911546494],[-76.30740761161366,3.908972444490246],[-76.31329848819473,3.904473412648713]]]}}]}