{"type":"FeatureCollection","features":[{"type":"Feature","properties":{"code":"763037"},"geometry":{"type":"Polygon","coordinates":[[[-76.20952343310825,4.03884114624708],[-76.22794076733527,4.001481902174305],[-76.24365049420379,3.9782723230298984],[-76.25270874645673,3.9725395705145274],[-76.2634383576708,3.961891187747483],[-76.26850178539684,3.961427867193663],[-76.27010791950494,3.958090906492714],[-76.2813461263978,3.9633594385671245],[-76.29249691979032,3.9802223940273507],[-76.29590752006095,3.983384855800864],[-76.30034840273402,3.9819556024930876],[-76.30503209862883,3.9867448772684497],[-76.30768719576923,3.9867033024796115],[-76.31237178023844,3.993684520449335],[-76.31062437103839,3.9967358456389093],[-76.31069321703745,4.002575618911237],[-76.30842014206974,4.00206201471741],[-76.306398375259,3.9988325159752094],[-76.30275054518097,4.001256381185044],[-76.3035979694751,4.003733676040611],[-76.30825230230755,4.007006938097334],[-76.3081144200475,4.013608915831355],[-76.31149396546789,4.018879904854941],[-76.30713011416793,4.020197082610764],[-76.30258304891862,4.01769082784233],[-76.29944686693676,4.013417536048337],[-76.29754780668827,4.014887364498804],[-76.29983674641028,4.022409465071746],[-76.29738730897719,4.026204911618208],[-76.30392526719288,4.030140126588321],[-76.3037050725074,4.037984777588349],[-76.30963281875279,4.038647154220087],[-76.30684766477145,4.0427231979380736],[-76.3093660438488,4.0458039849204965],[-76.30776324600816,4.048134274202425],[-76.30069021383264,4.049171887343107],[-76.29727000379512,4.04805422640743],[-76.29724381039256,4.046721426609736],[-76.29332255241587,4.047034516394149],[-76.27782516601735,4.042386319249715],[-76.27129422177961,4.042799144304297],[-76.27160639830709,4.041272437840348],[-76.26613607449764,4.0402372435964935],[-76.26207656607852,4.035358770973005],[-76.24477328295387,4.031161303160673],[-76.24130878612459,4.035624029952771],[-76.23379417364163,4.033910054390617],[-76.2282781921266,4.036862780739057],[-76.22507300987928,4.035434682372227],[-76.2155745420622,4.038658880521666],[-76.20952343310825,4.03884114624708]]]}}]}