{"type":"FeatureCollection","features":[{"type":"Feature","properties":{"code":"763507"},"geometry":{"type":"Polygon","coordinates":[[[-76.372921988646,3.8114140200103748],[-76.36874354804866,3.8089995907606635],[-76.36458823198132,3.7977115280598355],[-76.35378559826313,3.7992176574458654],[-76.34659118313084,3.7959754409835114],[-76.34129792935516,3.797369116350751],[-76.33862224793774,3.795838058546508],[-76.33233846826215,3.798889558571375],[-76.3282989918464,3.7973894949392957],[-76.32096664406038,3.798907281721256],[-76.317099879139,3.7968246413978477],[-76.3138203425545,3.7987251733475773],[-76.31383195778426,3.802134764716129],[-76.31140161441505,3.8044367317195906],[-76.30787717584195,3.80351471551802],[-76.30575216060146,3.799374801405861],[-76.30481728475462,3.7792770178143087],[-76.30029605500982,3.774727239533604],[-76.30030625098891,3.763243285272438],[-76.30245166127304,3.761091955273173],[-76.30394997038218,3.7452125754983285],[-76.30930550457992,3.7455615013623174],[-76.31727108705041,3.737291788898631],[-76.32369572221342,3.7347931682589888],[-76.32062316379955,3.7072505365827624],[-76.32546587850504,3.7107257518399592],[-76.32712837949077,3.7086180000355284],[-76.33304155579094,3.7159548554851085],[-76.33788700203979,3.71662981099729],[-76.33844329996793,3.7187513058790387],[-76.34320498471584,3.7187101188130782],[-76.3442501414824,3.7215481008012716],[-76.35241343791336,3.7239805895016502],[-76.35973015645834,3.7297591940982784],[-76.36460595615972,3.732028374354229],[-76.36886354980709,3.7307133162183845],[-76.37742373146199,3.7351573356411336],[-76.37830869802178,3.73727346205294],[-76.38356530633365,3.7404589732801696],[-76.3899973761076,3.7556320084487425],[-76.39788669442311,3.7622823342940137],[-76.39779467041495,3.766288730856161],[-76.39279697147879,3.7698611503865322],[-76.39999941566174,3.7773134649638678],[-76.40067123750958,3.7844571274862346],[-76.39855736030154,3.785302096888074],[-76.39176001139913,3.783481937721149],[-76.38757056543835,3.778013443510929],[-76.38496921676085,3.7777417649929816],[-76.38364141519378,3.781991870550371],[-76.38662420600241,3.7879443384970273],[-76.38483198344807,3.7931734843082836],[-76.38893602959894,3.7943082523568137],[-76.38921828050599,3.795964403738367],[-76.38227526917586,3.8003382422436403],[-76.37789630388465,3.798211931165497],[-76.37588940938116,3.79890261156379],[-76.37405902338185,3.80252720295465],[-76.37524156772753,3.8081899750988555],[-76.372921988646,3.8114140200103748]],[[-76.33321741020569,3.7685904911426746],[-76.33190453956712,3.7709195051558595],[-76.3325669161988,3.771360342927778],[-76.33457870506027,3.7675257775131854],[-76.33986540148646,3.7683305738933655],[-76.34124919454956,3.7606122413456546],[-76.33892517773853,3.7598410822349706],[-76.33965583986816,3.7553673356812283],[-76.33331830967273,3.7545124839752475],[-76.33398993097427,3.757306633743326],[-76.33249542504558,3.758901365509246],[-76.32765279775765,3.757328872784342],[-76.32752676418392,3.7586319979016025],[-76.32444557302352,3.7590825904507597],[-76.32673976705843,3.7670267442929344],[-76.32892766847363,3.767770700070571],[-76.32885503163544,3.7645639227089305],[-76.33248720470453,3.7658929316675085],[-76.33181902148635,3.7682914467977184],[-76.33321741020569,3.7685904911426746]]]}}]}