{"type":"FeatureCollection","features":[{"type":"Feature","properties":{"code":"763567"},"geometry":{"type":"Polygon","coordinates":[[[-76.2270179890578,3.370012432287865],[-76.22817880961225,3.3591623863410405],[-76.22284764950217,3.3483441717186793],[-76.2247248604894,3.334204538218671],[-76.23098552591944,3.327439502980212],[-76.23093674380544,3.3319767723145333],[-76.23328857484438,3.333082545483137],[-76.23555029374984,3.3330528522907343],[-76.2363886615791,3.328883853824152],[-76.24967570080446,3.3329434835995357],[-76.24842006093519,3.331586764285703],[-76.24915013685256,3.3298866418442117],[-76.24602937945161,3.3300185869056236],[-76.23915720312846,3.323893917572093],[-76.24113305306605,3.318842289167094],[-76.23959667924242,3.319318903368867],[-76.23916261479297,3.315622363167847],[-76.23712553138779,3.31554730434749],[-76.22589685198642,3.287583124367245],[-76.2256240997745,3.2834918483871434],[-76.22182544757266,3.2772382689260553],[-76.22324192351061,3.2722276486380792],[-76.22939460658989,3.2768840980052687],[-76.23340784538016,3.2774532884888004],[-76.2378707511213,3.275476170481568],[-76.24100660605836,3.277573314929839],[-76.24637752884149,3.2764480517470815],[-76.25099397282315,3.2792443314195907],[-76.25821154128187,3.279424957807578],[-76.25857001314927,3.281071493251602],[-76.25930288025967,3.2802142288194887],[-76.26284267553643,3.2821833146906556],[-76.26642063528658,3.2786868168439582],[-76.27466080059673,3.2757282036905053],[-76.27669008018006,3.2765894142565912],[-76.27678236438419,3.2792479319968493],[-76.27974316503486,3.2810492367270854],[-76.27986416746779,3.2830505827831757],[-76.28432072360482,3.2834684132674283],[-76.28668590074233,3.281860178051261],[-76.28942488793905,3.285467545086817],[-76.29253021355998,3.2865703275445526],[-76.29372775156918,3.285418361880261],[-76.30687320408452,3.2857486060858605],[-76.30734638945898,3.283222094085147],[-76.30917039705781,3.283344482858638],[-76.31148946808872,3.280335652913891],[-76.31495380036722,3.2826792029336502],[-76.3225909312074,3.279938371739547],[-76.32718414575788,3.2825879451152105],[-76.33503456117825,3.2804179828228257],[-76.33841502088399,3.2822019181873543],[-76.3430299139743,3.2799898637995852],[-76.34422323948297,3.282813801376733],[-76.35117919273375,3.28585555382341],[-76.33990192662247,3.3032650195243036],[-76.34080217892347,3.313160594708961],[-76.3382847388142,3.3122504858149],[-76.33533165045395,3.322376545252439],[-76.32595511478189,3.3254795013418175],[-76.3192791015278,3.3370861415963304],[-76.31543400691874,3.341171516373265],[-76.31326687078638,3.3409883898414705],[-76.31122226226728,3.3509709146988484],[-76.30462982950831,3.3601986861606292],[-76.30820115374735,3.364024843029199],[-76.30585810252217,3.3700509639152187],[-76.30435544618649,3.367249963691563],[-76.29873288717323,3.3659495361790164],[-76.2908505396411,3.356594300579957],[-76.2879135196668,3.357128825351481],[-76.28225230561299,3.3523045331368166],[-76.2779267278014,3.3550702485261468],[-76.27083095470488,3.352370277353259],[-76.26912233012911,3.3540089287569685],[-76.26611610214394,3.3525680951864274],[-76.2629338665061,3.3531424628496325],[-76.258120084974,3.3573013188160985],[-76.25740271032168,3.3597653364787448],[-76.25201654499199,3.361093379729766],[-76.24649949492516,3.368173403257572],[-76.23375855250657,3.3737211605611606],[-76.2270179890578,3.370012432287865]]]}}]}