{"type":"FeatureCollection","features":[{"type":"Feature","properties":{"code":"763568"},"geometry":{"type":"Polygon","coordinates":[[[-76.06168011900292,3.355505558419452],[-76.06199030652255,3.350157294281928],[-76.05527746885565,3.347957578119008],[-76.05257372329879,3.3362358222365174],[-76.05735583702887,3.3272554035418125],[-76.04991998678781,3.324012869290698],[-76.04443531003454,3.3186921550712896],[-76.04176842591443,3.3073259235399632],[-76.03828724774746,3.300403513970366],[-76.04334870909139,3.296249568816961],[-76.04322037489169,3.2898607543069147],[-76.04774070269241,3.2869432315458766],[-76.05072115893654,3.28217558594514],[-76.04770220397518,3.2718827378136552],[-76.0475471158718,3.2640940937363325],[-76.04133152604896,3.2589767118589066],[-76.03890745515059,3.249853157619782],[-76.04702523168726,3.2454575706405535],[-76.05812623817741,3.2321275270912793],[-76.05860813343156,3.2292605677066604],[-76.05659833460635,3.223998937510032],[-76.06159488785761,3.2133451873014565],[-76.06830952838425,3.210638744139885],[-76.08772765442444,3.219226930284549],[-76.10430635145786,3.2235888861649187],[-76.1089297909055,3.2276662401186513],[-76.11887090552489,3.2223623625317828],[-76.12307492965834,3.224074745036546],[-76.12549369276485,3.222911164142374],[-76.12896504827728,3.2253382864296896],[-76.13287977358709,3.222567141892341],[-76.13703020249557,3.2251457753599198],[-76.13974665034601,3.2231064746326865],[-76.14319461084801,3.2241060055753223],[-76.14608592889368,3.222657408292207],[-76.14816193679133,3.226163738049422],[-76.15092377495233,3.226147064939255],[-76.15218267087062,3.2341907144244715],[-76.15653889832618,3.23563977656363],[-76.16028569645619,3.233281482791881],[-76.16379455926733,3.2354158157216375],[-76.16593838677841,3.234870711361907],[-76.1679152538457,3.2299122598490726],[-76.18019060285252,3.231184106944056],[-76.17987038801834,3.2334183736333557],[-76.18284623272615,3.2317634718094155],[-76.18368598072533,3.228240555331297],[-76.18632561111872,3.229112080147388],[-76.18910964512611,3.226892952131948],[-76.19184187648392,3.2273254399790403],[-76.20283597945956,3.242233432140779],[-76.20630743678782,3.257890998461619],[-76.21318122262358,3.262635741675922],[-76.216889841882,3.268182484935153],[-76.22324192351061,3.2722276486380792],[-76.22182544757266,3.2772382689260553],[-76.2256240997745,3.2834918483871434],[-76.22589685198642,3.287583124367245],[-76.23712553138779,3.31554730434749],[-76.23149359400719,3.317356279202045],[-76.22758097906143,3.316056523262432],[-76.22453415947848,3.3197639958074205],[-76.22047211800543,3.319047775067645],[-76.21966490684224,3.320720504942642],[-76.23098552591944,3.327439502980212],[-76.2247248604894,3.334204538218671],[-76.22284764950217,3.3483441717186793],[-76.22817880961225,3.3591623863410405],[-76.2270179890578,3.370012432287865],[-76.22407611483482,3.3697023578968697],[-76.20788654856881,3.356550529037918],[-76.19215338863751,3.3553568250624153],[-76.18172422764928,3.3579079116971116],[-76.1785655052928,3.3622735206053562],[-76.17236195338961,3.364521514945409],[-76.16728879145518,3.3726734213754526],[-76.1673949030689,3.379466479615701],[-76.163252658506,3.387837348657058],[-76.15046492092438,3.383020303876833],[-76.14834436501059,3.383550046390667],[-76.14827572675694,3.385940502645269],[-76.14335431048767,3.384508209261412],[-76.13239103713335,3.385451992448907],[-76.123158544092,3.383085711792546],[-76.11375916671153,3.384625927877437],[-76.11039369964084,3.3873068996031748],[-76.10256592949628,3.389520513109858],[-76.08811607556646,3.38615173034043],[-76.08643695392124,3.3828309994908636],[-76.0865739990291,3.374163800164297],[-76.08436178214737,3.3708617417170785],[-76.08582683656766,3.3667926595265385],[-76.08115745350739,3.3644301625102457],[-76.07580842523703,3.365739672198629],[-76.07216979560582,3.363922418381833],[-76.07039139429043,3.3555160495615723],[-76.06168011900292,3.355505558419452]]]}}]}