{"type":"FeatureCollection","features":[{"type":"Feature","properties":{"code":"763560"},"geometry":{"type":"Polygon","coordinates":[[[-76.23098552591944,3.327439502980212],[-76.22431735248267,3.3245395182494235],[-76.21966490684224,3.320720504942642],[-76.22047211800543,3.319047775067645],[-76.22359091930866,3.3201614333050316],[-76.22758097906143,3.316056523262432],[-76.23149359400719,3.317356279202045],[-76.23589505750692,3.3151797081380323],[-76.23916261479297,3.315622363167847],[-76.23959667924242,3.319318903368867],[-76.24121222051429,3.319367973446731],[-76.23915720312846,3.323893917572093],[-76.24602937945161,3.3300185869056236],[-76.24915013685256,3.3298866418442117],[-76.24842006093519,3.331586764285703],[-76.24967570080446,3.3329434835995357],[-76.2363886615791,3.328883853824152],[-76.23555029374984,3.3330528522907343],[-76.23328857484438,3.333082545483137],[-76.23093674380544,3.3319767723145333],[-76.23098552591944,3.327439502980212]]]}}]}