{"type":"FeatureCollection","features":[{"type":"Feature","properties":{"code":"763531"},"geometry":{"type":"Polygon","coordinates":[[[-76.29057099045252,3.560678532725376],[-76.29615753443727,3.5452627995206285],[-76.2987583226136,3.5278677844655135],[-76.31378254523503,3.529930783593727],[-76.32198250461335,3.5282122571733794],[-76.32377192671868,3.5363977916169347],[-76.31875363630638,3.538587372478787],[-76.31863843223232,3.5429450839769174],[-76.32077354574994,3.545648792509837],[-76.31891920012526,3.546855513482285],[-76.31945779547232,3.5524948494783644],[-76.31806850127015,3.5553863680703444],[-76.314190997352,3.558587636065397],[-76.31290307878578,3.5578073670108665],[-76.3120134924622,3.560128571031612],[-76.30626696395927,3.556814330682755],[-76.30445746562748,3.5614114666845467],[-76.30010417540376,3.56168461998908],[-76.29353248118815,3.5593659623920075],[-76.2910974049264,3.5592447614696425],[-76.29057099045252,3.560678532725376]]]}}]}