{"type":"FeatureCollection","features":[{"type":"Feature","properties":{"code":"763520"},"geometry":{"type":"Polygon","coordinates":[[[-76.31800560069729,3.7035599088977733],[-76.31482987818595,3.695109182323222],[-76.31290257382051,3.695084332066642],[-76.31400584684536,3.6929998713999908],[-76.3130374314311,3.6913340783697777],[-76.30499819396431,3.685226789714818],[-76.3019938871098,3.6790752554057917],[-76.2952263938937,3.6778739954630737],[-76.29429938768902,3.6726579273268953],[-76.2974834776087,3.671258030910849],[-76.30107020688826,3.6751754435409225],[-76.32941979981615,3.6851410032105605],[-76.32169117975792,3.6879050895468595],[-76.31892891067952,3.6924114243586814],[-76.31968520571053,3.7033742493120485],[-76.31800560069729,3.7035599088977733]]]}}]}