{"type":"FeatureCollection","features":[{"type":"Feature","properties":{"code":"763550"},"geometry":{"type":"Polygon","coordinates":[[[-76.24091913085152,3.4248960941671385],[-76.23176958067086,3.4216343804914686],[-76.23237261514078,3.414744969528556],[-76.23131014865822,3.4145940435320767],[-76.23377918100658,3.4132737033154967],[-76.23380140153569,3.409742110896275],[-76.23948171788078,3.410650228725615],[-76.24533388080016,3.4162690154117286],[-76.24679296408317,3.414958451569703],[-76.25279202150438,3.4255017830472525],[-76.25152597276832,3.424886142957348],[-76.25122797949166,3.427122769922221],[-76.24712640571659,3.426568168924234],[-76.2461752126008,3.4248458866318288],[-76.24555496303151,3.430612712476318],[-76.24091913085152,3.4248960941671385]]]}}]}