{"type":"FeatureCollection","features":[{"type":"Feature","properties":{"code":"763579"},"geometry":{"type":"Polygon","coordinates":[[[-76.35392678799428,3.395134035198737],[-76.35334817492043,3.3853144187216344],[-76.37008584551302,3.3832407926968244],[-76.37816226631907,3.377162585310998],[-76.42197047644794,3.353010659713277],[-76.42409337823909,3.3452528627408356],[-76.41893192759971,3.318572846483164],[-76.43488129391642,3.313496164189985],[-76.44793102208746,3.317225875775989],[-76.45707050895811,3.3258146141943143],[-76.45714759175331,3.328399736105723],[-76.46063411987825,3.3286557493872806],[-76.46043551940033,3.3368258016571417],[-76.46399844126398,3.3425527588989326],[-76.46334994552097,3.3507632659836872],[-76.46043575079989,3.3561079943358436],[-76.46441834920216,3.359861056709292],[-76.46577632630118,3.3681937808176485],[-76.471216603134,3.3775345215478865],[-76.469377497999,3.3794905965927455],[-76.46597422126752,3.3790509908949957],[-76.4633500925882,3.3862005073121964],[-76.46402184347352,3.3964210538777024],[-76.46611354540397,3.400252433177343],[-76.46468389923115,3.405979027378919],[-76.46592335450055,3.40908553982257],[-76.45837543590665,3.4168368997732728],[-76.44892856196537,3.4102190243747827],[-76.43614024845596,3.411866054499683],[-76.42059582418193,3.411396312350803],[-76.37013555939592,3.3934162708542885],[-76.35727716369951,3.3965170476739672],[-76.35392678799428,3.395134035198737]]]}}]}