{"type":"FeatureCollection","features":[{"type":"Feature","properties":{"code":"763557"},"geometry":{"type":"Polygon","coordinates":[[[-76.038032933453,3.4543076753518562],[-76.03653116260637,3.4524605781900277],[-76.03748320830101,3.444766440781052],[-76.03906397381752,3.4401432574155706],[-76.04202953204327,3.4383873008297883],[-76.04164398642655,3.428816041908078],[-76.03837947024505,3.4200237747152755],[-76.04265578771685,3.4083169405053013],[-76.04276644916035,3.395295032732804],[-76.03627039277819,3.3942159620457915],[-76.03367817049963,3.3920080790208544],[-76.0298235885083,3.3923452086491466],[-76.03167610967597,3.3827600338717048],[-76.03361985369503,3.3793025078257983],[-76.03885618729106,3.3793324499013124],[-76.04819566200854,3.37367830330453],[-76.04916849972562,3.370463237724607],[-76.04806027886383,3.364480836958478],[-76.06269412938775,3.3546970781582104],[-76.07059031358551,3.355643409826257],[-76.07216979560582,3.363922418381833],[-76.07580842523703,3.365739672198629],[-76.08115745350739,3.3644301625102457],[-76.0860941976839,3.3671009238586294],[-76.08436178214737,3.3708617417170785],[-76.08642948331476,3.373601916764869],[-76.08643695392124,3.3828309994908636],[-76.08861940973333,3.3866591463956297],[-76.10256592949628,3.389520513109858],[-76.11039369964084,3.3873068996031748],[-76.11375916671153,3.384625927877437],[-76.123158544092,3.383085711792546],[-76.13239103713335,3.385451992448907],[-76.14335431048767,3.384508209261412],[-76.14827572675694,3.385940502645269],[-76.14834436501059,3.383550046390667],[-76.15046492092438,3.383020303876833],[-76.163252658506,3.387837348657058],[-76.1673949030689,3.379466479615701],[-76.16728879145518,3.3726734213754526],[-76.17236195338961,3.364521514945409],[-76.1785655052928,3.3622735206053562],[-76.18138104152303,3.358070350079174],[-76.19092502923445,3.3555981562985266],[-76.20788654856881,3.356550529037918],[-76.22407611483482,3.3697023578968697],[-76.22824963742005,3.369956397597207],[-76.23375855250657,3.3737211605611606],[-76.24649949492516,3.368173403257572],[-76.25201654499199,3.361093379729766],[-76.25740271032168,3.3597653364787448],[-76.258120084974,3.3573013188160985],[-76.2629338665061,3.3531424628496325],[-76.26611610214394,3.3525680951864274],[-76.26912233012911,3.3540089287569685],[-76.27083095470488,3.352370277353259],[-76.2779267278014,3.3550702485261468],[-76.28229054721959,3.352310227623036],[-76.2879135196668,3.357128825351481],[-76.2908505396411,3.356594300579957],[-76.29873288717323,3.3659495361790164],[-76.30435544618649,3.367249963691563],[-76.30659875185711,3.370724102169504],[-76.31126775645055,3.3689458715755904],[-76.31409899185581,3.378605009882108],[-76.32021719845659,3.377621946361046],[-76.33302794229735,3.386436616117237],[-76.33197454050713,3.388743347894831],[-76.33305070687248,3.3948649051613415],[-76.32993056962243,3.397854443581309],[-76.32547428807953,3.396362875912871],[-76.32444458057654,3.399981364525786],[-76.32256777068187,3.3994384661752406],[-76.31815032415693,3.4115096220337477],[-76.31516607707374,3.4103723898369935],[-76.28194279686545,3.4688577818583894],[-76.273017605534,3.46475170247669],[-76.26499829002722,3.450583240704418],[-76.25230759319635,3.43893003771484],[-76.23923237713433,3.4246133938307253],[-76.21978751467395,3.418504809338174],[-76.21531392135819,3.4128643502828595],[-76.20253956278526,3.4116409551718334],[-76.19157257469658,3.415558107605989],[-76.18206511623498,3.422077994029735],[-76.17165920421837,3.4197974793087837],[-76.16008595132178,3.4252146933181393],[-76.13381217294432,3.422488146162209],[-76.12287274711514,3.422902096332848],[-76.10794900744156,3.42865227683518],[-76.09316242600448,3.4259238188329846],[-76.08691115025465,3.429877097367523],[-76.07949541943458,3.4394189685442598],[-76.0637321919578,3.44177016811949],[-76.05961474622939,3.444113391094561],[-76.04894487312743,3.4460055155267355],[-76.038032933453,3.4543076753518562]],[[-76.24091913085152,3.4248960941671385],[-76.24555496303151,3.430612712476318],[-76.2461752126008,3.4248458866318288],[-76.24712640571659,3.426568168924234],[-76.25122797949166,3.427122769922221],[-76.25152597276832,3.424886142957348],[-76.25279202150438,3.4255017830472525],[-76.24679296408317,3.414958451569703],[-76.24533388080016,3.4162690154117286],[-76.23948171788078,3.410650228725615],[-76.23380140153569,3.409742110896275],[-76.23377918100658,3.4132737033154967],[-76.23131014865822,3.4145940435320767],[-76.23237261514078,3.414744969528556],[-76.23176958067086,3.4216343804914686],[-76.24091913085152,3.4248960941671385]]]}}]}