{"type":"FeatureCollection","features":[{"type":"Feature","properties":{"code":"764007"},"geometry":{"type":"Polygon","coordinates":[[[-76.52740255914904,3.287030591567202],[-76.52032837408944,3.2807720097617334],[-76.51840463944802,3.2819056907464983],[-76.5165915631647,3.2791106277214794],[-76.51304234118385,3.2776575423152394],[-76.50858631880851,3.2778612788350756],[-76.5052219891952,3.2805920189512108],[-76.50260501127673,3.2784280977301705],[-76.50137630734542,3.2794175807894135],[-76.49927885333597,3.2734977628073807],[-76.49663827574699,3.27909944443752],[-76.49392230303704,3.278928853591651],[-76.492709410381,3.289467065482313],[-76.47808308291411,3.2892905137835555],[-76.47517628166634,3.286665686791764],[-76.47529109596064,3.2846921631911528],[-76.48266895644184,3.2863836940238116],[-76.48687991022098,3.2842696018712445],[-76.48725463250867,3.28202035900199],[-76.48350731604364,3.2780658082841114],[-76.47744258434005,3.280807819101767],[-76.47436007368799,3.2805398121236067],[-76.47139179523174,3.275542950339627],[-76.47142300434842,3.2703279939497634],[-76.46442616433688,3.2692701616292084],[-76.46119885412037,3.2666350306718073],[-76.46386915884028,3.2623831932172607],[-76.46001664504689,3.257937932464415],[-76.46105399387784,3.2534340885403594],[-76.4638312813023,3.2524336957629316],[-76.46600595591832,3.2568524432676327],[-76.46882785100865,3.2583264677635384],[-76.47487917593554,3.257011064071037],[-76.46185523287528,3.2489351482302595],[-76.46242726597399,3.2458830187986223],[-76.4650519644104,3.2462937334890967],[-76.46775264109482,3.249219671995263],[-76.4711933726744,3.248286367608614],[-76.47069745872034,3.246414752377177],[-76.46515877330819,3.244397112706224],[-76.46625012051356,3.2399390735550924],[-76.46946183748463,3.2402071844059606],[-76.47316235467287,3.244969446110133],[-76.4755886408364,3.244183543247459],[-76.4720638289387,3.2370951636242467],[-76.47566466433585,3.235405278299595],[-76.47732014414447,3.2316483201859114],[-76.4726277795076,3.2287008831173694],[-76.46702836456478,3.2304699801132415],[-76.46573934350823,3.2272549495003773],[-76.47170476263148,3.22633225144142],[-76.47378027893359,3.215703057354915],[-76.47590084307495,3.2164322642383354],[-76.477129667334,3.2208951113582884],[-76.4794183478885,3.22252693698897],[-76.48196643661333,3.220978233167955],[-76.48075441299125,3.2166713894652617],[-76.48514117696203,3.2133416710565257],[-76.48739916467804,3.2136266792179526],[-76.48858249475387,3.217050110337482],[-76.49098548155212,3.2175568280802054],[-76.49306108424338,3.206412015080957],[-76.49801987102848,3.2036025096376193],[-76.50056142914326,3.1994574461137972],[-76.50673416170946,3.1993255051662004],[-76.51465246256362,3.2018236084992395],[-76.52277330385897,3.2009728808477576],[-76.52951542848342,3.2036312906015496],[-76.54176413157307,3.204996557301115],[-76.55298416177283,3.211232537025353],[-76.56237752379297,3.2121269138341972],[-76.57045869600347,3.217870841406011],[-76.57576452454583,3.2185465795629398],[-76.57905700819322,3.216721674133794],[-76.58512262127198,3.208991148371581],[-76.59914895023127,3.1995297826467777],[-76.61240283452673,3.201205783997409],[-76.61857362950724,3.1990423122057905],[-76.6242250887837,3.199251959184778],[-76.63224125931328,3.193442503369454],[-76.64310336066325,3.193923703396422],[-76.64837198118369,3.191609448561792],[-76.65460239394861,3.194077705464508],[-76.66828987783748,3.1926103751009123],[-76.67717572610036,3.2012179895532427],[-76.68975566789948,3.204982358623681],[-76.68738952608288,3.217675489778003],[-76.69425165040894,3.223786813013021],[-76.70357207939941,3.237494764964879],[-76.71390812520195,3.2437027258011426],[-76.71353638436915,3.2469827231278714],[-76.70978200147556,3.2523927678644213],[-76.69886285550439,3.2613954749654113],[-76.68172690511977,3.280798263842314],[-76.67106049684065,3.2967816798339413],[-76.6639802079747,3.3107656565018715],[-76.65376376180956,3.3015378511015],[-76.64697341762911,3.298648445958918],[-76.62895964321797,3.3069956361397317],[-76.62114706316942,3.3051828539910275],[-76.60977914293551,3.3108435579372895],[-76.59918924152385,3.3075614646447207],[-76.58686716420272,3.3092515042357036],[-76.58475352867868,3.3053206745445323],[-76.57543066639317,3.301161791838524],[-76.57092898425532,3.2913438342392283],[-76.55982028295819,3.285084247645443],[-76.55855372617157,3.281089975392092],[-76.55189279297014,3.2864676108195567],[-76.54816159014246,3.283422642433152],[-76.54607887885652,3.285161177202724],[-76.54308017392839,3.283649938514202],[-76.54386074225965,3.279032433179907],[-76.53898005642793,3.282502745851616],[-76.53587328173148,3.2814841979783864],[-76.53507923566099,3.2836444414889456],[-76.53261160096599,3.2838109278207526],[-76.53361719046347,3.2856121914132927],[-76.53245715872447,3.286510184226074],[-76.52740255914904,3.287030591567202]],[[-76.5334350100988,3.2753916458762546],[-76.53877608130944,3.275503585673789],[-76.54279216168635,3.2676992455066625],[-76.54442045667383,3.2683031850060615],[-76.54705416426674,3.2631662308390332],[-76.54442445217302,3.260721792665038],[-76.5462747704168,3.2578009192383206],[-76.55001289774799,3.259036181547515],[-76.55349509510143,3.2534813259337056],[-76.54345676283924,3.2495555068144313],[-76.53834370144881,3.251155660529321],[-76.53765894282253,3.249346088149707],[-76.53165916652006,3.2488259420329655],[-76.53014053950051,3.250747850160508],[-76.5334350100988,3.2753916458762546]]]}}]}