{"type":"FeatureCollection","features":[{"type":"Feature","properties":{"code":"764504"},"geometry":{"type":"Polygon","coordinates":[[[-76.9969408676248,3.872301932945618],[-77.0006979789764,3.8521288303377332],[-77.00244694935219,3.855208084940841],[-77.00510380307242,3.853491429257417],[-77.00818629109875,3.8563940221184225],[-77.01191722755982,3.8570126590898326],[-77.00663027505146,3.8582635290427447],[-77.00908883579814,3.8611832228459093],[-77.01732641148999,3.8573250320498005],[-77.022243985498,3.8567624451956704],[-77.02661387684088,3.8598714978923],[-77.03109426404791,3.867646036880501],[-77.04328495886574,3.880655684589726],[-77.04838115791262,3.8809518266699],[-77.04866435087297,3.88221241437617],[-77.04874965812303,3.880857472211005],[-77.04895321466546,3.8808521572200902],[-77.04891169438406,3.8826372938054874],[-77.05283021156146,3.880991622253134],[-77.05626397235761,3.8820030142233577],[-77.05615043641734,3.8833901198998433],[-77.04844789354763,3.883540933796098],[-77.03480388603776,3.880675936679836],[-77.02471488446957,3.884071935123586],[-77.01526287860008,3.8824829307540654],[-77.00235286845901,3.873491929385864],[-76.9969408676248,3.872301932945618]]]}}]}