{"type":"FeatureCollection","features":[{"type":"Feature","properties":{"code":"764509"},"geometry":{"type":"Polygon","coordinates":[[[-76.88595671844593,3.6116878963418912],[-76.87944835572063,3.604927759575105],[-76.86956062343864,3.6016224286237843],[-76.86553961167982,3.5965566941011957],[-76.85495710168453,3.591769118312868],[-76.84876228845746,3.5833386654257424],[-76.84715229563301,3.5767496707500754],[-76.85487337617911,3.5638689084857447],[-76.85342395202821,3.5538576479159474],[-76.85533149898441,3.5489990540579015],[-76.84342129026629,3.549438047832382],[-76.82760494784719,3.5396060694761786],[-76.81756437255183,3.5369903246602803],[-76.81394036017412,3.5402278966762992],[-76.80962215835223,3.5357734005096404],[-76.80732571408515,3.5214323907653693],[-76.80288505458412,3.5205810110812763],[-76.79349322597176,3.510980439490936],[-76.79095208951844,3.4994077049293537],[-76.7902504747193,3.4817754343558818],[-76.78469621045991,3.4705380368473016],[-76.77447232865535,3.4617080031883347],[-76.74322157754375,3.4475605483829668],[-76.72998405885409,3.4376246016872187],[-76.7221786902445,3.4296122579922894],[-76.71564756500089,3.419533960453805],[-76.70484411161402,3.3971496128423837],[-76.69335407000159,3.3883867375083696],[-76.6914619301428,3.381803111302645],[-76.68906593058301,3.3807757393925613],[-76.68675446899823,3.375131304378499],[-76.68219216120235,3.325416910330091],[-76.67441721803624,3.31610604174125],[-76.6639802079747,3.3107656565018715],[-76.67865988795421,3.2849320299251303],[-76.69886285550439,3.2613954749654113],[-76.71016251697995,3.252143999960481],[-76.73255593751122,3.2420247231013377],[-76.73939214714267,3.2370900193547527],[-76.74292471349696,3.2268678262527715],[-76.74229875092948,3.2067186935547056],[-76.74451908633642,3.200563247050354],[-76.74882049060665,3.194815590345968],[-76.75447182647002,3.2019941129559584],[-76.75477370828787,3.2093321829961496],[-76.76299415526961,3.2209050584543206],[-76.79109454526235,3.238001843690938],[-76.80246734751296,3.2500193343904016],[-76.82006852415532,3.2516573820983012],[-76.82736984280206,3.257047470936186],[-76.8309784881917,3.2555479420942675],[-76.84079647972959,3.258597897398431],[-76.84613167853342,3.258920601063494],[-76.85252897358049,3.25568087034668],[-76.8565711434872,3.2559785797732275],[-76.86147435118164,3.2623782597784725],[-76.87750055655272,3.269323718801786],[-76.88378513841349,3.266497115501636],[-76.89474748514107,3.2679680844948393],[-76.89870327101846,3.270997227207772],[-76.90112628673478,3.276365445187082],[-76.91782756691731,3.2912405827241287],[-76.92664337721624,3.2921083845782846],[-76.93132354452479,3.2859538708713103],[-76.93681296136958,3.2848806931598915],[-76.94915645909145,3.2891858245058074],[-76.96297026348958,3.296873909530575],[-76.9654474966386,3.297438026707141],[-76.97034859808281,3.2955117281585444],[-76.9760238483201,3.29137339579097],[-76.98521072582196,3.2936490727182672],[-76.99192275718991,3.2995154178599932],[-76.99788727334067,3.30088823435608],[-77.00947844479128,3.2971090587986964],[-77.02079654007053,3.290466836052019],[-77.02529817695688,3.2902289418707937],[-77.03714442683474,3.2938013871121825],[-77.04069826446568,3.296420917624971],[-77.05292407339635,3.2984442240141902],[-77.05914670599356,3.3034930663684463],[-77.06863789449454,3.3039455337682853],[-77.07505300216604,3.3071372794140643],[-77.07813312374617,3.3126141862841223],[-77.07813312374617,3.3157098260334124],[-77.07457909791026,3.3216629799512134],[-77.0740031053079,3.329509514029496],[-77.08429363121616,3.347380578671448],[-77.09035101469789,3.352783323522999],[-77.09381522253483,3.353595482523133],[-77.09695050462949,3.359144592228631],[-77.1037660600498,3.362750128636492],[-77.1201938948501,3.368263334385176],[-77.12650290427763,3.3684943513712824],[-77.13124405205684,3.378426456834177],[-77.13660499894758,3.3777010510742684],[-77.14376667772603,3.38076263086424],[-77.14044918647033,3.392017474871693],[-77.14307806861098,3.4206540022339027],[-77.14625816611675,3.421209525744814],[-77.14985288330934,3.418152448476178],[-77.15393985937129,3.4181094852899605],[-77.16455333474238,3.4239664448652434],[-77.16603057620648,3.4268672832033076],[-77.16149546865836,3.4317372506071138],[-77.16277514528616,3.4349656879966233],[-77.168105289295,3.434407530644421],[-77.17576366775762,3.42988046551676],[-77.17866335115474,3.4310286897072046],[-77.17847564805373,3.437741164333886],[-77.17377519985871,3.4441331382193425],[-77.17405241756808,3.451080342509613],[-77.17995988909769,3.455772282399664],[-77.19082922862611,3.4557868317759812],[-77.19413003957254,3.4587090246944854],[-77.19257958020017,3.4663939390309793],[-77.18197278456324,3.47716510755032],[-77.18229543063558,3.480659112452372],[-77.18598298430584,3.4828491448004684],[-77.19127515615997,3.483040051499927],[-77.20010088475857,3.4750535566792564],[-77.20474989437258,3.4747355581386614],[-77.20951387049041,3.481274633242947],[-77.21719929390594,3.482419383354511],[-77.2270157839178,3.491214643315061],[-77.23047385298133,3.4984392524912096],[-77.23144434173565,3.514139819022205],[-77.23389883602061,3.5191612009327287],[-77.24167810275907,3.520668507885489],[-77.24734694065728,3.517471722871335],[-77.25029338116502,3.513556636578187],[-77.25257346908234,3.5176342085617307],[-77.25249606849837,3.525877502393996],[-77.25423350077756,3.5275432573718604],[-77.25983959853988,3.5276215568145517],[-77.2617351980793,3.5307947287884645],[-77.26300036646853,3.540077056040502],[-77.265369320047,3.5407905771186847],[-77.27073804607687,3.538092007712976],[-77.28510929203122,3.5388474018283205],[-77.29225937717717,3.540833537219555],[-77.29543719051213,3.547983621337096],[-77.29503996384528,3.55553093109296],[-77.28644400061825,3.5863372428269713],[-77.24268940319791,3.5906280685374554],[-77.22276847880937,3.5966169402639707],[-77.21143055310148,3.6018931506902163],[-77.20715803572472,3.6184967154637206],[-77.20583051697935,3.639857757626771],[-77.2094316279991,3.6798450436025973],[-77.20409073265216,3.6993487915962646],[-77.20204570247165,3.7571379743124567],[-77.19955819723873,3.7749965485199937],[-77.15133458410025,3.752437830536394],[-77.12111516851621,3.7523859651517455],[-77.11332711476484,3.7457439480936046],[-77.1042170279805,3.7484750275957595],[-77.09734565692781,3.7428153952865273],[-77.08170028176454,3.734906964395236],[-77.07796185824196,3.736502516858309],[-77.07559995258009,3.7349948890314977],[-77.06516419516157,3.7364473491447256],[-77.05957114833484,3.7314768483993817],[-77.05419315912314,3.7310445035058137],[-77.04177713769172,3.739514075261013],[-77.03934961431185,3.7373110197452775],[-77.04026005127906,3.731945513768892],[-77.03762893741822,3.730827807581761],[-77.02816345586643,3.7345011060103275],[-77.02063384663472,3.7407676685297133],[-77.0113834967459,3.7420636336302096],[-77.00708131703004,3.7386056396429126],[-77.00557579648193,3.734499538663897],[-77.0064372363907,3.7226138696127578],[-77.00536191849045,3.7193722043955404],[-77.0021353024726,3.7176431004439223],[-76.9971875981841,3.7178587720391647],[-76.99460602954156,3.71980348176578],[-76.99228974250451,3.7220877503019096],[-76.9921769562988,3.727262534698525],[-76.99025030499439,3.73074229361481],[-76.98039168689166,3.734269932700954],[-76.97601468284034,3.7430001539565865],[-76.97267881228845,3.7440907853659837],[-76.96911049830067,3.742843471767287],[-76.96687036434679,3.7407683904963847],[-76.96506853408243,3.7351651960272534],[-76.96076646852367,3.7325713786343613],[-76.96055178011943,3.7293297956925358],[-76.96391855536905,3.722806171908701],[-76.97369063311919,3.715615466368604],[-76.97453689321634,3.708801639760111],[-76.96935934333783,3.7012610231081453],[-76.95998516485594,3.6981351924002297],[-76.95224795113205,3.6866861537626505],[-76.95349113450561,3.673924887263013],[-76.94531614056945,3.6700159325441746],[-76.94052124535574,3.662983640062123],[-76.94117714485645,3.655732905360651],[-76.94603106341475,3.6410122707432038],[-76.94706756583753,3.6298678053574918],[-76.93877737708328,3.622463879000634],[-76.93510001424988,3.6158662567207216],[-76.92762340168957,3.610647910584305],[-76.92119200554549,3.6093044674349812],[-76.90512929663572,3.61389925755941],[-76.8991115554993,3.612319058714718],[-76.89348335856408,3.607924183417765],[-76.89014188094359,3.611946985694942],[-76.88595671844593,3.6116878963418912]]]}}]}