{"type":"FeatureCollection","features":[{"type":"Feature","properties":{"code":"764503"},"geometry":{"type":"Polygon","coordinates":[[[-77.0006979789764,3.8521288303377332],[-76.99771687069972,3.8702569274477128],[-76.99240887317211,3.8717859252815856],[-76.99269286523236,3.8739639330798354],[-76.99083186352766,3.873977929154023],[-76.99000186310673,3.876408929698073],[-76.98613686402115,3.8751949314663534],[-76.9822423568628,3.87923600916713],[-76.98268789975918,3.880385692717482],[-76.97795105086965,3.8825018489541776],[-76.97732262621082,3.886872121849251],[-76.978821614092,3.8874248767928634],[-76.97678395887277,3.888015229538155],[-76.96469058659898,3.881644941391585],[-76.96027185554937,3.883060705647324],[-76.96094628861272,3.880983682676913],[-76.96506180601148,3.878722774184155],[-76.96437588113139,3.8747736968373374],[-76.96648062576986,3.8692055568315027],[-76.96498730152166,3.8643201771880626],[-76.96823204075355,3.863896048521781],[-76.96976722466917,3.8655575519182435],[-76.97334454267121,3.8640265239388327],[-76.97336426614186,3.8609934628599376],[-76.97563174432537,3.861173681984667],[-76.98098844066317,3.854981026429982],[-76.98649043638841,3.8514273235250585],[-76.99347502559266,3.8534933164494305],[-77.0006979789764,3.8521288303377332]]]}}]}