{"type":"FeatureCollection","features":[{"type":"Feature","properties":{"code":"764508"},"geometry":{"type":"Polygon","coordinates":[[[-77.21634745656496,4.155626093812145],[-77.2099169171135,4.141020765084534],[-77.20597910429757,4.142273691922469],[-77.19625115804439,4.137792042816443],[-77.19593099771765,4.129466204130722],[-77.19098666157839,4.122101708260061],[-77.1870003515271,4.123383180548558],[-77.17839039531117,4.130269198679571],[-77.1686089463928,4.126025845875802],[-77.16708492724916,4.12143678417624],[-77.16274255085744,4.117689381322009],[-77.16167566824271,4.113482687351791],[-77.16723525983434,4.103462240733393],[-77.17035572927136,4.080553907829369],[-77.17027927279764,4.0781063308488115],[-77.16715587538476,4.0745117668941475],[-77.16022419749117,4.072906279676374],[-77.15329295668573,4.075736997775039],[-77.15070269153324,4.070536094023794],[-77.14453280261057,4.06915984767187],[-77.13569715262702,4.070307848690277],[-77.13105112858165,4.075662303023364],[-77.12457675485314,4.077804353385773],[-77.12114855895942,4.068396584942832],[-77.12389021804978,4.060365232544825],[-77.12366133611033,4.053787327564862],[-77.1222139441619,4.050421960253061],[-77.1178038345459,4.047830510334791],[-77.10918673682511,4.015343862364944],[-77.10583412631433,4.007129649801755],[-77.09886108754796,3.997434241412975],[-77.09135193609484,3.992451933119071],[-77.09068141522681,3.9880081276123747],[-77.08397694702512,3.9854496279639875],[-77.04977733033832,3.9840110209714794],[-77.0476664314998,3.978710664771768],[-77.04238894683323,3.9739401971247617],[-77.03341700456178,3.9723496758025476],[-77.0265563200553,3.968109053513615],[-77.01072380023538,3.9638677020589625],[-77.00544652125734,3.9601570577972325],[-76.99489169384935,3.9569758989387083],[-76.98539403953026,3.9394839665459926],[-76.97804122162438,3.9336837430591913],[-76.97484085660187,3.9257019955291526],[-76.96692553206037,3.920400688020152],[-76.96059443888669,3.9082091920456037],[-76.9560020347489,3.8859691338911375],[-76.94695040360887,3.880464572201788],[-76.9405186907045,3.878788666496348],[-76.9350392466668,3.880941182289803],[-76.90669156149977,3.877586154939081],[-76.89978276953758,3.8794988739327323],[-76.88287019789647,3.874709749309943],[-76.87477252329728,3.8672905001880054],[-76.86619592975666,3.8703988946814434],[-76.86190710333847,3.8739868478075437],[-76.85619004485591,3.8732675664228395],[-76.85547613502644,3.8703961559390336],[-76.85833579658294,3.866329329122891],[-76.85381143214533,3.859628615764848],[-76.85095304585758,3.8589100450339515],[-76.83213282030226,3.863450910831773],[-76.82879697134763,3.866321155061769],[-76.81712410145178,3.867274715652229],[-76.80831117901943,3.8639222038719367],[-76.80402437349079,3.8605710825459028],[-76.7933098258743,3.8452544222942606],[-76.7906920807377,3.837596967373031],[-76.78164530076106,3.8227592774850336],[-76.77236511986854,3.795120612931669],[-76.768317337751,3.79081235614899],[-76.76331612874048,3.788417878684129],[-76.75926867983833,3.783391778279338],[-76.75898724551462,3.7828887577874184],[-76.76935159508372,3.7889129441730915],[-76.77373125045983,3.7939442135300396],[-76.77636340099082,3.7842960857291246],[-76.77391435950813,3.7805061372363298],[-76.78176527372307,3.7668389722863367],[-76.79049367566387,3.75987926213503],[-76.79248509519283,3.754044805910496],[-76.80027504127838,3.751633383826686],[-76.8086066176449,3.7460976366749037],[-76.81696117558795,3.7442282613912425],[-76.81426751082466,3.741631471799394],[-76.81341328029794,3.7366043048996858],[-76.81696856803279,3.72702749650216],[-76.8229501676422,3.7239116231747857],[-76.82175274996081,3.705105897630517],[-76.81440505678398,3.697689970377894],[-76.811528800279,3.698484349663829],[-76.8094688535682,3.695556515738076],[-76.79852811441788,3.693174734396109],[-76.79854326131931,3.68974566124092],[-76.79544558628226,3.686271522763036],[-76.79323322336177,3.679998771076555],[-76.79663594679113,3.6741426877342747],[-76.79385092239357,3.664241744079675],[-76.80030588735485,3.657350042775306],[-76.80009954784703,3.6497310598317654],[-76.80830932268071,3.645534152520554],[-76.80982022609692,3.6404805916720875],[-76.81643491435204,3.6365329274053124],[-76.82458334773168,3.6377612076182686],[-76.83022203683743,3.6334124363709748],[-76.8305191168572,3.6312087905292287],[-76.8342730071268,3.631593603894885],[-76.83768342536314,3.6288872224398574],[-76.84091073557966,3.629306328192854],[-76.84223824506904,3.632008918808765],[-76.84571749284942,3.632805634716078],[-76.84761731928762,3.6326343044199803],[-76.85032579465161,3.629320658510892],[-76.85432377444022,3.632195164606685],[-76.86705758975211,3.6315703394966476],[-76.86790474665116,3.629435205410175],[-76.87169660907551,3.6286578077671834],[-76.87417628991773,3.6241650093157887],[-76.88184434705289,3.619948034005688],[-76.88595671844593,3.6116878963418912],[-76.89014188094359,3.611946985694942],[-76.89300614272344,3.6079449147620153],[-76.8991115554993,3.612319058714718],[-76.90512929663572,3.61389925755941],[-76.92119200554549,3.6093044674349812],[-76.92840883558245,3.6109654843781414],[-76.93510001424988,3.6158662567207216],[-76.93877737708328,3.622463879000634],[-76.94706756583753,3.6298678053574918],[-76.94603106341475,3.6410122707432038],[-76.94076431054589,3.6576208646006307],[-76.94093115169039,3.6642458239111875],[-76.94566771570135,3.670298249271525],[-76.95349113450561,3.673924887263013],[-76.95224795113205,3.6866861537626505],[-76.95998516485594,3.6981351924002297],[-76.96935934333783,3.7012610231081453],[-76.97453689321634,3.708801639760111],[-76.97369063311919,3.715615466368604],[-76.96391855536905,3.722806171908701],[-76.96055178011943,3.7293297956925358],[-76.96076646852367,3.7325713786343613],[-76.96506853408243,3.7351651960272534],[-76.96687036434679,3.7407683904963847],[-76.96911049830067,3.742843471767287],[-76.97267881228845,3.7440907853659837],[-76.97601468284034,3.7430001539565865],[-76.98039168689166,3.734269932700954],[-76.99025030499439,3.73074229361481],[-76.9921769562988,3.727262534698525],[-76.99228974250451,3.7220877503019096],[-76.99460602954156,3.71980348176578],[-76.9971875981841,3.7178587720391647],[-77.0021353024726,3.7176431004439223],[-77.00536191849045,3.7193722043955404],[-77.0064372363907,3.7226138696127578],[-77.00557579648193,3.734499538663897],[-77.00708131703004,3.7386056396429126],[-77.0113834967459,3.7420636336302096],[-77.02063384663472,3.7407676685297133],[-77.02816345586643,3.7345011060103275],[-77.03762893741822,3.730827807581761],[-77.04026005127906,3.731945513768892],[-77.03977980153303,3.738607663617813],[-77.04232012140301,3.7395141009720874],[-77.05143500278638,3.73196801609123],[-77.05677459612502,3.730828471955647],[-77.06030067712078,3.7319278646668295],[-77.06516419516157,3.7364473491447256],[-77.07559995258009,3.7349948890314977],[-77.07796185824196,3.736502516858309],[-77.08278204388563,3.7351168232333976],[-77.09734565692781,3.7428153952865273],[-77.10267482391623,3.7479564570529647],[-77.10752313540593,3.748253512390079],[-77.11332711476484,3.7457439480936046],[-77.12111516851621,3.7523859651517455],[-77.15133458410025,3.752437830536394],[-77.19955819723873,3.7749965485199937],[-77.19845220912566,3.8040403041525224],[-77.2018468860208,3.8164229114865407],[-77.20862960429992,3.824883598526867],[-77.21951755143886,3.827616924147435],[-77.2492045886109,3.8246188311426295],[-77.26297623612174,3.826473273440911],[-77.27304715664206,3.8310118951771415],[-77.28239321750544,3.8370980987036205],[-77.29103013639889,3.8489629921874666],[-77.30243657283359,3.859279544890512],[-77.30967729256179,3.870991968685587],[-77.34719970932457,3.8921634843190986],[-77.3580339594227,3.89386066747187],[-77.36040649403799,3.895730688617391],[-77.3636261793817,3.9016817085170032],[-77.36990525393276,3.9379030601328395],[-77.38159414696304,3.9608577500834485],[-77.39616650896568,3.9783688475025087],[-77.41293660429403,3.9900962299940375],[-77.4317438365066,4.006924925977103],[-77.44004481773663,4.021546799259454],[-77.44462234956711,4.038381257605977],[-77.4540450695074,4.050505965494892],[-77.44463026857449,4.052325657748895],[-77.42872973373704,4.0918729523610295],[-77.42839380327274,4.097314761573216],[-77.43059907508211,4.104966490126515],[-77.44127265160552,4.120947589037087],[-77.44314171629958,4.1265585071095074],[-77.44179127871263,4.137613121586128],[-77.43535945679332,4.14475891504145],[-77.41723128255018,4.143406443195204],[-77.3921679100547,4.147073514404326],[-77.38861247525261,4.14962507515105],[-77.38810127452888,4.152346104712876],[-77.3903065566227,4.160508893093265],[-77.37828944541855,4.169356556313858],[-77.37473390571529,4.181091883523834],[-77.37202522157742,4.184494237742399],[-77.36101581846236,4.19351196524633],[-77.35086063456117,4.197426698783659],[-77.34374237354052,4.196068713457123],[-77.33374733665147,4.190799311320347],[-77.31832797407304,4.172267968069434],[-77.30850092504187,4.166148685717815],[-77.30426617413127,4.166490139946916],[-77.28818284906276,4.181120163636251],[-77.28547439838133,4.193365313456923],[-77.28751156303349,4.205779343823622],[-77.28023253382145,4.220916637529342],[-77.26554582238049,4.234466944669748],[-77.2582438043928,4.235601877269062],[-77.25061415238662,4.234470357042028],[-77.24898153279833,4.23179732900627],[-77.2510875948717,4.195584060948647],[-77.24990490345868,4.187932100995795],[-77.24634169465958,4.180789884463536],[-77.2239793814291,4.157155395036568],[-77.21634745656496,4.155626093812145]],[[-77.05492774270414,3.883510605026231],[-77.0678070558929,3.8941625328346277],[-77.07920475982223,3.893298991817801],[-77.08066166692089,3.891781991794346],[-77.08054031378902,3.888599170972725],[-77.07499610975435,3.8810436429326387],[-77.06393810244583,3.872823726627246],[-77.0612252479736,3.8725595094597907],[-77.05922183680491,3.8748446418875915],[-77.05626397235761,3.8820030142233577],[-77.05075013205987,3.8809566593212708],[-77.05055993190047,3.882541049069232],[-77.04982820224751,3.881398500853038],[-77.04886492596052,3.8826262318777367],[-77.04895321466546,3.8808521572200902],[-77.04866435087297,3.88221241437617],[-77.04838115791262,3.8809518266699],[-77.04334461984467,3.8806891758203506],[-77.0399577334016,3.8777048845141167],[-77.03109426404791,3.867646036880501],[-77.02661387684088,3.8598714978923],[-77.022243985498,3.8567624451956704],[-77.01732641148999,3.8573250320498005],[-77.00908883579814,3.8611832228459093],[-77.00663027505146,3.8582635290427447],[-77.01191722755982,3.8570126590898326],[-77.00818629109875,3.8563940221184225],[-77.00658426253318,3.853856110860818],[-77.00244694935219,3.855208084940841],[-77.00065373640768,3.8516120811666497],[-76.99347502559266,3.8534933164494305],[-76.98887203466762,3.8513961318919314],[-76.98397738978554,3.852689634900969],[-76.97563174432537,3.861173681984667],[-76.97336426614186,3.8609934628599376],[-76.97334454267121,3.8640265239388327],[-76.96976722466917,3.8655575519182435],[-76.96694717357627,3.8635834719302125],[-76.96485055466212,3.8644302071678567],[-76.96635135157373,3.86551528807297],[-76.96648062576986,3.8692055568315027],[-76.96437588113139,3.8747736968373374],[-76.96506180601148,3.878722774184155],[-76.96094628861272,3.880983682676913],[-76.96027185554937,3.883060705647324],[-76.96469058659898,3.881644941391585],[-76.97705856742351,3.888050874327405],[-76.9875143023379,3.886531450264897],[-76.98977154546156,3.8894219836089405],[-76.99186236190297,3.8871985803579605],[-76.99116035012503,3.8846922176030034],[-76.99257264955787,3.8845413450855517],[-76.99781582538202,3.88644850329041],[-76.99704266183682,3.889621809990331],[-76.99805872910673,3.889193317642423],[-76.99968811218645,3.8923801349916403],[-77.00633915691304,3.892567650916078],[-77.00770643730306,3.8955947501137302],[-77.01119337166278,3.8970278210001084],[-77.01371379117006,3.8948691468928587],[-77.01414165308267,3.8960049886353545],[-77.01471303106348,3.893188274838451],[-77.01915064431773,3.8926054862878914],[-77.0196932649888,3.890694559869644],[-77.02371517972011,3.889912611368459],[-77.0258498006138,3.8873342854051884],[-77.03102398542842,3.889832814513454],[-77.03385553245175,3.8874921955548416],[-77.04088544511785,3.8875550087100805],[-77.04180504447947,3.8856616172367353],[-77.04478728198598,3.891213758790741],[-77.04593752295222,3.890958317323282],[-77.04517668323376,3.888706449868721],[-77.05358822717676,3.885698183510499],[-77.05311389303205,3.88402593083282],[-77.05492774270414,3.883510605026231]]]}}]}