{"type":"FeatureCollection","features":[{"type":"Feature","properties":{"code":"270009"},"geometry":{"type":"Polygon","coordinates":[[[-76.23769296734838,6.208030059104033],[-76.22742548575167,6.1955259495139785],[-76.224436854418,6.188695236907847],[-76.213560771392,6.187206238288809],[-76.21080185503621,6.184552699238793],[-76.21087330299486,6.176756196832173],[-76.21411402821559,6.172759219775003],[-76.21218392442967,6.1665182634174585],[-76.20184158250203,6.162057044322069],[-76.20108584694378,6.156760136490107],[-76.20351096068282,6.148172563297123],[-76.20175633078787,6.1426954682221435],[-76.19664694505099,6.139185830993824],[-76.18653650045627,6.137286228756125],[-76.19553277876304,6.125951602291821],[-76.1984237101143,6.113819882481835],[-76.19460560183688,6.107266439007162],[-76.19718482974429,6.0914614526503215],[-76.19593865154616,6.0726171173170655],[-76.18813542004011,6.042575672682403],[-76.18089494096745,6.030286433530932],[-76.1801320361364,6.021392819498544],[-76.18329076672046,6.012823020877647],[-76.17379951239917,6.003169268524687],[-76.19877142138768,5.980980524509675],[-76.21021613953826,5.965515561818393],[-76.21276450388564,5.95463211308703],[-76.21060538960495,5.9422494450749355],[-76.21183387139268,5.925481746017681],[-76.21440925601036,5.919138296107121],[-76.24147923813075,5.891302988202028],[-76.2577291204936,5.872229634146436],[-76.26393771279356,5.862283548035919],[-76.28013283676296,5.851799215220353],[-76.30586777913783,5.831687418071056],[-76.3350697853345,5.803503547342132],[-76.34744245791376,5.783409257369783],[-76.35162636365465,5.770691631799991],[-76.35446467268758,5.751952605895326],[-76.35782096296572,5.740704396370518],[-76.3618548446542,5.733988333507909],[-76.36889362866543,5.728664197660294],[-76.37493256394526,5.7258683087959525],[-76.40530599188185,5.720544545244479],[-76.43111045182877,5.708075659810731],[-76.44243997721816,5.700455804748003],[-76.44674330673274,5.700519894200397],[-76.45629180107932,5.7042232828001715],[-76.46428708496973,5.7034052585923405],[-76.4894778526969,5.689922307237794],[-76.51011274039388,5.681826648385993],[-76.51514471526235,5.699852443233283],[-76.51864951983924,5.702793676736633],[-76.53290224396397,5.688913925518875],[-76.53745592621249,5.678163094450326],[-76.54960720597074,5.661159440854419],[-76.55613917659406,5.661118399827274],[-76.55912527590226,5.664732211083617],[-76.56127290350844,5.664408755627051],[-76.56123658508932,5.660943089458613],[-76.56392247791251,5.660839026502401],[-76.56259991420319,5.657684448769203],[-76.5692993111548,5.657334774199057],[-76.5713302814977,5.655043044312492],[-76.56955713449514,5.652221424844754],[-76.57249701353965,5.6531163261593065],[-76.57445604432831,5.651010307280558],[-76.57588308339939,5.652755656510237],[-76.57694720258905,5.651825858084123],[-76.57757979449701,5.65376423363324],[-76.58110852476068,5.654445067722861],[-76.58044368500913,5.652926496239218],[-76.58444628250464,5.649588955496654],[-76.58746959600535,5.649887851745859],[-76.58900199695552,5.652911545770337],[-76.59148946002227,5.652931200335274],[-76.59057425828087,5.656700832974536],[-76.59371459311359,5.655057477474827],[-76.5964196221667,5.658124365056608],[-76.59564767012682,5.66119992960796],[-76.5984584847775,5.659763800133476],[-76.6015371675665,5.66055717154569],[-76.60579169542672,5.657733906569945],[-76.60501758777133,5.65564393242289],[-76.60897038088098,5.644149246364066],[-76.61730955023859,5.646756771867388],[-76.61916387220913,5.643692571605868],[-76.62248997050023,5.645743368263595],[-76.62223330210082,5.642540831170436],[-76.6240296271124,5.644419227951914],[-76.62383146475099,5.640931966547441],[-76.62616423463629,5.638878697513917],[-76.6259379320307,5.633964880406438],[-76.62789267935631,5.6295403252868255],[-76.63338081270484,5.629172228225798],[-76.6366820432558,5.63075225429219],[-76.64135316849774,5.626015789011717],[-76.64499412138065,5.625005375090325],[-76.65097303264133,5.620264853632591],[-76.657187838791,5.620776164399615],[-76.65738842210607,5.622384554910639],[-76.65294895971215,5.624593695720762],[-76.65206026299131,5.627793562977104],[-76.6607794542009,5.637292703395644],[-76.66419889393501,5.6466611801921545],[-76.6676472257048,5.64856291953339],[-76.6763460208424,5.649193561514323],[-76.67914285998762,5.652597035706776],[-76.67849078012239,5.657002401117438],[-76.6652630491202,5.680287577986064],[-76.66487625188893,5.689943688557776],[-76.66253827191383,5.689236287741039],[-76.66326210518514,5.679661544456053],[-76.66193496284973,5.674386595928809],[-76.65749167773492,5.67488069468186],[-76.65744152984928,5.677973240876042],[-76.65605259971579,5.678626616578811],[-76.65363727674952,5.676263572431083],[-76.64506760359859,5.674487127213467],[-76.64313040150239,5.675822752142778],[-76.63749120948825,5.675416090544218],[-76.63747881161368,5.678218125381079],[-76.64064916051285,5.680570424361349],[-76.63972237850868,5.681422054985376],[-76.63704327751987,5.6812245395142895],[-76.63421103732628,5.683924681408598],[-76.62774005437274,5.683942517687228],[-76.63358325852931,5.68463318574419],[-76.63827329271538,5.6872268684111305],[-76.63526741954291,5.689777386317189],[-76.64007083437446,5.69140418183548],[-76.64250500457831,5.69850903402255],[-76.64114669734926,5.700417057147661],[-76.64564347587316,5.701782475028267],[-76.65036365576634,5.6998072236442],[-76.65211570427061,5.702169385388231],[-76.65147040287002,5.706478816652293],[-76.65265331951196,5.706189189755548],[-76.65196891364144,5.707588081383278],[-76.65321408705125,5.706917580055631],[-76.65367672471922,5.70847435097977],[-76.64620833249995,5.708429182812779],[-76.65034295836068,5.711273991602411],[-76.64751384668921,5.713777756511547],[-76.64771959072885,5.716268038539226],[-76.6459111434653,5.717898803845685],[-76.64685341484227,5.719298823674819],[-76.65063929790176,5.720196985152199],[-76.65140295143897,5.71917122584],[-76.64964690435022,5.716620310955136],[-76.65758370071461,5.714958579244467],[-76.65827938448575,5.708732129068608],[-76.6589434066255,5.7095939011643395],[-76.66316907330332,5.706854763815045],[-76.6595244571082,5.70423996002404],[-76.66014150924968,5.699189017590243],[-76.66126579644049,5.700112163021686],[-76.66342530050088,5.698804005735155],[-76.66642358890982,5.705293615839537],[-76.68072123848907,5.716343077819147],[-76.69549479573004,5.722023126769216],[-76.69540140183648,5.727081003990975],[-76.69128703217962,5.733120627298888],[-76.67826487346719,5.73620051747946],[-76.67360833565391,5.742565533829634],[-76.67387426723508,5.754479696909186],[-76.67016683582779,5.76505464888038],[-76.6757455811329,5.772542920893557],[-76.6768451332527,5.777682551067983],[-76.67197868003694,5.788736003404551],[-76.67882264515345,5.800734013345789],[-76.69478480632347,5.820109512500494],[-76.70040501123185,5.822569878163733],[-76.71170020001091,5.820588616561622],[-76.71622484418486,5.822642867757736],[-76.71605102402947,5.82610457236558],[-76.70979132430699,5.84005532005574],[-76.70940524595699,5.850865514883367],[-76.70554446348575,5.862447866410889],[-76.70644979732117,5.86829465880345],[-76.71590548192955,5.8777984251564135],[-76.71319816973397,5.880211751915738],[-76.71137290949218,5.879699838481429],[-76.7090211062212,5.882776659789499],[-76.69696369344007,5.877675226998633],[-76.69289604181301,5.879311311409822],[-76.69344537924218,5.877053692904667],[-76.69193712098013,5.8770359769538345],[-76.69134630543573,5.873809227238496],[-76.68313332494671,5.874531893227527],[-76.68090024816541,5.871783653133548],[-76.67494821010774,5.877300383354736],[-76.67133656989353,5.878194474256588],[-76.67006941043957,5.881065208025234],[-76.65621448376731,5.884533968777191],[-76.65371139248805,5.887181087260558],[-76.64825209769617,5.885065218987791],[-76.64702703856517,5.887313547571637],[-76.64347050950022,5.888208440658673],[-76.64190966491526,5.885722296055235],[-76.63908096256392,5.88624458544615],[-76.631779754989,5.893430634198523],[-76.6307441030882,5.897281572417967],[-76.60603475650316,5.906342450284683],[-76.59105432702108,5.909034795556238],[-76.5854436670877,5.914951642367839],[-76.58503471926144,5.921300012347388],[-76.58900888957731,5.932235978495953],[-76.57930153377174,5.933855234502175],[-76.56556311112496,5.9399848311038],[-76.55294199048734,5.950574387987217],[-76.5459207229091,5.953811994970238],[-76.53758758742373,5.961642651952957],[-76.52919205633071,5.9657749525051145],[-76.52813999048738,5.970674105050762],[-76.53702100918417,5.970697757171763],[-76.53133035287794,5.996475058008684],[-76.51742102982399,5.983443705020079],[-76.50793839179414,5.981751020274942],[-76.49441717415039,5.9878504248895865],[-76.47851968967348,5.989502439875309],[-76.4763596107137,5.990946254900734],[-76.46611926354439,6.004849467977635],[-76.46029528509223,6.016210383489636],[-76.4584210843563,6.037098544697244],[-76.45470690019545,6.0475084573552635],[-76.45613008672075,6.056918983052583],[-76.43896008254745,6.072012565894397],[-76.42735542410168,6.078368474357603],[-76.41472727200261,6.094585106145416],[-76.39939738186638,6.102452219358497],[-76.3937351188012,6.11080159086589],[-76.38014417584003,6.120491826188811],[-76.35948978784444,6.143977698472781],[-76.34303708324711,6.149384258846055],[-76.34423058873324,6.154207740648019],[-76.3431757234693,6.158403588663475],[-76.32954983197442,6.192278830466137],[-76.26442734604916,6.203370670448123],[-76.24745093692405,6.204141879952488],[-76.23988174808198,6.207938671701811],[-76.23769296734838,6.208030059104033]]]}}]}