{"type":"FeatureCollection","features":[{"type":"Feature","properties":{"code":"270008"},"geometry":{"type":"Polygon","coordinates":[[[-76.92615337680661,5.961579666019304],[-76.92837916501577,5.958732265554545],[-76.92893581569973,5.953746087231423],[-76.92409608450595,5.94691938143734],[-76.93151530380305,5.938472600996761],[-76.9258840595927,5.9279717328823835],[-76.92621392635988,5.900764282964303],[-76.92272576815355,5.890970228425999],[-76.91070518287063,5.881790742340456],[-76.90752909937595,5.8745248185714445],[-76.8938647688135,5.866246025988744],[-76.88912104067197,5.858011204465981],[-76.88900896614848,5.853059938681042],[-76.87517092855927,5.844171536795386],[-76.86775375072057,5.843489177525498],[-76.86447766353228,5.839080805977403],[-76.85925747751224,5.8393392741512],[-76.86170782923068,5.827795137490739],[-76.86073641384962,5.825460601769635],[-76.84274983248713,5.812256824222175],[-76.83733653375845,5.812666099093121],[-76.82891969642179,5.818833428222376],[-76.82128362487742,5.817861278533314],[-76.81508189126066,5.821709890415832],[-76.80432328619509,5.822248628716409],[-76.79435250615126,5.8269791393146875],[-76.76921582627307,5.822203934661445],[-76.7635892604477,5.831214010553026],[-76.7570909106388,5.835571831066034],[-76.7392552398461,5.839936984374219],[-76.73436996921765,5.83950504777232],[-76.72468714279461,5.835124411262029],[-76.71872445624308,5.847695159813497],[-76.71389945748842,5.852703086610575],[-76.71054737251171,5.863452713372908],[-76.70631661915723,5.867852963310497],[-76.70554446348575,5.862447866410889],[-76.70940524595699,5.850865514883367],[-76.70979132430699,5.84005532005574],[-76.7163262774136,5.822874996490214],[-76.71197815099976,5.82059183250135],[-76.69917615200575,5.82235200981529],[-76.69123548664061,5.817327840825499],[-76.67220787050917,5.789543464479266],[-76.6768222123543,5.776738639325174],[-76.67493936138828,5.771036868640692],[-76.6701566264789,5.764919188602505],[-76.67372738096083,5.755277575984962],[-76.67327711751324,5.743986446468568],[-76.67584211177615,5.73818198374164],[-76.67888152143075,5.735948173680811],[-76.69099284825404,5.733378286088396],[-76.69535348567109,5.727203168564017],[-76.69549479573004,5.722023126769216],[-76.68072123848907,5.716343077819147],[-76.66642358890982,5.705293615839537],[-76.66342530050088,5.698804005735155],[-76.66453653881302,5.6985299124341395],[-76.66403130614128,5.692541081845377],[-76.66597870113128,5.685276375752267],[-76.67943109025947,5.687979794264436],[-76.68915630085559,5.685877187757967],[-76.69414856241616,5.680490815711323],[-76.69341397163612,5.676660808353972],[-76.68990354045019,5.672771818789727],[-76.69290477946066,5.671269446304223],[-76.69761258513347,5.673201601833],[-76.70542055570263,5.681059143331538],[-76.71395424056448,5.684149414610943],[-76.73361952293925,5.679867394425287],[-76.73711752128361,5.683715066311322],[-76.74052732039752,5.6848474206052515],[-76.75542654817212,5.6836018707854805],[-76.7653970176263,5.688607299495686],[-76.77757358781452,5.686556968722414],[-76.7821356025043,5.683396790091308],[-76.80110859085448,5.686329751831408],[-76.80748001748691,5.681774579369687],[-76.81880627037219,5.679512368868757],[-76.82129891061857,5.672955850350945],[-76.83642634773122,5.658834691792322],[-76.83957957306245,5.659589333087695],[-76.84994956466721,5.672852573124771],[-76.85865153974908,5.674046379944514],[-76.86495853240075,5.680024085870571],[-76.87077992534842,5.678121820995159],[-76.8796796843248,5.6835176526560645],[-76.88680682080434,5.67762310659208],[-76.89317076140367,5.681607022429262],[-76.90229612467317,5.678002405448979],[-76.91549111417936,5.665591243408471],[-76.92403178833655,5.6678051829313745],[-76.93519359326314,5.661429222924369],[-76.94592063542774,5.66742788336677],[-76.94989765041561,5.665917351218297],[-76.95224600840419,5.670753319340861],[-76.9538493400064,5.697967351291084],[-76.95029089803836,5.702585432553235],[-76.9503813279606,5.7059680365616146],[-76.95530794917744,5.708107841834021],[-76.9620546328876,5.714851966779236],[-76.96415138138553,5.721061681109973],[-76.97421582374642,5.720319618694987],[-76.98027554899181,5.726869390629872],[-76.98641218528252,5.728274061076149],[-76.98984463687134,5.731883228914512],[-76.99410203202928,5.7319484126298335],[-76.99737409595048,5.73621693964958],[-76.99919216840755,5.743721746961512],[-77.00612699436363,5.75002550104773],[-77.00689683603946,5.758457745481792],[-77.00462949875254,5.768345660826526],[-77.00914055514397,5.773609557710529],[-77.01113641240232,5.780551597162457],[-77.01143129361196,5.80373520093417],[-77.00811800045864,5.8148584207543195],[-77.01408915726273,5.825889315232644],[-77.01726115784061,5.828385652729935],[-77.01495408976228,5.842416140710725],[-77.01800836349662,5.849322445898906],[-77.01724259651002,5.855293712746402],[-77.02056001886007,5.8567765530515885],[-77.02461829520507,5.866786409797385],[-77.02617445214901,5.883591642892782],[-77.03100088249568,5.891436585970553],[-77.02927954637039,5.904463742913606],[-77.03506927254443,5.918394760962485],[-77.03459768434124,5.937704129206338],[-77.05113584017056,5.946360454810133],[-77.02885043592852,5.951554668542769],[-77.01996283519958,5.951764008017506],[-77.015184917515,5.953756255442613],[-77.01365418778386,5.952796411068334],[-77.00425010527891,5.956695988448303],[-77.00245470278031,5.955444451036215],[-77.00230487927416,5.949079476852148],[-76.9978772234004,5.94518368208378],[-76.9967493479736,5.942111227542625],[-76.99255560312315,5.940742867287952],[-76.98843819956085,5.942244412905723],[-76.98186061545493,5.941719934989123],[-76.97850976152398,5.943024870165232],[-76.97992790045345,5.9449715699281],[-76.97668121129453,5.950386419548067],[-76.97449014741852,5.949374359090257],[-76.97489407953066,5.954076754126959],[-76.9668792274644,5.954758896395447],[-76.96417763649458,5.9568051257399475],[-76.96074692503049,5.95515337712078],[-76.95918677875801,5.9581453097549115],[-76.95744186044578,5.956622464064196],[-76.95281847756246,5.963040902860996],[-76.94963669855309,5.961670027035893],[-76.95145528831677,5.959688293378633],[-76.95011224317466,5.958363143136353],[-76.94862083080108,5.959514531844434],[-76.94883859527687,5.9574813050987245],[-76.94571739667407,5.95865246869954],[-76.9446398357407,5.955358148253822],[-76.94286095928493,5.956636336725296],[-76.94107902526952,5.954273666930646],[-76.94001998658587,5.955531167252502],[-76.93817950333789,5.953183464381823],[-76.93867521880253,5.950922994005566],[-76.93445003343584,5.955353460612798],[-76.9372666022224,5.960239661981802],[-76.9344136347982,5.962380283837547],[-76.93678871275188,5.96387059474921],[-76.93705910777356,5.965895670059524],[-76.93239428174206,5.9650246111278875],[-76.93220988919757,5.96218398398554],[-76.92716784073463,5.964357375105294],[-76.92615337680661,5.961579666019304]]]}}]}