{"type":"FeatureCollection","features":[{"type":"Feature","properties":{"code":"271037"},"geometry":{"type":"Polygon","coordinates":[[[-76.37226701577197,5.716128450093038],[-76.36875050134853,5.680933832752885],[-76.36271124005236,5.670262849961489],[-76.34013464979472,5.668208891871473],[-76.33516954734415,5.673113213369163],[-76.33203757066377,5.680887294700483],[-76.32777421156766,5.6839129098555645],[-76.30765993381499,5.683950192953716],[-76.30335820558537,5.67599921539545],[-76.27295007182755,5.658813210713447],[-76.26524490642942,5.647064596026098],[-76.20434692504193,5.61996696320017],[-76.20077188709695,5.615693188038222],[-76.2119581370738,5.607396414166544],[-76.24060536949412,5.591225543957023],[-76.24752695219593,5.583027677459256],[-76.26136079373964,5.571573755776569],[-76.27948900397831,5.559174009447986],[-76.30079698673495,5.537537394055164],[-76.3242914753103,5.508429738203574],[-76.33531771711472,5.484301713610023],[-76.35184356660085,5.455215944043687],[-76.3647618721593,5.445001791305344],[-76.39111335039752,5.439838568659525],[-76.40040654828698,5.4392455460775295],[-76.40903789199353,5.443899465476079],[-76.42381630862542,5.443045077597674],[-76.44414031357564,5.43747061678414],[-76.449977474604,5.43842226549998],[-76.46421124247621,5.4355280091940585],[-76.48057195906085,5.435794120752632],[-76.4802978595892,5.439587716102608],[-76.47756541225851,5.437594813559542],[-76.47441641793978,5.439432791521597],[-76.47717027847216,5.440872082428314],[-76.47850640322457,5.44382746421536],[-76.47867974104042,5.4523396186330615],[-76.48311178425001,5.450809319819427],[-76.48703523795149,5.442701322742664],[-76.49108977487953,5.444836724224217],[-76.49447305251778,5.452068982955836],[-76.50375428036477,5.447980040511823],[-76.51747249720142,5.451068443111126],[-76.51964863837645,5.45635912063824],[-76.52179749702833,5.45764881223937],[-76.53246288817775,5.454891145441195],[-76.53209038835439,5.449430826320565],[-76.53009298123311,5.447040661115182],[-76.53139811284171,5.440996496205116],[-76.52981281497904,5.435621101753952],[-76.53128474556604,5.433931871547202],[-76.53771143967089,5.435336809388502],[-76.54532734654282,5.440396960496628],[-76.55565718672324,5.443554269773131],[-76.56463021914374,5.444082280389807],[-76.57132993594098,5.447707560837102],[-76.57085649345595,5.45146493135627],[-76.5749627209334,5.461346247185361],[-76.57968271879224,5.461056852716581],[-76.58118129118265,5.462587668836875],[-76.57816226011659,5.465692849447407],[-76.57822765877631,5.470625200117524],[-76.5810307611365,5.4736730275741365],[-76.58063939144978,5.476084830181662],[-76.57845943372456,5.47642711950607],[-76.57890971465565,5.48010536474311],[-76.58137552489364,5.47932580531392],[-76.57993203691296,5.4821323015344205],[-76.58228510825359,5.485481838030523],[-76.5807819335829,5.488665117537494],[-76.58147594099273,5.4910941085048535],[-76.58421200741265,5.492770464668126],[-76.58350150789857,5.4956122035568455],[-76.58793642046277,5.501428126218741],[-76.58614985022854,5.509040552841213],[-76.58826513948816,5.510358601687869],[-76.58761476683753,5.516911028032894],[-76.58424190629353,5.5271302479075075],[-76.58545051754334,5.536047746488919],[-76.58877076502495,5.544585363086526],[-76.58670070975262,5.548469903608407],[-76.58212311827242,5.547827216508722],[-76.57966632850383,5.544877874764552],[-76.58006428330799,5.548828609960765],[-76.57410078634376,5.548502363311172],[-76.57360887097417,5.551867700798141],[-76.5692710320709,5.551107682805252],[-76.56896650715578,5.548034021901003],[-76.5634863020706,5.546410871182957],[-76.55993383123979,5.549950444316153],[-76.55685389786464,5.5477081876568946],[-76.55342852915942,5.552397891712928],[-76.55185262303382,5.552161498029363],[-76.55268093475217,5.550364992011907],[-76.54971244032299,5.549993319056284],[-76.54988781136973,5.547973421954055],[-76.54747699195326,5.549382978530673],[-76.54627947142757,5.547959877366054],[-76.54430185565411,5.549908429353934],[-76.54115068103727,5.548744960560043],[-76.54130945713553,5.55177007589208],[-76.53899458317852,5.551638596715122],[-76.53753755780895,5.55346067598424],[-76.53578300710404,5.551534363037433],[-76.53663110297111,5.549927911140571],[-76.53291444437758,5.550010535184072],[-76.53253218257777,5.551527676104172],[-76.52976900949841,5.54978109480038],[-76.5278450311161,5.5526281065138505],[-76.5234675560381,5.549632830413088],[-76.52306144157097,5.551980300855746],[-76.51854424332083,5.5496086445303945],[-76.5075272040201,5.554869999104426],[-76.50663530987146,5.566668676316738],[-76.49938377607015,5.586284438155758],[-76.50323859974549,5.603820099924405],[-76.50937297140575,5.616034677234325],[-76.51029812538542,5.622164136024708],[-76.50160832397768,5.645471758651297],[-76.50347459747866,5.652221123511083],[-76.51556029654284,5.671515378792151],[-76.51541307602474,5.675749345001066],[-76.51284934777453,5.6796523697203725],[-76.50736617049051,5.683191269223698],[-76.48866372217242,5.690311108903586],[-76.4649690811994,5.703169226920522],[-76.45647087657596,5.704244996307068],[-76.44674330673274,5.700519894200397],[-76.44243997721816,5.700455804748003],[-76.43111045182877,5.708075659810731],[-76.40613731179457,5.72019416310593],[-76.39006312752315,5.724165904240522],[-76.37732123893744,5.725416020345051],[-76.37226701577197,5.716128450093038]],[[-76.5419996531374,5.498237459409154],[-76.54022033033755,5.500019471586199],[-76.54500574433968,5.500750506012025],[-76.54426085062249,5.4999157377315555],[-76.5419996531374,5.498237459409154]]]}}]}