{"type":"FeatureCollection","features":[{"type":"Feature","properties":{"code":"271017"},"geometry":{"type":"Polygon","coordinates":[[[-76.09838795272651,5.996097232909904],[-76.08949944696815,5.988320342902114],[-76.06986069532508,5.986194926568999],[-76.064939588617,5.981973420969609],[-76.06935722540379,5.971502916592158],[-76.07008979118052,5.953535473516467],[-76.06728971449826,5.9520667814949775],[-76.05658536697467,5.939108034491369],[-76.05525020587294,5.933538017577916],[-76.05778326699561,5.931408931761894],[-76.07339357226897,5.92910730208763],[-76.08512802941658,5.92407571391351],[-76.09114026221488,5.916036166885533],[-76.10332486145387,5.911531530032335],[-76.11023741443034,5.8967766102265955],[-76.1134495756886,5.885823548278097],[-76.11349545039559,5.8694144167333775],[-76.11166674795663,5.866105483147919],[-76.12719285566942,5.859803410565235],[-76.1449631946511,5.86387320958022],[-76.15273514813481,5.861982987766737],[-76.16177700598558,5.855560765329869],[-76.17242936882514,5.853753299200548],[-76.17558903940568,5.854703897876561],[-76.17715135672029,5.8532013526127],[-76.1766592860559,5.850253819898967],[-76.17913538174747,5.849689913553107],[-76.18326204026403,5.854349836999063],[-76.18791577659982,5.856062900332745],[-76.18986856062861,5.855372141772875],[-76.19493977572142,5.8572631698853],[-76.19865390023261,5.8550735622839625],[-76.20502364021928,5.861204519515013],[-76.20855875608254,5.86149947271565],[-76.21930063558739,5.857525370277017],[-76.22293323134642,5.853372777525465],[-76.22865797435145,5.852431408092627],[-76.23046092356128,5.849749703087355],[-76.22958985743054,5.84125762592447],[-76.23135179955182,5.832122913084049],[-76.23289221618296,5.830709600635316],[-76.23143919762549,5.828122823959859],[-76.23507844535067,5.820003204454224],[-76.23423332065403,5.806578258286208],[-76.23599656786882,5.805201384584336],[-76.23617842735945,5.797554723167366],[-76.23828828952787,5.795684056159871],[-76.23734524784749,5.791485700801616],[-76.24014159642564,5.786265541521061],[-76.24032394751174,5.780378757112771],[-76.23647617998057,5.77404865535766],[-76.24197118949581,5.770590560583059],[-76.24423349358506,5.773405821190693],[-76.24676539976679,5.771189036995736],[-76.24956508049871,5.766434270580646],[-76.24954764222736,5.762435734404676],[-76.24762436215752,5.760388409768893],[-76.24820180486387,5.757272037646828],[-76.25329565597644,5.757224405331613],[-76.25641699136207,5.7510756868982185],[-76.26021599837657,5.748771610559174],[-76.2628448908016,5.749260821124892],[-76.2656839588251,5.747493524931883],[-76.26732623651714,5.74963204465115],[-76.27434262722096,5.747346484391244],[-76.27627940971257,5.742219054630368],[-76.28042413487884,5.738132257517464],[-76.28662397410454,5.7411202450460905],[-76.28879129947029,5.746273766393642],[-76.29061954836607,5.746944274920338],[-76.3000565266334,5.744495568709908],[-76.30091218052456,5.736795253446701],[-76.29522390403434,5.73348149440892],[-76.29287849150518,5.728176280875232],[-76.29906573333841,5.726294998284061],[-76.30406130545549,5.7269855840656305],[-76.30924302464001,5.721821699102861],[-76.3164046118871,5.721161054368338],[-76.31879262353385,5.715771804739518],[-76.3177596085597,5.711078751046216],[-76.31975366501518,5.708332621316231],[-76.32164917405169,5.707571077114665],[-76.32638550049245,5.711419051362782],[-76.3296617686866,5.7109441166076635],[-76.3337357442067,5.704397327156073],[-76.33694214207304,5.70468518821707],[-76.3395690629738,5.7072316561164484],[-76.3470974894966,5.704573905594316],[-76.35148662916964,5.706488492239544],[-76.34867169560675,5.709786405034947],[-76.34521520520246,5.709143389862106],[-76.34255555000476,5.712740993892851],[-76.34910508951168,5.719481200471989],[-76.36036714701493,5.715263750021506],[-76.36552219971338,5.718413460136219],[-76.3680556495874,5.723697219330575],[-76.37259724249407,5.724787903190531],[-76.37282257322147,5.726575292065036],[-76.36197664001634,5.733856812164845],[-76.35804726659973,5.740209886240507],[-76.3545016801632,5.751775107000981],[-76.35162636365465,5.770691631799991],[-76.34744245791376,5.783409257369783],[-76.3350697853345,5.803503547342132],[-76.30586777913783,5.831687418071056],[-76.28013283676296,5.851799215220353],[-76.26393771279356,5.862283548035919],[-76.2577291204936,5.872229634146436],[-76.24147923813075,5.891302988202028],[-76.21333694116225,5.920709024024632],[-76.21060538960495,5.941346789303793],[-76.21233722921369,5.9582279934481335],[-76.20736260441385,5.9707574952839195],[-76.19877142138768,5.980980524509675],[-76.17379951239917,6.003169268524687],[-76.17121308025196,6.000209474719213],[-76.1570295466546,5.9969678269855535],[-76.15278748968836,5.992999515706742],[-76.1432122753767,5.989646766356202],[-76.1342168815305,5.9906247133756665],[-76.12319957586317,6.003519925257422],[-76.1170347900723,6.006723798297344],[-76.11352514153111,6.006513951800514],[-76.09838795272651,5.996097232909904]],[[-76.14223733449472,5.9048364401979825],[-76.1440012944202,5.901577778939725],[-76.14517923751407,5.896498351733442],[-76.14215900111338,5.896381329373014],[-76.13932788706433,5.898597465649118],[-76.13922624711864,5.901319875380864],[-76.14151983540086,5.900617379206494],[-76.13954212089698,5.903406780655416],[-76.14223733449472,5.9048364401979825]]]}}]}