{"type":"FeatureCollection","features":[{"type":"Feature","properties":{"code":"271077"},"geometry":{"type":"Polygon","coordinates":[[[-76.27129532427,5.35437960997541],[-76.27562879537794,5.3442418581748825],[-76.27600332946065,5.338179402414653],[-76.28216009442832,5.3276921909885],[-76.29232298650624,5.324516769810771],[-76.29452769061533,5.317883038914033],[-76.30466781091894,5.309699303216462],[-76.30553717292042,5.300582055386826],[-76.30732292451444,5.299712676930255],[-76.31479981475422,5.30199781552875],[-76.31879756931392,5.301614011065226],[-76.32519141702164,5.294342779504348],[-76.32464160650892,5.290459278737842],[-76.32016310340856,5.287328672971341],[-76.30896325639321,5.28924065765699],[-76.30820041326871,5.2860931792625365],[-76.30978004029936,5.28164058571457],[-76.30643006671517,5.275962081485147],[-76.30125734023204,5.274966297158585],[-76.30047877222142,5.266260444848456],[-76.29520773074728,5.2664351093552],[-76.29287961250753,5.26176938755026],[-76.28763779114217,5.264952942679827],[-76.28521951860279,5.264261200928843],[-76.28585272037714,5.261689262622042],[-76.28881240105386,5.259677585860857],[-76.32350544389237,5.252189149296896],[-76.33713203267126,5.251462038379316],[-76.34670726549484,5.2539855514416445],[-76.37611955527643,5.267680141868311],[-76.40093880534278,5.276187641555225],[-76.40582941873015,5.276194337744471],[-76.41730857530695,5.270284027713558],[-76.43872969496817,5.264748714564462],[-76.44955586150814,5.267820504731731],[-76.45484305672892,5.26718153133794],[-76.45924513215198,5.262748402093052],[-76.46685161437665,5.259248906336438],[-76.4856275870788,5.259187892955538],[-76.48505583063121,5.247913659721291],[-76.47951144044845,5.245975508372624],[-76.4843117699524,5.235989405563714],[-76.4831314552701,5.231044234329147],[-76.489152381493,5.227875835356997],[-76.48991538916829,5.215491892076159],[-76.49478293664686,5.217984343089142],[-76.49978776988883,5.225446870100711],[-76.5026945711366,5.225782990826872],[-76.50516647283956,5.223656766137935],[-76.50778686210191,5.225122200053534],[-76.5092177269791,5.2227688623463],[-76.51166670881213,5.223451296692474],[-76.5130018349468,5.226024347774057],[-76.5224518003863,5.222471739132004],[-76.524354667929,5.223813973861354],[-76.5230588056728,5.225471288411427],[-76.52611739680879,5.227513036831851],[-76.52795548481419,5.225737909049087],[-76.52702455921508,5.224092493578951],[-76.52978815498432,5.22391630389194],[-76.52981416738095,5.219995252632202],[-76.53245376383575,5.22025376605751],[-76.53504007462675,5.216606349413382],[-76.53589738225344,5.223308134408512],[-76.5336636750369,5.228995187052135],[-76.53406404873789,5.234031558512413],[-76.53124653172733,5.237651977511916],[-76.53583148171373,5.239642027155412],[-76.54089838146172,5.237544123716532],[-76.54481894832503,5.231558974952009],[-76.55264206682403,5.225969666513777],[-76.55150732551505,5.2238566182304],[-76.55329261225302,5.221927503806171],[-76.55503855695093,5.223621335264738],[-76.55957514339946,5.218939405205731],[-76.56136690109776,5.220105621998016],[-76.56259076415012,5.218073705488052],[-76.5663006741039,5.220191149334767],[-76.56829527357706,5.215925714841603],[-76.57170601165899,5.214316506718831],[-76.5721676321973,5.21096846969192],[-76.57476662676987,5.211024882849358],[-76.57523916422554,5.2080359481251435],[-76.5771507262213,5.2085918768424335],[-76.58154931111045,5.204103541831557],[-76.58475501889188,5.204943365935492],[-76.5862878857265,5.202894346426433],[-76.58738761782377,5.203546166095691],[-76.59147718864614,5.199275838273081],[-76.59265752081205,5.20081485827933],[-76.59564056050374,5.195061594506342],[-76.60015342798243,5.195441134018779],[-76.60484430137757,5.192040115747034],[-76.6059522106213,5.197010172205239],[-76.61034638452043,5.196583802562714],[-76.61467615837756,5.190791248171706],[-76.62286978563526,5.185927339322802],[-76.6268028994973,5.190095396764491],[-76.63335286066558,5.204788811593744],[-76.6378973229269,5.206055257308606],[-76.6333805267978,5.211907488105169],[-76.62713558214011,5.21649732525043],[-76.62427547321113,5.216069602177527],[-76.61236230052174,5.206926635057414],[-76.60978968858507,5.2106149621164946],[-76.60573862573585,5.212896464142261],[-76.59875478009553,5.21232982625304],[-76.58566547437107,5.219618247202163],[-76.58446139546743,5.225093309046315],[-76.595170807042,5.237077713721476],[-76.58651545640174,5.245584267241213],[-76.5870679562916,5.253021356755539],[-76.58491474321409,5.259169419042621],[-76.58858365842065,5.260203450117956],[-76.59125752977923,5.266950255184383],[-76.59554659068232,5.268876292508594],[-76.59855235278303,5.273977985495378],[-76.58030671703449,5.269523228104333],[-76.57755260041989,5.267389205764232],[-76.57025324404151,5.268160098508304],[-76.55826977833436,5.2767843870991555],[-76.54511870846596,5.281789589551977],[-76.53763651146278,5.288853355460446],[-76.5325521641875,5.28890078825782],[-76.52665422220628,5.301098115501418],[-76.51290556244265,5.301848794207785],[-76.5083090743596,5.3077829507354295],[-76.50164544355351,5.312067280802921],[-76.49926735843394,5.322376336160005],[-76.4924885348666,5.3328229549599655],[-76.48250450231245,5.331049429490633],[-76.47170816574777,5.333770527958109],[-76.44525863065763,5.3508389178967946],[-76.43919728561531,5.361285010134168],[-76.43761525408604,5.371439434016395],[-76.44010330233658,5.374916098349104],[-76.4440398275425,5.376050440622407],[-76.44594251510779,5.380489654133271],[-76.43472825241366,5.374408395358444],[-76.42141872526418,5.370829041040224],[-76.40291071737403,5.360774360655682],[-76.35392436601217,5.358551984818803],[-76.33095146028774,5.3555873326508845],[-76.31145765630475,5.35604928023389],[-76.2877294202284,5.353002124350269],[-76.27129532427,5.35437960997541]],[[-76.55014823049902,5.26168659689904],[-76.55326016489158,5.269795843533416],[-76.56158724593581,5.264550318746615],[-76.56362342739692,5.267586871387891],[-76.56827160602938,5.265838746391864],[-76.56875125105125,5.2639503572629],[-76.56784998470596,5.261568066841903],[-76.56545051826646,5.262948444447375],[-76.56090999493995,5.259981016513109],[-76.56018183089719,5.26235741498698],[-76.55014823049902,5.26168659689904]]]}}]}