{"type":"FeatureCollection","features":[{"type":"Feature","properties":{"code":"271057"},"geometry":{"type":"Polygon","coordinates":[[[-76.08798304652669,5.665094207423579],[-76.0727238720981,5.638766208528068],[-76.03150103996285,5.595641723440792],[-76.02854080392717,5.589894248770747],[-76.05161330196825,5.579286056508863],[-76.07040441540119,5.565775032787371],[-76.08564900857175,5.550027708117227],[-76.08987628167677,5.542158767361798],[-76.09081443722675,5.533524922483025],[-76.08661814183887,5.5182897282486465],[-76.0875419938103,5.508714901659857],[-76.0840007504865,5.49807400698279],[-76.08816713773751,5.481133013304202],[-76.08289500405743,5.466010780110764],[-76.08716770244007,5.453204086276628],[-76.0909296567275,5.450731107794297],[-76.10021444298559,5.4488880040747745],[-76.11226164538937,5.436188525373211],[-76.11770969416233,5.434223755875337],[-76.1522106486209,5.431372563542936],[-76.17953248294435,5.426002873862387],[-76.19100748872717,5.416582705487997],[-76.21163140808466,5.392802657506024],[-76.22916408119931,5.389571341505871],[-76.23120849945656,5.384912537005334],[-76.22985844959248,5.373563970002692],[-76.23136172710741,5.366286490653522],[-76.23522973438736,5.363904133383755],[-76.24022504630852,5.36447017580474],[-76.25004639982501,5.373709278646174],[-76.24971064933817,5.378419549495675],[-76.25448681764203,5.38158104453322],[-76.25486825257406,5.387507732511267],[-76.25771413608612,5.387961702465645],[-76.2530447262863,5.3930944122503774],[-76.25427306820586,5.397088452075707],[-76.25856094845693,5.400159363953037],[-76.25891949951443,5.404339340015099],[-76.26520634600564,5.406577225793626],[-76.2700511278806,5.41270084303045],[-76.27633797642869,5.412526840840712],[-76.27827596425499,5.410293307430948],[-76.28196864162595,5.418947081468787],[-76.28570719576072,5.421305580929072],[-76.29187195584052,5.418970502190291],[-76.29310028850409,5.424207213224747],[-76.28821733701346,5.424539059743779],[-76.28865980280983,5.428605090545432],[-76.29065117914416,5.427957088454775],[-76.2943744372534,5.429879704150721],[-76.29518314788578,5.433184744052824],[-76.29852494535191,5.433224801888912],[-76.29905902172254,5.435106905177179],[-76.29931841240932,5.439172909239289],[-76.29622837150106,5.4421665480596175],[-76.2938860628114,5.440609650637043],[-76.28975078080435,5.443927486420989],[-76.28125894532548,5.442819730415181],[-76.28443287526153,5.44660350311068],[-76.28178537008375,5.451135867802634],[-76.28469987539444,5.453174393084225],[-76.27994655702645,5.459825383303382],[-76.28334177693921,5.461930669931064],[-76.28040430753555,5.469864354228378],[-76.2833874963514,5.471741709197545],[-76.28883505250036,5.468007568109613],[-76.29165800894339,5.477007509728651],[-76.28899525196306,5.478208220482998],[-76.28619511254578,5.48533651190354],[-76.28488282092036,5.484581198006708],[-76.2814265876267,5.486795612670107],[-76.27994639350408,5.491302238531148],[-76.28251757384874,5.493892962368989],[-76.28255571055422,5.497935142560152],[-76.27616203562485,5.502107503005334],[-76.28180031952422,5.5098614741716005],[-76.28537097938937,5.5086135887588625],[-76.2862102789876,5.504750716492424],[-76.28875859088441,5.503045039432891],[-76.29209272028316,5.510803755832967],[-76.29512166862042,5.511485674929418],[-76.2937559463208,5.513258581276432],[-76.29212322183139,5.512158959222518],[-76.28991058225978,5.516689894379397],[-76.29410687764772,5.519231485404362],[-76.29361858856646,5.520790788353963],[-76.29042939037282,5.522364831970151],[-76.28860591550722,5.5209438339704775],[-76.28633224507121,5.521544145124608],[-76.28908651800907,5.5271127386736225],[-76.28582103714842,5.526592948398047],[-76.28546245215233,5.529230364554678],[-76.28286834371016,5.52964663592013],[-76.2817467592663,5.532644066607986],[-76.28157128434685,5.53576120594812],[-76.28415769078299,5.538052427784123],[-76.281502559704,5.541633048115045],[-76.28358546947936,5.541530063995026],[-76.28608800128592,5.543935720630088],[-76.28470701792776,5.54574821995709],[-76.28053359098766,5.546405271313461],[-76.27580320174559,5.544579408404331],[-76.2653733938671,5.550480306129316],[-76.2620468821421,5.548547607582918],[-76.25978849024818,5.550173636911552],[-76.25818625085185,5.553759962013146],[-76.26118466370235,5.557056402078899],[-76.25914755150075,5.560412899073981],[-76.26097863478412,5.563383643735392],[-76.25324978949698,5.565635265392189],[-76.24929760831066,5.564267170475659],[-76.24824469811597,5.567676590094322],[-76.2496485067274,5.581433909343957],[-76.24364200543926,5.58843677088646],[-76.20568825474191,5.611768088828683],[-76.19085730320927,5.622621880363113],[-76.16463164360033,5.6459501129778005],[-76.14459229405577,5.657673704630213],[-76.12948843193107,5.66396718663259],[-76.10481405136318,5.6706514356542925],[-76.09681812880996,5.677274742257737],[-76.08473274033543,5.677916490389407],[-76.08830345162272,5.671938810174424],[-76.08798304652669,5.665094207423579]]]}}]}