{"type":"FeatureCollection","features":[{"type":"Feature","properties":{"code":"271058"},"geometry":{"type":"Polygon","coordinates":[[[-76.24875591529474,5.565813091331222],[-76.24989274125676,5.563953400890739],[-76.25324978949698,5.565635265392189],[-76.26097863478412,5.563383643735392],[-76.25914755150075,5.560412899073981],[-76.26118466370235,5.557056402078899],[-76.25818625085185,5.553759962013146],[-76.2620468821421,5.548547607582918],[-76.2653733938671,5.550480306129316],[-76.2734455980588,5.545204079247981],[-76.27672639140008,5.544494546469878],[-76.27767242173445,5.546115324571076],[-76.28053359098766,5.546405271313461],[-76.28470701792776,5.54574821995709],[-76.2862482172037,5.543571442176187],[-76.281502559704,5.541633048115045],[-76.28415769078299,5.538052427784123],[-76.28157128434685,5.53576120594812],[-76.2817467592663,5.532644066607986],[-76.28286834371016,5.52964663592013],[-76.28546245215233,5.529230364554678],[-76.28582103714842,5.526592948398047],[-76.28908651800907,5.5271127386736225],[-76.28633224507121,5.521544145124608],[-76.28860591550722,5.5209438339704775],[-76.29042939037282,5.522364831970151],[-76.29361858856646,5.520790788353963],[-76.29410687764772,5.519231485404362],[-76.28991058225978,5.516689894379397],[-76.29212322183139,5.512158959222518],[-76.2937559463208,5.513258581276432],[-76.29512166862042,5.511485674929418],[-76.29209272028316,5.510803755832967],[-76.28875859088441,5.503045039432891],[-76.2862102789876,5.504750716492424],[-76.28537097938937,5.5086135887588625],[-76.28180031952422,5.5098614741716005],[-76.27616203562485,5.502107503005334],[-76.28255571055422,5.497935142560152],[-76.28251757384874,5.493892962368989],[-76.27994639350408,5.491302238531148],[-76.2814265876267,5.486795612670107],[-76.28488282092036,5.484581198006708],[-76.28619511254578,5.48533651190354],[-76.28899525196306,5.478208220482998],[-76.29165800894339,5.477007509728651],[-76.28883505250036,5.468007568109613],[-76.2833874963514,5.471741709197545],[-76.28040430753555,5.469864354228378],[-76.28334177693921,5.461930669931064],[-76.27994655702645,5.459825383303382],[-76.28469987539444,5.453174393084225],[-76.28178537008375,5.451135867802634],[-76.28443287526153,5.44660350311068],[-76.28125894532548,5.442819730415181],[-76.28975078080435,5.443927486420989],[-76.2938860628114,5.440609650637043],[-76.29622837150106,5.4421665480596175],[-76.29867750142984,5.44059868949671],[-76.29924974741607,5.437287998302963],[-76.29852494535191,5.433224801888912],[-76.29518314788578,5.433184744052824],[-76.2943744372534,5.429879704150721],[-76.29104029242802,5.428048165267342],[-76.28865980280983,5.428605090545432],[-76.28821733701346,5.424539059743779],[-76.29310028850409,5.424207213224747],[-76.29187195584052,5.418970502190291],[-76.28570719576072,5.421305580929072],[-76.28196864162595,5.418947081468787],[-76.27827596425499,5.410293307430948],[-76.27633797642869,5.412526840840712],[-76.2700511278806,5.41270084303045],[-76.26520634600564,5.406577225793626],[-76.25891949951443,5.404339340015099],[-76.25856094845693,5.400159363953037],[-76.25427306820586,5.397088452075707],[-76.2530447262863,5.3930944122503774],[-76.25771413608612,5.387961702465645],[-76.25486825257406,5.387507732511267],[-76.25448681764203,5.38158104453322],[-76.24971064933817,5.378419549495675],[-76.25004639982501,5.373709278646174],[-76.24022504630852,5.36447017580474],[-76.26907487881971,5.367933785088155],[-76.27129532427,5.35437960997541],[-76.28041256387206,5.3530225893279635],[-76.31145765630475,5.35604928023389],[-76.33095146028774,5.3555873326508845],[-76.35392436601217,5.358551984818803],[-76.3976989666395,5.360309959208848],[-76.40413513064311,5.361084289007806],[-76.42141872526418,5.370829041040224],[-76.43472825241366,5.374408395358444],[-76.44594251510779,5.380489654133271],[-76.44666596477003,5.382695452505175],[-76.44352190697538,5.390918331753483],[-76.44506619980643,5.3983092637390655],[-76.45478857498648,5.399812584448625],[-76.4620501546143,5.403813717441949],[-76.46917219207586,5.41020811639487],[-76.47923971770746,5.426426615834316],[-76.47766836346841,5.431659434213827],[-76.48057195906085,5.435794120752632],[-76.46421124247621,5.4355280091940585],[-76.449977474604,5.43842226549998],[-76.44414031357564,5.43747061678414],[-76.42381630862542,5.443045077597674],[-76.40903789199353,5.443899465476079],[-76.40040654828698,5.4392455460775295],[-76.39111335039752,5.439838568659525],[-76.36349352382581,5.445625599285734],[-76.35184356660085,5.455215944043687],[-76.33531771711472,5.484301713610023],[-76.3242914753103,5.508429738203574],[-76.30079698673495,5.537537394055164],[-76.27948900397831,5.559174009447986],[-76.2496485067274,5.581433909343957],[-76.24875591529474,5.565813091331222]],[[-76.4191859981533,5.4111235845029455],[-76.41566025551515,5.4081741573980935],[-76.41362441035477,5.413428839437074],[-76.41659113380592,5.413937355925782],[-76.4191859981533,5.4111235845029455]]]}}]}