{"type":"FeatureCollection","features":[{"type":"Feature","properties":{"code":"272018"},"geometry":{"type":"Polygon","coordinates":[[[-76.67864965186578,5.650861000052544],[-76.67608949951028,5.649107956015939],[-76.6649125744218,5.647473112934904],[-76.66082821368917,5.637368682672047],[-76.65196093189905,5.627261502353804],[-76.65474098480553,5.623784322771371],[-76.66283043906361,5.629703729376388],[-76.67441440113214,5.624184998834437],[-76.67076194409128,5.6158783909954195],[-76.6703149120101,5.607286733857222],[-76.6677650739046,5.601591959667189],[-76.66231705907023,5.593649418422842],[-76.6560564656312,5.592051375072003],[-76.65438837197513,5.590034416230026],[-76.66345168005148,5.586668837059108],[-76.66294218654241,5.583800784440086],[-76.65688146987844,5.577908020666996],[-76.66176753446456,5.570221430997606],[-76.6619088784621,5.564234281912377],[-76.65362556073234,5.557111736400202],[-76.65094467642422,5.551578350552404],[-76.65302072648797,5.542392618735448],[-76.65741073005273,5.538111622878603],[-76.6657908962145,5.534922165517401],[-76.66888742453813,5.532064538220197],[-76.66840470241624,5.5197962278739965],[-76.66507565763732,5.514863893658969],[-76.65759165057528,5.512008972194053],[-76.65416584272509,5.5133986232657435],[-76.64825095406809,5.517414344716201],[-76.6396286452291,5.528035935527214],[-76.63536982670666,5.529658367363936],[-76.62537999579365,5.528797867451601],[-76.61679491246002,5.522466300165945],[-76.61498356910238,5.523671508299458],[-76.61227440365343,5.532770893110921],[-76.60236262021465,5.532632564506855],[-76.59641331472875,5.534471858875293],[-76.59302197307272,5.5372354032223825],[-76.58864304274857,5.544925464913661],[-76.5854279329456,5.535960281566474],[-76.58424862716538,5.526859293413111],[-76.58761476683753,5.516911028032894],[-76.58826513948816,5.510358601687869],[-76.58614985022854,5.509040552841213],[-76.58793642046277,5.501428126218741],[-76.58486281200913,5.498523080522375],[-76.58347970800253,5.495526771865286],[-76.5842925282912,5.492932532810926],[-76.58079490224304,5.488844253712273],[-76.58229913620954,5.485569880937646],[-76.57993203691296,5.4821323015344205],[-76.58134620296897,5.479249687197807],[-76.57882821984202,5.479940195846154],[-76.57845943372456,5.47642711950607],[-76.58063939144978,5.476084830181662],[-76.5810307611365,5.4736730275741365],[-76.57822765877631,5.470625200117524],[-76.57816226011659,5.465692849447407],[-76.58118129118265,5.462587668836875],[-76.57968271879224,5.461056852716581],[-76.5749627209334,5.461346247185361],[-76.57060917462746,5.448958883304726],[-76.57392301079841,5.44709372052165],[-76.58211217358718,5.43439992807879],[-76.58263365462227,5.420550542654837],[-76.5850175195888,5.414613362506202],[-76.59526475320916,5.412254446526788],[-76.59822718291281,5.406511300571253],[-76.60503629411232,5.405268973890372],[-76.60996669794076,5.400331607506075],[-76.61346012074432,5.400458443265052],[-76.61780433496278,5.398036017874745],[-76.62160823633525,5.399347466177289],[-76.62488652953277,5.406535548160548],[-76.62837247144546,5.409361933430887],[-76.63515612149354,5.409298661590242],[-76.63750813250988,5.411431709995327],[-76.63295795827884,5.421464968950602],[-76.63428055489834,5.429246701894215],[-76.65280120440394,5.430477171661323],[-76.656984587696,5.433539684248672],[-76.67098249256094,5.435939852085994],[-76.69517253943746,5.444152220651688],[-76.69026404657689,5.4653976566197],[-76.69390630146802,5.474029096999857],[-76.69612365439167,5.474731909934519],[-76.69425482109722,5.477975884005161],[-76.69572487271972,5.479738880280024],[-76.69513028381971,5.483097521577747],[-76.69246982026624,5.486676936574099],[-76.69250791274868,5.495668659908915],[-76.69726340113039,5.509604287437185],[-76.70556153871689,5.525002679044178],[-76.69505214070023,5.525057290370398],[-76.69127412419755,5.5273287722806685],[-76.6821713023312,5.527092559602977],[-76.68707439072631,5.530090988908512],[-76.69561335766895,5.531311999061302],[-76.69491673184444,5.540945615538249],[-76.70432716498198,5.544503911467473],[-76.70240316911617,5.551611660777098],[-76.70783289104338,5.553854949992626],[-76.70330415263976,5.554901027215237],[-76.7024415475056,5.557060280335634],[-76.70673821579805,5.5605056903002605],[-76.70775222309754,5.563998516607171],[-76.70248413839562,5.568827195129188],[-76.70566895131043,5.577894250850079],[-76.70848451428014,5.576622895350681],[-76.7092410849337,5.58020098262773],[-76.70805979734473,5.5833172776165725],[-76.70495950389306,5.583492975707998],[-76.70254653914549,5.599971325547983],[-76.69797845047418,5.614074158289327],[-76.69522606369992,5.61759384134416],[-76.69264901609068,5.617064667559021],[-76.68984318218719,5.619218093524182],[-76.68600053321444,5.626563566293555],[-76.6826913497174,5.62860046355064],[-76.68479597299967,5.6346855913262175],[-76.68334579911419,5.6386714540050775],[-76.68584021548082,5.641946075662759],[-76.6860475371513,5.645038227963482],[-76.68257737977439,5.6449533464886485],[-76.68038986608195,5.650111253115085],[-76.67864965186578,5.650861000052544]]]}}]}