{"type":"FeatureCollection","features":[{"type":"Feature","properties":{"code":"272037"},"geometry":{"type":"Polygon","coordinates":[[[-76.59855235278303,5.273977985495378],[-76.59554659068232,5.268876292508594],[-76.59125752977923,5.266950255184383],[-76.58858365842065,5.260203450117956],[-76.58491474321409,5.259169419042621],[-76.5870679562916,5.253021356755539],[-76.58651545640174,5.245584267241213],[-76.595170807042,5.237077713721476],[-76.58426310249382,5.224172601023611],[-76.58566547437107,5.219618247202163],[-76.59875478009553,5.21232982625304],[-76.60573862573585,5.212896464142261],[-76.60978968858507,5.2106149621164946],[-76.61236230052174,5.206926635057414],[-76.62427547321113,5.216069602177527],[-76.62798381581854,5.2162319366868815],[-76.63982959878348,5.20381554398773],[-76.66977375275582,5.187926185235142],[-76.67216685622151,5.185010387172213],[-76.6753871442325,5.1909244757009105],[-76.67750870596308,5.1901631742117615],[-76.68618790927064,5.195783579666397],[-76.68354850204929,5.197479685011388],[-76.6792489890849,5.208067192208887],[-76.68080270759162,5.214325382177776],[-76.6832628819646,5.21751913020114],[-76.68930518539366,5.220238307538011],[-76.70570596804197,5.22153300559728],[-76.70259691123158,5.230066795360244],[-76.70605024020358,5.231563223448063],[-76.70893289876324,5.237916323234742],[-76.70797405506352,5.240644444936208],[-76.70513875216807,5.240759138902774],[-76.7044818046844,5.245666691766871],[-76.6751144825235,5.239366351081401],[-76.65153976617569,5.2707764377639705],[-76.65936752809267,5.269376592770016],[-76.65863989986849,5.272643633777932],[-76.66093296570193,5.273318073011922],[-76.66094280583991,5.2771673832069155],[-76.66582995440444,5.277413391799598],[-76.6674505124189,5.281122372041352],[-76.66674811188972,5.2834623975886075],[-76.66838022445586,5.28444639390699],[-76.6691549594612,5.289442473046222],[-76.67238742114625,5.291282259010188],[-76.67226517121253,5.2936153477126595],[-76.67798734413975,5.2930939211850045],[-76.67895909582148,5.291291677486754],[-76.67861139380409,5.2959601051239815],[-76.68398953728217,5.296763240569419],[-76.690433757076,5.300886434263134],[-76.69148216989157,5.298136021070093],[-76.69426951239859,5.300024998468132],[-76.6952438660399,5.304493878431856],[-76.70055319848592,5.3018092608774054],[-76.69838063423401,5.306355937375429],[-76.69986628218726,5.307407632979505],[-76.70322432184611,5.305186401799119],[-76.70148108298048,5.309810902599452],[-76.70369327415114,5.31151589368784],[-76.70225882618018,5.314136430017413],[-76.70595452820055,5.313786169235016],[-76.70425619936287,5.316896820131319],[-76.7154292482515,5.32176870043827],[-76.71453848333272,5.3243136616693505],[-76.71751412235204,5.323025633059785],[-76.72192460734959,5.3263619499557535],[-76.72359203663183,5.325524003787905],[-76.72169720019673,5.323812052200594],[-76.72610647883118,5.325585267080271],[-76.72439471647726,5.329876223402948],[-76.71352998334288,5.33506653625318],[-76.70816152367962,5.331108470318725],[-76.70442800377094,5.3337663751072455],[-76.67191370303863,5.331264755529219],[-76.65565683240885,5.328364493118954],[-76.65178420845041,5.329236388174365],[-76.65508022582628,5.3418634017875775],[-76.65706831937212,5.3443024066997395],[-76.65660836182536,5.346996251440487],[-76.66094434747527,5.347403044679709],[-76.6632020338576,5.350912596547289],[-76.66115762279946,5.353325088211307],[-76.66457816708083,5.354813682652434],[-76.66333694186187,5.356159113781132],[-76.66439922836702,5.358885194024197],[-76.66142221020624,5.359883769543728],[-76.66211314977204,5.361692372102084],[-76.66857157030023,5.365736182374633],[-76.66921916924139,5.3723761425477505],[-76.67263299985001,5.375959545844182],[-76.67559330993356,5.3766344077680515],[-76.68025630225208,5.382449475794203],[-76.67977454378081,5.387061674365157],[-76.68185083552856,5.386624920538509],[-76.68255460594327,5.390886382158158],[-76.68716395058618,5.390924811969796],[-76.68703924370323,5.39328344101375],[-76.69113137534754,5.395370124144733],[-76.68754507595696,5.398796465756618],[-76.68623393824402,5.397901254880821],[-76.68373171497024,5.403313511797251],[-76.67793721270914,5.404811361192571],[-76.67510431534077,5.4013852756629035],[-76.67108502828006,5.402891915156431],[-76.66931658743056,5.396493818952649],[-76.66501527263483,5.396890651726039],[-76.66260686697291,5.389658667588606],[-76.65961868198332,5.390704556606181],[-76.6579780055763,5.394940729852749],[-76.65453148386536,5.391984994281529],[-76.65005636639773,5.394196566329754],[-76.64599079222461,5.39191564845936],[-76.6477426041871,5.385115826152685],[-76.64415405559276,5.384244680831898],[-76.64053186150142,5.386271136312075],[-76.63917073942514,5.37963618876779],[-76.63641183849597,5.381173217709318],[-76.63393381858845,5.3802645393788],[-76.63755787724608,5.3772918900418745],[-76.63389466475331,5.376785929232824],[-76.63342584203207,5.373886666468707],[-76.62913747018547,5.373685394097095],[-76.6281700266494,5.367987777291944],[-76.62419094552052,5.360125754869273],[-76.62470217915438,5.3558656631350345],[-76.62703825034015,5.354664920498976],[-76.62714195848378,5.3507471345442355],[-76.61412141853981,5.357532376621293],[-76.6144607027552,5.352638525696875],[-76.61290741516592,5.351726346547991],[-76.6132295264481,5.349901149041216],[-76.61176218682851,5.35065514550314],[-76.61281189239634,5.348247583164095],[-76.61039823139316,5.344651804618877],[-76.61186223268828,5.341755912060876],[-76.61022425388603,5.340959231120621],[-76.61114989843281,5.335412531055965],[-76.61260587170563,5.333675255100047],[-76.60533326203182,5.327424114076223],[-76.60334409170667,5.328539097976034],[-76.6040407093036,5.326934076642715],[-76.60234196703203,5.324329731083708],[-76.60414916576633,5.323817696293133],[-76.60334435807329,5.320130910869409],[-76.60854771568842,5.316766598739605],[-76.60895309687601,5.311262543043995],[-76.60707889614002,5.310530932690369],[-76.6043380567184,5.302432043500573],[-76.59505345146619,5.298983772408917],[-76.59276157348387,5.294125747279622],[-76.59399282898102,5.292581696132572],[-76.59283585583012,5.282075856527058],[-76.59653028463862,5.279836454824249],[-76.59855235278303,5.273977985495378]],[[-76.6284536741814,5.282025389824241],[-76.62781738707946,5.283983786063857],[-76.6329232144052,5.280891528862014],[-76.62915583611198,5.2793492404654785],[-76.62553331806123,5.281679624364131],[-76.6284536741814,5.282025389824241]]]}}]}