{"type":"FeatureCollection","features":[{"type":"Feature","properties":{"code":"273030"},"geometry":{"type":"Polygon","coordinates":[[[-76.64735256736185,5.096203351351903],[-76.64370934059258,5.091893161097232],[-76.64612355386936,5.090772409691795],[-76.64839538030787,5.092025181234931],[-76.652083402948,5.089253797070455],[-76.65054400138956,5.084214854503955],[-76.65321022627802,5.08232896449033],[-76.65498335065479,5.0951617560817795],[-76.65190785809443,5.0955744988609695],[-76.64964354031474,5.094042593620088],[-76.64735256736185,5.096203351351903]]]}}]}