{"type":"FeatureCollection","features":[{"type":"Feature","properties":{"code":"273078"},"geometry":{"type":"Polygon","coordinates":[[[-76.38537433878093,4.982663589362801],[-76.38063391193992,4.975160773115533],[-76.35722339980998,4.969822904474995],[-76.35030440261266,4.958789527336364],[-76.34245564195629,4.953265532197236],[-76.32605649556001,4.950793623295112],[-76.30696330696202,4.953370258498865],[-76.29492484220589,4.958559156212175],[-76.28655191833633,4.956260362982391],[-76.2833138177009,4.949434083991889],[-76.28103894193032,4.938420640126196],[-76.28840448989769,4.927327111441571],[-76.2935095880577,4.923037367652626],[-76.29234803113843,4.915831648908636],[-76.29734768514385,4.918415348484075],[-76.29840640398191,4.913746272928108],[-76.29440469814608,4.912869266513383],[-76.29925825777792,4.905793335158421],[-76.29649605554829,4.902822525705119],[-76.28570581456245,4.901011351012073],[-76.28005916839692,4.894208329220703],[-76.27969108162034,4.889880138136618],[-76.27793759946724,4.8889330711322145],[-76.27333641860105,4.886889977508929],[-76.26912699411594,4.888186534992315],[-76.25821548330202,4.886510404057901],[-76.24944889529047,4.879479803363779],[-76.24399707316195,4.87229188798824],[-76.24314367361683,4.867960921137865],[-76.24130176803283,4.866718264326892],[-76.24148377459068,4.848946918500019],[-76.24344159078873,4.842671262491876],[-76.24223039300603,4.833815436523025],[-76.24662847190143,4.81870307020705],[-76.24671768414771,4.809740982471794],[-76.25115497961326,4.80249257822112],[-76.26770432078337,4.81108884483865],[-76.27776784988731,4.810671660216258],[-76.28874695919956,4.806529389942284],[-76.3435919423842,4.804264413959402],[-76.35958053864073,4.796691009531457],[-76.38754673128301,4.776581014213377],[-76.39558093658053,4.77487782495632],[-76.4000467816104,4.7750931520233735],[-76.4014627227582,4.776985886321938],[-76.41147157985785,4.778656254892894],[-76.42872275899919,4.784676501315346],[-76.44481803456978,4.7821142540223605],[-76.45194337230339,4.787313243842107],[-76.45797498198715,4.787968778245727],[-76.48105890293931,4.788610302176949],[-76.49788530549557,4.786542463198259],[-76.50193454491614,4.809915846496381],[-76.49824392545872,4.828977154404754],[-76.49743696420705,4.855042159979348],[-76.49488551556055,4.867333907502143],[-76.48197680125702,4.899332880370935],[-76.46569241773295,4.919401457223444],[-76.44970097988971,4.933777940007076],[-76.42692983813237,4.941350921745141],[-76.42066015428992,4.9507880913027975],[-76.42014080418772,4.957607869508081],[-76.41610164658908,4.960901991464425],[-76.41508988026584,4.966213942325112],[-76.4088527414869,4.96945834731315],[-76.40224826360912,4.9792655525459395],[-76.39518780002959,4.982233221135743],[-76.38537433878093,4.982663589362801]]]}}]}