{"type":"FeatureCollection","features":[{"type":"Feature","properties":{"code":"273017"},"geometry":{"type":"Polygon","coordinates":[[[-76.41089007788895,5.115337476075922],[-76.43111559609821,5.1188398329596225],[-76.43025342908061,5.1240201843156115],[-76.42517991336194,5.128662711656432],[-76.42903279019555,5.140663780185719],[-76.44730516339268,5.15457454203073],[-76.46256392438744,5.151600987664381],[-76.4729933949368,5.156837605110525],[-76.4990438213103,5.154497802735307],[-76.51743056142925,5.156393622361463],[-76.52668683514702,5.148310580442455],[-76.5359431695428,5.147006903051533],[-76.53538861071098,5.1359978681189205],[-76.53785293073577,5.130528424656234],[-76.54446439688047,5.12475839418488],[-76.55512449772158,5.120343895176234],[-76.55940980069568,5.1119373175821465],[-76.57309872337567,5.104245387210767],[-76.5843137244915,5.104205742808574],[-76.59377790712034,5.094521977417571],[-76.59953451333155,5.095839121234803],[-76.60753520785806,5.094131642343996],[-76.61558466495819,5.099937051237987],[-76.6267563789284,5.096400167482045],[-76.63222034182087,5.104547197037675],[-76.6380256571266,5.104888729428353],[-76.64061133028326,5.10820609007186],[-76.65217326002772,5.103181284476193],[-76.65314899178202,5.1042057078415155],[-76.65129640170869,5.108099443667982],[-76.6527135224801,5.113762112967947],[-76.65117807939691,5.11400430501044],[-76.64943828684221,5.119580266321634],[-76.65111511094682,5.126110055618369],[-76.64758671389853,5.138830990716201],[-76.62697320443618,5.15350185591484],[-76.60984028590008,5.172349905982514],[-76.60394546318508,5.175276103656188],[-76.59750753334566,5.175237372510935],[-76.59243087264974,5.172751908736416],[-76.58886575300443,5.168256147342163],[-76.58572424471879,5.168048135586787],[-76.58058385658222,5.169962420898344],[-76.57021122085172,5.178155265511293],[-76.56293450152157,5.173757479721985],[-76.55809373365776,5.173143847151891],[-76.54312964098506,5.183975795595643],[-76.53541574513844,5.186747585994908],[-76.52849723953665,5.197871374543752],[-76.52733757083786,5.203813656795717],[-76.52864979355763,5.20811241179797],[-76.53423456245059,5.21442330944592],[-76.53491356694093,5.217896144887163],[-76.53245376383575,5.22025376605751],[-76.52981416738095,5.219995252632202],[-76.52978815498432,5.22391630389194],[-76.52702455921508,5.224092493578951],[-76.52795548481419,5.225737909049087],[-76.52611739680879,5.227513036831851],[-76.5230588056728,5.225471288411427],[-76.524354667929,5.223813973861354],[-76.5224518003863,5.222471739132004],[-76.5130018349468,5.226024347774057],[-76.51166670881213,5.223451296692474],[-76.5092177269791,5.2227688623463],[-76.50778686210191,5.225122200053534],[-76.50516647283956,5.223656766137935],[-76.5026945711366,5.225782990826872],[-76.49978776988883,5.225446870100711],[-76.49478293664686,5.217984343089142],[-76.48991538916829,5.215491892076159],[-76.489152381493,5.227875835356997],[-76.4831314552701,5.231044234329147],[-76.4843117699524,5.235989405563714],[-76.47951144044845,5.245975508372624],[-76.48505583063121,5.247913659721291],[-76.4856275870788,5.259187892955538],[-76.47037644272939,5.258593207381978],[-76.45924513215198,5.262748402093052],[-76.45484305672892,5.26718153133794],[-76.44955586150814,5.267820504731731],[-76.43872969496817,5.264748714564462],[-76.41382736525827,5.270950465664782],[-76.39911787073021,5.2658641108697],[-76.39436474365249,5.257871282899998],[-76.39393754611376,5.234144812659451],[-76.39749283487703,5.223639213709475],[-76.3935636332103,5.216125188467231],[-76.38623948828189,5.211913709153976],[-76.37918991590863,5.199393409821823],[-76.36242808411589,5.184486546889957],[-76.3563169963943,5.180662768808986],[-76.34628423726207,5.179243701195901],[-76.34007394700348,5.175972635892435],[-76.31999342787645,5.157576202702671],[-76.3321699199031,5.145847931636752],[-76.34594091229604,5.143388877237726],[-76.35137313436707,5.138332449091479],[-76.35892616740557,5.1425663299397115],[-76.36763899049913,5.143366898392628],[-76.37788523990002,5.1278472544411215],[-76.38369884445245,5.124997253045194],[-76.39279307676696,5.12657942238576],[-76.39981212908003,5.125844555983065],[-76.40581645932599,5.122304035654395],[-76.41089007788895,5.115337476075922]],[[-76.47035902708382,5.185052628391759],[-76.47410902572693,5.187856936086575],[-76.47408378980441,5.1849476511500825],[-76.47117082201527,5.18290373580129],[-76.47035902708382,5.185052628391759]]]}}]}