{"type":"FeatureCollection","features":[{"type":"Feature","properties":{"code":"273037"},"geometry":{"type":"Polygon","coordinates":[[[-76.42071006152003,5.117747252651668],[-76.4220537700075,5.11245025020304],[-76.42047360818674,5.109861707691778],[-76.421360365265,5.106996462720815],[-76.41694945860604,5.099557132230302],[-76.4124007745882,5.096515146327192],[-76.40172131228826,5.082207508514216],[-76.39996587815125,5.076258381977311],[-76.40971924236129,5.075349999838181],[-76.42211841070514,5.069005188269728],[-76.42500284435658,5.064287266836345],[-76.42246307984556,5.059003879938189],[-76.42271730055177,5.055168528793558],[-76.43347418194764,5.038139595052087],[-76.44079544929394,5.032978664804659],[-76.44273965816899,5.026971000347999],[-76.44804636191594,5.022244867829556],[-76.45830734684125,5.021741610795857],[-76.46857732652484,5.018486436986166],[-76.48230969987276,5.000733492052859],[-76.49073973932605,4.993851054958668],[-76.53419608121686,4.9960863984272805],[-76.54184692942334,5.000307380549373],[-76.55590062935181,5.0017287744994405],[-76.58107709967106,5.007268865792469],[-76.58425932091069,5.006802179146348],[-76.59230653703457,5.00136535685192],[-76.5955167339676,5.00293399086047],[-76.59856256316039,5.0022706917158075],[-76.60540158249677,5.006191786170177],[-76.60690744448777,5.002745651153589],[-76.60957002971816,5.00537218433152],[-76.6130059615565,5.004590402437998],[-76.61732296627127,4.993953995884112],[-76.62119003355474,4.990665766903419],[-76.63160479634769,4.9912741266487615],[-76.63608486782289,4.9867916342198555],[-76.64103293618007,4.990674453128918],[-76.64145860751012,4.998784259236061],[-76.64454890552895,5.001211414433499],[-76.65045741270012,5.001264948980406],[-76.6590787548032,4.995491723138116],[-76.6964129974383,4.995669015315457],[-76.70655829492159,4.989692438619272],[-76.70957438875581,4.990725126548739],[-76.7116291480026,4.993652763013472],[-76.71626152461573,4.993906794486293],[-76.71666933498454,4.997420731632758],[-76.71889389934717,4.996994137789784],[-76.71945321266872,4.998662860852676],[-76.7166266145108,4.999298862047567],[-76.71662859734795,5.000779573476791],[-76.71942618417091,5.0017068984986395],[-76.72309752650176,5.000207807773165],[-76.72476028871188,5.002800040336183],[-76.72194037645875,5.003515734513428],[-76.72592010344948,5.007068895429143],[-76.72210837151573,5.005448163607923],[-76.72165513484083,5.0078549864967385],[-76.72527345273232,5.012770664056745],[-76.72317436966989,5.013272463787359],[-76.72085566167914,5.017572794363616],[-76.7181137794168,5.016682779179462],[-76.71679729894498,5.022761141860144],[-76.71220262811988,5.024389039868879],[-76.71090714535899,5.029913499864051],[-76.70653057633882,5.0314555866858655],[-76.70236451510408,5.035273816319489],[-76.70200098535634,5.037200835806345],[-76.70443006168443,5.0392481758687495],[-76.703427816682,5.041477789884084],[-76.69702437977617,5.0420877704548275],[-76.69489756887504,5.051422178036034],[-76.70790023757331,5.050040523104883],[-76.7083414455845,5.051082938043692],[-76.69708112820592,5.055791036822598],[-76.69799302967533,5.059681196754411],[-76.69404496740128,5.063344518262056],[-76.69540300414997,5.065695349654845],[-76.69308221047777,5.068337864829516],[-76.69039451788018,5.068835865493497],[-76.69245885809744,5.072968519829885],[-76.69052178352808,5.0745792366778915],[-76.69101577532308,5.079870687593825],[-76.68906190731587,5.079480687792511],[-76.68878088128389,5.08183050308412],[-76.68657430746629,5.082639609666899],[-76.68726821923093,5.08533365289702],[-76.68292942387609,5.087822261648739],[-76.68563601410494,5.093525315829538],[-76.68105780041708,5.103027625907885],[-76.67808897585786,5.105134032509511],[-76.67713263127348,5.109149381663769],[-76.67920729396832,5.110317210025528],[-76.67805475134776,5.112778332622497],[-76.68046830950664,5.11554017901102],[-76.6791525448308,5.1212623447391366],[-76.68154399353244,5.125195206632725],[-76.680765458432,5.12718402523052],[-76.66680332588322,5.134929164132473],[-76.66244333535644,5.14239641066672],[-76.65526068149285,5.1409122549835615],[-76.64877387800806,5.13577356377715],[-76.65111511094682,5.126110055618369],[-76.64943828684221,5.119580266321634],[-76.65117807939691,5.11400430501044],[-76.6527135224801,5.113762112967947],[-76.65129640170869,5.108099443667982],[-76.65305139258697,5.103522790127386],[-76.64061133028326,5.10820609007186],[-76.6380256571266,5.104888729428353],[-76.63222034182087,5.104547197037675],[-76.62817124226848,5.096887983479746],[-76.6248538209469,5.096497766677089],[-76.61558466495819,5.099937051237987],[-76.60753520785806,5.094131642343996],[-76.59953451333155,5.095839121234803],[-76.59377790712034,5.094521977417571],[-76.5843137244915,5.104205742808574],[-76.57309872337567,5.104245387210767],[-76.55940980069568,5.1119373175821465],[-76.55512449772158,5.120343895176234],[-76.54446439688047,5.12475839418488],[-76.53785293073577,5.130528424656234],[-76.53538861071098,5.1359978681189205],[-76.5359431695428,5.147006903051533],[-76.52668683514702,5.148310580442455],[-76.51743056142925,5.156393622361463],[-76.4990438213103,5.154497802735307],[-76.4729933949368,5.156837605110525],[-76.46256392438744,5.151600987664381],[-76.44730516339268,5.15457454203073],[-76.42903279019555,5.140663780185719],[-76.42517991336194,5.128662711656432],[-76.43025342908061,5.1240201843156115],[-76.43111559609821,5.1188398329596225],[-76.42071006152003,5.117747252651668]],[[-76.64370934059258,5.091893161097232],[-76.64735256736185,5.096203351351903],[-76.64964354031474,5.094042593620088],[-76.65190785809443,5.0955744988609695],[-76.65498335065479,5.0951617560817795],[-76.65321022627802,5.08232896449033],[-76.65054400138956,5.084214854503955],[-76.652083402948,5.089253797070455],[-76.64839538030787,5.092025181234931],[-76.64612355386936,5.090772409691795],[-76.64370934059258,5.091893161097232]]]}}]}