{"type":"FeatureCollection","features":[{"type":"Feature","properties":{"code":"274019"},"geometry":{"type":"Polygon","coordinates":[[[-76.87843265149093,4.619788209765261],[-76.8801386247419,4.619402113931756],[-76.87948991405437,4.617514091956821],[-76.88132658075216,4.616322480861811],[-76.87890738775667,4.616186970190199],[-76.87859480602287,4.611624620228156],[-76.87684843246444,4.612771821118315],[-76.87774396215735,4.614165547907703],[-76.8758617909919,4.614657843801012],[-76.87456435316176,4.612049800991144],[-76.86934506291516,4.611308162294506],[-76.87046652703123,4.607892331365235],[-76.8668818896038,4.609689233333029],[-76.8664123942811,4.606722203406036],[-76.86309877305467,4.604563450108628],[-76.8617981131141,4.609485014473648],[-76.85850599764916,4.608246883838206],[-76.8607886463883,4.613800363395967],[-76.85666801248806,4.612742731621665],[-76.85657922807383,4.609573186964553],[-76.85501025879302,4.611506100455415],[-76.84820359425828,4.606760718578357],[-76.84882912590831,4.611683781384045],[-76.8473949802995,4.6116606712522525],[-76.84800160609069,4.609818455078596],[-76.84672436584316,4.6092108368403615],[-76.8465005520685,4.611547270037931],[-76.84318483693306,4.611052639580066],[-76.84284830071607,4.613051866016178],[-76.84417065050934,4.613547478636576],[-76.8431164053963,4.614895788375918],[-76.83803332413373,4.613163242227188],[-76.83821193580286,4.615276172239646],[-76.83619575240652,4.615478167606341],[-76.83465253738325,4.609071577495797],[-76.82746374886,4.609564045138995],[-76.8274867798018,4.607068630154686],[-76.82410406266467,4.605516795754681],[-76.8269496705542,4.604193182005531],[-76.8251700196812,4.601213640046808],[-76.82366924950912,4.602898958058233],[-76.82190071301437,4.600941729100839],[-76.82080166071768,4.603639452098378],[-76.82022114193978,4.601166611427345],[-76.81784656380921,4.600335196897902],[-76.8195266275078,4.601840619743939],[-76.81730763627525,4.60404133349607],[-76.81271779090247,4.600624771344144],[-76.81426405628622,4.598174858770619],[-76.81107232401018,4.599512156975891],[-76.80858673887946,4.597891824190356],[-76.8084968344914,4.599982635489653],[-76.80598722700029,4.600790647809561],[-76.80439868851522,4.598946620548645],[-76.79985183203974,4.599279606582002],[-76.79793648023326,4.594078239003181],[-76.79596979680383,4.596645447502851],[-76.79373622842701,4.593983509162797],[-76.7955916024942,4.591704696514228],[-76.79175174471442,4.594457209786924],[-76.7908996245518,4.5920377576239275],[-76.78823834132959,4.59259496880901],[-76.78259314732492,4.58843350162698],[-76.78122970713923,4.589474995081275],[-76.78139791919762,4.586432560777212],[-76.77913605219646,4.585129039709614],[-76.78091671197154,4.584050444162983],[-76.77754280858682,4.581480985431085],[-76.77602123919326,4.583657607917246],[-76.77517861464037,4.580865880131341],[-76.77658498304521,4.578644546106716],[-76.7708688830711,4.577230208300762],[-76.77307375070257,4.57668642240435],[-76.77216633838475,4.574240077497905],[-76.77398422160837,4.5721508674836855],[-76.77025047749925,4.5725716465126425],[-76.77180254124198,4.570148729526807],[-76.76794821841816,4.567667867004161],[-76.76752831767908,4.565055061476983],[-76.76933488803502,4.563254840725165],[-76.7664787941456,4.5581839701606555],[-76.7642742278478,4.5581385531105525],[-76.76016277074012,4.561496979463811],[-76.75910882593229,4.560944870382059],[-76.76002019364,4.557892026182856],[-76.75573453585321,4.555413567130358],[-76.75359586083914,4.555053370564792],[-76.75002822356652,4.55763509038843],[-76.74633359935393,4.5549670430997935],[-76.74286466479515,4.556512947500266],[-76.74050807001043,4.560531975393417],[-76.73472127181225,4.557833821478539],[-76.7349567954335,4.555162292911973],[-76.73292220702984,4.556863697821257],[-76.72875737067011,4.554598653961136],[-76.72686299806264,4.555230164975967],[-76.72566707162287,4.553332830453996],[-76.72183253089088,4.553967297212694],[-76.72234855603841,4.551432088701972],[-76.71945217188494,4.549891657672617],[-76.7189813570705,4.547689530840444],[-76.71604344132277,4.549260947814503],[-76.71179300049312,4.546972594304691],[-76.71323086906386,4.542549048087153],[-76.70989175171894,4.542450130428847],[-76.70813078147586,4.544288831385927],[-76.70574520826631,4.54091129245694],[-76.7024203852439,4.542603392018293],[-76.70221708684056,4.540258266424587],[-76.69693250180688,4.540728553647966],[-76.69616987157002,4.5386296258803895],[-76.6944806156522,4.539169621966153],[-76.69205094488433,4.536227079255525],[-76.69369040567227,4.532883833742289],[-76.68978626200754,4.5330834194681415],[-76.68978777793183,4.530332195862343],[-76.68817772442924,4.530242583551967],[-76.68869107871154,4.522290099325346],[-76.68436113310457,4.519607152989977],[-76.68547810704064,4.514142982352098],[-76.68713096637771,4.513185284337396],[-76.6839744500304,4.513143477120536],[-76.68109406741405,4.510681630500073],[-76.68028255530425,4.50339034019629],[-76.6753249923658,4.500465081490631],[-76.67637014810384,4.498549659750097],[-76.67211911180601,4.493982897769627],[-76.66937220560197,4.49475789194247],[-76.6677595665949,4.492377550420031],[-76.66345130981216,4.4915895279373785],[-76.66246090321158,4.489341190097548],[-76.66099213508534,4.490432295618916],[-76.65888416010893,4.48924307256749],[-76.66246301460404,4.48545705272511],[-76.66718077148664,4.484463561825407],[-76.6663900359726,4.476388299045595],[-76.67444963351596,4.472572275421214],[-76.67909345258056,4.46692484146871],[-76.67855247536068,4.46395008896684],[-76.68147121888296,4.455377292435969],[-76.66710375656868,4.445493573136673],[-76.66620445249168,4.436198507595577],[-76.6640254974979,4.431122846545804],[-76.65992927265239,4.428929990094559],[-76.66072900395318,4.424977652584914],[-76.65642068649231,4.4204886809681625],[-76.65379634081165,4.4082340283385975],[-76.64648181182076,4.403185595304478],[-76.64716306654338,4.3921842212402],[-76.64521220467361,4.390377910051768],[-76.6408177386968,4.391688893498326],[-76.6384884140939,4.382310972514176],[-76.65258699833925,4.380884208037287],[-76.65867126325156,4.383371853138385],[-76.6647427847326,4.389675768690097],[-76.67585793127898,4.388497712467483],[-76.67823811853503,4.3909935079755655],[-76.67627734762164,4.395098915784331],[-76.67851699203686,4.396799072164356],[-76.68671211053623,4.391898903517529],[-76.68874678532904,4.388041105586467],[-76.68725330372911,4.384305769448304],[-76.68888433848747,4.382295107759887],[-76.69502097477817,4.38287608419472],[-76.69891196157778,4.385351232690709],[-76.7025938958381,4.385141251467928],[-76.70436178647094,4.379329180323282],[-76.70754310062426,4.382670605493217],[-76.7106313407296,4.380785247184406],[-76.71391003913345,4.38109494208004],[-76.71692029038576,4.382328695664114],[-76.71891152890879,4.387941129660817],[-76.72146356273907,4.385862831421662],[-76.72458679457276,4.391379164664102],[-76.72512075987157,4.397163833986269],[-76.72160976921288,4.400703362896365],[-76.72316162623866,4.4024368130461085],[-76.72784263275628,4.399695956140931],[-76.74855373627145,4.407959153421302],[-76.7596351910409,4.404441960225768],[-76.7652400248474,4.411403263434522],[-76.77446726254749,4.4092667851736564],[-76.77800014771896,4.413463392179665],[-76.78197810167478,4.410531756101932],[-76.7804004204574,4.401525808378608],[-76.78167786947876,4.394831553639619],[-76.78395568248118,4.3936890486180005],[-76.78849182052875,4.395056324894256],[-76.78801741439304,4.3913973814663905],[-76.78964946525264,4.388379468317339],[-76.79160467949112,4.387936502697926],[-76.79325184434197,4.389583537964995],[-76.79183889184816,4.394699739190401],[-76.80111659625106,4.398702490952303],[-76.79802274702018,4.400782385334196],[-76.79433542783477,4.399279952170559],[-76.79431801424607,4.400703871975452],[-76.80012911865475,4.402616812084204],[-76.8018247519446,4.409533310166182],[-76.8056829972482,4.408204310463589],[-76.80467542594192,4.416337097118742],[-76.79917185258586,4.420101481615859],[-76.80268275685535,4.425924433682326],[-76.80817067423101,4.424336990488541],[-76.80892006018513,4.420844662976265],[-76.81171111639804,4.424541261798538],[-76.81357271974161,4.421577229781462],[-76.81848824303523,4.420838123110286],[-76.82075528824453,4.417853963444713],[-76.8222719550526,4.421285905954505],[-76.82917154039734,4.418029368430041],[-76.83048503838586,4.419898235663084],[-76.8292894821854,4.425298635665683],[-76.83467008055572,4.428041500090671],[-76.83562224554976,4.426194130391593],[-76.83384208662613,4.422711298489048],[-76.83752533009385,4.420945794871329],[-76.83661596167838,4.418245013285798],[-76.84114891258258,4.415383379176546],[-76.84359498186637,4.417648226604172],[-76.84591886909368,4.423964112198291],[-76.85140218521747,4.421823729969674],[-76.8581574430529,4.4282019144978335],[-76.8562385750015,4.419967469385028],[-76.86495795647295,4.4185380350713785],[-76.86718191713976,4.422762524182474],[-76.87246337365133,4.41752521665137],[-76.87454655082178,4.4191505476675275],[-76.87490901304614,4.429404389031163],[-76.8769715360055,4.431800318656826],[-76.88144193086504,4.431213190078893],[-76.88285639825472,4.434025916604128],[-76.88299807752458,4.436543726952777],[-76.87919512643299,4.437233339827685],[-76.87935541125643,4.440055407696377],[-76.88552631525187,4.43879841542514],[-76.89046511117124,4.428495158426983],[-76.89287225184881,4.428901426132029],[-76.89321594602575,4.43219077508661],[-76.89726189237336,4.431085286796588],[-76.89671710580234,4.425359087516938],[-76.9027658801918,4.425289217189118],[-76.90559932983382,4.423341017957057],[-76.90731818329886,4.42498564872551],[-76.91045379552355,4.424560365118282],[-76.90634492289195,4.433503868897219],[-76.91008675055929,4.436733204117047],[-76.91370919456216,4.431515655023645],[-76.91678420066921,4.43038946110039],[-76.9140750177367,4.427586919241378],[-76.91797886932375,4.424643290495453],[-76.92164120044129,4.424897908180469],[-76.921379440223,4.41864422484673],[-76.92493788219105,4.427924539436788],[-76.9295521983251,4.422818306904674],[-76.93444614592312,4.428647119036668],[-76.9400702650837,4.426130308334166],[-76.93859378466703,4.423165026759477],[-76.94334767896288,4.417557020207823],[-76.94270361375021,4.423238887444256],[-76.94778563366003,4.4263227504982865],[-76.94617661374224,4.430858500823035],[-76.9476231181448,4.431432109495631],[-76.95092035011129,4.429043296692157],[-76.95534178596478,4.429560614591935],[-76.95896065612988,4.436324342679995],[-76.96257823251432,4.438092284734921],[-76.96584274149672,4.4368500516422955],[-76.96987887341743,4.440386022141297],[-76.97319349326159,4.4377391031757725],[-76.96956780760792,4.431273066002348],[-76.97303137266829,4.427298541902246],[-76.97589299135086,4.431662041474851],[-76.98069796427285,4.429739183066488],[-76.99293183413602,4.435339657305121],[-77.00280088784496,4.436382710906685],[-77.00629166446595,4.4415257699084805],[-77.00193825597137,4.441978833805024],[-76.99435155686695,4.43784537831192],[-76.98870880952705,4.438374561353044],[-76.98676298085496,4.444278732610542],[-76.98801161497386,4.447881334871909],[-77.00829926550944,4.4545709688187],[-77.0122366875172,4.457414800587912],[-77.0141819999111,4.463066294831492],[-77.01228396604824,4.465921586535728],[-76.9984287472983,4.474270640254417],[-76.99007219006302,4.484354364884041],[-76.98574920598344,4.4918604649482745],[-76.9849069084753,4.500716442098167],[-76.98920091515845,4.503471387637433],[-77.02116871490608,4.507710945488327],[-77.03128454648277,4.515326062516408],[-77.03385860338113,4.519710361310501],[-77.02949021047903,4.526539953942745],[-77.02318935248695,4.531892402812957],[-77.01141804213012,4.530599161028249],[-77.00249708798185,4.532629001112809],[-77.00336791551393,4.55288802803625],[-76.99150055582493,4.5771366930509885],[-76.98818783962787,4.588927304188587],[-76.98515245426887,4.589895885182045],[-76.98303740463632,4.588788552894584],[-76.97650804522857,4.581357244255685],[-76.97195670680054,4.573096485412577],[-76.96685268027767,4.571757266076645],[-76.96262109079942,4.5725177581815615],[-76.96027567107109,4.574132602169357],[-76.95392669945267,4.5891063375191266],[-76.95144294906339,4.591458968686368],[-76.94500392598962,4.594227192446965],[-76.92158701077653,4.599053570343074],[-76.91930825777763,4.602091908360535],[-76.92079493725879,4.604850562463469],[-76.90850301181541,4.604569266979524],[-76.90726166729712,4.6056264770924145],[-76.90823889852066,4.607928003922439],[-76.9057950105634,4.605058753167896],[-76.90590904941212,4.599323998274883],[-76.9033895513893,4.60037889850588],[-76.90274970587632,4.603021726327029],[-76.89925238116183,4.60351091221014],[-76.89703472690451,4.599925456142444],[-76.89492712319583,4.603320296559957],[-76.89169442805428,4.601698257588282],[-76.8903399743993,4.603206368783049],[-76.89327257515612,4.60430119829482],[-76.89462639940427,4.607660323988966],[-76.89270813299169,4.608716845045365],[-76.89278139923675,4.614452012343747],[-76.89180376280689,4.6152061198774845],[-76.89016851349106,4.613527591643617],[-76.88982829339301,4.6165835283694605],[-76.88558003903216,4.613525377406859],[-76.88753510517489,4.615565696292208],[-76.887008172366,4.618318735099024],[-76.88324664796755,4.616883899405252],[-76.8849702055287,4.619127841681745],[-76.88174237903405,4.620922253790241],[-76.87843265149093,4.619788209765261]]]}}]}