{"type":"FeatureCollection","features":[{"type":"Feature","properties":{"code":"274018"},"geometry":{"type":"Polygon","coordinates":[[[-76.97337663624847,4.922506404377543],[-76.96871870386718,4.919073737844201],[-76.96760269461015,4.915944035050245],[-76.95904812208079,4.912135835816514],[-76.9576527919495,4.908032442726608],[-76.95500124499262,4.9065350160211665],[-76.95576006484998,4.903685055762935],[-76.95356340110447,4.898535139106457],[-76.95290743578346,4.899250903217762],[-76.95201549844023,4.899136191767695],[-76.95284947276309,4.897670594329725],[-76.94965992901274,4.896562667602495],[-76.94832493863242,4.898662628954867],[-76.94242654927876,4.900173670182369],[-76.93604866916957,4.899313036572551],[-76.93202812432366,4.895749046157107],[-76.93010378392961,4.890667197997118],[-76.92368942907802,4.888886960911918],[-76.92266225565737,4.885935025435742],[-76.92086954973507,4.886954229455284],[-76.91891450107585,4.884839979951039],[-76.91738070350073,4.885866542476833],[-76.91542815292831,4.884878461184769],[-76.91463353093002,4.882613079995508],[-76.91260780770091,4.883630982006878],[-76.91335486834652,4.882214301408908],[-76.91021021611209,4.881332849037165],[-76.90916826602933,4.878729796230402],[-76.90695099126731,4.880775870280104],[-76.9004336687508,4.878861404991085],[-76.898881114441,4.880928950863677],[-76.89320498591383,4.882883991295387],[-76.89344805727467,4.884084813121547],[-76.89094302635277,4.883684369486446],[-76.89005639680141,4.885929778322009],[-76.88954580902947,4.884549974587401],[-76.88766156143856,4.885639496307306],[-76.88719537358702,4.889376282549449],[-76.88390245799377,4.891297590066529],[-76.88099775888253,4.889940248544974],[-76.87569141714738,4.880699218402299],[-76.87140288177841,4.876483147093154],[-76.86477344977135,4.877838436871855],[-76.86333459800954,4.875305685310366],[-76.86857380918775,4.868911846858623],[-76.87264443301365,4.855797887310075],[-76.87414120357278,4.8310338008435],[-76.87991656034791,4.820546616156832],[-76.88124364817588,4.813143647280015],[-76.87982012432138,4.807458954911965],[-76.86836468568595,4.791724908463209],[-76.86821842984693,4.78289940715041],[-76.87232780230164,4.777991767897163],[-76.8728900466844,4.773137413279187],[-76.86407617705652,4.762553335937525],[-76.85939703921889,4.754702524566767],[-76.85885014228387,4.750817879143767],[-76.86274378246515,4.747980362011617],[-76.86798929182532,4.747423477871223],[-76.87347392641243,4.742641139940645],[-76.87424674131557,4.739980614680633],[-76.87284766251128,4.729777999010423],[-76.86442280949365,4.7170171089208],[-76.86570437742733,4.7094992126208695],[-76.86887492995811,4.7042431648102365],[-76.87411513049801,4.7010043607201055],[-76.87990332532115,4.700883980494837],[-76.88422886816574,4.704919250580701],[-76.88779066182792,4.714486986058375],[-76.89193379393674,4.71846243987045],[-76.89778299288474,4.7195039857753045],[-76.90204906501225,4.716141862171185],[-76.89614057532458,4.709599475482037],[-76.89729934002236,4.704892410287869],[-76.89979814063946,4.702386593635936],[-76.90930399267387,4.700128313842242],[-76.91746972034292,4.694321396223074],[-76.92703524055537,4.699213775446253],[-76.93103171778944,4.696052625965422],[-76.93073409475204,4.688463245711375],[-76.92671618786119,4.6817667335409965],[-76.92671618786119,4.678790507281008],[-76.93624011682977,4.672093994082218],[-76.93981159019296,4.666141539505304],[-76.94202430586927,4.652712690397948],[-76.94186533950915,4.641810673136945],[-76.93756685293039,4.628082487606946],[-76.92622763447025,4.610405928184832],[-76.92079493725879,4.604850562463469],[-76.91989904555408,4.600235146924376],[-76.95144294906339,4.591458968686368],[-76.95392669945267,4.5891063375191266],[-76.96027567107109,4.574132602169357],[-76.96685268027767,4.571757266076645],[-76.97195670680054,4.573096485412577],[-76.97650804522857,4.581357244255685],[-76.98303740463632,4.588788552894584],[-76.98515245426887,4.589895885182045],[-76.98818783962787,4.588927304188587],[-76.99150055582493,4.5771366930509885],[-77.00336791551393,4.55288802803625],[-77.00249708798185,4.532629001112809],[-77.01141804213012,4.530599161028249],[-77.02318935248695,4.531892402812957],[-77.02949021047903,4.526539953942745],[-77.03385860338113,4.519710361310501],[-77.03128454648277,4.515326062516408],[-77.02116871490608,4.507710945488327],[-76.98920091515845,4.503471387637433],[-76.9849069084753,4.500716442098167],[-76.98574920598344,4.4918604649482745],[-76.99007219006302,4.484354364884041],[-76.9984287472983,4.474270640254417],[-77.01228396604824,4.465921586535728],[-77.0141819999111,4.463066294831492],[-77.0122366875172,4.457414800587912],[-77.00829926550944,4.4545709688187],[-76.98801161497386,4.447881334871909],[-76.98733991551069,4.44138690651431],[-76.98870880952705,4.438374561353044],[-76.99151779663532,4.437604263048684],[-77.00479514278993,4.4419556300849194],[-77.00774893769017,4.440268579147869],[-77.00851951264548,4.437870460996464],[-77.01129012136431,4.439360934402089],[-77.01373594999257,4.446041728885405],[-77.01942776843885,4.44542914738355],[-77.02118030339636,4.4471697236114665],[-77.03070956586782,4.44592304456188],[-77.03371968856482,4.452605890787993],[-77.03944732560711,4.455623499518083],[-77.04659153217563,4.465755150597602],[-77.05549422015628,4.469938797170926],[-77.0623012631579,4.476706850888206],[-77.06363769130081,4.481192015210809],[-77.06243432819315,4.486071968791464],[-77.05740872761146,4.487754263181898],[-77.05660639640797,4.490294692066811],[-77.0603025365449,4.510469346594448],[-77.0688175253502,4.512803211771029],[-77.07632380642025,4.512317343643474],[-77.08129953371048,4.504250860677473],[-77.0962175974098,4.4973720611844215],[-77.11103413532055,4.498281738132675],[-77.11345308663203,4.5041488155254115],[-77.13099054097597,4.502529475186918],[-77.13875189635957,4.504147117566788],[-77.14651279408622,4.503640865708519],[-77.16021030528964,4.522017832538268],[-77.158594841151,4.526727190130828],[-77.14959476994824,4.5326735141619],[-77.15051886360368,4.543868156229621],[-77.14259492379921,4.553519738568923],[-77.1426726956509,4.558460697302905],[-77.13405596405568,4.566182262245434],[-77.13490353438863,4.58023373148211],[-77.13313472329975,4.587259607511271],[-77.13405764453074,4.588726427767369],[-77.14375260246169,4.591118489420751],[-77.14299690906961,4.605366466254793],[-77.13673623849735,4.614703648573936],[-77.12300137426166,4.626177715388678],[-77.11778211075455,4.642898704643642],[-77.10112944196453,4.657824506344468],[-77.10168643820515,4.663764187665265],[-77.10680128702865,4.671473394842508],[-77.10540690512136,4.67661164690395],[-77.10247450285397,4.677803358786321],[-77.09532654864097,4.676649506958427],[-77.08925974051192,4.672619131230476],[-77.07762384620997,4.66855722551179],[-77.07509006209216,4.665751582898622],[-77.06624812009733,4.670011296166024],[-77.06260138531059,4.670066277731507],[-77.05085731119698,4.679471730121918],[-77.05365939745593,4.683199192504105],[-77.05816355196959,4.685647123268893],[-77.05697094225695,4.700771225142432],[-77.05197486311772,4.701859299843704],[-77.05720312343999,4.706289283082924],[-77.05743581884428,4.708737325947936],[-77.05367878462584,4.710445624507429],[-77.05364058724228,4.707687982391917],[-77.04318281909696,4.706638122557763],[-77.03698566102094,4.712155456474704],[-77.03884008686413,4.722140488674995],[-77.03755050633481,4.729420568955277],[-77.03351782998101,4.733545804107337],[-77.03394783619626,4.7367737344747525],[-77.03069550397328,4.738399643475589],[-77.01309798447244,4.736153630944273],[-77.00499531164269,4.731015232844015],[-77.00245532293116,4.733886655669153],[-76.9939280822901,4.736697651325642],[-76.99102453709133,4.745352442493186],[-76.99150744021915,4.750206504005007],[-76.98001502907516,4.76812275635433],[-76.97203154039198,4.770062150061506],[-76.96687156762454,4.766097482554585],[-76.96445228721143,4.766016265420433],[-76.96509852449469,4.760677997744153],[-76.963889490555,4.759222282610381],[-76.94727734548559,4.769572723522856],[-76.94344576049741,4.774950867000882],[-76.93548558866303,4.774174020603084],[-76.93252987057531,4.778834962207156],[-76.93632886936223,4.78621566530353],[-76.93521936500417,4.8201638802450475],[-76.94061100164811,4.831480636492188],[-76.95086773807736,4.839822190807979],[-76.96959410591154,4.840684487409362],[-76.98543244671612,4.847342249922519],[-76.98906996974324,4.850886112689409],[-76.9901407090174,4.849812410472339],[-76.9940016066742,4.856905203142446],[-76.99846479009483,4.854434403929815],[-76.99892689297269,4.858139852499903],[-76.99425596622018,4.867094333874263],[-76.99406163789246,4.8713676873748],[-76.98807502359733,4.872392672269768],[-76.98626446391285,4.870249326069768],[-76.983340757127,4.870063319898975],[-76.98213381812468,4.8720661397131835],[-76.98380445409072,4.875416993644194],[-76.97879074641827,4.881702032133433],[-76.97588809596448,4.889312315481675],[-76.97161813015362,4.893316039121714],[-76.97486601539117,4.89922893157177],[-76.97050232041448,4.905793488396341],[-76.97774030757097,4.918037672509513],[-76.97337663624847,4.922506404377543]]]}}]}