{"type":"FeatureCollection","features":[{"type":"Feature","properties":{"code":"274017"},"geometry":{"type":"Polygon","coordinates":[[[-76.70475061384775,5.245357488466766],[-76.70513875216807,5.240759138902774],[-76.70797405506352,5.240644444936208],[-76.70893289876324,5.237916323234742],[-76.70605024020358,5.231563223448063],[-76.70259691123158,5.230066795360244],[-76.70570596804197,5.22153300559728],[-76.68930518539366,5.220238307538011],[-76.6832628819646,5.21751913020114],[-76.68080270759162,5.214325382177776],[-76.6792489890849,5.208067192208887],[-76.68354850204929,5.197479685011388],[-76.68618790927064,5.195783579666397],[-76.67750870596308,5.1901631742117615],[-76.6753871442325,5.1909244757009105],[-76.67236135732753,5.18502747268775],[-76.66977375275582,5.187926185235142],[-76.6378973229269,5.206055257308606],[-76.63335286066558,5.204788811593744],[-76.6268028994973,5.190095396764491],[-76.62286978563526,5.185927339322802],[-76.61467615837756,5.190791248171706],[-76.61034638452043,5.196583802562714],[-76.6059522106213,5.197010172205239],[-76.60484430137757,5.192040115747034],[-76.60015342798243,5.195441134018779],[-76.59572656298093,5.195015005031792],[-76.59265752081205,5.20081485827933],[-76.59147718864614,5.199275838273081],[-76.58738761782377,5.203546166095691],[-76.5862878857265,5.202894346426433],[-76.58475501889188,5.204943365935492],[-76.58154931111045,5.204103541831557],[-76.5771507262213,5.2085918768424335],[-76.57523916422554,5.2080359481251435],[-76.57476662676987,5.211024882849358],[-76.5721676321973,5.21096846969192],[-76.57170601165899,5.214316506718831],[-76.56829527357706,5.215925714841603],[-76.5663006741039,5.220191149334767],[-76.56259076415012,5.218073705488052],[-76.56136690109776,5.220105621998016],[-76.55957514339946,5.218939405205731],[-76.55503855695093,5.223621335264738],[-76.55329261225302,5.221927503806171],[-76.55150732551505,5.2238566182304],[-76.55264206682403,5.225969666513777],[-76.54481894832503,5.231558974952009],[-76.54089838146172,5.237544123716532],[-76.53583148171373,5.239642027155412],[-76.53124653172733,5.237651977511916],[-76.53406404873789,5.234031558512413],[-76.53589559790566,5.217799165842962],[-76.52760456994235,5.205976174192699],[-76.52775710750831,5.200337105591643],[-76.53541574513844,5.186747585994908],[-76.54312964098506,5.183975795595643],[-76.55809373365776,5.173143847151891],[-76.56293450152157,5.173757479721985],[-76.57021122085172,5.178155265511293],[-76.58058385658222,5.169962420898344],[-76.58706598990955,5.16798973342145],[-76.59750753334566,5.175237372510935],[-76.60663816326928,5.174254713167841],[-76.61686246570684,5.165815360139106],[-76.62697320443618,5.15350185591484],[-76.64656527095963,5.13985240794409],[-76.64877387800806,5.13577356377715],[-76.65526068149285,5.1409122549835615],[-76.66244333535644,5.14239641066672],[-76.66914161130575,5.133160334531624],[-76.67597576199523,5.130980342867815],[-76.680765458432,5.12718402523052],[-76.67960660014597,5.130757459833603],[-76.69040686638948,5.1155486317800865],[-76.69648564147565,5.126148090508082],[-76.70029956296355,5.127853225578349],[-76.70566528079905,5.124763823332955],[-76.71841614871641,5.121517643253071],[-76.72419337417159,5.1168033234253585],[-76.73107682016791,5.1172638579283785],[-76.74322988427394,5.1111572501023375],[-76.76516009840861,5.088286777252733],[-76.77212671249453,5.075940470854334],[-76.77402381356006,5.068353290438836],[-76.77140933578534,5.067692171592341],[-76.76287977703487,5.075729616483841],[-76.75866964292442,5.076385702132654],[-76.75599044629047,5.073433163989193],[-76.75577175930175,5.067364080945367],[-76.7504133907164,5.063536709486186],[-76.74896522435074,5.049292023668215],[-76.73752080650536,5.04662623483938],[-76.73522923191359,5.0476434303107],[-76.7309600055529,5.0421917449650095],[-76.7267476407506,5.044134843122208],[-76.72466616976635,5.0427050210856805],[-76.72797375197831,5.0324430200591905],[-76.73000929477661,5.017346844513781],[-76.7406952732884,4.998942966428672],[-76.7462928174943,4.99326072998133],[-76.7543497009778,4.9898683372570645],[-76.76283071415605,4.9890202660726],[-76.77326237528803,4.991564545446295],[-76.7800471350256,4.990037968566071],[-76.79550984851306,4.977412384487934],[-76.80039035436738,4.971642750995386],[-76.80841644319656,4.95164183948998],[-76.8140060694235,4.946306400030608],[-76.8217976599887,4.944941226919298],[-76.82748768585964,4.9369643572921404],[-76.83344769228995,4.94057303250662],[-76.83575689747181,4.939809240129648],[-76.8356024727139,4.941684173116698],[-76.83819696887889,4.943349992886397],[-76.83788102825179,4.948354258428083],[-76.84232407373946,4.950485798107934],[-76.85435583613571,4.944660692482785],[-76.85841457733676,4.947186135931759],[-76.86115487374076,4.946099636804433],[-76.86262185854764,4.940507081573173],[-76.86066698986588,4.938633950417454],[-76.86230097214053,4.9342176074113695],[-76.85967059567292,4.9305588419040305],[-76.86020093159811,4.926855900676799],[-76.86509472492975,4.922649171739522],[-76.86796473364643,4.924256310635997],[-76.87359796069393,4.9193658710553905],[-76.8744928188139,4.913657207749111],[-76.87230884604912,4.911507667239846],[-76.88155936460248,4.895962847015426],[-76.88281652965208,4.890297868862035],[-76.88443424299447,4.89127616966573],[-76.88743907538316,4.888975572547736],[-76.88766156143856,4.885639496307306],[-76.88954580902947,4.884549974587401],[-76.89005639680141,4.885929778322009],[-76.89094302635277,4.883684369486446],[-76.89344805727467,4.884084813121547],[-76.89320498591383,4.882883991295387],[-76.898881114441,4.880928950863677],[-76.9004336687508,4.878861404991085],[-76.90695099126731,4.880775870280104],[-76.90916826602933,4.878729796230402],[-76.91021021611209,4.881332849037165],[-76.91335486834652,4.882214301408908],[-76.91260780770091,4.883630982006878],[-76.91463353093002,4.882613079995508],[-76.91727192924924,4.885830868891219],[-76.91891450107585,4.884839979951039],[-76.92146503749382,4.8869663784468],[-76.92266225565737,4.885935025435742],[-76.92368942907802,4.888886960911918],[-76.93010378392961,4.890667197997118],[-76.93202812432366,4.895749046157107],[-76.93604866916957,4.899313036572551],[-76.94242654927876,4.900173670182369],[-76.94832493863242,4.898662628954867],[-76.94965992901274,4.896562667602495],[-76.95284947276309,4.897670594329725],[-76.95201549844023,4.899136191767695],[-76.95356340110447,4.898535139106457],[-76.95576006484998,4.903685055762935],[-76.95500124499262,4.9065350160211665],[-76.9576527919495,4.908032442726608],[-76.95904812208079,4.912135835816514],[-76.96760269461015,4.915944035050245],[-76.96871870386718,4.919073737844201],[-76.97337663624847,4.922506404377543],[-76.96664570313544,4.922550874232002],[-76.9616796092663,4.925437170392854],[-76.96005413221127,4.92906811858694],[-76.95248582165914,4.935050561519233],[-76.94651790547738,4.934969129440617],[-76.94506534457685,4.937476150398709],[-76.93936332398079,4.9402418565320545],[-76.93716982166757,4.9432267865011],[-76.93779522476234,4.949147259600977],[-76.92674938907106,4.955309581243569],[-76.92669528579546,4.958178021585411],[-76.92474630289018,4.9591393057792175],[-76.92518281503283,4.961557948557925],[-76.92250859811759,4.964445570381201],[-76.9023623954522,4.959891310148009],[-76.90178158253974,4.957914091353359],[-76.90351494630028,4.956531470714765],[-76.90268023149883,4.955223149905862],[-76.90591977709602,4.948525595923229],[-76.9044102353377,4.945751851483237],[-76.90039180188427,4.945175623367504],[-76.89782748022276,4.948889755077801],[-76.89526938783763,4.94946514809817],[-76.88549836424107,4.943631122791089],[-76.88221024633219,4.94420681714513],[-76.87960072153663,4.947244244990998],[-76.875939045537,4.95790655184129],[-76.87671385870397,4.963309122886017],[-76.87435364483008,4.965319833939702],[-76.87236194967858,4.972197912494551],[-76.87437485851393,4.9863339947825125],[-76.87282756674449,4.991279545512384],[-76.84695272019161,5.013636390513966],[-76.8493527687296,5.021968898649391],[-76.85535427178706,5.024880567515595],[-76.85746914864126,5.025127386520978],[-76.86283336803604,5.021131865738482],[-76.86622827838767,5.021230887269496],[-76.86740830716298,5.024191213808194],[-76.86622513341041,5.03094860051965],[-76.85377411819388,5.045203116191203],[-76.84954574259848,5.046935110066329],[-76.84833048863845,5.049370030004809],[-76.83298628772457,5.060330880348545],[-76.81015599303885,5.073858345780593],[-76.80452723971632,5.082214920499439],[-76.79750937628279,5.086294626501228],[-76.80061755377483,5.091709103824996],[-76.81022520104972,5.092422662955528],[-76.81038577795084,5.097640736554695],[-76.81390816889484,5.105244858503738],[-76.80993016351687,5.118082665809425],[-76.80749805328333,5.121871108662333],[-76.80344680737136,5.122914696025589],[-76.80131861012967,5.1254699190561155],[-76.80120425246383,5.136875467944947],[-76.7969699746368,5.13965307418664],[-76.7952697925457,5.145842237150532],[-76.79520995981682,5.148599775393393],[-76.7972582398757,5.149994501828928],[-76.79500373343762,5.153074228487128],[-76.79055426841177,5.155184332339559],[-76.79136754532891,5.167168675308176],[-76.80061436560305,5.167349224562997],[-76.80675086511087,5.171663119267635],[-76.81320552051096,5.168110312136093],[-76.81614731348702,5.170533048116056],[-76.83980663363019,5.176953055287697],[-76.83594405549826,5.185157945019455],[-76.83473526427105,5.192989929721421],[-76.83710630867313,5.200327524621173],[-76.83962980733725,5.201526855205657],[-76.83917906874927,5.205105709700831],[-76.84533038811378,5.205717852057717],[-76.84574026668054,5.209577389085098],[-76.84916190522472,5.207039984849644],[-76.85157348980249,5.2076402013871075],[-76.85108515135596,5.21378667781579],[-76.8542995597611,5.217019622868861],[-76.85212905650798,5.219399155007068],[-76.8515287011308,5.2257787166198],[-76.84812846756068,5.2279344267557235],[-76.84855665548963,5.232346093433705],[-76.85276677211652,5.238262886766279],[-76.85356868371542,5.242593738431083],[-76.85155418902173,5.248295405242914],[-76.8515238252848,5.25874493453523],[-76.85624396918251,5.264421131968049],[-76.84779145826019,5.263758782075854],[-76.84188902712742,5.268502199627733],[-76.83904766773395,5.265374848881834],[-76.83225506509376,5.26499972961534],[-76.82378763249898,5.268554682077877],[-76.81124535123644,5.2633648783067315],[-76.80572129644759,5.266679715152293],[-76.80182762849836,5.266550536601244],[-76.79877469996683,5.269272849659387],[-76.78724229063647,5.27196068932426],[-76.7726987507354,5.279528794187911],[-76.743504414663,5.282863542709038],[-76.740157551089,5.281023678583438],[-76.73979562262627,5.275009749883452],[-76.75172438341895,5.248729581792588],[-76.70475061384775,5.245357488466766]],[[-76.68221632548779,5.168921790307309],[-76.68400750417294,5.170279322090721],[-76.68920947750445,5.162813257236905],[-76.6939981208161,5.169595991971107],[-76.68905063250054,5.157170564404396],[-76.69103060237887,5.152254763431301],[-76.69125727008156,5.144978668365752],[-76.68462231739505,5.138710434627285],[-76.68166107040037,5.140446693453498],[-76.68342260114463,5.1479246687001705],[-76.67760900996194,5.1496545285570505],[-76.67973555346805,5.1557082415274635],[-76.68190413147681,5.155129871166025],[-76.68368380703242,5.157749286493242],[-76.68481920243084,5.162130096810301],[-76.68330138171024,5.164579750216319],[-76.68449330339485,5.165133252837677],[-76.68221632548779,5.168921790307309]]]}}]}