{"type":"FeatureCollection","features":[{"type":"Feature","properties":{"code":"274037"},"geometry":{"type":"Polygon","coordinates":[[[-76.67960660014597,5.130757459833603],[-76.68154399353244,5.125195206632725],[-76.6791525448308,5.1212623447391366],[-76.68046830950664,5.11554017901102],[-76.67805475134776,5.112778332622497],[-76.67920729396832,5.110317210025528],[-76.67713263127348,5.109149381663769],[-76.67808897585786,5.105134032509511],[-76.68105780041708,5.103027625907885],[-76.68563601410494,5.093525315829538],[-76.68292942387609,5.087822261648739],[-76.68726821923093,5.08533365289702],[-76.68657430746629,5.082639609666899],[-76.68878088128389,5.08183050308412],[-76.68906190731587,5.079480687792511],[-76.69101577532308,5.079870687593825],[-76.69052178352808,5.0745792366778915],[-76.69245885809744,5.072968519829885],[-76.69039451788018,5.068835865493497],[-76.69308221047777,5.068337864829516],[-76.69540300414997,5.065695349654845],[-76.69404496740128,5.063344518262056],[-76.69799302967533,5.059681196754411],[-76.69708112820592,5.055791036822598],[-76.7083414455845,5.051082938043692],[-76.70790023757331,5.050040523104883],[-76.69489756887504,5.051422178036034],[-76.69702437977617,5.0420877704548275],[-76.703427816682,5.041477789884084],[-76.70443006168443,5.0392481758687495],[-76.70200098535634,5.037200835806345],[-76.70236451510408,5.035273816319489],[-76.70653057633882,5.0314555866858655],[-76.71090714535899,5.029913499864051],[-76.71220262811988,5.024389039868879],[-76.71679729894498,5.022761141860144],[-76.71802976800433,5.016774872093265],[-76.72085566167914,5.017572794363616],[-76.72317436966989,5.013272463787359],[-76.72536545925692,5.012468854229894],[-76.72165513484083,5.0078549864967385],[-76.72210837151573,5.005448163607923],[-76.72592010344948,5.007068895429143],[-76.72194037645875,5.003515734513428],[-76.72475167242044,5.003110345098264],[-76.72344904712622,5.000443107193917],[-76.71942618417091,5.0017068984986395],[-76.71646690047294,5.0006573646807055],[-76.7166266145108,4.999298862047567],[-76.71945321266872,4.998662860852676],[-76.71889389934717,4.996994137789784],[-76.71701173023854,4.99785673469637],[-76.71626152461573,4.993906794486293],[-76.71198077044284,4.993786869861026],[-76.70957438875581,4.990725126548739],[-76.70674840046428,4.990329593726699],[-76.70497620579954,4.9817768837066865],[-76.70946193370861,4.977804456600893],[-76.71157338687766,4.9781292953126695],[-76.71417209965699,4.981702525255685],[-76.71449693939718,4.988036886819714],[-76.7172580710182,4.990148341017175],[-76.71985678379752,4.9894986615368],[-76.71742049088829,4.982839462289462],[-76.72196823799499,4.982839462289462],[-76.72732808342374,4.985925433650664],[-76.73122615105012,4.9852757551987],[-76.73837261093615,4.980728008092001],[-76.74113374255711,4.981377685515497],[-76.74129616345567,4.98608785249229],[-76.73658599545041,4.986412693260945],[-76.73658599545041,4.989336243723585],[-76.73821019106606,4.990635598570577],[-76.74616874824568,4.989336243723585],[-76.75009442338302,4.991286767235749],[-76.7406952732884,4.998942966428672],[-76.73000929477661,5.017346844513781],[-76.72797375197831,5.0324430200591905],[-76.72466616976635,5.0427050210856805],[-76.7267476407506,5.044134843122208],[-76.7309600055529,5.0421917449650095],[-76.73522923191359,5.0476434303107],[-76.73752080650536,5.04662623483938],[-76.74896522435074,5.049292023668215],[-76.7504133907164,5.063536709486186],[-76.75577175930175,5.067364080945367],[-76.75637314826366,5.074581364525443],[-76.75866964292442,5.076385702132654],[-76.76287977703487,5.075729616483841],[-76.7674178711801,5.070699389967615],[-76.77310429647383,5.067473364275827],[-76.77402380533249,5.069717995608812],[-76.77212671249453,5.075940470854334],[-76.76516009840861,5.088286777252733],[-76.75026478180092,5.104889910080374],[-76.74028807381438,5.113075851787187],[-76.73363692830043,5.114866551218142],[-76.73107682016791,5.1172638579283785],[-76.72419337417159,5.1168033234253585],[-76.71841614871641,5.121517643253071],[-76.70566528079905,5.124763823332955],[-76.70029956296355,5.127853225578349],[-76.69698784538417,5.126707403829641],[-76.69394655779354,5.122974235648314],[-76.69080318905537,5.115427931709178],[-76.67960660014597,5.130757459833603]],[[-76.69287805743869,5.10046788698628],[-76.69780211269148,5.1005115392289895],[-76.69664487420238,5.090084531799391],[-76.69412701757386,5.093165439109612],[-76.69287805743869,5.10046788698628]]]}}]}