{"type":"FeatureCollection","features":[{"type":"Feature","properties":{"code":"274058"},"geometry":{"type":"Polygon","coordinates":[[[-76.83763733879698,4.752800761571336],[-76.82908407444648,4.748615010804542],[-76.82630224541981,4.750751825366137],[-76.82034238502831,4.751945330852209],[-76.81929757381846,4.745060394642678],[-76.8160122399035,4.741526276368631],[-76.81550932122741,4.7344241372129545],[-76.80868685467334,4.7251998202896175],[-76.80265545993404,4.7251611919886045],[-76.79669506372403,4.72812998877987],[-76.79348141328103,4.726425638411172],[-76.79337389578632,4.724432701929572],[-76.79958859806328,4.717659417553648],[-76.7987231739682,4.714325504127828],[-76.79312664586354,4.7109352896447945],[-76.7921892390197,4.7070578145230115],[-76.8001013568774,4.699886638077885],[-76.7931350986326,4.690317903982589],[-76.78341790988816,4.68808162874501],[-76.77592647644269,4.692561114008015],[-76.772250237697,4.688867780490796],[-76.77185837641474,4.684252767072678],[-76.76903399969262,4.682143680349839],[-76.76561672174472,4.684646042463385],[-76.7676502498241,4.690513738978552],[-76.76666377290235,4.6925567811796896],[-76.76058676982268,4.693510023981446],[-76.75276612575635,4.699834569061636],[-76.74606640176,4.697326392134073],[-76.74600252725207,4.692513577337934],[-76.74035605797866,4.686973943701787],[-76.73876857981782,4.679813107217797],[-76.73277964741322,4.677273746884623],[-76.73114470045948,4.671215648635325],[-76.72585595434737,4.671401085049013],[-76.72332881191136,4.669896964211205],[-76.72347417197699,4.663182219811915],[-76.71603706497916,4.654022510676043],[-76.72118804298833,4.649355986685919],[-76.71727008631211,4.647106064016157],[-76.71480936069395,4.641937345373549],[-76.71492346124921,4.6370497545786975],[-76.70536570269246,4.6346338608268525],[-76.70003500229626,4.629345245326931],[-76.69175140997231,4.628049632982254],[-76.68715602540811,4.616411253963179],[-76.68500791237705,4.6161319228044135],[-76.67987708361369,4.620996605042137],[-76.67835718132545,4.612651390499366],[-76.67475390234893,4.612232138707498],[-76.66872852502678,4.605970413981709],[-76.66630849899286,4.5965816172179075],[-76.6637461180024,4.593798673359572],[-76.66107968228317,4.59528399735342],[-76.65715851995168,4.601374281739822],[-76.65424751134555,4.602276523048602],[-76.65348800448857,4.5976171415917975],[-76.6572353178683,4.588579641252011],[-76.65689071454824,4.5853807756986384],[-76.65291007327204,4.583965372426292],[-76.64821939425252,4.590396051745927],[-76.6445486257926,4.591527004272734],[-76.63451093219317,4.58706772173457],[-76.63100406250368,4.581036828875199],[-76.6301165526055,4.5695892999912076],[-76.62247424252877,4.561230287863623],[-76.61662038165082,4.558930923848209],[-76.60193489405646,4.561050481144321],[-76.5984219781534,4.559622662513846],[-76.58771042124772,4.534556962652971],[-76.57909841740275,4.524061100996789],[-76.56724917064338,4.514420974478696],[-76.565037967806,4.510007991394332],[-76.56150840553232,4.510659007849938],[-76.55401633959474,4.508407848992306],[-76.54836289131043,4.51210764112858],[-76.54061884050066,4.511395934223003],[-76.53699481989543,4.515940330663966],[-76.52313244935624,4.525385235137833],[-76.51935600431375,4.532345876029581],[-76.51580790950584,4.532413762491842],[-76.50983901836065,4.525176925134076],[-76.50272630167359,4.524284252454493],[-76.49172809315536,4.530279742208563],[-76.48348563647534,4.530435896806864],[-76.47435361506894,4.528414004526098],[-76.46327860863408,4.5342206691484535],[-76.45945048332658,4.531640717217556],[-76.45321836848933,4.534676689817218],[-76.44595512895523,4.534607519858753],[-76.43844238515237,4.53686026971701],[-76.4351544780742,4.542264139684676],[-76.42808123301108,4.54432757898627],[-76.40869148375685,4.538792365596123],[-76.4013597849181,4.528117146649947],[-76.39778913533735,4.51427791709591],[-76.38525363151098,4.507075118100261],[-76.38092788297791,4.500781799620256],[-76.3785398538476,4.501549499050327],[-76.37686906052988,4.499731784491246],[-76.37684628875564,4.49749153123804],[-76.38023382620281,4.493180318711552],[-76.37486441625862,4.489995905860894],[-76.37911449610493,4.484477356324874],[-76.37933604319232,4.474164036016646],[-76.38202886257591,4.468135279232399],[-76.38758288617976,4.463887766378662],[-76.39254230957073,4.466715373438717],[-76.39486173541434,4.4661462282066395],[-76.40561949407169,4.44987958634448],[-76.4228472370649,4.431675620001442],[-76.4421808014759,4.425676443280906],[-76.44972708793148,4.421822870191704],[-76.47531670417936,4.416425442388004],[-76.47985676367824,4.414349881862847],[-76.48136721046603,4.411209909041929],[-76.49400202275888,4.410506208561344],[-76.51036737350552,4.400009079863992],[-76.51615882643455,4.403313532525374],[-76.52256739012631,4.40375186295438],[-76.53807822649611,4.398510075527668],[-76.54248908173292,4.3894162576755775],[-76.5477538322242,4.362223877525707],[-76.54655604327502,4.332940781721732],[-76.56287226429413,4.336699385343422],[-76.58439927034021,4.3362030137324155],[-76.59509805810353,4.337860802394516],[-76.61437026357697,4.336415152627637],[-76.61603378272076,4.341029494472764],[-76.62005079486659,4.344783832114899],[-76.6222117521163,4.351618354072173],[-76.62767551651933,4.357828938465275],[-76.63017435518879,4.372544617018264],[-76.6387054545462,4.382619037328425],[-76.64050743290625,4.391250666942028],[-76.64521220467361,4.390377910051768],[-76.64716306654338,4.3921842212402],[-76.64648181182076,4.403185595304478],[-76.65379634081165,4.4082340283385975],[-76.65642068649231,4.4204886809681625],[-76.66072900395318,4.424977652584914],[-76.65992927265239,4.428929990094559],[-76.6640254974979,4.431122846545804],[-76.66620445249168,4.436198507595577],[-76.66710375656868,4.445493573136673],[-76.68147121888296,4.455377292435969],[-76.67855247536068,4.46395008896684],[-76.67909345258056,4.46692484146871],[-76.67444963351596,4.472572275421214],[-76.6663900359726,4.476388299045595],[-76.66718077148664,4.484463561825407],[-76.66246301460404,4.48545705272511],[-76.66141805735538,4.487949063564656],[-76.6541652739964,4.492181187833069],[-76.65594932043274,4.498262679035918],[-76.66006924779299,4.502252437454956],[-76.65885496776798,4.508908614109714],[-76.66345312809852,4.510959848883999],[-76.66396593010722,4.513922278587586],[-76.66794355598995,4.517712557210416],[-76.66673947811478,4.524186322101002],[-76.67677980966926,4.531387044671192],[-76.6797013125028,4.531824772432913],[-76.67638716471379,4.540236542633238],[-76.67730328896818,4.542007266625205],[-76.68052009570124,4.542710994873687],[-76.68286114557725,4.549581291203992],[-76.693741769177,4.54628909140672],[-76.69066000928791,4.554950077911997],[-76.69662499749381,4.558984555068719],[-76.70111022043761,4.5696613022803945],[-76.71335212037997,4.5778391542582995],[-76.7160207785634,4.584764941233118],[-76.71476979342498,4.59314813101588],[-76.72417368566806,4.603140599884],[-76.72762889257604,4.604801128316922],[-76.74421667075688,4.606679033502871],[-76.75196725629041,4.609576702181073],[-76.760619040292,4.6148275111055455],[-76.7677662457989,4.625081852292169],[-76.77161308156116,4.626712396483526],[-76.77780178789658,4.628525341126135],[-76.78486158710223,4.625934652255353],[-76.79165409409728,4.6278619051986425],[-76.81235195950035,4.647074725315747],[-76.80980107135503,4.665722528369031],[-76.81103250682963,4.6684493645173575],[-76.81613428414875,4.669944715825807],[-76.81613433557084,4.676101988844039],[-76.81850931068021,4.681203767191619],[-76.82167591707707,4.68393059614084],[-76.82475459163862,4.692111023338782],[-76.82141201049927,4.704689552057914],[-76.82686563445907,4.718235638470219],[-76.84305058301823,4.7487582687336385],[-76.84285995194136,4.751103206122366],[-76.83892931971116,4.750569670712537],[-76.83763733879698,4.752800761571336]]]}}]}