{"type":"FeatureCollection","features":[{"type":"Feature","properties":{"code":"275018"},"geometry":{"type":"Polygon","coordinates":[[[-76.97337663624847,4.922506404377543],[-76.97774030757097,4.918037672509513],[-76.9794873876694,4.918586087425751],[-76.98945640290583,4.927711761284911],[-77.0031659859676,4.9295091373646756],[-77.0067176978078,4.933737114952862],[-77.01442377851976,4.931785632932247],[-77.01932335375523,4.9335662669963085],[-77.02217394239182,4.936141015008047],[-77.02243323846187,4.940569180989371],[-77.02671386305099,4.945542064636015],[-77.03174124592357,4.945291677963553],[-77.04000227113335,4.941068274887698],[-77.04928326655232,4.94856650736665],[-77.05343473932993,4.943622067354738],[-77.06199991818704,4.950462791848793],[-77.07255317413484,4.954629696406414],[-77.08457595719949,4.946080053202024],[-77.08622523241439,4.943165814257895],[-77.08519345877039,4.93025946228687],[-77.08213238703098,4.92442927101348],[-77.08198538968492,4.920152815730319],[-77.08935217795397,4.917253417211782],[-77.099313471644,4.909093169084429],[-77.10446475098684,4.90986450097347],[-77.10796646200868,4.915189582988262],[-77.11623822415834,4.922210315776397],[-77.11818450123133,4.921554118027302],[-77.1179693901372,4.923508441634567],[-77.11984277326138,4.920418308166518],[-77.12180073446984,4.919988810001826],[-77.12558915881078,4.922861775490787],[-77.12774134550267,4.922328163976147],[-77.1273283137312,4.924795895344744],[-77.12940019346053,4.924167305106664],[-77.13008760958229,4.926218521368924],[-77.13248120464345,4.924322417892654],[-77.13558319605374,4.929542398224214],[-77.13278236655151,4.933817532987121],[-77.12974985157558,4.935169142998518],[-77.12938099552406,4.943479241371506],[-77.12618548886394,4.943791424069616],[-77.12526975541778,4.945598847004362],[-77.12592154937596,4.946998373181145],[-77.12784164127396,4.945151857089343],[-77.12926027899806,4.946122876520008],[-77.12831915022076,4.946939384803613],[-77.13004538893153,4.952042558747621],[-77.12731418190253,4.9522363348016825],[-77.11993089433014,4.956893363182019],[-77.11783722190381,4.956367343630063],[-77.11558040455537,4.9611259872734195],[-77.11127726530265,4.9608195576827825],[-77.10880875951688,4.962496474347233],[-77.109869372746,4.966403523362089],[-77.10619874415426,4.966956511762191],[-77.10377132876084,4.971589664849432],[-77.09653085071659,4.975967699400201],[-77.09318572726733,4.973267029914837],[-77.0886168713779,4.974831622144336],[-77.08973888571074,4.977879364240209],[-77.08100945841278,4.982471881506626],[-77.08610891042332,4.986420366470554],[-77.08343699413393,4.9920350157324265],[-77.0910367205197,4.997997633378304],[-77.08118235811213,5.00462004215143],[-77.07930352938484,4.9998971224873685],[-77.07557302486964,4.998618297409905],[-77.06942690222513,5.014174827480872],[-77.05849002179121,5.016172656263564],[-77.04429055556233,5.027715129932403],[-77.04400078365512,5.034449622484999],[-77.04987204063832,5.038929279497893],[-77.05110251143384,5.0425303833184785],[-77.05133998189672,5.044866048269455],[-77.04834907359134,5.050220409014287],[-77.05657073104987,5.052897642351468],[-77.05761262251144,5.054872862882291],[-77.04974785106197,5.067500377347017],[-77.05619113188777,5.084050295473389],[-77.05629182360946,5.088811368298025],[-77.05440726645736,5.092613061604368],[-77.04724156132647,5.092877587304599],[-77.04771514985032,5.100391407886775],[-77.04319660639737,5.102962416481546],[-77.04077015671146,5.102588710295095],[-77.03754214818247,5.094236349105245],[-77.03758963445893,5.086202031707501],[-77.02717612019518,5.088490875784373],[-77.02899532188212,5.094641842393116],[-77.03295135561416,5.099592227831238],[-77.03083785687295,5.103129541476164],[-77.02832548389995,5.1025348394475145],[-77.01704945911882,5.0890750578744814],[-77.01550246868305,5.089044796981852],[-77.00835223235606,5.097342270194417],[-77.00871166067503,5.106837851173395],[-76.99974356477861,5.116279595243384],[-77.00982236111173,5.113652768959355],[-77.00928078945202,5.1213410061936315],[-77.00573592601057,5.122123718827538],[-77.00208517618427,5.128742293566972],[-76.995415902314,5.130224882932168],[-76.98680070309814,5.136929062141519],[-76.98526127994239,5.136753192300148],[-76.98563504577857,5.132142071536975],[-76.98145236491268,5.13381161221173],[-76.98070579689107,5.1319296745027145],[-76.9794152259716,5.137606189724295],[-76.97394743624454,5.141072047183002],[-76.96130300801411,5.140521987787224],[-76.96015985713063,5.14396257332794],[-76.95762606272842,5.139636564598902],[-76.95487404825036,5.138358591071892],[-76.95597915704508,5.136592432336272],[-76.95232250498714,5.137215163537348],[-76.95261992850669,5.135996799567124],[-76.95002570796424,5.1353807892378995],[-76.95169982417974,5.134452007941491],[-76.9476874657363,5.132834175299706],[-76.9475231072521,5.130952933846288],[-76.94628139969359,5.132646334387459],[-76.94259439932534,5.130133987125475],[-76.93370180139425,5.130872627912197],[-76.93169201182502,5.133175706661973],[-76.92797763637384,5.131854443932468],[-76.92568707788331,5.13471197558448],[-76.91867832027987,5.135486929648096],[-76.91447778050969,5.139906110127072],[-76.90824181004143,5.142134048809567],[-76.90539457309899,5.1472241913584185],[-76.90034309484662,5.150123863442673],[-76.89988221375847,5.160450248056236],[-76.896351403984,5.163681713180495],[-76.89973956980958,5.166374709456193],[-76.89974703630224,5.168067172057761],[-76.89423012198984,5.180277853627501],[-76.88984093500841,5.180297357011398],[-76.88750069863045,5.185554586502519],[-76.88547935450958,5.186579087001064],[-76.88599627954432,5.188946363189757],[-76.88329818219376,5.189635335345031],[-76.8784285222942,5.1955808530771606],[-76.87336035344822,5.198067830719026],[-76.87029143880619,5.206350527269535],[-76.86840097942246,5.207210204427781],[-76.86262914917666,5.205016055224235],[-76.86012975206296,5.2085203682056544],[-76.85134305902864,5.214169500116725],[-76.85157348980249,5.2076402013871075],[-76.84916190522472,5.207039984849644],[-76.84574026668054,5.209577389085098],[-76.84533038811378,5.205717852057717],[-76.83917906874927,5.205105709700831],[-76.83962980733725,5.201526855205657],[-76.83710630867313,5.200327524621173],[-76.83473526427105,5.192989929721421],[-76.83594405549826,5.185157945019455],[-76.83980663363019,5.176953055287697],[-76.81614731348702,5.170533048116056],[-76.81320552051096,5.168110312136093],[-76.80675086511087,5.171663119267635],[-76.80061436560305,5.167349224562997],[-76.79136754532891,5.167168675308176],[-76.79055426841177,5.155184332339559],[-76.79500373343762,5.153074228487128],[-76.7972582398757,5.149994501828928],[-76.79520995981682,5.148599775393393],[-76.7952697925457,5.145842237150532],[-76.7969699746368,5.13965307418664],[-76.80120425246383,5.136875467944947],[-76.80131861012967,5.1254699190561155],[-76.80344680737136,5.122914696025589],[-76.80749805328333,5.121871108662333],[-76.80993016351687,5.118082665809425],[-76.81390816889484,5.105244858503738],[-76.81038577795084,5.097640736554695],[-76.81022520104972,5.092422662955528],[-76.80061755377483,5.091709103824996],[-76.79750937628279,5.086294626501228],[-76.80452723971632,5.082214920499439],[-76.81015599303885,5.073858345780593],[-76.83298628772457,5.060330880348545],[-76.84833048863845,5.049370030004809],[-76.84954574259848,5.046935110066329],[-76.85377411819388,5.045203116191203],[-76.86622513341041,5.03094860051965],[-76.86740830716298,5.024191213808194],[-76.86622827838767,5.021230887269496],[-76.86283336803604,5.021131865738482],[-76.85746914864126,5.025127386520978],[-76.85535427178706,5.024880567515595],[-76.8493527687296,5.021968898649391],[-76.84695272019161,5.013636390513966],[-76.87282756674449,4.991279545512384],[-76.87437485851393,4.9863339947825125],[-76.87236194967858,4.972197912494551],[-76.87435364483008,4.965319833939702],[-76.87671385870397,4.963309122886017],[-76.875939045537,4.95790655184129],[-76.87960072153663,4.947244244990998],[-76.88221024633219,4.94420681714513],[-76.88549836424107,4.943631122791089],[-76.89526938783763,4.94946514809817],[-76.89782748022276,4.948889755077801],[-76.90039180188427,4.945175623367504],[-76.9044102353377,4.945751851483237],[-76.90591977709602,4.948525595923229],[-76.90268023149883,4.955223149905862],[-76.90351494630028,4.956531470714765],[-76.90178158253974,4.957914091353359],[-76.9023623954522,4.959891310148009],[-76.92250859811759,4.964445570381201],[-76.92518281503283,4.961557948557925],[-76.92474630289018,4.9591393057792175],[-76.92669528579546,4.958178021585411],[-76.92674938907106,4.955309581243569],[-76.93779522476234,4.949147259600977],[-76.93716982166757,4.9432267865011],[-76.93936332398079,4.9402418565320545],[-76.94506534457685,4.937476150398709],[-76.94651790547738,4.934969129440617],[-76.95248582165914,4.935050561519233],[-76.96005413221127,4.92906811858694],[-76.9616796092663,4.925437170392854],[-76.96664570313544,4.922550874232002],[-76.97337663624847,4.922506404377543]]]}}]}