{"type":"FeatureCollection","features":[{"type":"Feature","properties":{"code":"275058"},"geometry":{"type":"Polygon","coordinates":[[[-77.0623012631579,4.476706850888206],[-77.05549422015628,4.469938797170926],[-77.04659153217563,4.465755150597602],[-77.03944732560711,4.455623499518083],[-77.03371968856482,4.452605890787993],[-77.03070956586782,4.44592304456188],[-77.02118030339636,4.4471697236114665],[-77.01953074330288,4.445446233927555],[-77.01327692318631,4.4457319661125325],[-77.01129012136431,4.439360934402089],[-77.00851951264548,4.437870460996464],[-77.00714892889806,4.429581155674384],[-76.99300878940437,4.420964570117974],[-76.99363305298476,4.417084775858314],[-77.00328176596946,4.411900514363879],[-77.00598615841665,4.4088682708967895],[-77.00688829688124,4.397682702777388],[-77.00442404679058,4.38990165889021],[-76.99451328150991,4.3802581508531375],[-76.99403317677422,4.3770297453453395],[-76.99816758666202,4.374194721157835],[-77.00135698848732,4.368524673811237],[-77.00714516171314,4.348679508612406],[-77.01295218834724,4.3386422819259],[-77.02145786563398,4.3324632552914295],[-77.02995784329227,4.328900048549201],[-77.03282197548839,4.322891210639682],[-77.02372985662333,4.315846206608057],[-77.01974961952504,4.310286271516645],[-77.03450382456322,4.312632778308682],[-77.0376192844567,4.309853147063677],[-77.03774923845339,4.307160207352297],[-77.0298752737562,4.295727627908775],[-77.00911535213157,4.285542297272002],[-77.0053312256519,4.281110529685009],[-77.00446120956099,4.276918750188202],[-77.00530822453499,4.272728412567801],[-77.00395371534415,4.270753920174286],[-77.0082990248539,4.269748906604605],[-77.01366703508785,4.260286638935725],[-77.02155653235235,4.2513436966863765],[-77.02108402780686,4.246146153885263],[-77.01931213756114,4.241775492238958],[-77.0062145127651,4.232352881313602],[-76.99810966992158,4.220567808338956],[-76.99870964477503,4.214115927676801],[-77.00371950812934,4.20858209137117],[-77.01446897239776,4.207755209187894],[-77.02380092508668,4.220512815460609],[-77.02710845279125,4.218859051094114],[-77.0261634447287,4.20373892517938],[-77.01842859950796,4.1853003371592195],[-77.01906636653865,4.179331602337243],[-77.02141751469173,4.17784049849638],[-77.02339711330234,4.179828403837234],[-77.03301107624276,4.197480958382528],[-77.03884108651027,4.204929867786689],[-77.05309027690646,4.210762058352373],[-77.06274061894408,4.211258998692074],[-77.07330107810333,4.209551579450931],[-77.07829550247857,4.210857581121957],[-77.08271730959979,4.216180527061567],[-77.0859323237575,4.227235316373424],[-77.08864098012742,4.229275331868223],[-77.09202867801167,4.229105225418721],[-77.09778863591697,4.2236637679338855],[-77.10253670614281,4.211418282840896],[-77.10033469861003,4.196112528193737],[-77.09389817362307,4.187099377259017],[-77.09542221744937,4.179616618726243],[-77.09999537222853,4.175364694882489],[-77.10626232452762,4.174514780729055],[-77.13234798431336,4.179615023611859],[-77.13929211664578,4.178764421430401],[-77.13929224622956,4.176043459745756],[-77.1330240855105,4.16532908285069],[-77.13294933522292,4.162749209081426],[-77.13621466284559,4.160044985298782],[-77.14081593524315,4.161247439263207],[-77.14810235792851,4.16736910760153],[-77.15707453674173,4.181993979822266],[-77.16165249948966,4.183693644606819],[-77.16673408231145,4.183183857991594],[-77.18790637133372,4.172636305785943],[-77.20298273804775,4.172804800666029],[-77.20670556626794,4.170423021380941],[-77.21127580849793,4.159197987808341],[-77.21534285745759,4.155626362235637],[-77.2211031681187,4.155624794889206],[-77.23872008301697,4.172117913163731],[-77.24634169465958,4.180789884463536],[-77.24990490345868,4.187932100995795],[-77.2510875948717,4.195584060948647],[-77.24905773833206,4.219733730143446],[-77.25004994367868,4.233935247086663],[-77.2582438043928,4.235601877269062],[-77.26554582238049,4.234466944669748],[-77.28023253382145,4.220916637529342],[-77.28751156303349,4.205779343823622],[-77.28547439838133,4.193365313456923],[-77.28818284906276,4.181120163636251],[-77.30426617413127,4.166490139946916],[-77.30850092504187,4.166148685717815],[-77.31832797407304,4.172267968069434],[-77.33374733665147,4.190799311320347],[-77.34374237354052,4.196068713457123],[-77.35086063456117,4.197426698783659],[-77.36101581846236,4.19351196524633],[-77.37202522157742,4.184494237742399],[-77.37473390571529,4.181091883523834],[-77.37828944541855,4.169356556313858],[-77.3903065566227,4.160508893093265],[-77.38810127452888,4.152346104712876],[-77.38861247525261,4.14962507515105],[-77.3921679100547,4.147073514404326],[-77.41723128255018,4.143406443195204],[-77.43535945679332,4.14475891504145],[-77.44179127871263,4.137613121586128],[-77.44314171629958,4.1265585071095074],[-77.44127265160552,4.120947589037087],[-77.43059907508211,4.104966490126515],[-77.42839380327274,4.097314761573216],[-77.42872973373704,4.0918729523610295],[-77.44463026857449,4.052325657748895],[-77.45411335500529,4.0506206419779005],[-77.46554636433785,4.060090528349008],[-77.48709342912679,4.091842208100388],[-77.50077808479875,4.106004286329949],[-77.51291206306848,4.115367793692201],[-77.51196673001817,4.127738932863679],[-77.51698741772998,4.131177890379888],[-77.52272093129284,4.1297453018329975],[-77.5241638145493,4.130910270096081],[-77.5239298603314,4.194630153773005],[-77.524840702505,4.199481475513949],[-77.52986127811658,4.204907509446343],[-77.5260161135734,4.233838879965788],[-77.52453635036818,4.261131599081523],[-77.51958707461955,4.27187445972055],[-77.51220701944203,4.281338590927305],[-77.49654597904231,4.294061560284433],[-77.48646779257564,4.293553823355126],[-77.48557200577204,4.290788151160427],[-77.48299308742588,4.290072431272165],[-77.48229448699175,4.286901307955759],[-77.4838732449885,4.283737527718927],[-77.48721952337871,4.283487890781032],[-77.48499836213239,4.2790287316560125],[-77.48891864514559,4.271590271227808],[-77.49882650816147,4.266197478614515],[-77.50569621930794,4.259578708471054],[-77.50485397425035,4.2583497011492],[-77.50004314949047,4.259832420098235],[-77.49885239200279,4.253368649612071],[-77.49772339043147,4.255667704066298],[-77.49399787283403,4.256289659821675],[-77.49495872508197,4.257527756518527],[-77.4934605476135,4.257932180226135],[-77.49297233772228,4.254528275116286],[-77.4920835720958,4.255363291251399],[-77.48208159116285,4.2485559386885825],[-77.48204015418531,4.25204517161734],[-77.48492619837776,4.256687656791996],[-77.48421418293941,4.259762342024999],[-77.48049391451264,4.260954658631533],[-77.47534154090692,4.2668588144624096],[-77.47314559192898,4.266567265406536],[-77.47264372432113,4.26848780570549],[-77.4702818628823,4.267401997691536],[-77.46935786384358,4.264446219954152],[-77.46908931281934,4.267539310194422],[-77.4671957434254,4.266230239650952],[-77.4672924807856,4.268550448139308],[-77.46498786862804,4.269625305297382],[-77.46293456565587,4.268675775173108],[-77.46344732447,4.270385349001344],[-77.46029852864069,4.272997492211516],[-77.45815875833534,4.273735356524128],[-77.45620457151091,4.271293569674924],[-77.45722919336566,4.275026454006138],[-77.45287615511035,4.277821645586414],[-77.45350887248827,4.279588260950504],[-77.4554486971129,4.2797709658208305],[-77.45361143597535,4.28182890398341],[-77.44459231287493,4.2833486910861325],[-77.43927749163117,4.286276215450641],[-77.43886376257564,4.289086780189734],[-77.44180316030906,4.291757290598184],[-77.46013102517918,4.289494882636234],[-77.45691208854169,4.299418582638452],[-77.45296929086487,4.303110305614723],[-77.44494386743798,4.29674810616865],[-77.44454973843995,4.298125453982493],[-77.43919879829497,4.296929810364361],[-77.43432415250612,4.301694856062454],[-77.43495842077539,4.308036857925913],[-77.44041729184892,4.310615484194443],[-77.44361262573068,4.309980670850678],[-77.44249995994033,4.313222017250666],[-77.42227466593152,4.326361265172352],[-77.41285243758676,4.346363107418199],[-77.40705538581665,4.348659877701607],[-77.40839344198406,4.352802320753881],[-77.40626656320569,4.356928504129996],[-77.39557450351333,4.36398614977702],[-77.38550379793747,4.379977812849177],[-77.37852735399798,4.387366693091963],[-77.37557697044156,4.389244659984399],[-77.37535854981945,4.3861032206044115],[-77.37248187165306,4.386716321469748],[-77.36924832290418,4.3922333705081655],[-77.36523179412632,4.4057214229375745],[-77.36198459691684,4.40724409584999],[-77.35790790733694,4.404481939900222],[-77.35855239523949,4.414140070333076],[-77.35719249598145,4.4163230609352695],[-77.35408433597291,4.418290344975162],[-77.35299992355544,4.41779180335044],[-77.35465724633303,4.416504696225388],[-77.35384984593645,4.414435107865927],[-77.34751052419415,4.416097816597016],[-77.34957971557475,4.4171946885956],[-77.34738729929688,4.422869755770137],[-77.34820862377677,4.429767867356759],[-77.35050990995126,4.423927517128163],[-77.35164498756097,4.425204534203658],[-77.3464269129334,4.445716740021055],[-77.34459152973187,4.477814046392837],[-77.3401169120873,4.5136345573947665],[-77.3364882460072,4.51911030829541],[-77.3345924778032,4.5190240908737564],[-77.33310364064965,4.5156518515090625],[-77.33056194678045,4.516371450682527],[-77.32304583482835,4.523675491616586],[-77.32272061250751,4.527662554487847],[-77.32539777693904,4.533481337248361],[-77.32821697648154,4.5345746580349555],[-77.32862678408577,4.536446282522377],[-77.33040585903092,4.535802276959373],[-77.33042866680069,4.532989248071999],[-77.3328106548596,4.533883072607239],[-77.33579932218873,4.540169852249676],[-77.33009150426221,4.566704249274267],[-77.3236254578328,4.567253921975691],[-77.32367165135696,4.570763076864466],[-77.3109059625545,4.573223036292973],[-77.30363542005011,4.569564668792907],[-77.3062182331081,4.565163343104473],[-77.3047552026627,4.562298184522717],[-77.30281742155336,4.5621962689544375],[-77.30203668147215,4.5660518248807875],[-77.29924867356283,4.565438502900349],[-77.29802414922193,4.561959358992681],[-77.29357117720707,4.563393540597019],[-77.2930287426841,4.568476499474912],[-77.29115977157835,4.568919896011778],[-77.2867050244717,4.563634215686818],[-77.2819282606996,4.562714877549581],[-77.28294751511282,4.558722846272531],[-77.28016010370021,4.559883644201193],[-77.27655677947217,4.55852001375365],[-77.28012453501566,4.554391882507446],[-77.2728837803204,4.553096831692358],[-77.27742016930796,4.54610275921965],[-77.27456378231244,4.544125125962694],[-77.27646683908858,4.540713276134397],[-77.27449489311874,4.539587780523618],[-77.27430700078435,4.53675673640862],[-77.26839247311068,4.538327522947384],[-77.26781367697401,4.534813783261882],[-77.25736079393067,4.532974506376945],[-77.25725850812307,4.530040380439914],[-77.25402928500347,4.531508882199489],[-77.2521257191483,4.530724359506735],[-77.25093489275497,4.52755181488277],[-77.25310977511634,4.525948603608299],[-77.25205574494777,4.52420887995919],[-77.25604931168948,4.521751773430253],[-77.25373723818143,4.518955425880563],[-77.25166415106054,4.519125912853724],[-77.25142527574519,4.514248361714806],[-77.2470059944788,4.515545352172467],[-77.24338459125977,4.510360778031497],[-77.24148122389397,4.509985866510419],[-77.24446995087277,4.507120147427486],[-77.24350411890617,4.504328005179218],[-77.2446587729192,4.50152559187552],[-77.24133646649568,4.499787247367863],[-77.24162459392329,4.497371112960423],[-77.23825496474569,4.497323695589671],[-77.24263554160632,4.495390386148358],[-77.24220193275693,4.493554261439783],[-77.23526917499868,4.4931690264127155],[-77.23459476250417,4.490511594707755],[-77.23228416995335,4.491817398917817],[-77.22862513910786,4.491141270981132],[-77.22477292664814,4.487276908501485],[-77.22510923557928,4.484522585169998],[-77.21721326632598,4.4813832067887915],[-77.21957195501966,4.4802715046490675],[-77.21490150237912,4.475833129318914],[-77.20800595058591,4.475725604625154],[-77.21052187271408,4.470205539164795],[-77.20649465121937,4.466089978571517],[-77.20196447505305,4.467381369159625],[-77.20031285601766,4.459523474905268],[-77.20321177322506,4.456229343692996],[-77.20006077138657,4.454677200760216],[-77.20045219249545,4.452020288418737],[-77.19766419589894,4.447866505759237],[-77.1954918465915,4.448357110893028],[-77.19112297957741,4.445734974306902],[-77.19355658928009,4.443451342376704],[-77.19047986053181,4.4433797308956855],[-77.18971881821017,4.445327749121873],[-77.18802996647031,4.444852342311606],[-77.18634459703674,4.44682856248852],[-77.18379511271547,4.444962228309407],[-77.1829486788115,4.4466708456860715],[-77.17629344112476,4.446733306085548],[-77.17459575814894,4.449543638396619],[-77.17140333681641,4.450997439598893],[-77.1711766362036,4.449351532533228],[-77.16840233948989,4.449937713915631],[-77.16469244496278,4.4475676588752435],[-77.16594650720123,4.4457055731921855],[-77.16280160608375,4.439789916288589],[-77.15867601714746,4.439691446002769],[-77.14724699817191,4.442166622266711],[-77.14546962015686,4.443833941505602],[-77.14356386680441,4.443135219715316],[-77.14269930454418,4.445929172022375],[-77.13264228239603,4.445998639200752],[-77.13008301552952,4.448299588046098],[-77.12994072536486,4.453198086502255],[-77.12652376520566,4.451256572146576],[-77.12671519743924,4.453634158471516],[-77.12321498588659,4.455094120044464],[-77.1172244676236,4.447463329552363],[-77.11823719142689,4.445806559048435],[-77.11599803860719,4.4471941511781665],[-77.1133027633029,4.4429613913323465],[-77.10788146946209,4.442190187998619],[-77.10492142574509,4.445392984259286],[-77.10758760332521,4.455164404834591],[-77.10518679682508,4.458024531247133],[-77.10742788723047,4.459707997033547],[-77.1050171644876,4.461242422987084],[-77.105980307077,4.463117933958813],[-77.10432632570917,4.466534418977517],[-77.1071038383626,4.468446420118255],[-77.1079656258849,4.47453393388048],[-77.10685643314497,4.481174350682068],[-77.10358162842448,4.484440133904798],[-77.10082422799297,4.485088732492102],[-77.09635737406097,4.483083793057858],[-77.08558397587825,4.48504446009855],[-77.07928515934458,4.4800814782964835],[-77.07704737743876,4.48158467662131],[-77.07284337798791,4.475487495499408],[-77.06951127462094,4.473419501225919],[-77.06550943611603,4.476500734552417],[-77.0623012631579,4.476706850888206]],[[-77.36230815316077,4.252520583569833],[-77.36580436304354,4.2620297050229965],[-77.36839732374386,4.264609500630627],[-77.36230815316077,4.252520583569833]]]}}]}