{"type":"FeatureCollection","features":[{"type":"Feature","properties":{"code":"275057"},"geometry":{"type":"Polygon","coordinates":[[[-76.6384884140939,4.382310972514176],[-76.63017435518879,4.372544617018264],[-76.62767551651933,4.357828938465275],[-76.6222117521163,4.351618354072173],[-76.62005079486659,4.344783832114899],[-76.61603378272076,4.341029494472764],[-76.61437026357697,4.336415152627637],[-76.59509805810353,4.337860802394516],[-76.58439927034021,4.3362030137324155],[-76.56287226429413,4.336699385343422],[-76.54655604327502,4.332940781721732],[-76.54311447557171,4.296699362107006],[-76.54039105899477,4.288200037509682],[-76.52564259266586,4.260671727923977],[-76.51776133116903,4.249455207798519],[-76.49987709834909,4.2422489799755],[-76.48451923046264,4.240085091664639],[-76.47418139414162,4.2428039676678395],[-76.47245716397907,4.242001763991311],[-76.47351694211295,4.2329389886481295],[-76.46010405854719,4.20208657080758],[-76.45962344781782,4.193403526267161],[-76.4641558906714,4.171970855139534],[-76.46270646549209,4.143768361373532],[-76.45941808327342,4.117834155175331],[-76.46295069076541,4.103074125038802],[-76.46982456504725,4.08924406610663],[-76.48713728310355,4.061935544971618],[-76.54259704660012,4.012163137509162],[-76.54740428723784,4.010619982135552],[-76.55411766792236,4.011766010601207],[-76.58831436588935,4.026491763777074],[-76.61394198925893,4.027152890851141],[-76.66893678052304,4.014338191620482],[-76.70719944038598,3.997481165131319],[-76.71945288665245,3.9943492912952365],[-76.74342529040939,3.9939412824369924],[-76.7532520278225,3.9987968958685656],[-76.76447537989162,3.9973188038824787],[-76.77218901657074,3.9930183519500133],[-76.79344509383344,4.009686960570605],[-76.80743837482083,4.005786823717926],[-76.81837938239465,4.0092290815061915],[-76.8250933760309,4.021099238558861],[-76.8255892467904,4.031842652499961],[-76.84138212837877,4.043340785898067],[-76.85208699012361,4.036223523495153],[-76.85445184021643,4.0327261627851385],[-76.86067023871578,4.029604026242794],[-76.86825409417662,4.030356064550233],[-76.87410593725036,4.027608453863024],[-76.87870704509714,4.027485272160334],[-76.88057608408008,4.030234288728423],[-76.87995045781332,4.033857070060492],[-76.8741061532233,4.040101619796189],[-76.86626265716416,4.043847410052592],[-76.86527097529483,4.045845696492165],[-76.87261083688185,4.0505947241979925],[-76.87384684789725,4.057193738989156],[-76.87841647100481,4.064401189630303],[-76.88040061944508,4.066265156334737],[-76.88942656523318,4.06837835991297],[-76.89264629274305,4.072354175736848],[-76.89363026335036,4.081671714803861],[-76.89796394734594,4.083163152888517],[-76.89845221071613,4.087013969751752],[-76.90266345451602,4.09012069199764],[-76.90030635168074,4.094281159533523],[-76.90872168132063,4.095029080985512],[-76.92591900812636,4.1043493670225075],[-76.935814592567,4.1065877269130056],[-76.93853083164356,4.111059509141512],[-76.94657226689208,4.117396798681398],[-76.9622819803908,4.120877554158483],[-76.97589339450036,4.119823108499077],[-76.98813882919961,4.127029820718576],[-76.99135833148057,4.124297442293482],[-76.99334210865311,4.107650770351825],[-76.99878223019113,4.103552530787454],[-76.99866007281719,4.098087025231166],[-77.00670178471671,4.099205774259019],[-77.01362942391648,4.102311607930574],[-77.01894734694287,4.096970316633303],[-77.02463899158232,4.099207238761153],[-77.02847678116422,4.097840842831715],[-77.03243700168571,4.100822539377475],[-77.03787665014016,4.100947194838284],[-77.04344645005222,4.098587195908863],[-77.0483906401526,4.101692625402507],[-77.05173195527925,4.099829858890473],[-77.05507422582895,4.102810838611788],[-77.06311563433792,4.098462964166345],[-77.06583946537717,4.09465581394403],[-77.07762711254344,4.11151650168847],[-77.07913790385942,4.1115396807259685],[-77.0874619335147,4.120689128062395],[-77.0937257932872,4.1196683135018475],[-77.10405630298368,4.111165182638786],[-77.11505067952504,4.113532410490677],[-77.12119273673625,4.121210392096145],[-77.1219859970767,4.123917101624329],[-77.1177442147046,4.128289699827917],[-77.11796507376397,4.132461454520467],[-77.1286621903082,4.147129546009637],[-77.1307830640107,4.153343241441348],[-77.135513565353,4.158003000336578],[-77.13621466284559,4.160044985298782],[-77.13294933522292,4.162749209081426],[-77.1330240855105,4.16532908285069],[-77.13929224622956,4.176043459745756],[-77.13929211664578,4.178764421430401],[-77.13234798431336,4.179615023611859],[-77.10626232452762,4.174514780729055],[-77.09999537222853,4.175364694882489],[-77.09542221744937,4.179616618726243],[-77.09389817362307,4.187099377259017],[-77.10033469861003,4.196112528193737],[-77.10253670614281,4.211418282840896],[-77.10050148833238,4.218221233669738],[-77.09439990547651,4.227915208409684],[-77.08864098012742,4.229275331868223],[-77.0859323237575,4.227235316373424],[-77.08271730959979,4.216180527061567],[-77.07829550247857,4.210857581121957],[-77.07330107810333,4.209551579450931],[-77.06274061894408,4.211258998692074],[-77.05309027690646,4.210762058352373],[-77.03884108651027,4.204929867786689],[-77.02141751469173,4.17784049849638],[-77.01906636653865,4.179331602337243],[-77.01842859950796,4.1853003371592195],[-77.0261634447287,4.20373892517938],[-77.02710845279125,4.218859051094114],[-77.02380092508668,4.220512815460609],[-77.01446897239776,4.207755209187894],[-77.00371950812934,4.20858209137117],[-76.99870964477503,4.214115927676801],[-76.99810966992158,4.220567808338956],[-77.0062145127651,4.232352881313602],[-77.01931213756114,4.241775492238958],[-77.02108402780686,4.246146153885263],[-77.02155653235235,4.2513436966863765],[-77.01366703508785,4.260286638935725],[-77.0082990248539,4.269748906604605],[-77.00395371534415,4.270753920174286],[-77.00530822453499,4.272728412567801],[-77.0053312256519,4.281110529685009],[-77.00911535213157,4.285542297272002],[-77.0298752737562,4.295727627908775],[-77.03774923845339,4.307160207352297],[-77.0376192844567,4.309853147063677],[-77.03450382456322,4.312632778308682],[-77.01974961952504,4.310286271516645],[-77.02372985662333,4.315846206608057],[-77.03282197548839,4.322891210639682],[-77.02995784329227,4.328900048549201],[-77.02145786563398,4.3324632552914295],[-77.01295218834724,4.3386422819259],[-77.00714516171314,4.348679508612406],[-77.00135698848732,4.368524673811237],[-76.99816758666202,4.374194721157835],[-76.99403317677422,4.3770297453453395],[-76.99451328150991,4.3802581508531375],[-77.00442404679058,4.38990165889021],[-77.00688829688124,4.397682702777388],[-77.00598615841665,4.4088682708967895],[-77.00328176596946,4.411900514363879],[-76.99363305298476,4.417084775858314],[-76.99300878940437,4.420964570117974],[-77.00714892889806,4.429581155674384],[-77.00899752141532,4.435726453507982],[-77.00630798379183,4.441521754868916],[-77.00227047375819,4.436068095942005],[-76.99293183413602,4.435339657305121],[-76.98069796427285,4.429739183066488],[-76.97589299135086,4.431662041474851],[-76.97303137266829,4.427298541902246],[-76.96956780760792,4.431273066002348],[-76.97319349326159,4.4377391031757725],[-76.96987887341743,4.440386022141297],[-76.96584274149672,4.4368500516422955],[-76.96257823251432,4.438092284734921],[-76.95896065612988,4.436324342679995],[-76.95534178596478,4.429560614591935],[-76.95092035011129,4.429043296692157],[-76.9476231181448,4.431432109495631],[-76.94617661374224,4.430858500823035],[-76.94778563366003,4.4263227504982865],[-76.94270361375021,4.423238887444256],[-76.94334767896288,4.417557020207823],[-76.93859378466703,4.423165026759477],[-76.9400702650837,4.426130308334166],[-76.93444614592312,4.428647119036668],[-76.9295521983251,4.422818306904674],[-76.92493788219105,4.427924539436788],[-76.921379440223,4.41864422484673],[-76.92164120044129,4.424897908180469],[-76.91797886932375,4.424643290495453],[-76.9140750177367,4.427586919241378],[-76.91678420066921,4.43038946110039],[-76.91370919456216,4.431515655023645],[-76.91008675055929,4.436733204117047],[-76.90634492289195,4.433503868897219],[-76.91045379552355,4.424560365118282],[-76.90731818329886,4.42498564872551],[-76.90559932983382,4.423341017957057],[-76.9027658801918,4.425289217189118],[-76.89671710580234,4.425359087516938],[-76.89726189237336,4.431085286796588],[-76.89321594602575,4.43219077508661],[-76.89287225184881,4.428901426132029],[-76.89046511117124,4.428495158426983],[-76.88552631525187,4.43879841542514],[-76.87935541125643,4.440055407696377],[-76.87919512643299,4.437233339827685],[-76.88299807752458,4.436543726952777],[-76.88285639825472,4.434025916604128],[-76.88144193086504,4.431213190078893],[-76.8769715360055,4.431800318656826],[-76.87490901304614,4.429404389031163],[-76.87454655082178,4.4191505476675275],[-76.87246337365133,4.41752521665137],[-76.86718191713976,4.422762524182474],[-76.86495795647295,4.4185380350713785],[-76.8562385750015,4.419967469385028],[-76.8581574430529,4.4282019144978335],[-76.85140218521747,4.421823729969674],[-76.84591886909368,4.423964112198291],[-76.84359498186637,4.417648226604172],[-76.84114891258258,4.415383379176546],[-76.83661596167838,4.418245013285798],[-76.83752533009385,4.420945794871329],[-76.83384208662613,4.422711298489048],[-76.83562224554976,4.426194130391593],[-76.83467008055572,4.428041500090671],[-76.8292894821854,4.425298635665683],[-76.83048503838586,4.419898235663084],[-76.82917154039734,4.418029368430041],[-76.8222719550526,4.421285905954505],[-76.82075528824453,4.417853963444713],[-76.81848824303523,4.420838123110286],[-76.81357271974161,4.421577229781462],[-76.81171111639804,4.424541261798538],[-76.80892006018513,4.420844662976265],[-76.80817067423101,4.424336990488541],[-76.80268275685535,4.425924433682326],[-76.79917185258586,4.420101481615859],[-76.80467542594192,4.416337097118742],[-76.8056829972482,4.408204310463589],[-76.8018247519446,4.409533310166182],[-76.80012911865475,4.402616812084204],[-76.79431801424607,4.400703871975452],[-76.79433542783477,4.399279952170559],[-76.79802274702018,4.400782385334196],[-76.80111659625106,4.398702490952303],[-76.7928423781807,4.395816696671375],[-76.79158567078804,4.393266661104917],[-76.79325184434197,4.389583537964995],[-76.79126412000704,4.38786832004422],[-76.78801741439304,4.3913973814663905],[-76.78849182052875,4.395056324894256],[-76.78395568248118,4.3936890486180005],[-76.78167786947876,4.394831553639619],[-76.7804004204574,4.401525808378608],[-76.78197810167478,4.410531756101932],[-76.77800014771896,4.413463392179665],[-76.77446726254749,4.4092667851736564],[-76.7652400248474,4.411403263434522],[-76.7596351910409,4.404441960225768],[-76.74855373627145,4.407959153421302],[-76.72784263275628,4.399695956140931],[-76.72316162623866,4.4024368130461085],[-76.72160976921288,4.400703362896365],[-76.72512075987157,4.397163833986269],[-76.72458679457276,4.391379164664102],[-76.72146356273907,4.385862831421662],[-76.71891152890879,4.387941129660817],[-76.71692029038576,4.382328695664114],[-76.71391003913345,4.38109494208004],[-76.7106313407296,4.380785247184406],[-76.70754310062426,4.382670605493217],[-76.70436178647094,4.379329180323282],[-76.7025938958381,4.385141251467928],[-76.69891196157778,4.385351232690709],[-76.69502097477817,4.38287608419472],[-76.68888433848747,4.382295107759887],[-76.68725330372911,4.384305769448304],[-76.68874678532904,4.388041105586467],[-76.68671211053623,4.391898903517529],[-76.67851699203686,4.396799072164356],[-76.67627734762164,4.395098915784331],[-76.67823811853503,4.3909935079755655],[-76.67585793127898,4.388497712467483],[-76.6647427847326,4.389675768690097],[-76.65867126325156,4.383371853138385],[-76.65258699833925,4.380884208037287],[-76.6384884140939,4.382310972514176]]]}}]}