{"type":"FeatureCollection","features":[{"type":"Feature","properties":{"code":"275017"},"geometry":{"type":"Polygon","coordinates":[[[-76.8319980336542,5.304595840280058],[-76.83392427049625,5.300282201657637],[-76.8297367744625,5.293344014751369],[-76.83806733369937,5.284024358121258],[-76.83804626708286,5.273877403817039],[-76.84209997714305,5.268194176979591],[-76.84779145826019,5.263758782075854],[-76.85643117040354,5.26396412193759],[-76.8515238252848,5.25874493453523],[-76.85155418902173,5.248295405242914],[-76.85356868371542,5.242593738431083],[-76.85276677211652,5.238262886766279],[-76.84855665548963,5.232346093433705],[-76.8482355788206,5.227449638492828],[-76.8515287011308,5.2257787166198],[-76.85212905650798,5.219399155007068],[-76.8542995597611,5.217019622868861],[-76.85134305902864,5.214169500116725],[-76.86012975206296,5.2085203682056544],[-76.86262914917666,5.205016055224235],[-76.86840097942246,5.207210204427781],[-76.87029143880619,5.206350527269535],[-76.87336035344822,5.198067830719026],[-76.8784285222942,5.1955808530771606],[-76.88329818219376,5.189635335345031],[-76.88599627954432,5.188946363189757],[-76.88547935450958,5.186579087001064],[-76.88750069863045,5.185554586502519],[-76.88984093500841,5.180297357011398],[-76.89423012198984,5.180277853627501],[-76.89974703630224,5.168067172057761],[-76.89973956980958,5.166374709456193],[-76.896351403984,5.163681713180495],[-76.89988221375847,5.160450248056236],[-76.90034309484662,5.150123863442673],[-76.90539457309899,5.1472241913584185],[-76.90824181004143,5.142134048809567],[-76.91447778050969,5.139906110127072],[-76.91867832027987,5.135486929648096],[-76.92568707788331,5.13471197558448],[-76.92797763637384,5.131854443932468],[-76.93175499775867,5.133164134626782],[-76.93360460740553,5.1309182269965845],[-76.93805203920056,5.129725325206266],[-76.94490204435994,5.130876634724245],[-76.94628139969359,5.132646334387459],[-76.9475231072521,5.130952933846288],[-76.9476874657363,5.132834175299706],[-76.95169982417974,5.134452007941491],[-76.95002570796424,5.1353807892378995],[-76.95261992850669,5.135996799567124],[-76.95232250498714,5.137215163537348],[-76.95597915704508,5.136592432336272],[-76.95487404825036,5.138358591071892],[-76.95762606272842,5.139636564598902],[-76.96015985713063,5.14396257332794],[-76.96122372743724,5.140542675936899],[-76.9737984231511,5.141111107429879],[-76.97659017767654,5.139595800222821],[-76.9795185813594,5.137428483084591],[-76.98099248449915,5.131835797241138],[-76.98145236491268,5.13381161221173],[-76.98563504577857,5.132142071536975],[-76.98526127994239,5.136753192300148],[-76.98712704539281,5.136765003962466],[-76.995415902314,5.130224882932168],[-77.00208517618427,5.128742293566972],[-77.00573592601057,5.122123718827538],[-77.00928078945202,5.1213410061936315],[-77.00982236111173,5.113652768959355],[-76.99974356477861,5.116279595243384],[-77.00871166067503,5.106837851173395],[-77.00835223235606,5.097342270194417],[-77.01550246868305,5.089044796981852],[-77.01704945911882,5.0890750578744814],[-77.02832548389995,5.1025348394475145],[-77.03083785687295,5.103129541476164],[-77.03295135561416,5.099592227831238],[-77.02899532188212,5.094641842393116],[-77.02717612019518,5.088490875784373],[-77.03758963445893,5.086202031707501],[-77.03754214818247,5.094236349105245],[-77.04077015671146,5.102588710295095],[-77.04319660639737,5.102962416481546],[-77.04771514985032,5.100391407886775],[-77.04724156132647,5.092877587304599],[-77.05440726645736,5.092613061604368],[-77.05629182360946,5.088811368298025],[-77.05619113188777,5.084050295473389],[-77.04974785106197,5.067500377347017],[-77.05761262251144,5.054872862882291],[-77.05657073104987,5.052897642351468],[-77.04834907359134,5.050220409014287],[-77.05133998189672,5.044866048269455],[-77.05086470467023,5.0412332797321255],[-77.04400078365512,5.034449622484999],[-77.04403140655955,5.028538703616107],[-77.05849002179121,5.016172656263564],[-77.06942690222513,5.014174827480872],[-77.07557302486964,4.998618297409905],[-77.07930352938484,4.9998971224873685],[-77.08118235811213,5.00462004215143],[-77.08483390086764,5.0032701208426715],[-77.0910367205197,4.997997633378304],[-77.09039096454757,4.99702277888548],[-77.09517039095732,4.997232427921347],[-77.10141136479842,5.008279709602789],[-77.1105103711431,5.013331315382061],[-77.1232501246821,5.013968486944577],[-77.13881649283417,5.0325195166421395],[-77.149319472341,5.035018786229045],[-77.15597073818276,5.028084932151103],[-77.1602876472524,5.018795743130568],[-77.1668803031834,5.01395270960785],[-77.1685708261424,5.004590297536879],[-77.18181531561544,5.002877346303421],[-77.20398780098265,5.005111182075325],[-77.21782002272943,5.001912815316587],[-77.21725834810383,4.992675384722702],[-77.22176304460669,4.987007038420074],[-77.22426690516096,4.9782099025803745],[-77.22690519137996,4.974359206044937],[-77.23610056381705,4.967660472438752],[-77.24129896742454,4.966268183411955],[-77.24537809544165,4.9673631167964345],[-77.25196469487469,4.977521573201727],[-77.26486826388032,4.979122268905769],[-77.26846532489338,4.971594894479665],[-77.27539779880146,4.967539368189932],[-77.2793316356586,4.969563615604045],[-77.2828479094265,4.979218249332291],[-77.2818026580432,4.982050594427051],[-77.28382612281257,4.98449720672852],[-77.28115990203787,4.989565871283844],[-77.28179441199109,4.991260202565456],[-77.27521954091657,4.997827656512584],[-77.27115809388323,4.9989038557881145],[-77.26949434333989,4.995099386715424],[-77.26284889231215,4.998394587507903],[-77.26114213641648,4.996630358130517],[-77.24669991867233,4.995326173717444],[-77.23901192415053,4.998470575011879],[-77.22900176607112,4.999471933496864],[-77.23152141218958,5.005297919468774],[-77.24047099920602,5.011940353046157],[-77.24167472535385,5.015219000027912],[-77.24167997143917,5.024943624411776],[-77.2306086396294,5.032819560633243],[-77.23002759531738,5.0369702332825455],[-77.23398062085505,5.041772785250828],[-77.23339433765682,5.052974329196331],[-77.23662348261479,5.067930443211935],[-77.24431490596396,5.0783950186182665],[-77.2460445560186,5.08350169029535],[-77.24439374739592,5.0908302564981796],[-77.23319539059378,5.099678823719728],[-77.2319465158194,5.106123990709193],[-77.23558744299118,5.108556454726909],[-77.23610064197868,5.111634095703664],[-77.22956003038132,5.1070205982098855],[-77.22659529902336,5.106845579918911],[-77.22261154670855,5.109270383068349],[-77.22016338248733,5.107324062800728],[-77.22106273078731,5.104211214122756],[-77.22649383082756,5.101970226561605],[-77.22413446850408,5.099543776875748],[-77.21646828416272,5.098050812582358],[-77.21367589200293,5.099047518393377],[-77.21069778780691,5.096110463452078],[-77.20600750062397,5.099550980087145],[-77.20373683838238,5.095909621997919],[-77.19882023625252,5.100968670615657],[-77.19561702758642,5.099426618760901],[-77.19687866327564,5.102410468865287],[-77.19561780303212,5.1044831939743744],[-77.1893184352532,5.098300269542847],[-77.19118804296488,5.103747361864237],[-77.18519562928236,5.104254935271115],[-77.18402637138553,5.105856655303967],[-77.18184766321798,5.112417232055975],[-77.18257245705462,5.1169308821794175],[-77.18036046334493,5.118697893493845],[-77.18206491964321,5.1231492549677],[-77.17840826552839,5.124375856762526],[-77.17634246903651,5.131237330084389],[-77.17861807808663,5.143912104568244],[-77.17811284952865,5.147217241143892],[-77.17539803175958,5.1488569518433565],[-77.17748189798652,5.150143686672209],[-77.17627173687384,5.155251436157016],[-77.16999777882427,5.162241890568964],[-77.16733487477671,5.1620674749453315],[-77.16721048671093,5.160426850988927],[-77.16993768692788,5.159139253296814],[-77.1689091528778,5.157147523178253],[-77.16169498136475,5.160756121259453],[-77.16016293214193,5.160215014455787],[-77.157314299603,5.16504866344053],[-77.15422988633225,5.16534464919738],[-77.15454189830888,5.1682993933500825],[-77.16058428812715,5.170397752388965],[-77.16179651846619,5.173130190463667],[-77.16146597909756,5.176960525894174],[-77.15830766194739,5.178157623729987],[-77.16013181764197,5.181581288305949],[-77.1597270833447,5.184255021853232],[-77.15849502669079,5.1858074393801985],[-77.15446299722731,5.184938801402211],[-77.1525766043053,5.18748761312213],[-77.14068644713097,5.193268234494553],[-77.13990379414668,5.198363997481806],[-77.13718738126329,5.200673107018531],[-77.13603409713568,5.212239654469897],[-77.13197219347387,5.216642383982332],[-77.12752907805213,5.211724396540433],[-77.12973439305608,5.204295310365808],[-77.12782824169642,5.200903555275886],[-77.12445860531972,5.203653786434643],[-77.11714592855378,5.204879949084443],[-77.11292691178528,5.216131882599598],[-77.10718127494204,5.22027069730666],[-77.10261717559928,5.211001454928805],[-77.10218317902701,5.204771476166684],[-77.09683712398402,5.198870767675089],[-77.095510484557,5.19373760948946],[-77.0897868203881,5.188415505844205],[-77.08636899016653,5.189350594578627],[-77.07968776579423,5.187119136565855],[-77.07278474442302,5.180727625479506],[-77.07074806108199,5.182304126044926],[-77.07167558459321,5.184044952184365],[-77.06943830251049,5.1853570638323845],[-77.06985746791315,5.193417264043035],[-77.0731716835794,5.195433508117503],[-77.07012845840308,5.198246321031888],[-77.06992443597619,5.201526571355544],[-77.06641639180532,5.204744687295943],[-77.06288526424214,5.20511017314135],[-77.0496732056755,5.200887552710299],[-77.04792039509533,5.207320116136657],[-77.03850372548243,5.21423486483792],[-77.03856084312304,5.230959955521655],[-77.0362973398698,5.233457584742666],[-77.02841606088947,5.240628512304681],[-77.022109645194,5.237883132309321],[-77.01178247690729,5.2372458990403175],[-77.0056897592259,5.247637414918529],[-77.00575538208614,5.268221223989428],[-77.00862309120532,5.272970164277638],[-76.99859418359034,5.2754454351583036],[-76.98888684423991,5.275442229502971],[-76.98460908797693,5.277662761342469],[-76.98494526115371,5.2809734185975685],[-76.98138202870041,5.285349764445698],[-76.98112321394149,5.293600874441097],[-76.96922945516144,5.29780803429577],[-76.95718344266567,5.294150226268471],[-76.95364970388692,5.297500708931693],[-76.94993981038823,5.2963627280287255],[-76.94874878550547,5.2920498771932785],[-76.9451349310545,5.295129431073121],[-76.93764682153528,5.293331780399171],[-76.93239508289878,5.288371760511552],[-76.93106211032273,5.283246002998226],[-76.93278085168754,5.278711097024825],[-76.92842027494856,5.281226174801645],[-76.92726706795418,5.284577604660399],[-76.92500763219107,5.2833544244938935],[-76.92437504336846,5.284615027626785],[-76.91873183117252,5.28442287959723],[-76.9136856555698,5.279045269880839],[-76.91361010618238,5.280653359058192],[-76.91158363527552,5.279944281880148],[-76.91094262659402,5.282256087993176],[-76.90997629583273,5.281297148648264],[-76.90870412992064,5.283389235216248],[-76.90646975935863,5.283471841776247],[-76.91101569537807,5.285410209097847],[-76.90661196621949,5.289610846570042],[-76.90834947460337,5.290728494135976],[-76.90725415349613,5.29725799855413],[-76.90564355800433,5.299079295178501],[-76.90414550189206,5.298487962327499],[-76.90508191731732,5.30043973848268],[-76.90149687468352,5.302283754430675],[-76.9024934262282,5.31076675764524],[-76.89768104954851,5.313577045733268],[-76.89443361271191,5.32043576282922],[-76.89429763615584,5.322953736700185],[-76.89711193105597,5.324192109019577],[-76.89588657881882,5.32578007671907],[-76.89806973294338,5.330248128786593],[-76.89520247119668,5.333407291316462],[-76.89288503950308,5.332349392147137],[-76.89112064557486,5.335240046847389],[-76.88872596550681,5.3357791708139075],[-76.88601663653549,5.343809008316043],[-76.88344999676457,5.343822968394818],[-76.88276764777913,5.347154234609604],[-76.88459803275003,5.348698915163425],[-76.88308107283581,5.351116851402139],[-76.88472523874827,5.353373297482847],[-76.88220896283593,5.356207203753343],[-76.88347358100839,5.358225205435986],[-76.87942935730194,5.361986901584373],[-76.88013435979076,5.363629800455669],[-76.87766365622332,5.363473376405409],[-76.87659761281765,5.369936017661701],[-76.87380378289521,5.369664184877365],[-76.8748733662,5.371815682512761],[-76.87170730282082,5.374498584625087],[-76.87110323270923,5.3779795211080454],[-76.86773065910074,5.377938455398294],[-76.8691555014185,5.378527822895592],[-76.86675122083955,5.379999306110108],[-76.86757793127293,5.381495215862799],[-76.86542079057341,5.381895047574574],[-76.86074041860479,5.388195380032528],[-76.85643522041016,5.379750866279267],[-76.84895677927904,5.37702618986026],[-76.84567159345977,5.373333944435217],[-76.84541834463175,5.366061006688199],[-76.83774038976583,5.355640324180115],[-76.83077899913945,5.352078806140469],[-76.82572540435234,5.345377917947246],[-76.8252575545377,5.32649395466683],[-76.83375656854537,5.319545936878512],[-76.83210198451019,5.311026588505342],[-76.8350697569727,5.306152226566667],[-76.8319980336542,5.304595840280058]],[[-77.0515181348805,5.049911982188235],[-77.05096523492642,5.050888611772848],[-77.05418572142685,5.051425633602889],[-77.0515181348805,5.049911982188235]]]}}]}