{"type":"FeatureCollection","features":[{"type":"Feature","properties":{"code":"276037"},"geometry":{"type":"Polygon","coordinates":[[[-77.36189553688001,6.806443430341119],[-77.35371485874208,6.803212708780791],[-77.34929403584039,6.795417559804491],[-77.34693546850292,6.795239354370153],[-77.34603865325687,6.79208109584124],[-77.3425052507788,6.789292727977056],[-77.3389843767875,6.780208180505781],[-77.34503655429324,6.771881894447574],[-77.34638854277148,6.765948218202595],[-77.35169429212374,6.760971880017507],[-77.3599578236479,6.740286240739124],[-77.36990605508947,6.730630574454551],[-77.3884305643399,6.7246836127891925],[-77.394122528825,6.718207244910616],[-77.39315794641601,6.709695022615676],[-77.3899774395901,6.706160750075242],[-77.37624603297809,6.703591231693736],[-77.36706985642064,6.699880302553424],[-77.3653893031834,6.696703581424401],[-77.37065779309165,6.684172596574456],[-77.37146357266289,6.67597888395602],[-77.37600215943206,6.6718634632308635],[-77.3727041941861,6.663851814763063],[-77.37785417254912,6.6521072860778645],[-77.38372107819202,6.644896647264886],[-77.38325982892144,6.626926566234147],[-77.38077266718835,6.623573498066435],[-77.37636277765904,6.625936521645315],[-77.36816009393652,6.624202304277446],[-77.36418107965642,6.619047811051701],[-77.35262495855534,6.619612752010767],[-77.34989037514953,6.6180610060567915],[-77.34930898630927,6.611446111084774],[-77.3453200023074,6.606184128132327],[-77.33838060081052,6.599303886762868],[-77.3315454340198,6.596430197250413],[-77.33308335873477,6.588260902942693],[-77.3318319334229,6.581957201307091],[-77.32516551039532,6.583042224619419],[-77.32228176682878,6.581422313495295],[-77.31849316868107,6.572955741706892],[-77.31632514603126,6.561064749437264],[-77.30911416988914,6.551699148166051],[-77.31612730248708,6.5246681213913575],[-77.31828813118142,6.521063192793008],[-77.32513272467628,6.516736340741147],[-77.32675246302205,6.513312100237329],[-77.32566715483114,6.504124887463206],[-77.32796082333186,6.49750031587547],[-77.32582951505157,6.492151182703992],[-77.32865074576802,6.4875591241229245],[-77.32653000267766,6.480499049294679],[-77.31523100557598,6.475325789049862],[-77.30628639005073,6.467682591427263],[-77.30945874338437,6.458383424457452],[-77.31068978290864,6.4480854423409255],[-77.31386333540627,6.4436120300310336],[-77.30715243429665,6.428669537736539],[-77.30620731619075,6.420668359842068],[-77.31146467320877,6.404751867690493],[-77.31675760816728,6.403369875430201],[-77.31889737847263,6.4011771403351645],[-77.31745829325439,6.39828922540579],[-77.30696484432434,6.393938109309545],[-77.30153505349142,6.396614186677311],[-77.29742053779574,6.395588159970089],[-77.29433460757224,6.394066977270882],[-77.28737823163158,6.385878563188328],[-77.27917343548813,6.339251073298499],[-77.27983050535647,6.336782162306292],[-77.29385566806195,6.329861838418196],[-77.30515007213933,6.3109277704466535],[-77.31078746849283,6.308105245949548],[-77.31782981914267,6.298324337991971],[-77.32764327113534,6.293014446073187],[-77.32903045908722,6.288917110509772],[-77.32726872059754,6.2856440222598735],[-77.35323386234671,6.271110330724355],[-77.36453341789269,6.262676225837822],[-77.3650634103181,6.2596959156325624],[-77.37012039073795,6.254402042734512],[-77.37386015020735,6.256497895459006],[-77.37471254496415,6.258716806473046],[-77.37820738907533,6.259430614486689],[-77.37995485792504,6.257908569952633],[-77.38714753293254,6.2665875387753545],[-77.38690626340298,6.2701764833200855],[-77.38171261531369,6.278806045764156],[-77.38176616734404,6.281934981340044],[-77.38558641272499,6.286818579721],[-77.37869751289804,6.311302872229646],[-77.37861332973563,6.335006112010603],[-77.37512842860679,6.336926394170462],[-77.37120339933136,6.3437854804772655],[-77.37023700686359,6.3534989298047435],[-77.37139079904182,6.358263982701885],[-77.37791207591982,6.3671814226620995],[-77.38073319556452,6.368511913606312],[-77.38596228172611,6.368214341991063],[-77.38641395002617,6.365117158549538],[-77.39062168683705,6.363162755752228],[-77.39174009236513,6.36448605068415],[-77.39078880566103,6.36679761717005],[-77.40060805601263,6.379291981238794],[-77.4045133134806,6.381070047281867],[-77.40724059802983,6.376327595437488],[-77.41275258096039,6.38141396668766],[-77.412375151812,6.384356008546774],[-77.41074257541828,6.3889153544282635],[-77.40539524510655,6.393353203195886],[-77.39966064550839,6.390412288509708],[-77.39323308236953,6.390125384928751],[-77.38800945826614,6.387704614302436],[-77.38345170955597,6.39104261167347],[-77.38098843340038,6.397155613326618],[-77.37742755299507,6.395187854146343],[-77.37583842007024,6.391977364107163],[-77.374697510163,6.392434942866373],[-77.37250070654932,6.388563644570354],[-77.36479214523399,6.39022444965434],[-77.3564288157047,6.397220409319118],[-77.355950161073,6.39981677622103],[-77.359675238497,6.402847845206793],[-77.35956779813552,6.407483297891531],[-77.36451105029636,6.410120549497378],[-77.36406009676386,6.4130733303532566],[-77.36761258404971,6.418714447611819],[-77.36698628518155,6.420351411341301],[-77.36915937496764,6.421460285264061],[-77.37149442902376,6.420560524558653],[-77.3707463101108,6.423955321781534],[-77.37531545910633,6.423300708862371],[-77.37569825569625,6.425372400386777],[-77.3739573606511,6.430328653089475],[-77.3726982148213,6.428377714086537],[-77.37078993458556,6.430473203770816],[-77.36738235176529,6.428003440199802],[-77.36309050686828,6.432150051529618],[-77.36120644131165,6.439951078054946],[-77.36161275221133,6.444627227238527],[-77.36390342280214,6.446892030443109],[-77.36250597305082,6.454389763098959],[-77.36093677854103,6.456772001069453],[-77.35391708962209,6.458258313396584],[-77.35200519235406,6.466214211023896],[-77.35587845394684,6.47662903449492],[-77.36039731724537,6.478588253488567],[-77.36091525529605,6.487316120639264],[-77.34799719964911,6.496506764297692],[-77.3459554872241,6.499468754856309],[-77.34586858897353,6.503046712549633],[-77.3394092305058,6.505799141490002],[-77.33561202532258,6.5254114827292256],[-77.33756304248715,6.527860173513034],[-77.33555800020861,6.527787381379994],[-77.33339555994485,6.530336037805057],[-77.33264447706051,6.53502542098704],[-77.33400535848125,6.537384264975515],[-77.33201136270378,6.537282064528654],[-77.33071002090583,6.54125050539119],[-77.32680495472817,6.542883927164667],[-77.3265896194336,6.54989239783265],[-77.33201439455235,6.562731524630067],[-77.33594261508489,6.566032884764809],[-77.33596420826399,6.569611290859029],[-77.34227908495609,6.574789540078484],[-77.3425337787458,6.576724409667065],[-77.35080625771991,6.581656080536675],[-77.35750511165384,6.579618079760792],[-77.36211402537936,6.583085023254796],[-77.364566074028,6.581349064733786],[-77.36929246571395,6.5820040746317545],[-77.37573023203106,6.592401173924429],[-77.3757262766411,6.59385016818635],[-77.37184304429809,6.594777509663288],[-77.37253755975854,6.601593472346849],[-77.38088486306805,6.6098934004517105],[-77.38481948359839,6.611499051191856],[-77.38606004547194,6.6098646297722325],[-77.38598894101307,6.611887363318999],[-77.39160152207705,6.615944061004711],[-77.39343126118604,6.619895027600478],[-77.39812902823138,6.619340048135655],[-77.40094071294436,6.621186495321751],[-77.3991448373622,6.623332416741846],[-77.39974575118367,6.625847151018888],[-77.39837579684308,6.625526841567989],[-77.40288614669453,6.6286675209289],[-77.39826216217233,6.629120593053017],[-77.3977187197757,6.632992547495348],[-77.40015977540224,6.638714341955733],[-77.40604406686583,6.6408099087731784],[-77.40470268471535,6.647010686966837],[-77.40741276547811,6.649654460955162],[-77.40539370244278,6.648568920336231],[-77.40317460219529,6.65111493160714],[-77.39865853831725,6.651195014369193],[-77.3965337092248,6.658060106780283],[-77.3991300678992,6.664337105934408],[-77.40396874082563,6.664961344832193],[-77.40642191047658,6.668076201029976],[-77.40579656703153,6.670825941621615],[-77.40386059495256,6.671350134659633],[-77.40353687312938,6.6731330703780145],[-77.40056305959553,6.673416044280145],[-77.399971021233,6.676082084048971],[-77.40606397956992,6.685667664032792],[-77.41285311121658,6.689354559499861],[-77.41836819490135,6.690178108500902],[-77.41996577956684,6.687593277638655],[-77.4240477255164,6.687460609582217],[-77.42425795973605,6.68427026570356],[-77.42698596110978,6.684033853508026],[-77.43010054991248,6.686947747923853],[-77.42840803691718,6.694710336410026],[-77.42957316870263,6.696583475793261],[-77.43752673176544,6.701832604242668],[-77.45023326763953,6.706105552536826],[-77.46438618655998,6.705228332206104],[-77.47544702414228,6.701105552974752],[-77.48179609243431,6.696881029925009],[-77.48406068892194,6.697366240877784],[-77.47569499808861,6.706351802813515],[-77.47183521217818,6.713051795233355],[-77.4627763408028,6.7184054154995465],[-77.46358585259196,6.721857167869132],[-77.46175302815539,6.7293058561581915],[-77.45724936626567,6.729366335777399],[-77.45329586353068,6.736853409654998],[-77.44894390411162,6.738545613089059],[-77.45001601224277,6.742277661296498],[-77.4461499764871,6.741943340344676],[-77.44371316318598,6.7451523658816654],[-77.43825206039213,6.7445559319558015],[-77.43502623318972,6.746959047309417],[-77.43820589257905,6.754716371198299],[-77.4353765618493,6.758229497932064],[-77.43719600419183,6.7616359792904746],[-77.43401929129033,6.761442340019244],[-77.4357318198339,6.7657851247026315],[-77.43273672473902,6.765402895813054],[-77.43055222746852,6.768884437020176],[-77.4284751592466,6.768067213969061],[-77.42777549951671,6.7720293648771985],[-77.42247611108144,6.771368520624833],[-77.42057601827662,6.773802035710844],[-77.41770370790556,6.774056516612973],[-77.41364108022026,6.77169325957766],[-77.41321732076483,6.778686850739291],[-77.4037173020564,6.788403634277358],[-77.4009801156626,6.787226214660734],[-77.39914192378455,6.790058829207396],[-77.39488724268642,6.7919950254868695],[-77.38755128506716,6.792374772744665],[-77.3864838213824,6.794439207578648],[-77.38393803328353,6.794103379958585],[-77.37724894955352,6.799877226980129],[-77.37562305083708,6.805142390905303],[-77.37180189219919,6.807937807714552],[-77.36271586171381,6.808622534459062],[-77.36189553688001,6.806443430341119]]]}}]}