{"type":"FeatureCollection","features":[{"type":"Feature","properties":{"code":"276019"},"geometry":{"type":"Polygon","coordinates":[[[-77.5778713876166,6.916130633285377],[-77.57150946276465,6.8937647421034285],[-77.56735492419989,6.889766144220857],[-77.560529476191,6.875478092067226],[-77.55345970726353,6.876127448616614],[-77.54608279500633,6.8688448795054455],[-77.54599027117513,6.856688307382001],[-77.53763802208556,6.848318109913578],[-77.5402942834229,6.840255428071089],[-77.54456819536767,6.834307896648568],[-77.54576606042161,6.825163585354062],[-77.54379504622074,6.819272330306148],[-77.53164175688579,6.808428559915626],[-77.5292187884778,6.803141743161689],[-77.53388358057072,6.782207880025396],[-77.54490944287983,6.773809239950651],[-77.53946293677069,6.764090654581253],[-77.54075424816875,6.736168741531685],[-77.54029616752962,6.728948686298963],[-77.53848857284493,6.72662028318058],[-77.53480272021858,6.727525300255763],[-77.52924107071345,6.7323429569593145],[-77.5240515600484,6.733777551997548],[-77.52307811863557,6.738892297976804],[-77.51631335799124,6.745515844207318],[-77.50548528677581,6.750564605314537],[-77.49991711591667,6.749967369203546],[-77.49390249713173,6.754109966522208],[-77.48713253051136,6.75501721531765],[-77.48638344691932,6.758853159873638],[-77.48953640485553,6.76614729382095],[-77.48332295213623,6.770872410238212],[-77.48178789780434,6.783836699518588],[-77.46802663242073,6.804309237279597],[-77.46487722363969,6.817277128165642],[-77.46221731853046,6.821276717466787],[-77.45246364887299,6.823803781741162],[-77.45016039117422,6.821433330750381],[-77.44351193298058,6.820367177301421],[-77.44203262640383,6.816418002252533],[-77.4385849055289,6.8148114547105365],[-77.43145011743701,6.81903847790403],[-77.42689907211513,6.814858778493033],[-77.4258899170074,6.816590005150033],[-77.42276341164126,6.816770779633771],[-77.42221620308811,6.814375548320527],[-77.41691721060317,6.812952075888177],[-77.41506324241686,6.813487401816417],[-77.41552834423311,6.815361817496864],[-77.41289434867628,6.815909294473499],[-77.40943843419979,6.814094959376575],[-77.40904830481475,6.815636769547382],[-77.40459442777046,6.816932562897932],[-77.40432891065166,6.81959299251281],[-77.40183460638525,6.820850296402114],[-77.39420494512308,6.817831202601042],[-77.3927633021683,6.815291851523909],[-77.38487725738531,6.809927124078513],[-77.38505548133162,6.808006386318539],[-77.38091891479985,6.809661891838232],[-77.38041590150704,6.8082581685875425],[-77.3789598408166,6.810443796116374],[-77.37840993671563,6.808856361150106],[-77.37180189219919,6.807937807714552],[-77.37562305083708,6.805142390905303],[-77.37724894955352,6.799877226980129],[-77.38393803328353,6.794103379958585],[-77.3864838213824,6.794439207578648],[-77.38755128506716,6.792374772744665],[-77.39488724268642,6.7919950254868695],[-77.39914192378455,6.790058829207396],[-77.4009801156626,6.787226214660734],[-77.4037173020564,6.788403634277358],[-77.41321732076483,6.778686850739291],[-77.41364108022026,6.77169325957766],[-77.41770370790556,6.774056516612973],[-77.42057601827662,6.773802035710844],[-77.42247611108144,6.771368520624833],[-77.42777549951671,6.7720293648771985],[-77.4284751592466,6.768067213969061],[-77.43055222746852,6.768884437020176],[-77.43273672473902,6.765402895813054],[-77.4357318198339,6.7657851247026315],[-77.43401929129033,6.761442340019244],[-77.43719600419183,6.7616359792904746],[-77.4353765618493,6.758229497932064],[-77.43820589257905,6.754716371198299],[-77.43502623318972,6.746959047309417],[-77.43825206039213,6.7445559319558015],[-77.44371316318598,6.7451523658816654],[-77.4461499764871,6.741943340344676],[-77.45001601224277,6.742277661296498],[-77.44894390411162,6.738545613089059],[-77.45329586353068,6.736853409654998],[-77.45724936626567,6.729366335777399],[-77.46175302815539,6.7293058561581915],[-77.46358585259196,6.721857167869132],[-77.4627763408028,6.7184054154995465],[-77.472322533495,6.7125258867532125],[-77.47569499808861,6.706351802813515],[-77.48395826427463,6.697819443614094],[-77.48330865781367,6.696015226334623],[-77.49207628249525,6.694326159650245],[-77.50324921105607,6.686471876257599],[-77.5054136763232,6.682894667270432],[-77.5047456987935,6.677319705605385],[-77.51006495673829,6.667185280816398],[-77.509670734152,6.65918368023199],[-77.50319877932031,6.656408909406366],[-77.50489348906882,6.655148091328954],[-77.50466537537591,6.6513844205709916],[-77.52036660216703,6.659038139160543],[-77.52555226851393,6.65504724431247],[-77.52355794569178,6.650143972854551],[-77.52423610788776,6.647628765493948],[-77.52523540743078,6.6492555867233705],[-77.52676175908209,6.646928545262881],[-77.52785290985497,6.6488638725084],[-77.52672745846724,6.651395743723128],[-77.5293809080427,6.651623184814582],[-77.52896185371185,6.655685752850218],[-77.53068969267918,6.658049878919485],[-77.53415150218814,6.659297256281548],[-77.53670657917985,6.654901591140742],[-77.53637585983381,6.660125645133121],[-77.53537740567049,6.659192779891441],[-77.53332515376655,6.6626360362973855],[-77.53688091561344,6.665206200540808],[-77.53574215103725,6.666313161560538],[-77.5382319476401,6.668379657393302],[-77.53798937713077,6.67127768705484],[-77.53554204080575,6.670924772890771],[-77.53462415997154,6.67392120393248],[-77.53676307666962,6.67542599737169],[-77.53521645853004,6.677113488482178],[-77.53577788324412,6.680164993649214],[-77.54065951832837,6.686457003950295],[-77.53739085649505,6.688233355579712],[-77.53816133683364,6.689070776213441],[-77.53643520199557,6.689864837710616],[-77.53371013065464,6.69785204009969],[-77.53722660188345,6.704639901619885],[-77.53656966159889,6.706458846196199],[-77.53965247255621,6.714944391720621],[-77.54367364680894,6.717261661948726],[-77.54750134634128,6.724834650885896],[-77.54582590343489,6.732460175752294],[-77.54980956010456,6.740342247661829],[-77.54969557267799,6.744621485910386],[-77.55509670390319,6.751978821764283],[-77.5581789728713,6.752283999740371],[-77.55672377504413,6.753813041797287],[-77.55997505619888,6.755890643780845],[-77.56087923715029,6.761109156524924],[-77.5638697135098,6.7613574081507295],[-77.56305346542223,6.763607364759082],[-77.56606671355604,6.765375178258694],[-77.5615019087017,6.769165008480627],[-77.56112086046409,6.771902657673593],[-77.56250941830137,6.773435025713582],[-77.56540851754312,6.772969683241797],[-77.56631877350446,6.777911683788091],[-77.567578462352,6.7754881569358645],[-77.56816943421961,6.776914530604586],[-77.56811929353307,6.778884832094775],[-77.56645752479847,6.7794688074679925],[-77.56737908437151,6.784011313631652],[-77.5658033078297,6.784154647665446],[-77.56754772837576,6.78611316217598],[-77.57017633695068,6.785074288164822],[-77.56693031319406,6.788460993601973],[-77.566885781633,6.790425617061089],[-77.56839931271986,6.797686310171457],[-77.5695176915084,6.798595505808578],[-77.5673101530117,6.791048744212503],[-77.56848807862207,6.787383596190921],[-77.5708893777462,6.793946241140816],[-77.57566632972328,6.797481521554914],[-77.57772737069695,6.801998773284083],[-77.58044472151988,6.802610914612501],[-77.58233489911038,6.80845728842894],[-77.58899203118824,6.812770681253596],[-77.58697565033094,6.81403204337704],[-77.5876479349779,6.816372740497286],[-77.59606012889657,6.822805525038802],[-77.59850113104409,6.822272112013593],[-77.59924365831512,6.825564459906559],[-77.60038783455576,6.8242744577158305],[-77.6008711254064,6.826771054380572],[-77.61862673194895,6.840515430681137],[-77.61829171268471,6.844605579488245],[-77.62167717987711,6.845824718904112],[-77.62123940069324,6.849724598646162],[-77.62391741770364,6.851336711090653],[-77.62198426355718,6.854406382666355],[-77.6236175125523,6.854630599590507],[-77.63158152561954,6.869959818153745],[-77.62772690249051,6.872006478415699],[-77.6306130670107,6.873315885259842],[-77.63022523002405,6.875336090894848],[-77.62397576844683,6.875373746289256],[-77.61882193033898,6.8792111142096815],[-77.61971955394091,6.8839255276256495],[-77.61733029376495,6.889845080269481],[-77.61471047425977,6.891912997409861],[-77.61459253761393,6.894670939830576],[-77.6129538604992,6.894253452846101],[-77.61202909527077,6.898140286794785],[-77.60775196018716,6.901431816047534],[-77.60579232673115,6.908431369090408],[-77.60288281965109,6.909485709848639],[-77.59937517965818,6.91560549202336],[-77.59682008621138,6.9166034803022285],[-77.59261930167185,6.92212108161425],[-77.5778713876166,6.916130633285377]]]}}]}