{"type":"FeatureCollection","features":[{"type":"Feature","properties":{"code":"276038"},"geometry":{"type":"Polygon","coordinates":[[[-77.38690626340298,6.2701764833200855],[-77.38684261206703,6.265354906193636],[-77.3817493821337,6.26154228568555],[-77.37995485792504,6.257908569952633],[-77.37820738907533,6.259430614486689],[-77.37471254496415,6.258716806473046],[-77.37386015020735,6.256497895459006],[-77.36974127288693,6.254461970080058],[-77.36829932757007,6.257686101380784],[-77.3670067234197,6.257292455750758],[-77.3650634103181,6.2596959156325624],[-77.36453341789269,6.262676225837822],[-77.35323386234671,6.271110330724355],[-77.32726872059754,6.2856440222598735],[-77.31520855056203,6.2745292120141585],[-77.31107262166466,6.261420577740978],[-77.30391768021315,6.265092963941015],[-77.28786132399279,6.267807566765555],[-77.28237737949064,6.266563550353624],[-77.2797411871806,6.2638213760135955],[-77.26318455743831,6.261582567722087],[-77.24872643277376,6.252358958367211],[-77.24484273557476,6.244130959532072],[-77.23928755702997,6.240105770239779],[-77.2329863030875,6.2415329224394895],[-77.23049304988939,6.238968901083183],[-77.23522602360748,6.229810949555599],[-77.24483053413269,6.222927391459052],[-77.24646996098204,6.210519521463027],[-77.24008248858951,6.204429231934455],[-77.23649674970011,6.204056740338615],[-77.23204886230508,6.1911647433681765],[-77.23256851476935,6.178381977277695],[-77.23103551012343,6.173262473723355],[-77.22352677416103,6.163547423110913],[-77.22109982465213,6.16362268761975],[-77.217290281244,6.16014854194276],[-77.21769669498792,6.145049134002534],[-77.22176111524851,6.136064805169383],[-77.24114548163465,6.134381786755455],[-77.25228703035737,6.125910940759923],[-77.2621506631458,6.108870124393604],[-77.27992297776552,6.088352722884679],[-77.27886175261307,6.081453121084792],[-77.2744606418691,6.078111427491365],[-77.27282982308367,6.074685592901687],[-77.28920849730315,6.079166104550268],[-77.29042836074257,6.0728861496523905],[-77.28814560813072,6.068562527938468],[-77.28879394857893,6.058856188234131],[-77.29367735669803,6.046946617150411],[-77.29954232475518,6.044334164378995],[-77.30164940395821,6.041479913458602],[-77.30262632459204,6.034346021140152],[-77.30155916326942,6.033084962407202],[-77.29312540188266,6.032603282097568],[-77.28885872708787,6.030178297942257],[-77.28439748330982,6.0258120925374214],[-77.28410392673419,6.0183391237489445],[-77.2896248200907,6.005139378724607],[-77.30202883856953,5.994847082866784],[-77.30764775381095,5.988147503880839],[-77.31356203260157,5.990474708863701],[-77.31647184204371,5.994743813868126],[-77.32441705621011,5.987655718095027],[-77.33443224645879,5.988284731022986],[-77.33283439336981,5.992563510586251],[-77.33541261340349,6.000484091497469],[-77.34230623583858,6.0059683044231065],[-77.34561199050819,6.014108956606663],[-77.3491978579529,6.015249850058865],[-77.34758328958765,6.023298021605797],[-77.34657185853666,6.019581088418079],[-77.34500683744665,6.018855778303305],[-77.34738898799952,6.026147602368724],[-77.3458024662902,6.029182703877609],[-77.34800642889223,6.033149792338236],[-77.34708483435213,6.03596535427954],[-77.35126643843864,6.043917736690332],[-77.35377517586738,6.045773705197291],[-77.35595130675796,6.045279824474051],[-77.35691460567068,6.047994867472028],[-77.35933134377382,6.0492667649606915],[-77.35849903347099,6.055277755400425],[-77.36098721130531,6.061178341507286],[-77.36122085596202,6.058891696240551],[-77.36192084376512,6.060931179002125],[-77.36412467678338,6.059234091494545],[-77.35483538389013,6.028142089741664],[-77.35266863650907,5.997703091395465],[-77.35683372278032,6.0008154299659395],[-77.36269723353445,6.0007700982765755],[-77.36357605617866,6.003337824082848],[-77.36147733512797,6.002610125924548],[-77.35995596319538,6.005872772397538],[-77.3670926909299,6.017454604561635],[-77.36574341651146,6.01680482737919],[-77.36439393434767,6.0220266578788255],[-77.36679776549721,6.0247341335967235],[-77.36835602354921,6.023206876916049],[-77.3694295200778,6.0242013849454],[-77.37003532928566,6.026617227275153],[-77.36837661811063,6.028216181826053],[-77.37079628624656,6.032603841570335],[-77.36960300393253,6.034273341107337],[-77.37195998746847,6.0338765247890365],[-77.3727114395636,6.036228276637928],[-77.37109758802285,6.0359231932785065],[-77.37061384054374,6.037390927820013],[-77.3714916285748,6.0391945938542335],[-77.37351890166678,6.039265817612431],[-77.37285272596841,6.04253347877119],[-77.37445695437253,6.043387046980911],[-77.37276894801238,6.045083265454593],[-77.39684115491667,6.070849786156998],[-77.42859121487112,6.099237256622871],[-77.43095095566144,6.0990002859829815],[-77.43806291850012,6.114655689489268],[-77.44172569801856,6.11906632978156],[-77.44497300835673,6.119144128372795],[-77.44538210119339,6.123349402063923],[-77.44782315579147,6.124562924126735],[-77.44950600245551,6.1311512976230915],[-77.45529337555308,6.133379532497031],[-77.45442418838684,6.134994120402666],[-77.45582314377799,6.136044857498291],[-77.45435094682443,6.136702986662442],[-77.45811132450945,6.1394663921698225],[-77.45665576467053,6.139807339376773],[-77.4577444081005,6.143137132861796],[-77.46344198273954,6.147809877900727],[-77.46255443993124,6.150616176660208],[-77.46657664776865,6.155710164555671],[-77.46711403366731,6.159026476187762],[-77.47092561853378,6.160495079763223],[-77.47360416107836,6.167458202286753],[-77.47268479003094,6.170213922243249],[-77.47559162727418,6.175476200358673],[-77.4753585153507,6.1787838329643705],[-77.47721020142302,6.180612357482744],[-77.47596888158733,6.1824686016123],[-77.47927711788878,6.185153269560487],[-77.48125066720053,6.184523394797679],[-77.48305946824826,6.192230984234811],[-77.48103354035908,6.195423740839601],[-77.47981116032082,6.210862095666016],[-77.4753837872687,6.21839201960114],[-77.47354197630142,6.23515127514537],[-77.47117760751973,6.237808059959946],[-77.46836169385114,6.248885500718245],[-77.47043123901597,6.2623980773880135],[-77.4685986048413,6.264199545640565],[-77.46923937081039,6.269651135341121],[-77.46740257350035,6.273252419139169],[-77.47025217071837,6.287958223615476],[-77.47428470103335,6.297742146966527],[-77.4724382291646,6.296814219277394],[-77.47006695850519,6.298254785452855],[-77.46823526329854,6.294998894818718],[-77.4680870678169,6.289363584146656],[-77.46138092428237,6.2815703563010175],[-77.4580966938862,6.272948100940994],[-77.44618242796236,6.269578705219828],[-77.43791397431232,6.271572675286222],[-77.43351610419074,6.269487343528681],[-77.42396279364789,6.247980638937918],[-77.41103843159141,6.231027642306742],[-77.39678394985845,6.236974336577077],[-77.395868945578,6.247380061417175],[-77.3982959732486,6.2507219185329745],[-77.4009256945983,6.25053151062815],[-77.38690626340298,6.2701764833200855]],[[-77.39889941703865,6.228158632207737],[-77.40935355478183,6.22714168664794],[-77.40707610790497,6.224787511788463],[-77.40822040755876,6.2241810094103585],[-77.4063044633694,6.224435376155384],[-77.40467744159372,6.218081777574071],[-77.39982675748712,6.219593641555605],[-77.40253808677915,6.222577202667651],[-77.40012823204171,6.225177228768075],[-77.40140226766238,6.226928382527319],[-77.39889941703865,6.228158632207737]]]}}]}