{"type":"FeatureCollection","features":[{"type":"Feature","properties":{"code":"276030"},"geometry":{"type":"Polygon","coordinates":[[[-77.40935355478183,6.22714168664794],[-77.39889941703865,6.228158632207737],[-77.40140226766238,6.226928382527319],[-77.40012823204171,6.225177228768075],[-77.40253808677915,6.222577202667651],[-77.39982675748712,6.219593641555605],[-77.40467744159372,6.218081777574071],[-77.4063044633694,6.224435376155384],[-77.40822040755876,6.2241810094103585],[-77.40707610790497,6.224787511788463],[-77.40935355478183,6.22714168664794]]]}}]}