{"type":"FeatureCollection","features":[{"type":"Feature","properties":{"code":"278057"},"geometry":{"type":"Polygon","coordinates":[[[-77.16822570243045,7.948657628952844],[-77.16089209480236,7.947028154341751],[-77.16013271444382,7.9449434869580955],[-77.1532412373399,7.942671888833843],[-77.14859155101072,7.9438404113942624],[-77.14188790556307,7.939602024939347],[-77.13956925722198,7.939823381764882],[-77.13781330989212,7.9375270002327625],[-77.13816287236205,7.935120325439641],[-77.13364158913822,7.932108323778209],[-77.13345630801939,7.928785697508999],[-77.12980818483527,7.925726572611325],[-77.1231215487984,7.924126465176414],[-77.11873295934214,7.920237695698859],[-77.11735904035561,7.9237294678521835],[-77.11553609102413,7.923538472706696],[-77.1141009827931,7.929306445264615],[-77.10067358584655,7.9239106547413485],[-77.09775157599086,7.919639284078016],[-77.09488363547206,7.918433112293883],[-77.0933188180137,7.914896813721725],[-77.09380238448688,7.911026265160274],[-77.09076064746688,7.906453145348166],[-77.08260013400138,7.898805993364135],[-77.09427151779778,7.877928395289587],[-77.07500176001753,7.847086816204751],[-77.08040756345713,7.845306621285658],[-77.08886214874798,7.831249810318525],[-77.09273739317791,7.827034489772473],[-77.09919513287713,7.823639330537787],[-77.108588831198,7.825277448179804],[-77.1225622951265,7.832419767556303],[-77.1269068291906,7.829373584579287],[-77.12843244036327,7.825392909364496],[-77.12490896544085,7.8129811703677206],[-77.12291024602695,7.788507103663051],[-77.11492581837575,7.783708654151951],[-77.11351704752917,7.779258034185148],[-77.11586467223822,7.776096623479873],[-77.11985652353786,7.775042031781709],[-77.13429798434828,7.778318757632803],[-77.1355887105625,7.774805991882317],[-77.1345105788435,7.7609296283542335],[-77.13078621927235,7.7576222374325425],[-77.12232836559116,7.754246998100996],[-77.08633136254014,7.748257644034993],[-77.07631624942462,7.749075460497409],[-77.07204492195586,7.747018428392721],[-77.06453465052886,7.738256929114755],[-77.05444339564303,7.71091202888249],[-77.02778446348543,7.692254644858679],[-77.01534240086096,7.679803052685884],[-77.00037001894157,7.660822258457017],[-76.99846149805035,7.652757515615747],[-77.00105657220001,7.642492897202999],[-76.9989606526268,7.637259380511011],[-76.99033879321718,7.629566207781124],[-76.96593538359883,7.616535217832734],[-76.95999019805367,7.615045063244338],[-76.95152436674385,7.617374119423687],[-76.951557687253,7.615220297508245],[-76.95353666365588,7.614463199263639],[-76.95332948905269,7.610370137907296],[-76.95835080617138,7.604964489762551],[-76.95962922707088,7.596123659514035],[-76.95540455798232,7.58573769414005],[-76.96844052867783,7.5715618625487195],[-76.97122553559188,7.572033298542408],[-76.97111559817193,7.575653141614168],[-76.97272687449265,7.574754053510105],[-76.98021539847423,7.579462271588341],[-76.98252205106172,7.583752366076169],[-76.98609608010463,7.58462370165887],[-76.98609946676584,7.586472725093529],[-76.98812534426133,7.5846586162539325],[-76.99156334429756,7.587761382081453],[-76.99315641410038,7.587028289742136],[-76.99454583274405,7.590408846121477],[-77.0017882000372,7.5917600241870105],[-77.00647667818976,7.589966336102066],[-77.00870673237847,7.582644344732273],[-77.01248196488729,7.581575855690289],[-77.01618543062023,7.577594317612238],[-77.02440039291798,7.582119547998445],[-77.03111105234359,7.579210256891372],[-77.03764689916682,7.579618514632671],[-77.04014681153024,7.576038979308578],[-77.04835330460384,7.576100544963083],[-77.05292906237099,7.577735309882485],[-77.05689825296815,7.574802692670573],[-77.06168028956506,7.576087241030677],[-77.07054732247207,7.573372663917155],[-77.07364927994377,7.570774341945992],[-77.07699799574277,7.571481695454395],[-77.08757760964392,7.5657186018277685],[-77.0841034279714,7.561171080978454],[-77.08547953651203,7.554155483203772],[-77.09574300923981,7.54796571345878],[-77.09520266039823,7.531244728317631],[-77.08630262579925,7.531754152921053],[-77.0827900410547,7.52846879432343],[-77.076717788351,7.517267878756343],[-77.06617041612282,7.516414181991308],[-77.06315403843843,7.512618407371633],[-77.0605882255353,7.513699096827224],[-77.05931501781089,7.510111436807222],[-77.06247917548609,7.50413566949527],[-77.06147872408741,7.492850106938249],[-77.05698285882045,7.492579160671369],[-77.05375791813543,7.494270467303522],[-77.04621027002196,7.491719569902216],[-77.04045568881412,7.4874666546398885],[-77.04030272033077,7.484407514315592],[-77.0383328590139,7.482614566709287],[-77.02935530967386,7.4848658345818535],[-77.0182769134924,7.483508529055825],[-77.01840885855381,7.478307143993447],[-77.01652541211962,7.47487678631353],[-77.01692140054172,7.465414647199964],[-77.01554277745913,7.463229303521302],[-77.0119083469587,7.462878664272068],[-77.01061681958771,7.460344026546977],[-77.01114096120358,7.456773477753586],[-77.01375027928219,7.454169960090837],[-77.0145562748263,7.444677921067921],[-77.01277693351449,7.440199245189206],[-77.00946115770097,7.4351854418715675],[-77.00365968568491,7.431022232507928],[-77.00173381188307,7.4312900245416245],[-76.99185991626666,7.42135900202868],[-76.98600839920925,7.423036383549174],[-76.98201086885001,7.420480825246386],[-76.98086711632766,7.410233765432736],[-76.97533394336745,7.4056809532466445],[-76.97440762621926,7.402370391636623],[-76.95968291691258,7.3993738310111326],[-76.9550498337594,7.401051936555177],[-76.94693196157766,7.3985428391716255],[-76.9437864310533,7.400464138461132],[-76.94078824343177,7.398589195189686],[-76.93544794355307,7.399172067044049],[-76.93018805348117,7.397721401563047],[-76.92904865024218,7.393771831592289],[-76.91614063425112,7.3873755454472985],[-76.90550163602205,7.374384664757201],[-76.90062186241886,7.374525138692377],[-76.8941545407207,7.3709847386914475],[-76.89104923258327,7.3715892129808935],[-76.88443621554723,7.368948334058302],[-76.8823229502625,7.353672899953494],[-76.88705974053079,7.351223401842333],[-76.888697737845,7.3483616638603735],[-76.88676747876423,7.3438635432189585],[-76.88847668338161,7.339231827894366],[-76.88778250113654,7.288824801463761],[-76.89533736994497,7.291873493840569],[-76.90344937794754,7.290625492213849],[-76.91655339245693,7.29873750124483],[-76.96959344976523,7.293745495766416],[-76.97708145746861,7.292497494139695],[-76.98020146102118,7.288753490288002],[-76.98269746324615,7.288753490288002],[-76.98332146457375,7.292497494139695],[-76.98956147065047,7.290625492213849],[-76.99143347257632,7.288753490288002],[-76.99143347257632,7.285633486735435],[-76.9995454816073,7.289377491615539],[-77.00765749063828,7.285009486436252],[-77.00765749063828,7.280017480957838],[-77.00703348931069,7.276273477106145],[-77.00391348575812,7.271905471926857],[-76.9958014777556,7.2650414655510644],[-76.99892148130817,7.245073443637352],[-77.03962857831658,7.221287891431018],[-77.04353290812946,7.228964338600235],[-77.0516463240698,7.235552522863202],[-77.05184401231918,7.23878043574706],[-77.04755561578992,7.245697114834911],[-77.0486764494708,7.2546562931062795],[-77.0567819217211,7.2685968160208745],[-77.06479436003275,7.274184713435943],[-77.06921739202903,7.279446049498063],[-77.06935876276606,7.284998727899108],[-77.06344783566965,7.295626937766144],[-77.06399342339739,7.303827345545358],[-77.06666834685268,7.306139445792951],[-77.08633289594792,7.308890470909262],[-77.08775830596602,7.31266343775917],[-77.08420724821525,7.320166348623161],[-77.08348908063374,7.326032816149507],[-77.08662172065954,7.3283721176732115],[-77.09453331298312,7.329284208376009],[-77.10125307103971,7.332849957428152],[-77.10804854303456,7.341240402872927],[-77.10538216696506,7.360364619581674],[-77.10704241154781,7.36543272363582],[-77.11501375123953,7.374862310486833],[-77.1078184053668,7.386680511651832],[-77.10834650957173,7.39266150859396],[-77.1128227994638,7.402562796776806],[-77.10703483706868,7.415262147951466],[-77.10853458702576,7.428312353319882],[-77.11649736184819,7.423202878108498],[-77.12316745127333,7.423751740397222],[-77.12959107033515,7.43469116314111],[-77.12798134079196,7.4449057663372855],[-77.13241594276656,7.44565629797637],[-77.13672747513868,7.4540940918862475],[-77.13901400110615,7.455310818575924],[-77.14948703750906,7.452532720738702],[-77.15391852021747,7.4551791841042245],[-77.15615229633971,7.44155054358248],[-77.16541675645988,7.435080821499469],[-77.16218501776984,7.422918054038291],[-77.1658359403745,7.420460396264161],[-77.17476620089911,7.426663474055317],[-77.18054403827767,7.426888795526793],[-77.18078301643726,7.432832964970714],[-77.18571234348639,7.438500157360863],[-77.19599064841219,7.43792794531322],[-77.20149152416354,7.435389014869088],[-77.20607095964112,7.440078381595924],[-77.20948628149142,7.440419879019601],[-77.21634515388217,7.435346294395288],[-77.22662717971298,7.4378386857586065],[-77.23659949419306,7.435180281147041],[-77.24219839182933,7.436336192945305],[-77.244564317673,7.439784119508715],[-77.24878878210149,7.440332500486306],[-77.25021333954072,7.443356805405642],[-77.25384140192506,7.445119903496334],[-77.26323082809569,7.4439589081066515],[-77.26855852132599,7.447279413727358],[-77.27306066009231,7.452593872959312],[-77.28361175322556,7.45486187359171],[-77.28461295641569,7.4569582415658715],[-77.28652036453212,7.456485092186938],[-77.2929251291572,7.460514848792457],[-77.29520737269002,7.456561908615527],[-77.29830832948716,7.457192739829907],[-77.30709275686257,7.451059437749848],[-77.31012118892176,7.454065157684397],[-77.31402834900837,7.4527850552813675],[-77.31447550964486,7.449241615204301],[-77.31732152376912,7.452115441499643],[-77.32204381299795,7.449990810896566],[-77.3226418842043,7.452980383255181],[-77.32953779800926,7.44963676030352],[-77.32985428268239,7.4418804885113445],[-77.33387007098167,7.438265737258519],[-77.33766212366783,7.444934356010833],[-77.34293647158466,7.4452554943864016],[-77.341253860434,7.44911266908133],[-77.34577797804542,7.451630779735126],[-77.34843736584799,7.44899191758833],[-77.35095134216289,7.449691043556584],[-77.34888976742758,7.454497825508895],[-77.35887244552288,7.448697301716834],[-77.35853168137874,7.445877861518852],[-77.36423442496988,7.4403383842059725],[-77.3638493966597,7.4272648876998915],[-77.3659392772185,7.42653982749664],[-77.36955655432615,7.428943589740584],[-77.36624000203852,7.4256373609589446],[-77.3665024173747,7.423738620556037],[-77.37187189211073,7.427438277966303],[-77.37665221429398,7.423008294727083],[-77.3821171768326,7.428568702902112],[-77.38186642814833,7.419837389440488],[-77.38333453395757,7.4187367430578774],[-77.38604799006873,7.421234950263624],[-77.38764837518318,7.420801514192533],[-77.38879422367137,7.416665250022902],[-77.39773087802314,7.405136072058895],[-77.40333980503084,7.4014665202464585],[-77.40716319538899,7.38969177180627],[-77.41040967783096,7.387114387896304],[-77.41254946356293,7.382517028722475],[-77.41567432444953,7.381914803636789],[-77.41536911150638,7.387182259960355],[-77.41984517514106,7.3898670749757684],[-77.42284898114411,7.387296626882176],[-77.42152651307993,7.383845736347439],[-77.42337844803535,7.381194767375291],[-77.4297493069675,7.381531758163817],[-77.43271793200887,7.378884819657912],[-77.43439104857822,7.380414766744252],[-77.43394574942266,7.3858152006854425],[-77.43541054570392,7.389763693876944],[-77.43692629925505,7.389385559216976],[-77.43665747363661,7.38379981844588],[-77.43838564170557,7.380195149015037],[-77.44224999492928,7.382410399802154],[-77.44599712113245,7.382349421388369],[-77.443984160875,7.385728304491693],[-77.44461957585764,7.389632207500881],[-77.43934113371114,7.391830628854677],[-77.44006792684002,7.396232607604077],[-77.44692606595129,7.398429669356858],[-77.45131701671158,7.396358590784189],[-77.45441047924805,7.399292621076086],[-77.45475480180335,7.410888482224607],[-77.45733713149332,7.415997281749185],[-77.45939192673558,7.417073903714595],[-77.46691586204992,7.415460585935477],[-77.4675867171618,7.417303715366074],[-77.4651294378545,7.420354351499157],[-77.47148105565554,7.423077080048074],[-77.47259752154099,7.421113130218828],[-77.47056542402515,7.410904680194278],[-77.47396811351592,7.4057797156101515],[-77.4747652438856,7.401014283217705],[-77.48434463675915,7.3995972570630215],[-77.48766932197026,7.3911894504801126],[-77.50306963470791,7.386669853902049],[-77.50586493838847,7.38427216666804],[-77.50476252617,7.3819450305908845],[-77.50627185298384,7.380024336025542],[-77.50856787353263,7.379941263581088],[-77.51121474210447,7.385339035913034],[-77.51568095017456,7.3874630720763435],[-77.51989321110409,7.38247625509041],[-77.52610632752271,7.386734976939181],[-77.5322015803149,7.381994178830382],[-77.54059794444629,7.382213443803835],[-77.54479862614158,7.379203346817917],[-77.5437654301615,7.370972763506757],[-77.54010703695042,7.36689872730858],[-77.54127201446948,7.365706151534539],[-77.54784044132322,7.367946743145296],[-77.55130654663657,7.363872767625253],[-77.54854875951065,7.356216369942899],[-77.55145834475235,7.356225400696701],[-77.55344677357044,7.360067464485667],[-77.5552111736693,7.3530653773603945],[-77.55854605280263,7.352544191488278],[-77.55924566111042,7.350669239989315],[-77.56148541659746,7.3510173904076055],[-77.56484008707861,7.345725807851011],[-77.5659563452187,7.334311729059948],[-77.56806157219671,7.329662819204884],[-77.56979988173737,7.327673776406641],[-77.57340931594234,7.327179775355603],[-77.57419408237604,7.320653621603185],[-77.58034640755733,7.319638891308557],[-77.58609142424979,7.311555589193631],[-77.58954249681886,7.310054128936599],[-77.58480322389033,7.308873685698927],[-77.58452772779373,7.306727703600757],[-77.58970563248494,7.3049736259794145],[-77.59084713786041,7.308188053924994],[-77.59247220868065,7.307850460469126],[-77.59185320866902,7.300722719265366],[-77.5946772244078,7.300253946937744],[-77.59828268573938,7.302182147076621],[-77.59944738660738,7.306765953434933],[-77.60305356373493,7.304814202990826],[-77.60261563028473,7.308117605612438],[-77.6108716418372,7.307842014899165],[-77.6128705576836,7.311367714342737],[-77.61597409998524,7.3111007923714055],[-77.61715649006459,7.314241386371634],[-77.62015850349229,7.313997790505084],[-77.62086641030277,7.318864827876212],[-77.62451087120309,7.31733790749621],[-77.6239996632803,7.3237104695290896],[-77.6263001123026,7.323764529610116],[-77.62517682270101,7.3273903109089815],[-77.62628091539455,7.3262624622217345],[-77.63319680978077,7.329676931493111],[-77.63211817103956,7.33251488777023],[-77.63543332567383,7.338749932640212],[-77.63902795030657,7.3399725553908866],[-77.63922676572895,7.3439387028266765],[-77.64438618930814,7.3454816247437975],[-77.64495388649311,7.349572273374008],[-77.6488086577179,7.348978665608172],[-77.64830824638466,7.352039910125882],[-77.64970479110656,7.354285068021454],[-77.6544639376583,7.353460724034335],[-77.65221328685129,7.3550446036747985],[-77.65487155467997,7.3618734208614],[-77.6579781041475,7.362661977105745],[-77.65917825440073,7.36678672991826],[-77.66863253621347,7.380875043108176],[-77.67586681891993,7.3735212924049165],[-77.67712375976902,7.377944433416076],[-77.68723502300406,7.387114956625055],[-77.69244196576977,7.3880029817729],[-77.69276279252728,7.386667759993088],[-77.6966402079994,7.389339907682029],[-77.70034131448517,7.388544752950452],[-77.6993771012871,7.393715704341787],[-77.70085017858747,7.410402364185472],[-77.70700329772637,7.429564417294557],[-77.70699564611408,7.434274159524591],[-77.70936524658282,7.435122567009785],[-77.71020949916021,7.43850196947659],[-77.71021858339299,7.444841354982316],[-77.70025616561526,7.461662617382842],[-77.70129401426925,7.466226192219949],[-77.7068613407771,7.472499891102018],[-77.70496214374572,7.487429759264558],[-77.70751694511483,7.493137026974296],[-77.70572519564405,7.497816380784855],[-77.70947202874112,7.501001547483838],[-77.702808872047,7.505920820478877],[-77.70200612432433,7.510736434695559],[-77.71248652848948,7.534471030660484],[-77.72542233196896,7.55209170348769],[-77.7389069730545,7.575925715905555],[-77.73925601821782,7.5849830775272835],[-77.73563863106682,7.59035589675841],[-77.73799906091364,7.598022392717837],[-77.73618085887284,7.6020568966140445],[-77.74235704494902,7.607121467968113],[-77.74488817568516,7.617668459672586],[-77.74192177413653,7.645630180646776],[-77.73570198004063,7.66020522174216],[-77.7290752363823,7.665348935861857],[-77.7207485194067,7.667801959473934],[-77.71277618006889,7.668731257048535],[-77.6880163071313,7.667252226094433],[-77.67742165740054,7.662570296035426],[-77.66427614523553,7.648092388250575],[-77.65216619652523,7.64672977493268],[-77.64719418499783,7.644211215877931],[-77.64414124721031,7.632577140890817],[-77.63888675954695,7.622611563737678],[-77.63786901283044,7.615962737361599],[-77.63188999666858,7.605690378890472],[-77.63069694883944,7.5961198439922555],[-77.62550626574995,7.58807901243955],[-77.62499168762099,7.580473745833956],[-77.60915362449589,7.559074634842602],[-77.60647809837332,7.543474280779094],[-77.59243322865228,7.533182036343419],[-77.5897536957176,7.520175008077274],[-77.58697546932507,7.515392196034725],[-77.56561861292306,7.510599431753917],[-77.55025704778575,7.522962790757731],[-77.54300693734888,7.535366767070343],[-77.53201725461912,7.546887595109524],[-77.52791048515246,7.557823734036447],[-77.52591977216355,7.577223334741575],[-77.52183775730833,7.584606442336508],[-77.51173271409368,7.595291220655838],[-77.50288509509613,7.600039065652766],[-77.47974857033756,7.617715893498428],[-77.44993625755387,7.652699371589506],[-77.4242206766379,7.669660951601941],[-77.42064841343085,7.680914022574541],[-77.40303804662608,7.7011320177267635],[-77.3944317321251,7.7085978100433294],[-77.38209549932117,7.715215608308654],[-77.37430369278309,7.724307834131764],[-77.35946373723618,7.7484278800682205],[-77.34957407251068,7.76105484431622],[-77.32884320644405,7.827787063898427],[-77.32720791393365,7.840249209948354],[-77.32762956199656,7.852935859857951],[-77.32494000791803,7.864278835218613],[-77.32253428134885,7.867304888490196],[-77.30590167335862,7.879664025737441],[-77.29606179450701,7.884047308430354],[-77.28650736193339,7.893265161592467],[-77.27928705370385,7.897716169282091],[-77.27567977408592,7.906755220513219],[-77.27015874291806,7.912688500807803],[-77.26336305700721,7.916786326938336],[-77.2567779488158,7.918696458370562],[-77.23128571579002,7.920717225535157],[-77.2228572632236,7.916132188131201],[-77.2137222829881,7.916593730507827],[-77.21117374689078,7.919982910377712],[-77.20905176966943,7.9275380105856925],[-77.20586597356362,7.930646465757263],[-77.1934043623038,7.9367216484936876],[-77.18143580284254,7.935242282267268],[-77.17173409832861,7.938068443337158],[-77.17127506329484,7.944122575912104],[-77.16857007640783,7.95019794068287],[-77.16822570243045,7.948657628952844]],[[-77.11764714207214,7.445546966309109],[-77.11885722502325,7.440809904531989],[-77.11244905831029,7.431787465732839],[-77.1090344399147,7.430476545021293],[-77.10567604955696,7.432757681949909],[-77.10348597915646,7.431749525459907],[-77.1032613415993,7.4331680418277415],[-77.10904029586641,7.433503342885274],[-77.11580250288796,7.438837847490333],[-77.11764714207214,7.445546966309109]]]}}]}