{"type":"FeatureCollection","features":[{"type":"Feature","properties":{"code":"278058"},"geometry":{"type":"Polygon","coordinates":[[[-77.28652036453212,7.456485092186938],[-77.2850076942517,7.457131440542014],[-77.28361175322556,7.45486187359171],[-77.27306066009231,7.452593872959312],[-77.26855852132599,7.447279413727358],[-77.26323082809569,7.4439589081066515],[-77.25687211815506,7.445703050973293],[-77.25076452816637,7.443860740182913],[-77.24878878210149,7.440332500486306],[-77.24506949480883,7.440081827906795],[-77.24219839182933,7.436336192945305],[-77.23659949419306,7.435180281147041],[-77.22662717971298,7.4378386857586065],[-77.21634515388217,7.435346294395288],[-77.20948628149142,7.440419879019601],[-77.20607095964112,7.440078381595924],[-77.20149152416354,7.435389014869088],[-77.19599064841219,7.43792794531322],[-77.18571234348639,7.438500157360863],[-77.18078301643726,7.432832964970714],[-77.18054403827767,7.426888795526793],[-77.17476620089911,7.426663474055317],[-77.1658359403745,7.420460396264161],[-77.16218501776984,7.422918054038291],[-77.16541675645988,7.435080821499469],[-77.15615229633971,7.44155054358248],[-77.15391852021747,7.4551791841042245],[-77.14948703750906,7.452532720738702],[-77.13862872288445,7.455279635170314],[-77.13241594276656,7.44565629797637],[-77.12798134079196,7.4449057663372855],[-77.12959107033515,7.43469116314111],[-77.12316745127333,7.423751740397222],[-77.11649736184819,7.423202878108498],[-77.10853458702576,7.428312353319882],[-77.10703483706868,7.415262147951466],[-77.1128227994638,7.402562796776806],[-77.10834650957173,7.39266150859396],[-77.1078184053668,7.386680511651832],[-77.11501375123953,7.374862310486833],[-77.10704241154781,7.36543272363582],[-77.10538216696506,7.360364619581674],[-77.10804854303456,7.341240402872927],[-77.10125307103971,7.332849957428152],[-77.09453331298312,7.329284208376009],[-77.08662172065954,7.3283721176732115],[-77.08348908063374,7.326032816149507],[-77.08420724821525,7.320166348623161],[-77.08775830596602,7.31266343775917],[-77.08633289594792,7.308890470909262],[-77.06666834685268,7.306139445792951],[-77.06399342339739,7.303827345545358],[-77.06344783566965,7.295626937766144],[-77.06935876276606,7.284998727899108],[-77.06921739202903,7.279446049498063],[-77.06479436003275,7.274184713435943],[-77.0567819217211,7.2685968160208745],[-77.0486764494708,7.2546562931062795],[-77.04755561578992,7.245697114834911],[-77.05184401231918,7.23878043574706],[-77.0516463240698,7.235552522863202],[-77.04353290812946,7.228964338600235],[-77.03962857831658,7.221287891431018],[-77.04946553536303,7.21636941239359],[-77.05757754336554,7.209505404989329],[-77.07130555817412,7.203265398912606],[-77.09501758393947,7.183921378326545],[-77.09737969837516,7.181086840592343],[-77.09424276357339,7.174681323147354],[-77.09653166935686,7.171706994363774],[-77.0962710383684,7.1599723119872465],[-77.10448072578453,7.149065823058152],[-77.10478556128925,7.146107873250173],[-77.12512104160112,7.153349214157629],[-77.13559630972429,7.155190532500967],[-77.14551048840565,7.153603383441748],[-77.1534883237403,7.147962049181842],[-77.1593212979792,7.13832425311449],[-77.16611394381397,7.11126620504109],[-77.17603009504808,7.0998020040754],[-77.18075814149807,7.089131089161242],[-77.18699890039471,7.084461559033684],[-77.19301928977063,7.102539172985701],[-77.19636107900925,7.106189164849923],[-77.20125088198392,7.101726714708832],[-77.21026724782996,7.098872541950016],[-77.21611144031976,7.100724203339723],[-77.21342441929517,7.10441633769301],[-77.2120331144879,7.113004556747853],[-77.21397757224605,7.114746390761013],[-77.21240238191643,7.118553841288588],[-77.21385733805965,7.119742573772953],[-77.2122001520649,7.121309078905483],[-77.21375749891678,7.124010635936713],[-77.21246992693574,7.126829660643921],[-77.2134299255764,7.131258732683079],[-77.21133303926717,7.1337920519449085],[-77.21199323457233,7.137152124834586],[-77.20867921842392,7.1367580575431475],[-77.20883155750045,7.146037915504678],[-77.20603355621517,7.145682183408155],[-77.20560330831592,7.1503599780998],[-77.20080710698016,7.154120477141021],[-77.2005310688944,7.157307417903382],[-77.20376596901673,7.160744694944526],[-77.20121171992122,7.1669955778293115],[-77.20934484184869,7.163120582282431],[-77.209906896998,7.159945428499782],[-77.2145642945892,7.156244710765293],[-77.21738195866703,7.146172979832215],[-77.22979277000866,7.140065692205724],[-77.24319807806677,7.135836110247226],[-77.24747616960195,7.132806601408788],[-77.25118766849943,7.1232949931816165],[-77.25358037395785,7.121851883667773],[-77.25480055621443,7.115442699825223],[-77.25945894625261,7.112007076519603],[-77.25961449201293,7.108910014434343],[-77.26225296746537,7.109567960535685],[-77.26500722291968,7.1028857889677965],[-77.26615712758519,7.0935367487064696],[-77.26467208332764,7.092379922622797],[-77.26474202358958,7.0874224635570044],[-77.27302911364649,7.0891495373631415],[-77.28764143064097,7.078453084164323],[-77.3096400865968,7.070019908989821],[-77.32657234365615,7.05135135813714],[-77.32952428838831,7.046261298892148],[-77.33255918215178,7.03570956812456],[-77.33170396946247,7.018080994801892],[-77.3351260286397,7.013597563404971],[-77.33532232129261,7.00102528144572],[-77.33791292274577,6.985552863574583],[-77.34266349311537,6.973507023857167],[-77.34213819553008,6.967701140851148],[-77.33905735815398,6.958171766279463],[-77.33271609779752,6.961153075102402],[-77.33130137124033,6.959325532746618],[-77.33049922721347,6.961247261925109],[-77.3276110202064,6.9613754500859955],[-77.32636235112051,6.963165958226682],[-77.32331553976508,6.962561725621185],[-77.32030246955185,6.9575649409703715],[-77.31396565515246,6.955306151069237],[-77.31571617539112,6.948616566487658],[-77.31878989594497,6.946239154997954],[-77.31752277762871,6.9431850015914165],[-77.31368593832775,6.9406562496428705],[-77.31393898660951,6.936289269820804],[-77.31694693826432,6.931726428263232],[-77.31634003582207,6.928690275686108],[-77.31863511843125,6.927744795568458],[-77.33316486177591,6.926732468744035],[-77.34033580579302,6.928351250638229],[-77.34429239899777,6.922207480041777],[-77.34476393680728,6.9180220234096055],[-77.34104093683715,6.914445349212542],[-77.33434519291336,6.913501488891882],[-77.32761797350628,6.909115777017803],[-77.32630313751406,6.905338510249692],[-77.32972839514747,6.902713993847556],[-77.33196326450411,6.890816537816704],[-77.32856204054389,6.89122901834304],[-77.3218424202986,6.886982919597699],[-77.31736790549826,6.879342566647097],[-77.31941488457738,6.879298286026028],[-77.32456220955874,6.873619641928428],[-77.33026009375897,6.877430332049926],[-77.32988825830944,6.880294775864115],[-77.33156833640624,6.878684249278024],[-77.33400851065755,6.880258791688846],[-77.33811777204045,6.879518704911959],[-77.33834001024115,6.875195454465768],[-77.34317324476353,6.8670400749853115],[-77.34546970548575,6.855983425220984],[-77.35130397247684,6.847646540034191],[-77.35880354913013,6.832054364145563],[-77.35937833022717,6.823812044248314],[-77.35570240207113,6.808632004357776],[-77.3569410757242,6.804390446186176],[-77.36440200762144,6.8089597669315935],[-77.37180189219919,6.807937807714552],[-77.37840993671563,6.808856361150106],[-77.37909133850548,6.810443985349821],[-77.38041590150704,6.8082581685875425],[-77.38091891479985,6.809661891838232],[-77.38505548133162,6.808006386318539],[-77.38487725738531,6.809927124078513],[-77.3927633021683,6.815291851523909],[-77.39420494512308,6.817831202601042],[-77.40183460638525,6.820850296402114],[-77.40432891065166,6.81959299251281],[-77.40459442777046,6.816932562897932],[-77.40904830481475,6.815636769547382],[-77.40943843419979,6.814094959376575],[-77.41289434867628,6.815909294473499],[-77.41552834423311,6.815361817496864],[-77.41550396706009,6.813216878239416],[-77.4182009742616,6.812963500856085],[-77.42235459339872,6.814472845153432],[-77.42276341164126,6.816770779633771],[-77.4258899170074,6.816590005150033],[-77.42689907211513,6.814858778493033],[-77.43145011743701,6.81903847790403],[-77.4385849055289,6.8148114547105365],[-77.44203262640383,6.816418002252533],[-77.44351193298058,6.820367177301421],[-77.45016039117422,6.821433330750381],[-77.45246364887299,6.823803781741162],[-77.45802995105208,6.823253600989119],[-77.46419894214438,6.8185907907049454],[-77.46802663242073,6.804309237279597],[-77.48178789780434,6.783836699518588],[-77.48332295213623,6.770872410238212],[-77.48953640485553,6.76614729382095],[-77.48638344691932,6.758853159873638],[-77.48713253051136,6.75501721531765],[-77.49390249713173,6.754109966522208],[-77.49991711591667,6.749967369203546],[-77.50548528677581,6.750564605314537],[-77.51631335799124,6.745515844207318],[-77.52307811863557,6.738892297976804],[-77.5240515600484,6.733777551997548],[-77.52924107071345,6.7323429569593145],[-77.53480272021858,6.727525300255763],[-77.53848857284493,6.72662028318058],[-77.54029616752962,6.728948686298963],[-77.54075424816875,6.736168741531685],[-77.53946293677069,6.764090654581253],[-77.54490944287983,6.773809239950651],[-77.53388358057072,6.782207880025396],[-77.5292187884778,6.803141743161689],[-77.53164175688579,6.808428559915626],[-77.54379504622074,6.819272330306148],[-77.54576606042161,6.825163585354062],[-77.54456819536767,6.834307896648568],[-77.5402942834229,6.840255428071089],[-77.53763802208556,6.848318109913578],[-77.54599027117513,6.856688307382001],[-77.54608279500633,6.8688448795054455],[-77.55345970726353,6.876127448616614],[-77.560529476191,6.875478092067226],[-77.56735492419989,6.889766144220857],[-77.57150946276465,6.8937647421034285],[-77.5778713876166,6.916130633285377],[-77.58102066681391,6.9184135566186455],[-77.59188082440755,6.921117905871313],[-77.59296117859083,6.923619068820869],[-77.59163830634873,6.932196596187282],[-77.58723188781295,6.936418293076997],[-77.58667992271313,6.940779594867934],[-77.57067594712714,6.9624021576221935],[-77.56307927932943,6.9831098374522185],[-77.56146582168213,6.993265924325954],[-77.5676033033526,6.998461164444279],[-77.57211252397411,7.011531093283281],[-77.58633067083287,7.028688050634798],[-77.58624590248672,7.031009457258676],[-77.57639852628915,7.042385830261708],[-77.58025809725513,7.051950308661901],[-77.58015205351859,7.070492472156502],[-77.58545894649893,7.077066163607526],[-77.59962281936066,7.086621146397931],[-77.60063095836722,7.089611157901459],[-77.59727614904631,7.10277236101399],[-77.60071226291893,7.116227206062888],[-77.5990149851495,7.128031025487758],[-77.60008170835567,7.132008859115842],[-77.59670641760198,7.140167874140616],[-77.60096449358889,7.143452285542651],[-77.60392085753853,7.14997775846615],[-77.60150692811186,7.152544854865539],[-77.59928213852038,7.152161378475171],[-77.59730491869732,7.156371167028908],[-77.59082718196174,7.158193108486728],[-77.58436535934578,7.1734001182538805],[-77.58780435080058,7.179048785308964],[-77.59070678425297,7.1802044132571154],[-77.59056763598022,7.185034263175169],[-77.59376728726363,7.193168953477425],[-77.59783300027652,7.196543769090681],[-77.60122708890253,7.204512100587976],[-77.6068867860036,7.206773346409875],[-77.61312247776391,7.204783529194401],[-77.62120596911228,7.205021042851911],[-77.63440090616791,7.213844596294564],[-77.64781679484264,7.216796022691653],[-77.65404848904689,7.221025139794108],[-77.66801910110433,7.2213293798306495],[-77.6738030978251,7.236554001675984],[-77.67945496230794,7.24232809860905],[-77.68253955658457,7.255388557549338],[-77.68256288988846,7.26412779927432],[-77.68046960621336,7.272149476085076],[-77.67339790689937,7.282723109593007],[-77.67357197799475,7.29059371436847],[-77.68640319504073,7.297353633105388],[-77.69348377804124,7.304666774727366],[-77.70252023656877,7.308324797699129],[-77.70968850972065,7.3303874217511975],[-77.71870475523895,7.341208125204446],[-77.72887684056451,7.366599018589795],[-77.73336017940159,7.373658887729505],[-77.7359696599741,7.383467247903241],[-77.73125726230546,7.3973006842406335],[-77.72821991982033,7.414473005494926],[-77.72219904604799,7.422999729857793],[-77.72112759303468,7.435254683821029],[-77.71929352829648,7.437736830868403],[-77.71455796907384,7.43948697983933],[-77.71021858339299,7.444841354982316],[-77.70936524658282,7.435122567009785],[-77.70699564611408,7.434274159524591],[-77.70700329772637,7.429564417294557],[-77.70006634392269,7.40611090803975],[-77.70019385022619,7.388343790140084],[-77.6966402079994,7.389339907682029],[-77.69276279252728,7.386667759993088],[-77.69244196576977,7.3880029817729],[-77.68723502300406,7.387114956625055],[-77.67712375976902,7.377944433416076],[-77.67586681891993,7.3735212924049165],[-77.66874021517361,7.380973220287899],[-77.65917825440073,7.36678672991826],[-77.6579781041475,7.362661977105745],[-77.65487155467997,7.3618734208614],[-77.65221328685129,7.3550446036747985],[-77.6544639376583,7.353460724034335],[-77.64970479110656,7.354285068021454],[-77.64830824638466,7.352039910125882],[-77.6488086577179,7.348978665608172],[-77.6448523061971,7.3495155599113104],[-77.64438618930814,7.3454816247437975],[-77.639414020429,7.34410982640577],[-77.63895420892112,7.339864839406857],[-77.63517176394492,7.338395510779435],[-77.6320387526514,7.332189485471986],[-77.63319680978077,7.329676931493111],[-77.62628091539455,7.3262624622217345],[-77.62517682270101,7.3273903109089815],[-77.6263001123026,7.323764529610116],[-77.6239996632803,7.3237104695290896],[-77.62451087120309,7.31733790749621],[-77.62116394695101,7.319053140843607],[-77.62015850349229,7.313997790505084],[-77.61715649006459,7.314241386371634],[-77.61597409998524,7.3111007923714055],[-77.6128705576836,7.311367714342737],[-77.6108716418372,7.307842014899165],[-77.60261563028473,7.308117605612438],[-77.60305356373493,7.304814202990826],[-77.59944738660738,7.306765953434933],[-77.59843527575589,7.302333263334958],[-77.59404320399324,7.300237454833564],[-77.59169908627314,7.300880752828107],[-77.59247220868065,7.307850460469126],[-77.59084713786041,7.308188053924994],[-77.58970563248494,7.3049736259794145],[-77.58452772779373,7.306727703600757],[-77.58480322389033,7.308873685698927],[-77.58954249681886,7.310054128936599],[-77.58609142424979,7.311555589193631],[-77.58034640755733,7.319638891308557],[-77.57419408237604,7.320653621603185],[-77.57340931594234,7.327179775355603],[-77.56979988173737,7.327673776406641],[-77.56806157219671,7.329662819204884],[-77.5659563452187,7.334311729059948],[-77.56484008707861,7.345725807851011],[-77.56148541659746,7.3510173904076055],[-77.55924566111042,7.350669239989315],[-77.55854605280263,7.352544191488278],[-77.5552111736693,7.3530653773603945],[-77.55353858263408,7.36002840423879],[-77.55145834475235,7.356225400696701],[-77.54809515259649,7.356817852493123],[-77.55120298556028,7.364146618213795],[-77.5474271411282,7.368209469071132],[-77.54046248519683,7.366319432377281],[-77.53995287033155,7.367785614999036],[-77.5437654301615,7.370972763506757],[-77.54479862614158,7.379203346817917],[-77.54059794444629,7.382213443803835],[-77.5322015803149,7.381994178830382],[-77.52610632752271,7.386734976939181],[-77.51989321110409,7.38247625509041],[-77.51568095017456,7.3874630720763435],[-77.51121474210447,7.385339035913034],[-77.50856787353263,7.379941263581088],[-77.50627185298384,7.380024336025542],[-77.50476252617,7.3819450305908845],[-77.50586493838847,7.38427216666804],[-77.50306963470791,7.386669853902049],[-77.48766932197026,7.3911894504801126],[-77.48434463675915,7.3995972570630215],[-77.4747652438856,7.401014283217705],[-77.47396811351592,7.4057797156101515],[-77.47056542402515,7.410904680194278],[-77.47259752154099,7.421113130218828],[-77.47148105565554,7.423077080048074],[-77.4651294378545,7.420354351499157],[-77.4675867171618,7.417303715366074],[-77.46691586204992,7.415460585935477],[-77.45939192673558,7.417073903714595],[-77.45733713149332,7.415997281749185],[-77.45475480180335,7.410888482224607],[-77.45441047924805,7.399292621076086],[-77.45131701671158,7.396358590784189],[-77.44692606595129,7.398429669356858],[-77.44006792684002,7.396232607604077],[-77.43934113371114,7.391830628854677],[-77.44461957585764,7.389632207500881],[-77.443984160875,7.385728304491693],[-77.44599712113245,7.382349421388369],[-77.44224999492928,7.382410399802154],[-77.43838564170557,7.380195149015037],[-77.4361874424954,7.389885359655352],[-77.43440985056435,7.388223081841659],[-77.43385641170642,7.3791425751210795],[-77.4297493069675,7.381531758163817],[-77.42410796550848,7.380804516633987],[-77.42152651307993,7.383845736347439],[-77.42260395471402,7.387781417202007],[-77.41949431169138,7.389882119032961],[-77.41583342759253,7.387976563141478],[-77.41584234624605,7.382160667219125],[-77.4140652613371,7.381686484255454],[-77.40716319538899,7.38969177180627],[-77.40333980503084,7.4014665202464585],[-77.39773087802314,7.405136072058895],[-77.38879422367137,7.416665250022902],[-77.38764837518318,7.420801514192533],[-77.38604799006873,7.421234950263624],[-77.38333453395757,7.4187367430578774],[-77.38186642814833,7.419837389440488],[-77.3821171768326,7.428568702902112],[-77.37665221429398,7.423008294727083],[-77.37187189211073,7.427438277966303],[-77.36795252235453,7.42383169563243],[-77.36620130483186,7.4240395952875815],[-77.36955655432615,7.428943589740584],[-77.3659392772185,7.42653982749664],[-77.3638493966597,7.4272648876998915],[-77.36423442496988,7.4403383842059725],[-77.35853168137874,7.445877861518852],[-77.35887244552288,7.448697301716834],[-77.35495721421938,7.451885933238714],[-77.3484825422425,7.454394764255653],[-77.35095134216289,7.449691043556584],[-77.34843736584799,7.44899191758833],[-77.34577797804542,7.451630779735126],[-77.341253860434,7.44911266908133],[-77.34293647158466,7.4452554943864016],[-77.33766212366783,7.444934356010833],[-77.33387007098167,7.438265737258519],[-77.32977231272832,7.442110177778147],[-77.33016134785055,7.4490239186057465],[-77.32337550207774,7.452805726975953],[-77.32204381299795,7.449990810896566],[-77.31732152376912,7.452115441499643],[-77.31447550964486,7.449241615204301],[-77.31402834900837,7.4527850552813675],[-77.30969940304755,7.454056954826854],[-77.3073770749391,7.450977236396227],[-77.29830832948716,7.457192739829907],[-77.29520737269002,7.456561908615527],[-77.2929251291572,7.460514848792457],[-77.28652036453212,7.456485092186938]]]}}]}