{"type":"FeatureCollection","features":[{"type":"Feature","properties":{"code":"170017"},"geometry":{"type":"Polygon","coordinates":[[[-75.34558809805014,5.106585455952654],[-75.35436314088764,5.103307782905972],[-75.35243325204618,5.095678941312485],[-75.35528771688263,5.09522124942464],[-75.35604103148717,5.091166118056833],[-75.36037876754625,5.091346229195153],[-75.36271082266398,5.088047384630784],[-75.36160542076317,5.085873028831941],[-75.3635753766967,5.0821296338182265],[-75.36418607923406,5.075222441084179],[-75.36841021456098,5.0701772219329655],[-75.36989924094792,5.064061618320181],[-75.36067902648182,5.060150589232819],[-75.3560751613806,5.055466401742478],[-75.35699996157604,5.050345253708542],[-75.35555140748755,5.04898294275273],[-75.34700533914929,5.051431656162265],[-75.34073345855364,5.0457379947470145],[-75.33696958210714,5.044364299960989],[-75.33270181304954,5.044966973447629],[-75.32776371441417,5.040974759107769],[-75.33363249799305,5.038697624877386],[-75.33121045209805,5.03179620581966],[-75.33078274548024,5.018482119584462],[-75.33614075205378,5.012333110101849],[-75.34054953086513,5.011334655938526],[-75.34646077677877,5.012839820645468],[-75.35325093172577,5.011682435089085],[-75.3608179762652,5.012807344487612],[-75.36585760274596,5.017498632345166],[-75.36882444446803,5.017929000572167],[-75.38113395833528,5.026368353600901],[-75.38487577674664,5.024345388654581],[-75.39089689220299,5.0238179899612305],[-75.40063375196752,5.0251617848379055],[-75.40273951167876,5.028307608468367],[-75.40941629112251,5.027973090055639],[-75.41170202416077,5.026772243546816],[-75.41207009551067,5.021571470407764],[-75.41362922465345,5.020496976289962],[-75.42529686183377,5.021270866944008],[-75.43299556552756,5.024485243467382],[-75.43720724230178,5.02318911484457],[-75.43585172112347,5.024938563446142],[-75.44489302670064,5.0267076275318345],[-75.44347009831432,5.027497625652586],[-75.44449950345523,5.029412650414315],[-75.44221078690526,5.031310784036123],[-75.44382193672755,5.036336724003888],[-75.44271426916782,5.037184349872746],[-75.43576479613336,5.035329794445772],[-75.43174369284321,5.028469447268435],[-75.42720715987372,5.028625684142128],[-75.42584233746129,5.032381467774428],[-75.4220858411183,5.031570564502601],[-75.421831076366,5.0321365657858905],[-75.42626645687159,5.035912632361544],[-75.42509990686392,5.0389841551337895],[-75.42254930771094,5.0400989045486995],[-75.42159913172475,5.043772816957414],[-75.42589953223506,5.0443199689461835],[-75.42585141346649,5.042862204126493],[-75.42787598278312,5.042606086972285],[-75.42752333190032,5.044311974862524],[-75.43050857040214,5.043767989448213],[-75.43180621906299,5.047275153272267],[-75.43566922811232,5.046682915391898],[-75.44057043034388,5.0412615115077415],[-75.44517858507879,5.042171790094812],[-75.45358740159224,5.0369415315087736],[-75.4559146991349,5.043693119861302],[-75.46212902397349,5.046756178551618],[-75.46200030616473,5.038539715756201],[-75.46660159501738,5.038634995813368],[-75.47110275882022,5.036666989806804],[-75.47099261879714,5.038929512954326],[-75.4737534645111,5.039976918924651],[-75.47414158329104,5.0423806914529905],[-75.47149861045949,5.044249827109525],[-75.47129792738548,5.053163543079336],[-75.47265660588226,5.052995550079231],[-75.47252935874633,5.051463537880352],[-75.47450416790008,5.053262819664155],[-75.47043139154403,5.05620994717151],[-75.4672834009852,5.05559605337703],[-75.46600046830832,5.05853695572182],[-75.46689236759914,5.060912605489534],[-75.46547230856748,5.061877362733696],[-75.46714847652584,5.0652762819542545],[-75.47105861086823,5.0649990508750875],[-75.4734402060621,5.062558780978634],[-75.47417134847439,5.064802564875038],[-75.47190527102958,5.065124926068734],[-75.47085984172577,5.0684778389416465],[-75.47261976604278,5.07014086031927],[-75.47711642835276,5.068132117704522],[-75.47790207616163,5.06947626019479],[-75.48074068858512,5.067356998061712],[-75.48000789449412,5.070583657274142],[-75.48556969106653,5.075474862015938],[-75.48483950407734,5.081611176404124],[-75.48679369604395,5.082191189188279],[-75.48771871838295,5.084668478901676],[-75.48627566029126,5.085640228526529],[-75.48608362127663,5.091998049892823],[-75.48695427294501,5.092767935791699],[-75.49008989236881,5.089887422563152],[-75.48942126794879,5.085708999449309],[-75.49240864561102,5.081314465595256],[-75.49270267527027,5.077635545699934],[-75.49108049128819,5.077432039551184],[-75.49323783664772,5.074337139252066],[-75.49399309706553,5.076270038344774],[-75.49632754948277,5.076788183112342],[-75.49873177349741,5.07402091271797],[-75.50115570349914,5.080136998670241],[-75.50355717642998,5.078076114019893],[-75.50793532513785,5.078568137375896],[-75.50880699599276,5.075728741279249],[-75.5124128409334,5.080810558585938],[-75.51111053651329,5.083550336654923],[-75.50650160530421,5.086533716761096],[-75.50860813634733,5.09442969424191],[-75.51114009497968,5.095149964988309],[-75.51269939792928,5.093406549230622],[-75.51332704405712,5.0956942301389745],[-75.50961539912083,5.107386809107254],[-75.51055975412237,5.110853436869434],[-75.50782551421634,5.115438159570033],[-75.50332574703845,5.118425316117111],[-75.50537689953728,5.129370708969816],[-75.50121501069384,5.130252342347433],[-75.49627378456478,5.1352376907174175],[-75.49497336116599,5.138869330024875],[-75.49361136388518,5.138916328819505],[-75.49403490016857,5.142132575051448],[-75.49112543525467,5.14470757297471],[-75.48636511216466,5.141560801120306],[-75.47935750333153,5.140733212397038],[-75.47378572983826,5.129007707841538],[-75.4660168349426,5.128674283691623],[-75.4590652669707,5.124772585663209],[-75.4548268023542,5.128891686155669],[-75.44831782976246,5.130109171835954],[-75.4449570760438,5.128056264814177],[-75.44511590459263,5.124565204343071],[-75.44027992824249,5.1225334852940705],[-75.43487655604099,5.123731514898793],[-75.43230693481519,5.130728620248533],[-75.42685550863706,5.137540833230673],[-75.41861201734383,5.14186824681218],[-75.41339761322763,5.141915326853791],[-75.40873370868059,5.14709061210192],[-75.39809652873794,5.144861610009855],[-75.39441611965782,5.146046739860083],[-75.38924395470428,5.145019980901736],[-75.38664501155381,5.1473171224528755],[-75.37405306577358,5.146045482074896],[-75.37004861605311,5.14867765934531],[-75.36196994192949,5.145309374342105],[-75.3565235468921,5.146951016456626],[-75.35044771726535,5.1301530122836425],[-75.35258370393069,5.11482695720963],[-75.34951787667313,5.109298972741897],[-75.34558809805014,5.106585455952654]]]}}]}