{"type":"FeatureCollection","features":[{"type":"Feature","properties":{"code":"170003"},"geometry":{"type":"Polygon","coordinates":[[[-75.43720724230178,5.02318911484457],[-75.44826885430126,5.0256269380763],[-75.47574449220343,5.027592051074009],[-75.48393071878877,5.039199716685687],[-75.49027143304221,5.04268253316161],[-75.4838926869844,5.046544959083974],[-75.48312970810554,5.048960637891355],[-75.4849512114468,5.0549346239408806],[-75.48228748155987,5.051735363465582],[-75.48293745826015,5.059723536704439],[-75.47912745822362,5.061896543186663],[-75.47699545163084,5.060970532514375],[-75.4727749384785,5.062363531166454],[-75.47105861086823,5.0649990508750875],[-75.46714847652584,5.0652762819542545],[-75.4664653346112,5.064086643411997],[-75.46547230856748,5.061877362733696],[-75.46689236759914,5.060912605489534],[-75.46600046830832,5.05853695572182],[-75.4672834009852,5.05559605337703],[-75.47043139154403,5.05620994717151],[-75.47450416790008,5.053262819664155],[-75.47252935874633,5.051463537880352],[-75.47265660588226,5.052995550079231],[-75.47129792738548,5.053163543079336],[-75.47149861045949,5.044249827109525],[-75.47414158329104,5.0423806914529905],[-75.4737534645111,5.039976918924651],[-75.47099261879714,5.038929512954326],[-75.47110275882022,5.036666989806804],[-75.46660159501738,5.038634995813368],[-75.46200030616473,5.038539715756201],[-75.46187414197874,5.046820682466375],[-75.4559146991349,5.043693119861302],[-75.45358740159224,5.0369415315087736],[-75.44517858507879,5.042171790094812],[-75.44201273047344,5.040910511275172],[-75.43827396345102,5.042430262382425],[-75.43506120878146,5.046959920213681],[-75.43106881549267,5.047083521520904],[-75.43050857040214,5.043767989448213],[-75.42752333190032,5.044311974862524],[-75.42787598278312,5.042606086972285],[-75.42585141346649,5.042862204126493],[-75.42589953223506,5.0443199689461835],[-75.4219197692488,5.044034321093534],[-75.42254930771094,5.0400989045486995],[-75.42509990686392,5.0389841551337895],[-75.4262705891536,5.035687751063506],[-75.421831076366,5.0321365657858905],[-75.42584233746129,5.032381467774428],[-75.42720715987372,5.028625684142128],[-75.43335423794127,5.029279096868834],[-75.43576479613336,5.035329794445772],[-75.44382193672755,5.036336724003888],[-75.44220303656243,5.031352035893974],[-75.44449950345523,5.029412650414315],[-75.44347009831432,5.027497625652586],[-75.44489302670064,5.0267076275318345],[-75.43585172112347,5.024938563446142],[-75.43720724230178,5.02318911484457]]]}}]}