{"type":"FeatureCollection","features":[{"type":"Feature","properties":{"code":"170004"},"geometry":{"type":"Polygon","coordinates":[[[-75.50711941849318,5.066406545424513],[-75.48782952072304,5.0601445224504005],[-75.48312970810554,5.048960637891355],[-75.48409868813468,5.046389986166162],[-75.49021544668835,5.043658529225638],[-75.49005499628572,5.0421188541014885],[-75.49845019004954,5.039022398797272],[-75.5017755612318,5.039746308173335],[-75.50815513621427,5.046373478635303],[-75.50589640184899,5.04926118684773],[-75.50917977863787,5.052929395514241],[-75.5054284173084,5.057760544355176],[-75.51016340266005,5.058714531749331],[-75.50711941849318,5.066406545424513]]]}}]}