{"type":"FeatureCollection","features":[{"type":"Feature","properties":{"code":"170001"},"geometry":{"type":"MultiPolygon","coordinates":[[[[-75.52817642939351,5.097766456453485],[-75.52890771578774,5.094752678671796],[-75.52668351138004,5.0955342939575985],[-75.5250312094588,5.0940042759087305],[-75.52876360630825,5.091773394852169],[-75.52860847912405,5.089657245814578],[-75.52569063960271,5.088811596612288],[-75.52186542684444,5.07871934002344],[-75.51821454023525,5.081509977660289],[-75.51419540332716,5.080586697502895],[-75.51505603076635,5.08586375639419],[-75.5124459269577,5.08842339658537],[-75.5125088964362,5.094689213483946],[-75.50860813634733,5.09442969424191],[-75.50650160530421,5.086533716761096],[-75.51111053651329,5.083550336654923],[-75.5124128409334,5.080810558585938],[-75.50880699599276,5.075728741279249],[-75.50793532513785,5.078568137375896],[-75.49995791763524,5.079315232988563],[-75.50081571171529,5.076702458314685],[-75.49783643612324,5.07394054919115],[-75.50003441936047,5.073313547896703],[-75.49929242893649,5.069972545416647],[-75.5008604325098,5.07030653315303],[-75.50162442440455,5.065392545324073],[-75.50963246818134,5.067907487346474],[-75.52463510996495,5.066712392916713],[-75.52741982994354,5.058989337760977],[-75.53003348187889,5.0564641699346],[-75.53015806740564,5.058771788229649],[-75.52876440026591,5.057919020148233],[-75.52930478510291,5.059849545595625],[-75.52798098931947,5.060533797199696],[-75.5372764364127,5.060941351486349],[-75.53646013793144,5.064539888314414],[-75.53489345076457,5.06479075424113],[-75.53514369448357,5.067719285450892],[-75.5318171920145,5.070201673153804],[-75.53281271614509,5.072398700967938],[-75.53558794359924,5.07134345518034],[-75.53630157369236,5.074745992461601],[-75.53905230467416,5.073575120938472],[-75.53827725702229,5.076712654293772],[-75.53740061570466,5.075279503188881],[-75.53270658293405,5.074554477952688],[-75.53275758751232,5.073207330353398],[-75.52833505636761,5.072973183816714],[-75.52764492207228,5.071112655195577],[-75.52642037510566,5.071912785532049],[-75.5286105545211,5.075505466408401],[-75.52703997058546,5.080968761841689],[-75.52775785843062,5.084484804210035],[-75.53231408813122,5.093715180716686],[-75.53135154101,5.096238450038186],[-75.52817642939351,5.097766456453485]]],[[[-75.55107045769057,5.099553340362718],[-75.54811749274342,5.097853804133479],[-75.54428777746381,5.0903209532509095],[-75.55024260157222,5.09104624896753],[-75.54929729628986,5.094889534546212],[-75.55107045769057,5.099553340362718]]],[[[-75.51185808258373,5.103830309867135],[-75.51316017925848,5.0938702081419365],[-75.51481197621445,5.094471721545403],[-75.51553834562498,5.100095287403917],[-75.51185808258373,5.103830309867135]]]]}}]}