{"type":"FeatureCollection","features":[{"type":"Feature","properties":{"code":"171007"},"geometry":{"type":"Polygon","coordinates":[[[-75.37810537920888,5.225394851478086],[-75.3668143957313,5.216392135121168],[-75.36321036393485,5.203785481584475],[-75.35934337378455,5.197625329955599],[-75.3515001111819,5.192817960762568],[-75.3471549219999,5.19434214240016],[-75.34344893144055,5.19138082341442],[-75.34073694805909,5.1922835316361216],[-75.33892574251274,5.196089921839473],[-75.33584243173237,5.196776380481197],[-75.33306330031041,5.194803099593003],[-75.32904040341651,5.187730986845054],[-75.32212599821503,5.184528345879244],[-75.32026885008446,5.181316838710472],[-75.32581399822936,5.162215110954264],[-75.32670446181447,5.153258422542194],[-75.32586785159344,5.1505218141330715],[-75.32035661736904,5.1458494228784275],[-75.31838037148106,5.136332110909052],[-75.32187857551389,5.134085445316771],[-75.32055675331162,5.127524359485733],[-75.3235110233523,5.117375915996774],[-75.32693840883331,5.111783135536598],[-75.33284981826927,5.107953015050612],[-75.33814673330033,5.108942784016847],[-75.33976057867045,5.110900331791413],[-75.34446028432995,5.111091109935501],[-75.34558809805014,5.106585455952654],[-75.35171306768893,5.1125470225302365],[-75.35299068743171,5.1180164063432585],[-75.35044771726535,5.1301530122836425],[-75.35334746236902,5.139944018518349],[-75.35553665653651,5.142657500340533],[-75.35516799897437,5.1457309884664255],[-75.3568951077475,5.147035026840626],[-75.36196994192949,5.145309374342105],[-75.37004861605311,5.14867765934531],[-75.37405306577358,5.146045482074896],[-75.38664501155381,5.1473171224528755],[-75.38924395470428,5.145019980901736],[-75.39441611965782,5.146046739860083],[-75.39809652873794,5.144861610009855],[-75.40873370868059,5.14709061210192],[-75.41339761322763,5.141915326853791],[-75.41861201734383,5.14186824681218],[-75.42685550863706,5.137540833230673],[-75.43230693481519,5.130728620248533],[-75.43487655604099,5.123731514898793],[-75.43999931461593,5.122541989485228],[-75.44511590459263,5.124565204343071],[-75.4449570760438,5.128056264814177],[-75.44831782976246,5.130109171835954],[-75.4548268023542,5.128891686155669],[-75.4590652669707,5.124772585663209],[-75.4660168349426,5.128674283691623],[-75.47378572983826,5.129007707841538],[-75.47935750333153,5.140733212397038],[-75.48636511216466,5.141560801120306],[-75.49065589673745,5.144658907074756],[-75.49403490016857,5.142132575051448],[-75.49393912748747,5.138570944911578],[-75.49603964317032,5.1399707806495485],[-75.50114643414668,5.137720850780681],[-75.50544102909902,5.1458293826474915],[-75.50767861457228,5.145484247622676],[-75.50765997405165,5.14217445014549],[-75.51118975229826,5.145640237670136],[-75.50944692686653,5.154059414713515],[-75.51265952315595,5.157017385090342],[-75.51564334754926,5.163438524577202],[-75.51439572438943,5.164003734988228],[-75.51618352978312,5.166394768199098],[-75.51524186107349,5.167945528905136],[-75.51686228641887,5.169204182111002],[-75.51767807067887,5.168107423241111],[-75.52071577723268,5.173167496187602],[-75.51886597938079,5.179372080647056],[-75.51958052581614,5.182097196211032],[-75.5210759645422,5.182731134350263],[-75.52432737425227,5.180096438424073],[-75.52749054153736,5.184529029793509],[-75.5318417224255,5.185734978405662],[-75.53098499484037,5.18840150976996],[-75.55329715092915,5.190640339658728],[-75.55710940839703,5.194932715232085],[-75.55551376234575,5.203946098594827],[-75.55707888113778,5.207653545428741],[-75.55460700411737,5.207687747313173],[-75.54627328036287,5.218307737867576],[-75.54185582561041,5.2182739607299595],[-75.53503858868658,5.2128533209785815],[-75.53212487630509,5.212610327779373],[-75.5240219288811,5.217168231784399],[-75.51639505161285,5.217497597700117],[-75.51369221108536,5.222523308325208],[-75.50670669422595,5.228624375931361],[-75.5003934373309,5.230477250883268],[-75.4957165558962,5.234709598323661],[-75.48818247808174,5.237859014303808],[-75.48227084444528,5.23691854064441],[-75.47580779798267,5.232575566727576],[-75.4686040775025,5.231228756457426],[-75.45093158454205,5.219691462025082],[-75.43420278015242,5.2235055202958165],[-75.43354006824842,5.227752559037583],[-75.42554745522324,5.230964428218158],[-75.42169760303904,5.23849888449945],[-75.417836351598,5.240444076565609],[-75.41307953549699,5.240305057876583],[-75.41016885599242,5.234946836358574],[-75.40704352202232,5.233612071207176],[-75.4043595863252,5.229891914880625],[-75.3919569284759,5.223405388046842],[-75.38371759003354,5.2268229591009],[-75.37810537920888,5.225394851478086]]]}}]}