{"type":"FeatureCollection","features":[{"type":"Feature","properties":{"code":"171047"},"geometry":{"type":"Polygon","coordinates":[[[-75.37810537920888,5.225394851478086],[-75.38371759003354,5.2268229591009],[-75.3919569284759,5.223405388046842],[-75.4043595863252,5.229891914880625],[-75.40704352202232,5.233612071207176],[-75.41016885599242,5.234946836358574],[-75.41307953549699,5.240305057876583],[-75.417836351598,5.240444076565609],[-75.42169760303904,5.23849888449945],[-75.42554745522324,5.230964428218158],[-75.43354006824842,5.227752559037583],[-75.43420278015242,5.2235055202958165],[-75.45093158454205,5.219691462025082],[-75.4686040775025,5.231228756457426],[-75.47580779798267,5.232575566727576],[-75.48227084444528,5.23691854064441],[-75.48818247808174,5.237859014303808],[-75.4957165558962,5.234709598323661],[-75.5003934373309,5.230477250883268],[-75.50670669422595,5.228624375931361],[-75.51369221108536,5.222523308325208],[-75.51639505161285,5.217497597700117],[-75.5240219288811,5.217168231784399],[-75.53212487630509,5.212610327779373],[-75.53503858868658,5.2128533209785815],[-75.54149704315336,5.218126756666891],[-75.54589090646289,5.218439708640062],[-75.55324300343051,5.210522713907892],[-75.55305214815326,5.22413960858762],[-75.54961467262268,5.2310847313102045],[-75.55189419386812,5.237255937667726],[-75.54962814933344,5.245778051522791],[-75.54975228748765,5.256134015171597],[-75.54781594414095,5.25750039361759],[-75.53917147545098,5.256196313077169],[-75.52985757398517,5.263476057056778],[-75.52654340974107,5.264440881149767],[-75.5256111903613,5.268108795681712],[-75.52054960868958,5.272944547831344],[-75.52020980922453,5.282017066638957],[-75.51557822451213,5.284183848987027],[-75.51562297924522,5.300417514868286],[-75.5205046996901,5.304226731231665],[-75.52123833504709,5.3065426747688775],[-75.52382986724075,5.306201012794418],[-75.52655873867678,5.308446739418741],[-75.52480173102276,5.324142132883821],[-75.52796663123348,5.320445232727934],[-75.53298993016085,5.326110546153643],[-75.54068408505333,5.327725192680475],[-75.53404882074875,5.331747891085001],[-75.52912102710746,5.331026138352911],[-75.52407985796287,5.3343715209696825],[-75.52099112729042,5.334503059796248],[-75.5141077851668,5.338855013044679],[-75.51227701144461,5.343527369332321],[-75.50737676463615,5.345255279262176],[-75.50309414898231,5.344718299598355],[-75.49687946521732,5.349961284132121],[-75.49387658892635,5.350226991512841],[-75.49134763745997,5.342792744613632],[-75.48766010333009,5.340187468314184],[-75.48527029088046,5.33537451570669],[-75.48724570990066,5.327787523496227],[-75.48574530996791,5.325624696538],[-75.48804258110277,5.324481510687463],[-75.48772705390957,5.321814238844524],[-75.48168229455973,5.316211782797154],[-75.47875355560461,5.315291807025574],[-75.47149387036791,5.316581757794154],[-75.46528952553552,5.311881224238448],[-75.46204804955175,5.3077130012175076],[-75.46211450853576,5.305157838865057],[-75.45506739311168,5.298563925148812],[-75.45202040075043,5.290754188743847],[-75.4431662665695,5.289488855803825],[-75.43603174484417,5.285039682855654],[-75.43205227496406,5.2868903435708035],[-75.42751318837179,5.2846197666899],[-75.4222327304779,5.28490017359951],[-75.42007098029904,5.282246946167618],[-75.41770182206056,5.282753802750108],[-75.40230135402805,5.277552332326991],[-75.39714966125132,5.273945922771418],[-75.39321872768744,5.27425821859822],[-75.3926197092855,5.269771969268788],[-75.38990630459648,5.2682034998110225],[-75.39149778031339,5.266980809183167],[-75.39100482210313,5.265482219309206],[-75.38817148456133,5.263685722547734],[-75.38695190497208,5.26594052209191],[-75.38636490597787,5.261511865543582],[-75.38296888490834,5.25610704632345],[-75.38564124959868,5.245027846928451],[-75.37682700150395,5.23002179997161],[-75.37810537920888,5.225394851478086]],[[-75.48848649288936,5.274405442201669],[-75.48854135001329,5.277621355218173],[-75.48934712855606,5.278428739159722],[-75.48915101176681,5.2751969552182345],[-75.49367479616285,5.2746865978174355],[-75.4918514868765,5.273290574515897],[-75.49382907385353,5.27102118548612],[-75.49414023016601,5.266344377070823],[-75.49001732340781,5.269070764818196],[-75.4864813313115,5.26848323617611],[-75.48750522400053,5.272095911003532],[-75.4901375503951,5.2744075721060995],[-75.48848649288936,5.274405442201669]],[[-75.49424672436038,5.268505783749902],[-75.49485923695659,5.269188916408552],[-75.49484336603166,5.268524163046152],[-75.49424672436038,5.268505783749902]],[[-75.49498383071085,5.276877128960166],[-75.4944393043358,5.2775618773019914],[-75.49500820171323,5.2775032571069005],[-75.49498383071085,5.276877128960166]]]}}]}