{"type":"FeatureCollection","features":[{"type":"Feature","properties":{"code":"172020"},"geometry":{"type":"Polygon","coordinates":[[[-75.45449515432455,5.618867251671759],[-75.4497419151466,5.610202001243806],[-75.45114747519563,5.607832351409797],[-75.44917341474797,5.606782708576986],[-75.4488196901712,5.599242865313784],[-75.45020536425568,5.598993243802511],[-75.45330219596985,5.604108445381769],[-75.45283465880175,5.6070081040962805],[-75.46097716321032,5.611784703317596],[-75.46270633915293,5.61444412505881],[-75.45639535408736,5.616080601306578],[-75.45449515432455,5.618867251671759]]]}}]}