{"type":"FeatureCollection","features":[{"type":"Feature","properties":{"code":"172060"},"geometry":{"type":"Polygon","coordinates":[[[-75.54361281886628,5.404816326513071],[-75.54576018627654,5.397369505875645],[-75.54361339685096,5.392039925453332],[-75.54441082855425,5.385402113696614],[-75.54469843558996,5.391498177929975],[-75.54793015576797,5.393926601197052],[-75.54621683223837,5.3962538627441745],[-75.54862665098028,5.400023920130252],[-75.5477467340732,5.402010566657395],[-75.54598104327897,5.401685299085159],[-75.54695482304936,5.403272196175919],[-75.5455021294797,5.405907473172135],[-75.54361281886628,5.404816326513071]]]}}]}