{"type":"FeatureCollection","features":[{"type":"Feature","properties":{"code":"172007"},"geometry":{"type":"Polygon","coordinates":[[[-75.51824548709908,5.465162041467067],[-75.51454191029433,5.459504013528203],[-75.50403586397192,5.456674588181784],[-75.49354180311855,5.4437436862593245],[-75.48196374431006,5.443111933560488],[-75.47370474307525,5.449078428434689],[-75.46390137290462,5.450162142539682],[-75.45574952612418,5.454792503405486],[-75.45198390029697,5.45262352327569],[-75.43865238401804,5.452158818438306],[-75.43864885954548,5.4508423287105074],[-75.43340148047685,5.448382732322216],[-75.43380097588789,5.447009968276689],[-75.43003208475568,5.4466138687827765],[-75.43065487663483,5.444744501726689],[-75.42885362332675,5.445062683330036],[-75.42786130382308,5.443038736221126],[-75.41522026122544,5.444480569437758],[-75.41381923557947,5.4414370408708805],[-75.40863250479453,5.43962089365823],[-75.41045477946773,5.427269922244591],[-75.4071653513231,5.421956231259173],[-75.41020174661264,5.414618277433021],[-75.41551543656959,5.407533356461954],[-75.42057609469992,5.405256060766135],[-75.41374420658394,5.393110481664735],[-75.40767141703327,5.39285744880965],[-75.40029807758538,5.387812676002454],[-75.39501234069604,5.378312192438045],[-75.39189897779687,5.364051699458571],[-75.38852597327087,5.360318265939043],[-75.38779932926616,5.343975618060995],[-75.3915654117219,5.336598628670572],[-75.418182002901,5.3449828407252085],[-75.43145561992304,5.3468980403221735],[-75.44428790140705,5.345915238025555],[-75.46260287577866,5.35730807536487],[-75.4675761214371,5.35631292764424],[-75.47721536966526,5.351177702289135],[-75.48042406712909,5.34785685831082],[-75.48637575551629,5.35015327378153],[-75.49235276312987,5.355534788494197],[-75.49575133267996,5.350144694514029],[-75.50309414898231,5.344718299598355],[-75.50737676463615,5.345255279262176],[-75.51311295832022,5.343022563464217],[-75.51508775616117,5.346719868826483],[-75.5153331199204,5.352102664978474],[-75.5211059158737,5.35708262225279],[-75.51738933544175,5.365517848141678],[-75.51740761086529,5.373320519146546],[-75.52349571906734,5.379938154917909],[-75.52358620144014,5.385555199422413],[-75.52133816493392,5.3899302525182975],[-75.5218980480127,5.395937167240334],[-75.51980170574956,5.398673353987988],[-75.52200544415115,5.404643615018699],[-75.52006083006967,5.414097353813759],[-75.5226748944105,5.418316215287405],[-75.53000981947343,5.422914746885738],[-75.5287879649693,5.430646891416416],[-75.53235024097108,5.43900485350423],[-75.52844276206724,5.453670367716427],[-75.52619986983058,5.455047585946488],[-75.52692725739922,5.461194166247935],[-75.52565804723088,5.464930754000591],[-75.52189993520471,5.466696946674801],[-75.51824548709908,5.465162041467067]],[[-75.48997178602997,5.4142260099159785],[-75.49028906774606,5.410493721053001],[-75.49263252417762,5.410135106232019],[-75.49303805757467,5.406310939399759],[-75.48935355323647,5.405973284237348],[-75.487255016277,5.400090831628916],[-75.4912126821473,5.395246427192376],[-75.48897723583445,5.393686769430133],[-75.48813243406875,5.398501949644071],[-75.4860341048547,5.399049192135806],[-75.48524414375788,5.387195801781559],[-75.48337455764351,5.390305706028585],[-75.4852333523105,5.393799002333708],[-75.48349927789616,5.397432411590728],[-75.48564769123243,5.403170736207699],[-75.48328645097291,5.409941669564034],[-75.48997178602997,5.4142260099159785]]]}}]}