{"type":"FeatureCollection","features":[{"type":"Feature","properties":{"code":"172008"},"geometry":{"type":"Polygon","coordinates":[[[-75.38779502523425,5.349299628438644],[-75.3475756794316,5.345189061962174],[-75.34177200860546,5.3360160602067594],[-75.34830121786058,5.329849030354296],[-75.34972920412719,5.3183350003201895],[-75.35393577982654,5.309051712502821],[-75.35515040437974,5.299907934970008],[-75.35250083100408,5.292931698775874],[-75.35400490967572,5.28665888641126],[-75.36084855597505,5.279742241261999],[-75.36014030566474,5.266951134502733],[-75.36399732609328,5.238496713457323],[-75.36340710498871,5.23347808468742],[-75.36787715532,5.229248055356436],[-75.37201160120327,5.221091651547226],[-75.37810537920888,5.225394851478086],[-75.37682700150395,5.23002179997161],[-75.38564124959868,5.245027846928451],[-75.38296888490834,5.25610704632345],[-75.38636490597787,5.261511865543582],[-75.38695190497208,5.26594052209191],[-75.38817148456133,5.263685722547734],[-75.39100482210313,5.265482219309206],[-75.39149778031339,5.266980809183167],[-75.38990630459648,5.2682034998110225],[-75.3926197092855,5.269771969268788],[-75.39321872768744,5.27425821859822],[-75.39714966125132,5.273945922771418],[-75.40230135402805,5.277552332326991],[-75.41770182206056,5.282753802750108],[-75.42007098029904,5.282246946167618],[-75.4222327304779,5.28490017359951],[-75.42751318837179,5.2846197666899],[-75.43205227496406,5.2868903435708035],[-75.43603174484417,5.285039682855654],[-75.4431662665695,5.289488855803825],[-75.45202040075043,5.290754188743847],[-75.45506739311168,5.298563925148812],[-75.46211450853576,5.305157838865057],[-75.46204804955175,5.3077130012175076],[-75.46528952553552,5.311881224238448],[-75.47149387036791,5.316581757794154],[-75.47875355560461,5.315291807025574],[-75.48168229455973,5.316211782797154],[-75.48772705390957,5.321814238844524],[-75.48804258110277,5.324481510687463],[-75.48574530996791,5.325624696538],[-75.48724570990066,5.327787523496227],[-75.48527029088046,5.33537451570669],[-75.48766010333009,5.340187468314184],[-75.49134763745997,5.342792744613632],[-75.49387658892635,5.350226991512841],[-75.49575133267996,5.350144694514029],[-75.49235276312987,5.355534788494197],[-75.48637575551629,5.35015327378153],[-75.48042406712909,5.34785685831082],[-75.47721536966526,5.351177702289135],[-75.4675761214371,5.35631292764424],[-75.46260287577866,5.35730807536487],[-75.44428790140705,5.345915238025555],[-75.43145561992304,5.3468980403221735],[-75.418182002901,5.3449828407252085],[-75.3915654117219,5.336598628670572],[-75.38805340599043,5.342552381141957],[-75.38779502523425,5.349299628438644]]]}}]}