{"type":"FeatureCollection","features":[{"type":"Feature","properties":{"code":"172001"},"geometry":{"type":"Polygon","coordinates":[[[-75.48997178602997,5.4142260099159785],[-75.48328645097291,5.409941669564034],[-75.48564769123243,5.403170736207699],[-75.48349927789616,5.397432411590728],[-75.4852333523105,5.393799002333708],[-75.48337455764351,5.390305706028585],[-75.48524414375788,5.387195801781559],[-75.4860341048547,5.399049192135806],[-75.48813243406875,5.398501949644071],[-75.48897723583445,5.393686769430133],[-75.4912126821473,5.395246427192376],[-75.487255016277,5.400090831628916],[-75.48935355323647,5.405973284237348],[-75.49303805757467,5.406310939399759],[-75.49263252417762,5.410135106232019],[-75.49028906774606,5.410493721053001],[-75.48997178602997,5.4142260099159785]]]}}]}