{"type":"FeatureCollection","features":[{"type":"Feature","properties":{"code":"173047"},"geometry":{"type":"Polygon","coordinates":[[[-75.0494012374553,5.333703874598484],[-75.04793098425807,5.320526919860299],[-75.04926642818151,5.310667170470822],[-75.03927029497271,5.296106426783297],[-75.06122277900164,5.286251788753134],[-75.0658429336039,5.286042168513632],[-75.06724247417884,5.281609552461532],[-75.07185906625625,5.279185852830949],[-75.07205625262566,5.276970348018494],[-75.06823625612782,5.274761221606582],[-75.068834115475,5.271740382538553],[-75.07335257151038,5.272276880891297],[-75.08038653006929,5.277032766251864],[-75.08060080503964,5.278829418308135],[-75.08552823666918,5.282561276253716],[-75.0843700417285,5.284488994052992],[-75.08524799328194,5.2877673993507415],[-75.094347233083,5.286991966032929],[-75.09980584498908,5.290033392463329],[-75.10339665924226,5.290239946915676],[-75.10485372677795,5.292852788438324],[-75.11031868108904,5.292180313529514],[-75.11431142919054,5.295086151126611],[-75.11492499285498,5.300636563868807],[-75.11672654749674,5.302888261630358],[-75.11473477521201,5.307264262950184],[-75.11666623242832,5.310992881301843],[-75.11338069179641,5.319147001968588],[-75.10613251894523,5.320289273533774],[-75.1019356373451,5.3184642220657565],[-75.09646434988503,5.319212400628373],[-75.09358811909112,5.320670562426926],[-75.090317029105,5.3282222008974145],[-75.08601218263766,5.329721101360974],[-75.08485013515133,5.332091870140459],[-75.06852552204128,5.329491738110448],[-75.06294409044432,5.332714964381751],[-75.0558538483117,5.331975788804925],[-75.05421480918517,5.333710988335383],[-75.0494012374553,5.333703874598484]],[[-75.05092987327743,5.303973013433847],[-75.05526388328929,5.306129186368935],[-75.05486052504807,5.300664628008235],[-75.05755560391987,5.302119035991552],[-75.05810426257699,5.300331141123365],[-75.05860427178914,5.301660783602529],[-75.058745530426,5.299982144296848],[-75.05734348970725,5.29960000693859],[-75.05919705165877,5.298766502613944],[-75.05680309561427,5.298542993258252],[-75.05590096434878,5.2945739404723895],[-75.05462254242082,5.294701439576784],[-75.05614482863882,5.297779982497616],[-75.05438439832807,5.298098600160586],[-75.0541427801565,5.294797432344581],[-75.05317173398629,5.296034069681468],[-75.05088366741194,5.294057158391183],[-75.05305109253663,5.298963476095821],[-75.05096053217738,5.296752688749223],[-75.0503071287066,5.29869145202116],[-75.04702039713823,5.29729817157579],[-75.04410752910803,5.301306951039294],[-75.04540518702487,5.3019932153054015],[-75.04525481535887,5.300637198417803],[-75.04868706434456,5.299300454543072],[-75.05179880024775,5.299802096921951],[-75.05321333757149,5.301403376781423],[-75.05175765740478,5.3026568774902785],[-75.05303169405386,5.30299576884056],[-75.05092987327743,5.303973013433847]]]}}]}