{"type":"FeatureCollection","features":[{"type":"Feature","properties":{"code":"173067"},"geometry":{"type":"Polygon","coordinates":[[[-75.03514865936944,5.376587592036174],[-75.044231215776,5.362546904990893],[-75.04326964053297,5.357697590769703],[-75.03997408801308,5.3547800525820435],[-75.03836341435971,5.346168154666657],[-75.03457586830865,5.3436785637523485],[-75.03823796699817,5.335826967679964],[-75.04220813975792,5.333241629795566],[-75.06294409044432,5.332714964381751],[-75.06881190008818,5.32947997684181],[-75.08485013515133,5.332091870140459],[-75.08601218263766,5.329721101360974],[-75.090317029105,5.3282222008974145],[-75.09358811909112,5.320670562426926],[-75.09646434988503,5.319212400628373],[-75.1019356373451,5.3184642220657565],[-75.10613251894523,5.320289273533774],[-75.11338069179641,5.319147001968588],[-75.11666623242832,5.310992881301843],[-75.11928071123151,5.30951247120629],[-75.13738335541757,5.307444063498849],[-75.14024033685286,5.30209457860002],[-75.13974216546745,5.300212562729371],[-75.1454666235939,5.2983481332257725],[-75.14596470036264,5.292595861899827],[-75.14961406281998,5.290139349810659],[-75.15125940938447,5.285759367389801],[-75.15626639721347,5.284096133124592],[-75.16231734264505,5.286312047257184],[-75.16879042773513,5.2842528585084665],[-75.1747795411456,5.27883226195172],[-75.17451680699224,5.27656446803627],[-75.1830323203032,5.2666628260692505],[-75.18709307828004,5.268153067046796],[-75.19420641306101,5.26304225897394],[-75.20634543172753,5.265701147981929],[-75.21886698061735,5.261089993280166],[-75.22185458762226,5.261102616383653],[-75.22508314739645,5.264336828477894],[-75.22727587426402,5.271994000577422],[-75.221740031467,5.27832054494985],[-75.206223482099,5.2906019175445635],[-75.20731095413299,5.2984115336217315],[-75.2048035094565,5.304651102610364],[-75.2068816657706,5.3109632611288475],[-75.17617564363724,5.32108908402455],[-75.18219208173696,5.327346727890472],[-75.19180531242631,5.3417204996996475],[-75.20441628542159,5.350897110259837],[-75.19677896740484,5.356810195028686],[-75.18583394993368,5.370944473428494],[-75.1724784092375,5.380761349106308],[-75.16373895976716,5.384897850846187],[-75.16503897590269,5.383098996894489],[-75.16431946311837,5.380785964877987],[-75.16656453668168,5.381379854437057],[-75.16932514791074,5.379619975371497],[-75.16595829449955,5.3774593081425905],[-75.16193402360636,5.378288428216763],[-75.1603337372224,5.375584136556881],[-75.16051221416558,5.380451313796129],[-75.14958780565405,5.386309946647373],[-75.14924265314568,5.388286460958909],[-75.15083008296972,5.389062356047361],[-75.15399631604191,5.388306365435369],[-75.15319531152932,5.385657581903615],[-75.15733706655357,5.387429001122655],[-75.15458434759239,5.391379374307064],[-75.15020241215922,5.393714104403784],[-75.1450385343955,5.391912621753022],[-75.13884879447534,5.393217442772027],[-75.13523053109134,5.3898614682257175],[-75.1228389948194,5.385745199035512],[-75.1228442604451,5.388848652891113],[-75.11551908090348,5.397583873405779],[-75.1121522634877,5.3961779935111736],[-75.11096819807551,5.391820882623449],[-75.10146292813954,5.381950010628145],[-75.09695643700451,5.379345676382002],[-75.08927228063015,5.382237011911172],[-75.08010064670327,5.37752336571333],[-75.07510818253951,5.379066325682857],[-75.06908336777542,5.3760901148494895],[-75.06019201014595,5.377297931113219],[-75.04716656967344,5.373495198051444],[-75.03982786714113,5.3742990338662935],[-75.03514865936944,5.376587592036174]]]}}]}