{"type":"FeatureCollection","features":[{"type":"Feature","properties":{"code":"173069"},"geometry":{"type":"Polygon","coordinates":[[[-75.03514865936944,5.376587592036174],[-75.03982786714113,5.3742990338662935],[-75.04716656967344,5.373495198051444],[-75.06019201014595,5.377297931113219],[-75.06908336777542,5.3760901148494895],[-75.07510818253951,5.379066325682857],[-75.08010064670327,5.37752336571333],[-75.08927228063015,5.382237011911172],[-75.09695643700451,5.379345676382002],[-75.10146292813954,5.381950010628145],[-75.11096819807551,5.391820882623449],[-75.1121522634877,5.3961779935111736],[-75.11551908090348,5.397583873405779],[-75.1228442604451,5.388848652891113],[-75.1228389948194,5.385745199035512],[-75.13523053109134,5.3898614682257175],[-75.13884879447534,5.393217442772027],[-75.1450385343955,5.391912621753022],[-75.14865413822719,5.393716806122313],[-75.1568792461104,5.3895272819999605],[-75.15804056340255,5.391178794077291],[-75.15900674606809,5.388203642539736],[-75.1629605645349,5.386587022431684],[-75.16456768697628,5.390547988574042],[-75.16422618852414,5.395105405097297],[-75.17118689729313,5.399031589313665],[-75.16961977612351,5.406173610441783],[-75.16692978907065,5.413823974251898],[-75.16253694494765,5.419896275292388],[-75.16019047003738,5.428005993981856],[-75.15143173624136,5.4352071577539505],[-75.1497674467941,5.440146664327074],[-75.15208415035039,5.444148991342217],[-75.15404625926749,5.444051707879055],[-75.16383418223154,5.4416179264264315],[-75.16653720067956,5.436782754318358],[-75.16849550024557,5.4367792411587175],[-75.1754370912966,5.44356006710359],[-75.17605243725194,5.450503764404857],[-75.1799746074571,5.453515266243301],[-75.18402068750231,5.441883116500549],[-75.18807275308296,5.440705988961554],[-75.18996877531225,5.443950567756417],[-75.19005613224823,5.44947232294777],[-75.18358277359249,5.464269990995206],[-75.18425795741894,5.467774487039378],[-75.1873619923445,5.471048475176474],[-75.18626593075862,5.475434357772087],[-75.18730032795952,5.479225230834686],[-75.18254607473727,5.479853320221309],[-75.17793121867084,5.484574526500126],[-75.1804124720017,5.489842140175313],[-75.183438315471,5.488238541178021],[-75.18774379443045,5.488550431798444],[-75.18918351625462,5.491023911132288],[-75.18887348402984,5.495976801856386],[-75.17694509553331,5.507501512266117],[-75.17687520052289,5.512138669080059],[-75.16943263146686,5.516316937927513],[-75.18782701497065,5.51468707353672],[-75.19549495794865,5.5180265282107825],[-75.19509395072708,5.51924549587676],[-75.18930142718943,5.518917103896115],[-75.18147831794636,5.5234511665466925],[-75.16638682078599,5.5276413005354925],[-75.15862523297443,5.528012577540721],[-75.1556535318615,5.53002514184783],[-75.14884210255258,5.530368577885611],[-75.1388031645377,5.527905879714751],[-75.13105599343334,5.538700250925729],[-75.13270458781926,5.5406876029645105],[-75.13181636521045,5.54548330550557],[-75.1306330094236,5.540943263490249],[-75.12274190676027,5.542217350533008],[-75.10866755262072,5.53940862156378],[-75.10734078463838,5.533665096112998],[-75.10113300995022,5.52862957928852],[-75.10335679989555,5.5151924666454875],[-75.10644654666925,5.509207385758145],[-75.10331447537214,5.500011986581512],[-75.10370159759128,5.4971915313107615],[-75.09810956686573,5.498489502902544],[-75.09746770663384,5.502081170763063],[-75.09250231930469,5.502475022081569],[-75.08964066771188,5.505029556055661],[-75.08526888917703,5.50599082070903],[-75.08421024027308,5.497168129101226],[-75.08210453095552,5.4934702971764295],[-75.08178756497125,5.485005741135353],[-75.08769497582267,5.4808028369757835],[-75.08731342056291,5.476558513322232],[-75.08886899129465,5.474711436729308],[-75.08805275863364,5.465801295625681],[-75.08603126847396,5.461138158296762],[-75.08613949970771,5.454004248494812],[-75.08397326037726,5.451781398545904],[-75.08707233923832,5.445296861748432],[-75.0822633327648,5.439062867946689],[-75.08375932067918,5.435997565194782],[-75.0828357792974,5.432309031418811],[-75.08551987851683,5.429276807492101],[-75.08118458192342,5.425024341659139],[-75.08164928676081,5.420624869224071],[-75.078618666176,5.414883979671515],[-75.07991353598516,5.40645290663349],[-75.07840572612406,5.402622907503712],[-75.07367082201932,5.397618280978691],[-75.06945424265962,5.396137819461046],[-75.0543969278433,5.398395402999142],[-75.05115812375317,5.395528744948194],[-75.05009144374156,5.388146851943873],[-75.03985785961027,5.383573317669402],[-75.03514865936944,5.376587592036174]]]}}]}