{"type":"FeatureCollection","features":[{"type":"Feature","properties":{"code":"173048"},"geometry":{"type":"Polygon","coordinates":[[[-74.96301573639408,5.3422304488087775],[-74.96467209552105,5.335847914997146],[-74.9637424349063,5.333134441402478],[-74.96766712993787,5.328061976752053],[-74.96094208157297,5.31930896623868],[-74.96050335519357,5.316065827263344],[-74.96253431525201,5.3110526194139425],[-74.95809800709128,5.30154692267439],[-74.96640302907196,5.3015814063520565],[-74.9700208646239,5.29614432591859],[-74.97965206940313,5.294805795639149],[-74.98046216637601,5.2928267235911335],[-74.98709612147331,5.288657854708276],[-74.99690379978966,5.289765728984946],[-74.99994461429668,5.2916079976091055],[-75.00848323773954,5.291545545437202],[-75.01004526297646,5.2933425070546605],[-75.01565368193354,5.289282248900918],[-75.02152075109882,5.288573766162642],[-75.02356807470613,5.2865543513999],[-75.02810844376626,5.288676716344071],[-75.03074673924124,5.2846118404834215],[-75.02960504463232,5.282693367353943],[-75.03120574033642,5.278756677597244],[-75.03679958831992,5.276420996191177],[-75.04549896966972,5.277350154926012],[-75.05678007084316,5.275604435457012],[-75.0601404790051,5.270202458852054],[-75.06299708197355,5.2710218447177795],[-75.06515765150039,5.267665131749766],[-75.0718138456387,5.2717345759521095],[-75.06803150144987,5.272546356485407],[-75.06884079006699,5.275968448572769],[-75.07205625262566,5.276970348018494],[-75.07185906625625,5.279185852830949],[-75.06724247417884,5.281609552461532],[-75.0658429336039,5.286042168513632],[-75.06122277900164,5.286251788753134],[-75.03927029497271,5.296106426783297],[-75.04926642818151,5.310667170470822],[-75.04793098425807,5.320526919860299],[-75.0494012374553,5.333703874598484],[-75.044728956244,5.332579917537714],[-75.03836354394343,5.3357114900401825],[-75.03412861202702,5.345038876444278],[-75.02872161148031,5.344231260074764],[-75.02340549028526,5.347174613198092],[-75.0196936653715,5.346627628845397],[-75.0177963730157,5.341015643249648],[-75.01506681252312,5.3390272308867],[-75.01795247824873,5.328710782056305],[-75.01573384182882,5.3252816996451315],[-75.01227828010809,5.325961679099009],[-75.00926379784329,5.323789433664274],[-74.99783613949722,5.33390732418286],[-74.99205520136445,5.344028005894472],[-74.98231785926043,5.3422577714411545],[-74.97019730422244,5.347507270129881],[-74.96301573639408,5.3422304488087775]]]}}]}