{"type":"FeatureCollection","features":[{"type":"Feature","properties":{"code":"173028"},"geometry":{"type":"Polygon","coordinates":[[[-75.07738540315904,5.274336422395777],[-75.065510592404,5.2676984779699865],[-75.06299708197355,5.2710218447177795],[-75.0601404790051,5.270202458852054],[-75.06415573354269,5.260718268902451],[-75.06160755945717,5.256321260615664],[-75.06378760151466,5.2542586080725755],[-75.06311160316176,5.252035439306496],[-75.06663227866363,5.247545252070665],[-75.07181849831267,5.247960877574201],[-75.07545350679777,5.243451269229865],[-75.08040492684904,5.231641874618106],[-75.08396318781121,5.227896369240341],[-75.08508047953603,5.222986143454079],[-75.09082287781382,5.220959534735982],[-75.09181553258975,5.216041606943747],[-75.09668721543568,5.213470478021179],[-75.10123746782841,5.20385536116828],[-75.10349806675993,5.202288665773892],[-75.10706951132676,5.192945235666457],[-75.10622013093496,5.185643338006571],[-75.11363256456832,5.181646046246044],[-75.11554732090656,5.18289164234568],[-75.11335619018183,5.189657280251481],[-75.11310614289539,5.199153532803393],[-75.11762179025419,5.199253510785979],[-75.12312914827874,5.196067475053042],[-75.13458390711367,5.200229020396705],[-75.13795408136582,5.205674237867413],[-75.13577577531925,5.21158082699327],[-75.13730519687147,5.216768046288394],[-75.13615460520634,5.220396712368483],[-75.1424089580562,5.223980151660442],[-75.14641129432727,5.232119682841642],[-75.15379529563876,5.235617420990025],[-75.15570536433603,5.238103915263935],[-75.15572276764033,5.247749855567577],[-75.15749531506083,5.249456510675884],[-75.15145059890557,5.251759247982761],[-75.1511217225285,5.25075573799603],[-75.15129283685167,5.252913887597629],[-75.1487043704451,5.2537507580146325],[-75.14998978372535,5.254877156597956],[-75.1498595150253,5.256688419737088],[-75.14933563154847,5.255873032455838],[-75.14758932175346,5.255962023587017],[-75.1490547381855,5.257621679900694],[-75.14556322828503,5.259512550661441],[-75.14259195603262,5.267927755859773],[-75.14366852863282,5.274832534839277],[-75.15040280212708,5.283092722896811],[-75.14974555948044,5.2898938739512005],[-75.14596470036264,5.292595861899827],[-75.1454666235939,5.2983481332257725],[-75.14311073432083,5.299994324141551],[-75.14008462859863,5.299707920383639],[-75.13738335541757,5.307444063498849],[-75.12037392094629,5.309216796039038],[-75.11666623242832,5.310992881301843],[-75.11471743875649,5.30666981906063],[-75.11672654749674,5.302888261630358],[-75.11399684096534,5.294738578693],[-75.11031868108904,5.292180313529514],[-75.10485372677795,5.292852788438324],[-75.10339665924226,5.290239946915676],[-75.09980584498908,5.290033392463329],[-75.094347233083,5.286991966032929],[-75.08524799328194,5.2877673993507415],[-75.0853361143507,5.282279042830169],[-75.07738540315904,5.274336422395777]]]}}]}