{"type":"FeatureCollection","features":[{"type":"Feature","properties":{"code":"174009"},"geometry":{"type":"Polygon","coordinates":[[[-74.8893120700746,5.5584005065168185],[-74.8929577537931,5.553218543591413],[-74.89753395996115,5.538688635695962],[-74.90072520064166,5.535082156206272],[-74.90162353181205,5.517787109877759],[-74.90371423923858,5.513714211137028],[-74.89817326965562,5.505165920334548],[-74.90820995743826,5.494709781242193],[-74.90900885364374,5.483919415814796],[-74.90609131545602,5.482124099705345],[-74.90633928117484,5.47829563398335],[-74.91625666551153,5.470454981567798],[-74.91852895680609,5.464502237998545],[-74.91496538805211,5.447726534573178],[-74.91565766356473,5.439795821446239],[-74.91764013872904,5.436365059588468],[-74.91752026655439,5.427948325096054],[-74.9109317459907,5.420605205403149],[-74.91191648278772,5.411233013872277],[-74.91392308418511,5.408166177712587],[-74.91338282173274,5.402338261354032],[-74.91569029398892,5.399937860060277],[-74.92129727415494,5.399407944768086],[-74.92356139755901,5.395031926993113],[-74.93204242822077,5.387695037604999],[-74.93400526733211,5.3820659644367765],[-74.93750496157816,5.381967245267845],[-74.93896283027055,5.377755069698992],[-74.94261657080773,5.3741489954156805],[-74.94797493013704,5.3590833049634625],[-74.9498064021717,5.343215642234213],[-74.9532665384047,5.340828191088633],[-74.96023712227873,5.34015367369301],[-74.97019730422244,5.347507270129881],[-74.98231785926043,5.3422577714411545],[-74.99102794155465,5.3444036332115274],[-74.99284104354899,5.343562317865974],[-74.99783613949722,5.33390732418286],[-75.001530197038,5.331670755839184],[-75.0067921121132,5.324893982986282],[-75.00926379784329,5.323789433664274],[-75.01227828010809,5.325961679099009],[-75.01573384182882,5.3252816996451315],[-75.01822667233705,5.329958123422955],[-75.01506681252312,5.3390272308867],[-75.0177963730157,5.341015643249648],[-75.01848510657226,5.34530826256389],[-75.0227470433324,5.347224209838544],[-75.02843132226656,5.344273523920037],[-75.03259004042172,5.34543458924378],[-75.03692609600569,5.344225314648554],[-75.03974519887458,5.349363333253564],[-75.03997408801308,5.3547800525820435],[-75.04326964053297,5.357697590769703],[-75.044231215776,5.362546904990893],[-75.03274555121499,5.379735111568323],[-75.03202187426689,5.384285338249981],[-75.03460543808797,5.389015741890205],[-75.03378106221913,5.3937051363850514],[-75.02587711430874,5.401806361167758],[-75.0223720958158,5.411990484413025],[-75.01130722365349,5.41233417756149],[-75.00851578383151,5.415861335336558],[-75.00493064966628,5.416966510980046],[-75.00370696864826,5.421015678409674],[-75.00131332730717,5.422537203580191],[-74.99542149016077,5.4141713862484835],[-74.99495023620142,5.412607866684539],[-74.99801821290384,5.412715633062305],[-74.99735031970641,5.41164162025558],[-74.99516574324588,5.41135960794719],[-74.99541251288605,5.410029965468027],[-74.98756136829991,5.410538554976142],[-74.98866964983978,5.411986078565292],[-74.9876090983172,5.413352840620291],[-74.9914089887638,5.414832039210523],[-74.99245957776373,5.419751037611434],[-74.99844878887626,5.428125963858577],[-74.99923540753491,5.432971143740758],[-74.99626575816478,5.438827912025715],[-74.99090538205968,5.444119801058207],[-74.98216621335416,5.46055616370387],[-74.98015218763027,5.46833173113464],[-74.97897099774332,5.4881530683487085],[-74.97510493936193,5.498355029929485],[-74.96804408908804,5.49998467320512],[-74.9678565176277,5.502907779380621],[-74.96348005453711,5.510113814884846],[-74.9628060246232,5.526874927796257],[-74.95651191218565,5.541549730901295],[-74.94647897718971,5.537769177230928],[-74.94224755226224,5.532100477144013],[-74.94070629230822,5.532970726691417],[-74.93579126061013,5.531131035344174],[-74.93426452020753,5.528766538007176],[-74.93067657530895,5.530468158889391],[-74.92954989081863,5.534933064951247],[-74.92751556055407,5.536123848149998],[-74.92490592468675,5.534932910684859],[-74.91777998531427,5.536660984137086],[-74.91573061099257,5.541630127338294],[-74.91164511485943,5.545778196999663],[-74.91242400271562,5.553017417258673],[-74.90263812429538,5.565086229296696],[-74.89699982291245,5.5620412619387025],[-74.89607467818871,5.558253991510242],[-74.8893120700746,5.5584005065168185]]]}}]}