{"type":"FeatureCollection","features":[{"type":"Feature","properties":{"code":"174008"},"geometry":{"type":"Polygon","coordinates":[[[-74.96014799642165,5.5337086722509525],[-74.963126040968,5.525122602640977],[-74.96234440202807,5.515215069755186],[-74.96348005453711,5.510113814884846],[-74.9678565176277,5.502907779380621],[-74.96804408908804,5.49998467320512],[-74.97510493936193,5.498355029929485],[-74.97897099774332,5.4881530683487085],[-74.98015218763027,5.46833173113464],[-74.98216621335416,5.46055616370387],[-74.99090538205968,5.444119801058207],[-74.9990195970999,5.433822522396383],[-74.99882324479734,5.428895072254875],[-74.99245957776373,5.419751037611434],[-74.9914089887638,5.414832039210523],[-74.99365902970447,5.41813529579332],[-74.9950893484787,5.415161894664891],[-74.99622925359762,5.416588044133164],[-74.99542411577454,5.414655894775024],[-74.99696046697244,5.415623466866407],[-75.00131332730717,5.422537203580191],[-75.00370696864826,5.421015678409674],[-75.00493064966628,5.416966510980046],[-75.00851578383151,5.415861335336558],[-75.01130722365349,5.41233417756149],[-75.0229059325593,5.411533052721097],[-75.02587711430874,5.401806361167758],[-75.03349031843373,5.394554368681099],[-75.03460543808797,5.389015741890205],[-75.0319840923741,5.382463478039142],[-75.03514865936944,5.376587592036174],[-75.03985785961027,5.383573317669402],[-75.05009144374156,5.388146851943873],[-75.05115812375317,5.395528744948194],[-75.0543969278433,5.398395402999142],[-75.06931834323677,5.396138035433978],[-75.07367082201932,5.397618280978691],[-75.07990749594228,5.406200882680537],[-75.078618666176,5.414883979671515],[-75.08164928676081,5.420624869224071],[-75.08118458192342,5.425024341659139],[-75.08551987851683,5.429276807492101],[-75.0828357792974,5.432309031418811],[-75.08375932067918,5.435997565194782],[-75.0822633327648,5.439062867946689],[-75.08707233923832,5.445296861748432],[-75.08397326037726,5.451781398545904],[-75.08613949970771,5.454004248494812],[-75.08603126847396,5.461138158296762],[-75.08805275863364,5.465801295625681],[-75.08886854289369,5.474779231660136],[-75.08731342056291,5.476558513322232],[-75.08769497582267,5.4808028369757835],[-75.08178715976487,5.485097282803906],[-75.0820112059676,5.492974314316655],[-75.08421024027308,5.497168129101226],[-75.08526888917703,5.50599082070903],[-75.08964066771188,5.505029556055661],[-75.09250231930469,5.502475022081569],[-75.09746770663384,5.502081170763063],[-75.09810956686573,5.498489502902544],[-75.10370159759128,5.4971915313107615],[-75.10331447537214,5.500011986581512],[-75.10644654666925,5.509207385758145],[-75.10335679989555,5.5151924666454875],[-75.10113300995022,5.52862957928852],[-75.10734078463838,5.533665096112998],[-75.10866755262072,5.53940862156378],[-75.11115036301351,5.540491526284541],[-75.12274190676027,5.542217350533008],[-75.13077700783128,5.541045851659931],[-75.13208985892948,5.5473713418787725],[-75.12885429649015,5.554375050857857],[-75.12058821340014,5.559682280138929],[-75.11922752532661,5.564947892465057],[-75.10936075887383,5.566777657285115],[-75.0931258012688,5.573608279388338],[-75.07253506872291,5.584828757989044],[-75.070114022474,5.588710524801456],[-75.06864646996684,5.58773876694903],[-75.06670373999208,5.579484851362395],[-75.06815360843012,5.576323551728933],[-75.0728090468383,5.5729771519825135],[-75.07202330338424,5.5702434118995825],[-75.06474225328265,5.566367746836647],[-75.0548011407202,5.567113217510098],[-75.05187073877346,5.554484706484573],[-75.04725354917099,5.5484174592106115],[-75.05209498655091,5.543307825619081],[-75.05110829674157,5.533104890103289],[-75.04351540847011,5.5220773894852755],[-75.03700668887524,5.517698247301951],[-75.03162799106667,5.516897631540644],[-75.02014057918177,5.5194260513022755],[-75.01219536912913,5.51401013724427],[-75.00474054720894,5.519647948060083],[-74.99983167896687,5.521092042821863],[-74.99246884094549,5.528393275079452],[-74.99022682391336,5.524939371208063],[-74.98780107562527,5.524522638071971],[-74.97023328736924,5.535656995924569],[-74.96489350993937,5.536114802998043],[-74.96014799642165,5.5337086722509525]]]}}]}