{"type":"FeatureCollection","features":[{"type":"Feature","properties":{"code":"174007"},"geometry":{"type":"Polygon","coordinates":[[[-74.95651191218565,5.541549730901295],[-74.96014799642165,5.5337086722509525],[-74.96489350993937,5.536114802998043],[-74.97023328736924,5.535656995924569],[-74.98780107562527,5.524522638071971],[-74.99022682391336,5.524939371208063],[-74.99246884094549,5.528393275079452],[-74.99983167896687,5.521092042821863],[-75.00474054720894,5.519647948060083],[-75.01150876856235,5.5142010830244885],[-75.02014057918177,5.5194260513022755],[-75.03438184645682,5.516898885212072],[-75.04351540847011,5.5220773894852755],[-75.05062130041256,5.531890726292374],[-75.05209498655091,5.543307825619081],[-75.04725354917099,5.5484174592106115],[-75.05187073877346,5.554484706484573],[-75.0548011407202,5.567113217510098],[-75.06474225328265,5.566367746836647],[-75.07202330338424,5.5702434118995825],[-75.0728090468383,5.5729771519825135],[-75.06815360843012,5.576323551728933],[-75.06670373999208,5.579484851362395],[-75.06864646996684,5.58773876694903],[-75.070114022474,5.588710524801456],[-75.07253506872291,5.584828757989044],[-75.07592642374868,5.584085031554082],[-75.0880596080608,5.576104504785349],[-75.11392869122187,5.566052745177558],[-75.11123121196522,5.571735013506611],[-75.10321691937173,5.5747925700294445],[-75.10055155117584,5.579446719799137],[-75.09554149653127,5.5811258435012405],[-75.09255992545548,5.584008403330415],[-75.09109346104049,5.586261113079445],[-75.09102239257709,5.5935045304123605],[-75.08751178038528,5.597078568711197],[-75.08979457619171,5.60309506440376],[-75.09576730856975,5.602853070850642],[-75.09490227322596,5.605917364700417],[-75.0963455966558,5.608143549888439],[-75.0914343815079,5.610714169731921],[-75.08946249621619,5.615969528486119],[-75.09261249018107,5.623034481217189],[-75.0915399336489,5.627763869784701],[-75.09622820611298,5.632833637858823],[-75.09548538470744,5.635799342123448],[-75.09753376041147,5.637236745838152],[-75.09900741466811,5.642576520182729],[-75.09393246015833,5.6546104186541015],[-75.08729049143699,5.660901248303219],[-75.08145261461266,5.659872747163263],[-75.0767513745169,5.6568722753708585],[-75.06421177131864,5.666293478358455],[-75.06280963804011,5.66510798649648],[-75.05294022951847,5.665850253571477],[-75.05038612851871,5.6618852775317805],[-75.04763862787485,5.661344031888348],[-75.04115705607717,5.66712438483728],[-75.03111910948087,5.670445657676055],[-75.02670121455498,5.676468969885605],[-75.0167464483896,5.678012095434383],[-75.0100447549259,5.681953724800508],[-75.00251411519474,5.691093307316294],[-75.00000417963048,5.701687326611761],[-74.99152977522385,5.705392085096946],[-74.99385199123202,5.71334051314625],[-74.99283375394845,5.7151742158727075],[-74.98265316134638,5.717493666398923],[-74.97048881831125,5.7147266747124945],[-74.96403714539446,5.718127280578756],[-74.95197090137742,5.7197563150164115],[-74.94559075252403,5.7254430498713305],[-74.93897814995034,5.726308534644488],[-74.93029551781535,5.733649860733692],[-74.9186547055013,5.733728064531249],[-74.88709709593849,5.73932624842837],[-74.88131123670831,5.74498458181472],[-74.88004227645155,5.742124429691103],[-74.88073729173504,5.7384230568387125],[-74.8855018108705,5.73066747513144],[-74.88291161359524,5.72541663226832],[-74.8755945772615,5.720866309941584],[-74.87796345987738,5.717108361437738],[-74.87835294237209,5.71155156412442],[-74.8757516985957,5.7047104251680025],[-74.8758120321761,5.692385056830858],[-74.87021958698818,5.691600447748897],[-74.86690573333368,5.689103747211448],[-74.86494783177494,5.68973030524711],[-74.86275076282305,5.684529644208283],[-74.86320830764367,5.679533350124586],[-74.86122234194545,5.677308311649995],[-74.86246948585108,5.672565264337379],[-74.860989774068,5.670070529153577],[-74.8655821617507,5.666548129982061],[-74.86811824752289,5.661355749962411],[-74.87257767301452,5.661360954909981],[-74.87373291323985,5.65549567729164],[-74.87912933214142,5.6493488131400795],[-74.87856680390854,5.644739313202308],[-74.8811035190875,5.639744682110177],[-74.87994708998264,5.62942151240793],[-74.88593845156845,5.625817962951032],[-74.88645987912457,5.6218647903460806],[-74.88873434248973,5.62272401910343],[-74.89158802365296,5.621073313324985],[-74.8964437831234,5.62237196677421],[-74.89783665733393,5.620455398320246],[-74.90430537360015,5.6195206376589795],[-74.90501497734078,5.631127156557284],[-74.90342666305617,5.636461864794001],[-74.91044315660423,5.638615170431365],[-74.91238206694351,5.637899226342597],[-74.91435203110456,5.6304617388210545],[-74.92105182503497,5.625042814511801],[-74.92681447951662,5.621878895435259],[-74.93431465060968,5.6231598164785055],[-74.93718729728141,5.621081645766253],[-74.93559670808196,5.6203911453454225],[-74.9376915601319,5.619136910328621],[-74.9384885691453,5.615266973690495],[-74.93662140809835,5.601665174490051],[-74.93816514865574,5.590375328469918],[-74.93700089618869,5.582957082079474],[-74.93346774362215,5.579450588799887],[-74.93424504664847,5.575591999996561],[-74.93947103102744,5.570682593878985],[-74.94107764644667,5.572028620475976],[-74.94484380603552,5.570567356894799],[-74.94664071725936,5.5662676032748095],[-74.95208290699526,5.566608834331873],[-74.95627254218942,5.564352336829074],[-74.95647671888264,5.561306084946409],[-74.95863651296384,5.559137363984178],[-74.96448598753443,5.560313102097325],[-74.96485884936959,5.5524100407043875],[-74.9688314780501,5.551489737888062],[-74.97174674955045,5.54767538651123],[-74.97161290084199,5.544543753330629],[-74.9611339971745,5.540139128398607],[-74.95651191218565,5.541549730901295]]]}}]}