{"type":"FeatureCollection","features":[{"type":"Feature","properties":{"code":"174037"},"geometry":{"type":"Polygon","coordinates":[[[-74.74155412492587,5.45672041146662],[-74.7409664080788,5.453050264186004],[-74.74261819989255,5.451509013487907],[-74.74457343881363,5.4520674485195855],[-74.74347312050418,5.4489208412159655],[-74.74662879250019,5.447263759093914],[-74.74574893627124,5.443051032279868],[-74.7476192597789,5.4418022685772485],[-74.74841536376289,5.437565087457017],[-74.74687046826455,5.429592645274909],[-74.74847849676377,5.427290764660654],[-74.74758634447608,5.425724027100102],[-74.74323103953344,5.425575107594966],[-74.7411102182815,5.4173534686483436],[-74.7322127856421,5.4167866487248375],[-74.73181746159389,5.414654237954096],[-74.73516560866415,5.411193084591446],[-74.74305857177995,5.413242760246874],[-74.74244521483246,5.4092456093829355],[-74.74542508486428,5.411508577846064],[-74.74383466021567,5.401986544297074],[-74.75034614015021,5.395976458886764],[-74.75010415482467,5.393845003539127],[-74.75344471918828,5.388802515931275],[-74.7503134490479,5.3851913241179545],[-74.75368193151206,5.38454334568155],[-74.75449807778386,5.388314210394924],[-74.75883983711009,5.389210205972347],[-74.76014494403609,5.393009901014864],[-74.77148842744737,5.394322935175808],[-74.77187725585264,5.38811839185405],[-74.7811394328304,5.384570039935511],[-74.77990796238873,5.381136545505967],[-74.78355574927218,5.375814401751484],[-74.78822269492366,5.379559243783888],[-74.78868599593704,5.375970092522209],[-74.79461866225142,5.375201371848732],[-74.79118077431542,5.371785179936069],[-74.79628066444252,5.371089750190265],[-74.7961435329455,5.3661539953753845],[-74.78485496219412,5.36899393346124],[-74.77806139487484,5.3663840127153435],[-74.77541279543425,5.3712246242559445],[-74.77313650555516,5.368260221999549],[-74.76867537387739,5.371398402245177],[-74.77009873318104,5.362516187469737],[-74.7685466344713,5.360170336824012],[-74.76321471022851,5.360586599961948],[-74.77465636979105,5.352502410301099],[-74.78072464345064,5.3397335333268074],[-74.7871772039133,5.336307062131198],[-74.79261692847251,5.32985030562304],[-74.7951854554355,5.329139762914394],[-74.79598056080181,5.326312026270557],[-74.80295463418128,5.319218200015769],[-74.79444967577587,5.315460889146266],[-74.79258068821503,5.30223316637165],[-74.79014588963281,5.298988684250389],[-74.79297997690918,5.298889361385704],[-74.79844214825476,5.304352437760713],[-74.80727984998111,5.303510234869236],[-74.80915578261431,5.3060556609563605],[-74.81303701463662,5.30752607561908],[-74.81986973579103,5.3155643391507965],[-74.82977294613289,5.317832123810263],[-74.84034044498117,5.316478712996002],[-74.84635833729868,5.3140570373402625],[-74.84917092704109,5.316601136736551],[-74.85558896063151,5.31364312625044],[-74.85692250193631,5.310154598833265],[-74.8632039470474,5.3049169735134],[-74.8694911833183,5.304774473546445],[-74.86841771352925,5.302094871706174],[-74.87362599121337,5.294577665491204],[-74.8781781914762,5.29738842769126],[-74.88593770286235,5.297512867179137],[-74.88953796850228,5.300507859429786],[-74.89272571144977,5.297986619225355],[-74.89867678277147,5.299112426454258],[-74.90966180357128,5.3086190004552805],[-74.91502904658711,5.310274359936102],[-74.92170874680761,5.308542805205946],[-74.93235917103306,5.31299040052329],[-74.93927072333497,5.313028279089735],[-74.9456778749751,5.306738613637549],[-74.9499088432741,5.307383695979922],[-74.95435711942042,5.3017850307716685],[-74.95809800709128,5.30154692267439],[-74.96253431525201,5.3110526194139425],[-74.96050335519357,5.316065827263344],[-74.96094208157297,5.31930896623868],[-74.96766712993787,5.328061976752053],[-74.96372505525613,5.333197763636804],[-74.96417120904744,5.341207041544635],[-74.96301573639408,5.3422304488087775],[-74.96023712227873,5.34015367369301],[-74.95382057890151,5.3406962984778374],[-74.94955535112535,5.34351324778811],[-74.94834471590065,5.357428127516982],[-74.9443452469273,5.371300613816743],[-74.93896283027055,5.377755069698992],[-74.93750496157816,5.381967245267845],[-74.93400526733211,5.3820659644367765],[-74.93204242822077,5.387695037604999],[-74.92356139755901,5.395031926993113],[-74.92129727415494,5.399407944768086],[-74.91569029398892,5.399937860060277],[-74.9135606147616,5.402050936111607],[-74.91392308418511,5.408166177712587],[-74.91191648278772,5.411233013872277],[-74.91099409943217,5.420756341201923],[-74.90354156476815,5.4202448113766195],[-74.90175790605463,5.422921013185999],[-74.89634090287603,5.423612141985188],[-74.8778321514219,5.418561928717111],[-74.86680225864654,5.422461017586841],[-74.86071344596144,5.421308117068293],[-74.85554798851001,5.422994306170494],[-74.85183328498567,5.419214923896163],[-74.84662324763639,5.424026271104879],[-74.8470793433815,5.434233097218737],[-74.84483610661653,5.437830165430853],[-74.83562054688127,5.4360333272264825],[-74.82042580231956,5.439809105838265],[-74.81938467293395,5.4410977741390525],[-74.82318779886072,5.444330183373609],[-74.822718205836,5.448613352329517],[-74.81854345014818,5.452331398292017],[-74.8128452275904,5.453099024702681],[-74.80905011323085,5.456530601086968],[-74.79023896985137,5.453412020898838],[-74.7852097810337,5.4573207575878655],[-74.78330864024599,5.456276336157714],[-74.77884621170216,5.457804012442978],[-74.77373113970663,5.45675198156664],[-74.77064071724624,5.452791637632004],[-74.7630767858023,5.456004593876344],[-74.75524676234022,5.454319117484772],[-74.74748868871671,5.457502719922672],[-74.74155412492587,5.45672041146662]],[[-74.91197663639065,5.323245714616576],[-74.91644155685066,5.320885457548059],[-74.91675895580926,5.317131424324941],[-74.9140126275899,5.315388885828668],[-74.91406827044392,5.312753113123165],[-74.91174043194047,5.314415493781098],[-74.91008276052088,5.3118792043773055],[-74.90962010536941,5.314136855792583],[-74.90536133621225,5.314190080778303],[-74.90445616384227,5.317836365107212],[-74.91009709803802,5.3187442793048945],[-74.90906680020896,5.320668290597382],[-74.91257291707859,5.321425319936338],[-74.91197663639065,5.323245714616576]]]}}]}