{"type":"FeatureCollection","features":[{"type":"Feature","properties":{"code":"175037"},"geometry":{"type":"Polygon","coordinates":[[[-74.66403944761083,5.767160470298222],[-74.65763882658064,5.741692536283836],[-74.6599881420492,5.733732923922162],[-74.65317206006631,5.716451966227737],[-74.65186555754377,5.709245392848004],[-74.63538246966914,5.708662477799066],[-74.63073409151883,5.70518110319955],[-74.62886390582247,5.700556574631264],[-74.62772482242917,5.694024544358285],[-74.62901528947589,5.681094970155129],[-74.63355117041283,5.673334553739608],[-74.63512598227561,5.65936822617374],[-74.63290968761936,5.648941071676916],[-74.62693212053301,5.639983445325299],[-74.6257618876727,5.627638258900788],[-74.62761292891156,5.624192512635489],[-74.63888768767993,5.6179889339928195],[-74.64446036517421,5.589576914604038],[-74.65286981006602,5.577455395915365],[-74.65240764136786,5.572661687524317],[-74.65544049984362,5.571266452009752],[-74.6637460668988,5.571634183973629],[-74.66649527167192,5.567419994714328],[-74.67098891653148,5.56584059805482],[-74.6786291398983,5.566710277845061],[-74.68183018780667,5.555641250774954],[-74.68230101084868,5.547324116826758],[-74.6872898723783,5.534424265640837],[-74.69126050279499,5.531161770348831],[-74.70325809930233,5.5274879309595235],[-74.70716020253712,5.521904801403991],[-74.71024546838669,5.521387687135814],[-74.71276896602245,5.523613940201017],[-74.7119430135512,5.536696759538529],[-74.71809469492752,5.5418228009019685],[-74.71684333749289,5.546770291274413],[-74.71453413333944,5.548843447300953],[-74.71554891608463,5.54996246372383],[-74.71402145165854,5.550455783945893],[-74.71545152360653,5.555417327985367],[-74.71409224449934,5.557592330674538],[-74.71483118661968,5.563428328534371],[-74.71412549610284,5.5659993453566585],[-74.70611938065576,5.565544489913293],[-74.70194279948254,5.563078094491516],[-74.7011158823322,5.565228763202242],[-74.7041311400427,5.567730305647046],[-74.70418519189616,5.5703140751566025],[-74.71153360909648,5.57704276009423],[-74.71109095406666,5.580879428673768],[-74.71852779469788,5.584679322205716],[-74.72654610233099,5.584716915893523],[-74.73552072883746,5.580888898572482],[-74.74263360596149,5.580389253428962],[-74.74367950320664,5.578490340247697],[-74.7482184684427,5.5769480302538454],[-74.76131322079874,5.58291443873884],[-74.76374586582239,5.582270751993008],[-74.76647534815328,5.577888891636121],[-74.77172422669116,5.579606410182805],[-74.77224226861449,5.5754599695744105],[-74.77580019327593,5.573901640559882],[-74.77861669418525,5.576925187517077],[-74.78245520676222,5.576052569466583],[-74.78554784037402,5.57834444539202],[-74.79107635037587,5.586926694338047],[-74.79554985627402,5.58545416108376],[-74.7965137835651,5.587731622358831],[-74.80340812899527,5.585250173623933],[-74.80824887937558,5.588430394542854],[-74.81443101910548,5.588868026659384],[-74.8144648990874,5.597056733848092],[-74.81292181364785,5.604012015525939],[-74.79427330405457,5.612829641025883],[-74.78806316909083,5.620723070026145],[-74.78591064712668,5.625937336331049],[-74.78666368610862,5.631974287745265],[-74.78351283853652,5.635961168582185],[-74.78475570823502,5.639809340291322],[-74.78296259813482,5.647956214552096],[-74.77885552630607,5.651995095499672],[-74.7769480575115,5.650462478576571],[-74.77517315290072,5.653168196686181],[-74.77059186416972,5.654611365849689],[-74.77018950763153,5.65831347918072],[-74.76702869136608,5.662655204568296],[-74.76266171977153,5.662217296829169],[-74.74985477602587,5.667283419074579],[-74.74791396101108,5.670600754007012],[-74.74992237246727,5.674063845983824],[-74.74709738382188,5.676785436046828],[-74.7470502780692,5.679480048005701],[-74.73947422951551,5.676551145528208],[-74.73973810935388,5.6843666977756016],[-74.75112259882525,5.688445179930795],[-74.75149736533592,5.691495352236359],[-74.74889734437772,5.6936662360132],[-74.74014638457874,5.694105806743892],[-74.73908955396115,5.700918072176648],[-74.74092761728389,5.703343815322512],[-74.73795582052583,5.707140407553936],[-74.73437381282588,5.707144491499207],[-74.73128795150802,5.704827488666126],[-74.7292061791901,5.706909579801277],[-74.72935311174433,5.711683706646795],[-74.73309792395185,5.7144113069279],[-74.7251439001468,5.72450581169204],[-74.72767634523245,5.741746431814022],[-74.72141476140325,5.751464810466473],[-74.7202629160667,5.757847645611719],[-74.7184980336283,5.7578846705708315],[-74.71551725033947,5.75440787871122],[-74.71323747095494,5.755195925876535],[-74.71382789774805,5.772221792802384],[-74.7109362608852,5.772866996500909],[-74.70671515946378,5.7704031259055455],[-74.70370473543312,5.77180800306877],[-74.69672313899662,5.77126060528218],[-74.68178627433957,5.779956066209138],[-74.67837219279102,5.778605576171628],[-74.66964354093864,5.768721288143638],[-74.66403944761083,5.767160470298222]]]}}]}