{"type":"FeatureCollection","features":[{"type":"Feature","properties":{"code":"175030"},"geometry":{"type":"Polygon","coordinates":[[[-74.66921295776712,5.504294456196533],[-74.6690517946538,5.495818518382123],[-74.6638482046107,5.46970584449673],[-74.66574570265499,5.469221326714205],[-74.66785851028283,5.46535816237008],[-74.67851492107218,5.4642697493112],[-74.68254892103158,5.46685324114128],[-74.68651117992613,5.473286025682739],[-74.68428275479033,5.4805510084269144],[-74.68239897514076,5.480603391118109],[-74.68143685379476,5.482917528710345],[-74.68350601535053,5.4847608484028],[-74.68208627513604,5.488754707222199],[-74.68882327297462,5.498141047036825],[-74.69087338674649,5.509723009813058],[-74.68785085383365,5.5011641805600675],[-74.68353138085683,5.500438468324319],[-74.68113049619507,5.497065342442113],[-74.67804514601318,5.496499395666319],[-74.67871980224857,5.499259380573903],[-74.67591081411183,5.5040463598655265],[-74.66921295776712,5.504294456196533]]]}}]}