{"type":"FeatureCollection","features":[{"type":"Feature","properties":{"code":"175007"},"geometry":{"type":"Polygon","coordinates":[[[-74.73969067552804,5.699177874415511],[-74.74033631014396,5.693930400730153],[-74.74889734437772,5.6936662360132],[-74.75169303680957,5.689961339716717],[-74.74690079806288,5.6863737650574535],[-74.73973810935388,5.6843666977756016],[-74.73867061995804,5.682300642116218],[-74.74002333245977,5.680183223980578],[-74.73962288059715,5.676302317974546],[-74.7470502780692,5.679480048005701],[-74.74709738382188,5.676785436046828],[-74.74992237246727,5.674063845983824],[-74.74791396101108,5.670600754007012],[-74.74985477602587,5.667283419074579],[-74.76266171977153,5.662217296829169],[-74.76702869136608,5.662655204568296],[-74.77018950763153,5.65831347918072],[-74.77059186416972,5.654611365849689],[-74.77517315290072,5.653168196686181],[-74.7769480575115,5.650462478576571],[-74.77885552630607,5.651995095499672],[-74.78296259813482,5.647956214552096],[-74.78475570823502,5.639809340291322],[-74.78351283853652,5.635961168582185],[-74.78666368610862,5.631974287745265],[-74.78626818002613,5.62444154587763],[-74.79427330405457,5.612829641025883],[-74.80672179341633,5.60794400838563],[-74.81020608262185,5.604722954184922],[-74.81595507938687,5.603739217034047],[-74.82090260472631,5.605972027448729],[-74.82574378499561,5.6043970777746495],[-74.83280495408667,5.595613875274239],[-74.8360334099882,5.59539836822978],[-74.83672036948144,5.5887493258807694],[-74.8633077333526,5.568203860232359],[-74.87356284998492,5.567205681691632],[-74.8778683587692,5.561928429453133],[-74.88478651264364,5.560924425813937],[-74.89000207067238,5.558026128757376],[-74.89607467818871,5.558253991510242],[-74.89699982291245,5.5620412619387025],[-74.90263812429538,5.565086229296696],[-74.91242400271562,5.553017417258673],[-74.91164511485943,5.545778196999663],[-74.91573061099257,5.541630127338294],[-74.91777998531427,5.536660984137086],[-74.92490592468675,5.534932910684859],[-74.92751556055407,5.536123848149998],[-74.92954989081863,5.534933064951247],[-74.93067657530895,5.530468158889391],[-74.93426452020753,5.528766538007176],[-74.93579126061013,5.531131035344174],[-74.94070629230822,5.532970726691417],[-74.94224755226224,5.532100477144013],[-74.9460741390198,5.537457837855698],[-74.95079436107909,5.539860557258862],[-74.95665174540113,5.5415675980331685],[-74.9611339971745,5.540139128398607],[-74.97161290084199,5.544543753330629],[-74.97174674955045,5.54767538651123],[-74.9688314780501,5.551489737888062],[-74.96485884936959,5.5524100407043875],[-74.96448598753443,5.560313102097325],[-74.95863651296384,5.559137363984178],[-74.95647671888264,5.561306084946409],[-74.95627254218942,5.564352336829074],[-74.95208290699526,5.566608834331873],[-74.94664071725936,5.5662676032748095],[-74.94484380603552,5.570567356894799],[-74.94107764644667,5.572028620475976],[-74.93947103102744,5.570682593878985],[-74.93418207716991,5.575728847643404],[-74.93346774362215,5.579450588799887],[-74.93700089618869,5.582957082079474],[-74.93816514865574,5.590375328469918],[-74.93662140809835,5.601665174490051],[-74.9384885691453,5.615266973690495],[-74.9376915601319,5.619136910328621],[-74.93559670808196,5.6203911453454225],[-74.93718729728141,5.621081645766253],[-74.93431465060968,5.6231598164785055],[-74.92681447951662,5.621878895435259],[-74.92105182503497,5.625042814511801],[-74.91435203110456,5.6304617388210545],[-74.91238206694351,5.637899226342597],[-74.91044315660423,5.638615170431365],[-74.90342666305617,5.636461864794001],[-74.90501497734078,5.631127156557284],[-74.90430537360015,5.6195206376589795],[-74.89783665733393,5.620455398320246],[-74.8964437831234,5.62237196677421],[-74.89158802365296,5.621073313324985],[-74.88873434248973,5.62272401910343],[-74.88645987912457,5.6218647903460806],[-74.88593845156845,5.625817962951032],[-74.87994708998264,5.62942151240793],[-74.8811035190875,5.639744682110177],[-74.87856680390854,5.644739313202308],[-74.87912933214142,5.6493488131400795],[-74.87373291323985,5.65549567729164],[-74.87257767301452,5.661360954909981],[-74.86811824752289,5.661355749962411],[-74.8655821617507,5.666548129982061],[-74.860989774068,5.670070529153577],[-74.86246948585108,5.672565264337379],[-74.86122234194545,5.677308311649995],[-74.86320830764367,5.679533350124586],[-74.86275076282305,5.684529644208283],[-74.86494783177494,5.68973030524711],[-74.86690573333368,5.689103747211448],[-74.87021958698818,5.691600447748897],[-74.8758120321761,5.692385056830858],[-74.8757516985957,5.7047104251680025],[-74.87835294237209,5.71155156412442],[-74.87796345987738,5.717108361437738],[-74.8755945772615,5.720866309941584],[-74.88291161359524,5.72541663226832],[-74.8855018108705,5.73066747513144],[-74.88073729173504,5.7384230568387125],[-74.88004227645155,5.742124429691103],[-74.88131123670831,5.74498458181472],[-74.87986530206291,5.746703289240941],[-74.87290384973,5.748154065793699],[-74.86444689490759,5.747362106433059],[-74.855257784657,5.744605532869343],[-74.84545069255284,5.738279205498259],[-74.84049319029253,5.737955766496782],[-74.83648659524096,5.733133775936494],[-74.83673652528495,5.728847558676932],[-74.83422386846183,5.727762422235912],[-74.83322642217217,5.723908460395478],[-74.83391887869067,5.719326627618329],[-74.82938726270487,5.713208836508386],[-74.82031229723253,5.708298344355512],[-74.811422766117,5.70940152379211],[-74.80612167149559,5.698597328898131],[-74.7979949691063,5.702382600034355],[-74.79087425936405,5.696221303748928],[-74.78176875634801,5.695488755455699],[-74.77418435786956,5.689184251634913],[-74.76688126310256,5.694469069096613],[-74.73969067552804,5.699177874415511]],[[-74.8867389973957,5.57447112003581],[-74.88353347884771,5.580559172701896],[-74.88554304318797,5.582118821208155],[-74.88594532773516,5.578385910137456],[-74.8899928414292,5.578294555645414],[-74.89289971775332,5.573416018230091],[-74.8950844032288,5.57525255534415],[-74.89206297383475,5.5674645787259465],[-74.89097768312735,5.567836448114122],[-74.89126391822072,5.572082874932562],[-74.8867389973957,5.57447112003581]]]}}]}