{"type":"FeatureCollection","features":[{"type":"Feature","properties":{"code":"175038"},"geometry":{"type":"Polygon","coordinates":[[[-74.66921295776712,5.504294456196533],[-74.67591081411183,5.5040463598655265],[-74.67871980224857,5.499259380573903],[-74.67804514601318,5.496499395666319],[-74.68113049619507,5.497065342442113],[-74.68353138085683,5.500438468324319],[-74.68785085383365,5.5011641805600675],[-74.69087338674649,5.509723009813058],[-74.68882327297462,5.498141047036825],[-74.68208627513604,5.488754707222199],[-74.68350601535053,5.4847608484028],[-74.68143685379476,5.482917528710345],[-74.68239897514076,5.480603391118109],[-74.68428275479033,5.4805510084269144],[-74.68651117992613,5.473286025682739],[-74.68254892103158,5.46685324114128],[-74.67851492107218,5.4642697493112],[-74.67958254827931,5.453138439762199],[-74.67773168598944,5.4520409280723925],[-74.68230779137019,5.446548219183057],[-74.6807463718859,5.440728276339371],[-74.68107374365155,5.432227884218719],[-74.67830610096098,5.432342908315377],[-74.67284563888683,5.426190688035206],[-74.66626801055787,5.412728433057907],[-74.66695516751213,5.40483261704253],[-74.66899836295119,5.400341094888347],[-74.67351473639042,5.399253882021867],[-74.68305659625429,5.403346332483352],[-74.68610569075207,5.401136966444312],[-74.68637022467988,5.394944934125817],[-74.68350404176937,5.387052651838928],[-74.67824423808662,5.379124256821456],[-74.67862488934537,5.373395525516344],[-74.69004690359895,5.364986133075092],[-74.69750034740616,5.3663338648296985],[-74.70391610711022,5.371938148419417],[-74.70681070794438,5.37054266299333],[-74.7074650966631,5.36806439420269],[-74.70177659597238,5.355608709857108],[-74.70169504973666,5.352474450034322],[-74.71052438508315,5.3386103126309195],[-74.71278257128853,5.317092837161624],[-74.72821766903752,5.30567557019873],[-74.73322936096258,5.295462657762073],[-74.73363015735345,5.285719119291855],[-74.73729533211457,5.2878379340524475],[-74.74204496145927,5.28592721640797],[-74.74490040023073,5.29000676711496],[-74.74951089055867,5.284558348102678],[-74.75414388012354,5.282784434910525],[-74.75709047284084,5.2861336680160775],[-74.76003402445355,5.2861304459056555],[-74.76110877568203,5.290420953827379],[-74.7661902710862,5.288403451967781],[-74.77503641838251,5.299274813414172],[-74.77964241133128,5.298054595162114],[-74.7821904476055,5.299752777960975],[-74.78449246603105,5.29829210059205],[-74.79014588963281,5.298988684250389],[-74.79258068821503,5.30223316637165],[-74.79444967577587,5.315460889146266],[-74.80295463418128,5.319218200015769],[-74.79598056080181,5.326312026270557],[-74.7951854554355,5.329139762914394],[-74.79261692847251,5.32985030562304],[-74.7871772039133,5.336307062131198],[-74.78072464345064,5.3397335333268074],[-74.77465636979105,5.352502410301099],[-74.76321471022851,5.360586599961948],[-74.7685466344713,5.360170336824012],[-74.77009873318104,5.362516187469737],[-74.76867537387739,5.371398402245177],[-74.77313650555516,5.368260221999549],[-74.77541279543425,5.3712246242559445],[-74.77806139487484,5.3663840127153435],[-74.78485496219412,5.36899393346124],[-74.79656768835127,5.366269930672104],[-74.79606293390532,5.371500301358424],[-74.79109357473118,5.371960465622067],[-74.79461866225142,5.375201371848732],[-74.78868599593704,5.375970092522209],[-74.78788674697586,5.379669276848915],[-74.78355574927218,5.375814401751484],[-74.77990796238873,5.381136545505967],[-74.7811394328304,5.384570039935511],[-74.77187725585264,5.38811839185405],[-74.77148842744737,5.394322935175808],[-74.76014494403609,5.393009901014864],[-74.75883983711009,5.389210205972347],[-74.75449807778386,5.388314210394924],[-74.75368193151206,5.38454334568155],[-74.75059843972582,5.384870015020965],[-74.75344471918828,5.388802515931275],[-74.75010415482467,5.393845003539127],[-74.75034614015021,5.395976458886764],[-74.74383466021567,5.401986544297074],[-74.74542508486428,5.411508577846064],[-74.74244521483246,5.4092456093829355],[-74.74305857177995,5.413242760246874],[-74.73516560866415,5.411193084591446],[-74.73181746159389,5.414654237954096],[-74.7322127856421,5.4167866487248375],[-74.7411102182815,5.4173534686483436],[-74.74323103953344,5.425575107594966],[-74.74758634447608,5.425724027100102],[-74.74847849676377,5.427290764660654],[-74.74687046826455,5.429592645274909],[-74.74841536376289,5.437565087457017],[-74.7476192597789,5.4418022685772485],[-74.74574893627124,5.443051032279868],[-74.74662879250019,5.447263759093914],[-74.74347312050418,5.4489208412159655],[-74.74457343881363,5.4520674485195855],[-74.74261819989255,5.451509013487907],[-74.7409664080788,5.453050264186004],[-74.74121395213615,5.46127505736581],[-74.74787414383053,5.463245685900745],[-74.75027288316119,5.467012508835069],[-74.75740941240628,5.470235967534336],[-74.7582485906483,5.472734070867375],[-74.74991289434104,5.481045339607931],[-74.74404052561152,5.482812860001445],[-74.73771959962056,5.4880383527848835],[-74.73723042402185,5.490420401521874],[-74.73115192250145,5.492056933305548],[-74.72951871670091,5.494747633069096],[-74.72652755951236,5.495472005244267],[-74.72507142271718,5.502885985655155],[-74.72639881187882,5.5042047235583595],[-74.72579099515116,5.508035920823659],[-74.72351717044882,5.510862968411004],[-74.71746419075788,5.506500908657927],[-74.71582777107449,5.512632203218175],[-74.70694092110858,5.518163074524011],[-74.70618858866663,5.519821991387516],[-74.70837529606013,5.521373528567665],[-74.70471413325328,5.526505653168613],[-74.68791029575436,5.53363387054128],[-74.68386270081334,5.54152421112866],[-74.6786291398983,5.566710277845061],[-74.67098891653148,5.56584059805482],[-74.66649527167192,5.567419994714328],[-74.6637460668988,5.571634183973629],[-74.65544049984362,5.571266452009752],[-74.65240764136786,5.572661687524317],[-74.63933660695312,5.56194938396942],[-74.63623982768951,5.555217959260915],[-74.63642961544349,5.551889061549275],[-74.63954882298157,5.541127905946269],[-74.6503866386899,5.524436618111224],[-74.65536516540067,5.520251971891753],[-74.6671000102711,5.514435300523701],[-74.66925974470263,5.510563037548593],[-74.66936281521185,5.5069878103702194],[-74.66779718014169,5.507028928530531],[-74.66921295776712,5.504294456196533]]]}}]}