{"type":"FeatureCollection","features":[{"type":"Feature","properties":{"code":"176047"},"geometry":{"type":"Polygon","coordinates":[[[-75.59732203332783,5.046564523146003],[-75.60013131354219,5.041266263940599],[-75.60312193696905,5.041271701316191],[-75.59881080054726,5.036714390722523],[-75.60036655331328,5.031694789045957],[-75.60523474562535,5.025797372598902],[-75.60570751550898,5.016377918992077],[-75.60259508952089,5.015055199987955],[-75.60602894596224,5.005337865204638],[-75.61392965016483,5.001881972325464],[-75.61688526952213,4.997650816849955],[-75.6185660562158,4.9989785824215005],[-75.62144731917897,4.996233345379665],[-75.62313386103693,4.996963695891225],[-75.62675040383664,4.995155704227727],[-75.6287345512485,4.990576913583595],[-75.62945902626797,4.9936922264098484],[-75.63138914753745,4.99274300687523],[-75.63289252892508,4.995754757596671],[-75.63340370290922,4.992729212375707],[-75.63933182864992,4.991229820316619],[-75.6409873681082,4.9890117269143275],[-75.64499265292397,4.994863846639134],[-75.64418504581045,4.9990132769298725],[-75.65234031319062,5.000652531000867],[-75.65813932928597,5.000069099673794],[-75.66583713720632,5.003352210096068],[-75.66842377607048,5.002509223531433],[-75.66840837822906,4.994014905392305],[-75.67181884068845,4.99537500313977],[-75.67732082818617,4.993855414526479],[-75.6772819684856,4.9973442011111615],[-75.6818138672931,5.0016257739243315],[-75.68184475759256,5.003442071289555],[-75.68955740388157,5.006768324875509],[-75.69014990504326,5.012990915306602],[-75.68002221758121,5.017797349645377],[-75.66935688710993,5.01933371524143],[-75.65544628364506,5.029535528726456],[-75.64935119746053,5.025320862269837],[-75.64717177761077,5.025786835176859],[-75.64978477854203,5.0308743068605395],[-75.64955537106846,5.034215087197026],[-75.64398557938392,5.041776382742739],[-75.64417297909438,5.057592132779007],[-75.65524129139686,5.075213943063602],[-75.66456838263798,5.076570927715636],[-75.66701770694237,5.077910011297092],[-75.65366741747368,5.079699521848511],[-75.64631289029637,5.071059715088495],[-75.64342895646797,5.069759347225613],[-75.6427039466584,5.067234523927482],[-75.638218413125,5.066017072185787],[-75.63775233737368,5.062674663824794],[-75.63233499789436,5.0643227151931],[-75.63089350920592,5.068006458483865],[-75.62432464320727,5.067602973744215],[-75.62184372926248,5.0696891488246365],[-75.61921287045533,5.065090807488161],[-75.62018867214374,5.061492918578892],[-75.61517604947812,5.063249504571502],[-75.61113196461145,5.061428537048755],[-75.6091870563954,5.057370871598607],[-75.60678421666444,5.056244299208515],[-75.60538711966888,5.051994374657056],[-75.59732203332783,5.046564523146003]],[[-75.62161115932815,5.027687669488728],[-75.62138853443304,5.025921518980681],[-75.6242310076297,5.026679423524172],[-75.62582360743426,5.018890345444106],[-75.63365738265469,5.016819481815958],[-75.63249510993944,5.014007072050958],[-75.62729069302856,5.011754148385933],[-75.62516598117855,5.014623671677725],[-75.62142060949827,5.012015119788828],[-75.61708820591366,5.012154727775396],[-75.61745227045157,5.026542134675481],[-75.62161115932815,5.027687669488728]],[[-75.62386244982645,5.01170700560931],[-75.62446821378285,5.012143386111347],[-75.62450546808469,5.011740010386632],[-75.62386244982645,5.01170700560931]],[[-75.62445833353559,5.013057148033226],[-75.62497297748484,5.013786035071064],[-75.62518835803087,5.013128155818492],[-75.62445833353559,5.013057148033226]]]}}]}