{"type":"FeatureCollection","features":[{"type":"Feature","properties":{"code":"177087"},"geometry":{"type":"Polygon","coordinates":[[[-75.78623670541197,5.245152413943174],[-75.79113768755684,5.2232688664162765],[-75.78773543926786,5.224451855049153],[-75.78801581840952,5.226143252184329],[-75.78520907433443,5.229480023651888],[-75.78274117327283,5.229709538083455],[-75.77952506382377,5.234369111858996],[-75.77665553127599,5.234537330088017],[-75.77596522831607,5.226383408939057],[-75.78198099175756,5.220026367132164],[-75.78278499006632,5.208911398506359],[-75.78005297159615,5.202897254861853],[-75.78007940873954,5.18997708268023],[-75.77697873270722,5.185069926794938],[-75.77720913159936,5.181060670134116],[-75.77366459417419,5.175929848569865],[-75.76730848207933,5.173460347251705],[-75.77107259918137,5.170959074258803],[-75.77284205818898,5.167614433149083],[-75.78318100419943,5.168347154220612],[-75.78741514318676,5.165471552833537],[-75.79499191576394,5.164333674774866],[-75.79313639565788,5.1582385268837925],[-75.79426657890963,5.1510551757361895],[-75.79035883261076,5.142765663697105],[-75.79480732473002,5.1434124090309865],[-75.79652447200891,5.140376368554087],[-75.80205148254157,5.138337877211086],[-75.80312371100052,5.132043894357253],[-75.80767774703327,5.125880633746647],[-75.80728272329026,5.121242492713179],[-75.80898369728214,5.11872057167983],[-75.81383564020234,5.115272705794496],[-75.81909277301992,5.117514761907444],[-75.82444515298442,5.116437010712161],[-75.83002586981382,5.1179097938779705],[-75.83637430869902,5.114758231538303],[-75.83651979834838,5.124507257777793],[-75.8384885047243,5.1282585635713644],[-75.83437537536906,5.1310978815064345],[-75.83437617549737,5.135517826118189],[-75.8326900995238,5.13664777694197],[-75.83295630672757,5.143335732470575],[-75.83080546523848,5.145945953521675],[-75.83377303098405,5.150440216475204],[-75.82764657010364,5.154315494843786],[-75.82547201581542,5.159402409111578],[-75.82652474500424,5.16132477592447],[-75.8227329936517,5.165158592632906],[-75.82399922339363,5.16726681752084],[-75.82235116174087,5.172030277360534],[-75.81664395573767,5.17539708757721],[-75.81728519479032,5.178499036821336],[-75.81462297260009,5.180020357331841],[-75.81566019184731,5.183887252865418],[-75.81370627138949,5.1862427019651705],[-75.81411120417619,5.188026775140997],[-75.8087329054033,5.188709252681747],[-75.80240052873336,5.200357338141316],[-75.8040177761913,5.2038792117787125],[-75.80853314072846,5.207197666685033],[-75.80383477101577,5.221902110531914],[-75.80493266734311,5.235142172559904],[-75.80773333126609,5.236755810184661],[-75.81343380816992,5.236291145456505],[-75.80781031327393,5.239440628285422],[-75.8031222783801,5.239939058838331],[-75.79983232572977,5.238154497152323],[-75.79667836300524,5.231798561949574],[-75.7942702658761,5.232428584808133],[-75.79132274550363,5.2490581537506955],[-75.78623670541197,5.245152413943174]]]}}]}