{"type":"FeatureCollection","features":[{"type":"Feature","properties":{"code":"177047"},"geometry":{"type":"Polygon","coordinates":[[[-75.77129649934523,5.106528122339114],[-75.76109545924902,5.102120101489902],[-75.76380092847558,5.094735994248822],[-75.76392201626925,5.083698422093164],[-75.76614012715504,5.081643042695589],[-75.7642847191492,5.081604656078582],[-75.76579228732635,5.079676171061124],[-75.76489746417343,5.076581486734938],[-75.76763688228755,5.075999218576328],[-75.77158553077379,5.071802655793363],[-75.77439597415668,5.06735487021416],[-75.77429200787401,5.062825176387378],[-75.78354762750229,5.061959390280549],[-75.7919704966543,5.059074241861538],[-75.79712143146895,5.060138336368652],[-75.8002583374743,5.068459393825094],[-75.80583992436607,5.065753183091488],[-75.81108755437475,5.059731689168302],[-75.81431089171781,5.046494678529257],[-75.81996351313438,5.0405218237665395],[-75.8215584104795,5.036520124101401],[-75.82647999952712,5.034050635124515],[-75.83446876103511,5.021620033463535],[-75.84476836500545,5.016457130663298],[-75.84603432632389,5.010865504115657],[-75.84731672832442,5.011387974512445],[-75.84730107234395,5.009759361736201],[-75.85010841394416,5.008827555790333],[-75.85045313450667,5.006724561560986],[-75.8519398335282,5.006556711514406],[-75.85078765291945,5.005434516175683],[-75.85859283126717,5.003525392617121],[-75.85991328461245,5.019988559560147],[-75.85374106112528,5.044779279602608],[-75.85027681523593,5.0697829828915815],[-75.8462410885216,5.082717140863053],[-75.84468018325856,5.083887313045238],[-75.84031623631347,5.082183098431017],[-75.83872640610457,5.076590206899084],[-75.83548348310217,5.0763448092012595],[-75.8342753120258,5.07873885163491],[-75.83045606629094,5.076831873407457],[-75.82809741976342,5.080683138671645],[-75.82858141715406,5.088008895169537],[-75.82271390884387,5.091652760601619],[-75.82310520962494,5.09385604340315],[-75.82105356964439,5.095211780554337],[-75.82248336596979,5.0976732384235675],[-75.82660932411699,5.097111812681078],[-75.822118146491,5.101803850273143],[-75.82262963106479,5.103649771925177],[-75.8197546148615,5.103048572196656],[-75.82043647327987,5.107482528309333],[-75.81735855565205,5.107064912769545],[-75.81483689481468,5.104196247198786],[-75.81378572474472,5.106351474995222],[-75.80819757124743,5.10690097491829],[-75.80471821136689,5.105324000240898],[-75.80396220841357,5.107047938325763],[-75.80149175475765,5.10583205495891],[-75.79904843450066,5.110774987274112],[-75.7944673350031,5.108260874176381],[-75.79286611273642,5.109754320809259],[-75.80066133061837,5.113660868972602],[-75.79981461389269,5.120029927101882],[-75.80419109755212,5.123517342772686],[-75.80320537859251,5.125305180048144],[-75.79112751008967,5.121463290065947],[-75.782800758147,5.122402962568685],[-75.77534428969034,5.114723748889105],[-75.77129649934523,5.106528122339114]],[[-75.79084464006024,5.087647582743841],[-75.79379652205739,5.0818696569192525],[-75.79291512522155,5.080162506101601],[-75.79527309092009,5.078407128528966],[-75.7935457918851,5.076455968410869],[-75.79069267122298,5.080152499355904],[-75.78992049395424,5.08422716187556],[-75.78771704145964,5.085393540133339],[-75.79084464006024,5.087647582743841]]]}}]}