{"type":"FeatureCollection","features":[{"type":"Feature","properties":{"code":"178047"},"geometry":{"type":"Polygon","coordinates":[[[-75.61007031676911,5.374890781179602],[-75.61296957027724,5.371315089145185],[-75.61601365111773,5.353985154961151],[-75.62586413629703,5.34051842728735],[-75.63498819035925,5.337108922307948],[-75.64108474310274,5.3397488622625815],[-75.64612057874444,5.339752972947281],[-75.65240716812502,5.351021629966226],[-75.65719179845394,5.351078266295758],[-75.66212018653505,5.348070100724897],[-75.66623203136555,5.34976680976564],[-75.66728588052825,5.352966305754251],[-75.68350642348292,5.361506970655455],[-75.68972408973121,5.371510753419727],[-75.69668167203497,5.370016703091039],[-75.69932981484709,5.375128209476372],[-75.70313721395252,5.376292065993084],[-75.7055708236552,5.388662636435868],[-75.71049452615222,5.3888715768748625],[-75.71336580396695,5.395321158967988],[-75.71795309160319,5.399939226860397],[-75.71794519727842,5.403483664526618],[-75.71404141356857,5.409500476979474],[-75.7058105340659,5.416770356138443],[-75.70366783167094,5.417438971302488],[-75.7016297650747,5.416361204680527],[-75.70148777521524,5.413873674765057],[-75.69890693162466,5.414086536655361],[-75.69953270804405,5.4130811507894805],[-75.69722425876745,5.411719874446817],[-75.69600359211444,5.41250462956765],[-75.69768912507033,5.417055814757703],[-75.6965488229726,5.418662327332697],[-75.69891476424289,5.421539619479233],[-75.69679606158257,5.423441885383113],[-75.69771668013072,5.429212827054528],[-75.69945974210424,5.429750470063823],[-75.69843293583756,5.433566254061134],[-75.70044848777019,5.4353147626662235],[-75.69416956851387,5.437225737421329],[-75.69434002669072,5.43492082187322],[-75.68801230989385,5.426383491182605],[-75.69143511983407,5.4233813039480765],[-75.6894945372473,5.418718261235938],[-75.68390921916603,5.416424669868377],[-75.68034675393085,5.417612601196026],[-75.68127793046995,5.414358218258656],[-75.67830227396706,5.412308481925152],[-75.66978455361846,5.415871516917491],[-75.66829968933837,5.414949378331244],[-75.66852075408622,5.411990705528183],[-75.66011304109156,5.408420622619246],[-75.65590126250157,5.4037807671721225],[-75.65088901007528,5.389475146134885],[-75.64800519657467,5.386456623119443],[-75.64682287540097,5.379547793104848],[-75.63961232092026,5.38013238760044],[-75.63913938751426,5.377481607861739],[-75.63585121098413,5.3772335043316275],[-75.63433241427163,5.375383128495059],[-75.63610307038635,5.371854309785306],[-75.6272830928383,5.375085790336243],[-75.62471074006919,5.379495748771205],[-75.62174427784248,5.380533770203556],[-75.61574684124668,5.378924035518139],[-75.61385451935354,5.376247397649195],[-75.61142844916293,5.376525814522495],[-75.61007031676911,5.374890781179602]]]}}]}