{"type":"FeatureCollection","features":[{"type":"Feature","properties":{"code":"178028"},"geometry":{"type":"Polygon","coordinates":[[[-75.58487664574875,5.446437859073285],[-75.58636394023847,5.4358022289934524],[-75.59058387026391,5.4279169092624215],[-75.59648931781862,5.409164993887657],[-75.59634386210786,5.401229576664662],[-75.60018205689607,5.387749666414663],[-75.60701144178296,5.379791183282919],[-75.60796459922398,5.376143534210769],[-75.61007031676911,5.374890781179602],[-75.61142844916293,5.376525814522495],[-75.61385451935354,5.376247397649195],[-75.61574684124668,5.378924035518139],[-75.62174427784248,5.380533770203556],[-75.62471074006919,5.379495748771205],[-75.6272830928383,5.375085790336243],[-75.63610307038635,5.371854309785306],[-75.63433241427163,5.375383128495059],[-75.63585121098413,5.3772335043316275],[-75.63913938751426,5.377481607861739],[-75.63961232092026,5.38013238760044],[-75.64682287540097,5.379547793104848],[-75.64800519657467,5.386456623119443],[-75.65088901007528,5.389475146134885],[-75.65590126250157,5.4037807671721225],[-75.66011304109156,5.408420622619246],[-75.66852075408622,5.411990705528183],[-75.66829968933837,5.414949378331244],[-75.66978455361846,5.415871516917491],[-75.67830227396706,5.412308481925152],[-75.68127793046995,5.414358218258656],[-75.68034675393085,5.417612601196026],[-75.68390921916603,5.416424669868377],[-75.68959346416159,5.418823089353452],[-75.69143511983407,5.4233813039480765],[-75.68801230989385,5.426383491182605],[-75.6944998620848,5.435454803627124],[-75.68644250448921,5.444688536970148],[-75.68643449086511,5.448457971120035],[-75.6807423741705,5.453184714533336],[-75.6765110808837,5.452000587414602],[-75.67593016718388,5.449846354122087],[-75.67984294976577,5.446919701876823],[-75.67828553503665,5.444763206010748],[-75.6753565256011,5.444560679967765],[-75.6642072121374,5.451971799251567],[-75.65816099651295,5.452742346438981],[-75.65678770590483,5.4511714776248255],[-75.65286502147836,5.452814509165194],[-75.65242827073706,5.444031625481955],[-75.64962045296795,5.439076052579765],[-75.65176892081166,5.434939142548217],[-75.65140104897961,5.431624847691921],[-75.64809895247998,5.429480051387941],[-75.64624061649835,5.433407464593131],[-75.64723287532394,5.437951025938787],[-75.6434915999302,5.441489164394625],[-75.646459940093,5.443839712965769],[-75.64918148284767,5.452251823580582],[-75.6483727804428,5.459800601952452],[-75.63652968376971,5.456065209249914],[-75.63165917951892,5.460367364283172],[-75.6248646259233,5.456315444741392],[-75.61972811192965,5.455746390012223],[-75.61335433839145,5.450025521150167],[-75.61182486850242,5.450856727934195],[-75.60931244719262,5.461913131900815],[-75.60792654068013,5.461707743702277],[-75.60074635919233,5.456897625482384],[-75.59712993774883,5.456566640798144],[-75.59645863423606,5.4539411669160245],[-75.59072855875655,5.448857156969893],[-75.59025547828327,5.446349806910121],[-75.58487664574875,5.446437859073285]]]}}]}