{"type":"FeatureCollection","features":[{"type":"Feature","properties":{"code":"410002"},"geometry":{"type":"Polygon","coordinates":[[[-75.2804732812208,2.9832315604320456],[-75.27942489411629,2.9802469904179247],[-75.28152171563363,2.9790382423852293],[-75.27940240002152,2.9782081031245298],[-75.28187449301481,2.9741045773656083],[-75.27892530039486,2.964786609438079],[-75.27861940353745,2.9675100105883416],[-75.27434549159261,2.9649788140319515],[-75.27304622107789,2.965394349032522],[-75.2731553419145,2.967609367391674],[-75.2672620083842,2.969744987931449],[-75.26780442439525,2.963452067458718],[-75.27152429584322,2.963450948513241],[-75.2734650964598,2.962059208674816],[-75.2734241551916,2.9599712677586467],[-75.27593935638151,2.959522126341824],[-75.27696838305559,2.9560146467859454],[-75.27574422381178,2.9518721173444646],[-75.2736198266652,2.9543719433187334],[-75.27409868904232,2.9526865420034483],[-75.27705277396336,2.949621116866922],[-75.28030300816363,2.949080150959844],[-75.28284495811499,2.9434701790545432],[-75.2942030814055,2.9408272165074436],[-75.28873405549052,2.9451625274990647],[-75.28849405300218,2.9481545300672565],[-75.29082704811634,2.9522315281799365],[-75.28335004886168,2.9806895384896848],[-75.2804732812208,2.9832315604320456]]]}}]}