{"type":"FeatureCollection","features":[{"type":"Feature","properties":{"code":"410010"},"geometry":{"type":"Polygon","coordinates":[[[-75.28274425610891,2.9437170813637863],[-75.27890604178026,2.929493510499185],[-75.27944376809342,2.9207159088967387],[-75.29097704954307,2.92088451690546],[-75.29684905214702,2.930348520585312],[-75.30031666001497,2.9314281887974403],[-75.30905629049118,2.938932477774358],[-75.30872973222353,2.9424942560099794],[-75.29131868580646,2.940696400675904],[-75.28274425610891,2.9437170813637863]]]}}]}