{"type":"FeatureCollection","features":[{"type":"Feature","properties":{"code":"411008"},"geometry":{"type":"Polygon","coordinates":[[[-75.38267484805004,3.3753175378350875],[-75.37289843438629,3.367991460463145],[-75.36919802209917,3.361197759446327],[-75.3679776999744,3.353637316479478],[-75.36222457092737,3.3484700078315086],[-75.35556983203526,3.3379059738060732],[-75.3477645025065,3.3349245230580777],[-75.34623519716826,3.3319207026568733],[-75.33732969434044,3.3300453942883337],[-75.32850490573833,3.325841538819418],[-75.32496358836664,3.320705376553178],[-75.32493463462441,3.319316442305933],[-75.3322238772991,3.3157167855039233],[-75.33493648597363,3.3090291642191687],[-75.35924598953403,3.2941537171209347],[-75.36952917544801,3.267986516241649],[-75.37195062278948,3.275826267741536],[-75.37884712177822,3.274811494252333],[-75.38205873179123,3.270220666716966],[-75.38691160545198,3.267963686874623],[-75.38676693444285,3.263023520041372],[-75.39235233891327,3.2607943893939932],[-75.39053631717059,3.2585314373859546],[-75.39848600300508,3.256935455033954],[-75.39976864668961,3.25282858992216],[-75.40248452375442,3.253617230498776],[-75.40507795342455,3.2523407235307786],[-75.4057878482144,3.2500744733075635],[-75.41129574719974,3.248863612853995],[-75.41603391660942,3.251873046494495],[-75.4191163244173,3.251373383867417],[-75.4254189225341,3.2466224525144867],[-75.43024883210182,3.248441679912503],[-75.43134714289152,3.2457511179602534],[-75.43597908755879,3.2428857104953863],[-75.4374436874075,3.2438036509792596],[-75.43951117363042,3.2423854102339646],[-75.44032753484669,3.2441252346704346],[-75.44503480470092,3.2454749760017876],[-75.4453475160185,3.2480879039135857],[-75.45017678795188,3.2498493832356985],[-75.45353428356464,3.248706224124703],[-75.45515918469181,3.2459437483293527],[-75.45719688310561,3.246208230835009],[-75.46151526490496,3.2410343936339245],[-75.46342210532111,3.2409972997691625],[-75.46932793237107,3.2493597592360857],[-75.47305082126945,3.2498744402092257],[-75.47769712093742,3.247766603044113],[-75.48163470543909,3.241731004031749],[-75.48054280596006,3.2403820648856367],[-75.48178672672685,3.2365922953418362],[-75.48423611273779,3.2362001327259122],[-75.48379293217386,3.233202081887214],[-75.48648665658686,3.229810911981076],[-75.49217069383701,3.2290079842809973],[-75.49824487795576,3.230658440147863],[-75.498938144887,3.2291239535162504],[-75.50315013225082,3.228122423281377],[-75.50795642157925,3.2288134831749744],[-75.50880362167288,3.2312442070679595],[-75.50897905442616,3.2292646351968415],[-75.51083355020347,3.2288212900821236],[-75.51174886301669,3.230914005028467],[-75.51781445655507,3.2312506348337138],[-75.51903485478459,3.2288299917342442],[-75.52304075975121,3.2324111139451475],[-75.52560379791646,3.231735622614451],[-75.52614609359966,3.233595504345203],[-75.53052491285206,3.2321421844540623],[-75.53424061499408,3.2249423216617856],[-75.53879542647246,3.2231683663034687],[-75.54328129630659,3.2176178507170334],[-75.55133946328641,3.212821571219706],[-75.55825922770185,3.2037310433551625],[-75.56044169174146,3.2043109851768463],[-75.56303574156243,3.201836370442436],[-75.56273799819724,3.1992399510899645],[-75.57076430197094,3.179905706878401],[-75.57106133879608,3.171859395783997],[-75.57320612173027,3.16502349571374],[-75.58390249882433,3.1497210917323173],[-75.58677563606318,3.1523039922079192],[-75.58684786872345,3.1623275745475325],[-75.58203370975292,3.1711128709569607],[-75.58412402020065,3.173180494991186],[-75.58404003449925,3.1760783703863353],[-75.57644085215958,3.1888485483403883],[-75.57834742415224,3.1943489767192546],[-75.57476174594098,3.2008340637334527],[-75.57537207823907,3.2055376044551167],[-75.5723891845862,3.218712765589544],[-75.57640978908177,3.220861858726323],[-75.57636469084883,3.2263000755887674],[-75.57090837854025,3.2385940548318217],[-75.56282911717597,3.2492233949571983],[-75.55366953762388,3.2564160257416574],[-75.54984136500798,3.2569075626444146],[-75.54246932859678,3.276450740095811],[-75.53027652650024,3.286365048360949],[-75.53111186042412,3.292149167466391],[-75.52450532360444,3.2974181129746967],[-75.52225147228421,3.3032412121084462],[-75.52268071025293,3.3112126124783003],[-75.52123087986723,3.3120487311038005],[-75.5222398128314,3.313455313424697],[-75.52342172982719,3.31124148497355],[-75.52388777883897,3.3143332135559262],[-75.52754081180768,3.317325328224399],[-75.52648650601651,3.3202983735117186],[-75.51640872578457,3.326727393953604],[-75.51481426861284,3.3255448485794545],[-75.51100773956972,3.3287914338656606],[-75.50789593476094,3.325699023425841],[-75.49996220829746,3.323489925810293],[-75.49860991642868,3.32140236336096],[-75.49063163269307,3.3258126755801527],[-75.48598093746182,3.3321206503944722],[-75.48660363472425,3.3457784832571065],[-75.48086901661412,3.3529768620068126],[-75.48206551383953,3.3581486484934544],[-75.4790813438895,3.3610391910934823],[-75.47637355655354,3.3606142252750146],[-75.47390471446698,3.3578089343891406],[-75.47117119961297,3.359451472277101],[-75.46886820725234,3.357026762715975],[-75.46677334697489,3.3578581083397125],[-75.46316836695445,3.354333401343183],[-75.45167991942793,3.3541840684041517],[-75.44970287958233,3.3560684795174325],[-75.444813965182,3.356729105739987],[-75.44053781226097,3.3451255682965098],[-75.43878604349305,3.34810243013402],[-75.43278067760548,3.348880939523383],[-75.42933053783372,3.352006516205961],[-75.42614028754338,3.3523635215144054],[-75.42678136410211,3.354915539918011],[-75.42251022483833,3.3612749214316295],[-75.41877814372071,3.362216358741705],[-75.41918799451952,3.3638346768083807],[-75.41541784663059,3.367379375699045],[-75.41668453197252,3.3693818931511714],[-75.41542688561185,3.371122296600788],[-75.41300783762676,3.3717952188820846],[-75.41235549139492,3.3700506625816047],[-75.406650963456,3.36934142085272],[-75.39617036182995,3.3772450859414107],[-75.38267484805004,3.3753175378350875]]]}}]}