{"type":"FeatureCollection","features":[{"type":"Feature","properties":{"code":"411001"},"geometry":{"type":"Polygon","coordinates":[[[-75.23323448406938,3.226869287669615],[-75.23351670309472,3.214884168226888],[-75.24189898064895,3.21854669680539],[-75.24818745310779,3.216797202952364],[-75.24948674419136,3.2177800864959636],[-75.24606072962422,3.222305990511984],[-75.24601183643841,3.2292645498361026],[-75.24075027823272,3.229389909780082],[-75.23882359607506,3.2274837645909997],[-75.23323448406938,3.226869287669615]]]}}]}