{"type":"FeatureCollection","features":[{"type":"Feature","properties":{"code":"411007"},"geometry":{"type":"Polygon","coordinates":[[[-75.27142730034393,3.3837605983990784],[-75.26664777108988,3.3786846360156346],[-75.2586478509806,3.3762419112268844],[-75.25741779361897,3.3745826045836793],[-75.26031153158988,3.372395574259258],[-75.25755627031879,3.371908430862959],[-75.25325101864507,3.3660044920334826],[-75.25093807404625,3.3667351191960506],[-75.2508219063215,3.374930788940617],[-75.24808407406579,3.376325920582474],[-75.24814999928816,3.3787941600016893],[-75.24514809693221,3.382752863570488],[-75.24607601742224,3.395060585890917],[-75.24148470549045,3.4001926755248064],[-75.24114350117287,3.404512084738201],[-75.22694051149995,3.4159203651703365],[-75.2215515878874,3.4119875104757966],[-75.21864068521086,3.4131460499447144],[-75.21169689123599,3.412505533887156],[-75.21158081709956,3.4074904213622403],[-75.20714368207109,3.410058378568067],[-75.20059360777407,3.409480617044551],[-75.19973992849259,3.4060169738225454],[-75.20235824235783,3.396900536405667],[-75.19993093083713,3.394158671626826],[-75.19995124771907,3.3844439819977197],[-75.18448560625575,3.3796759301621364],[-75.17748066828784,3.3799997897966136],[-75.17492802767646,3.3747178396326944],[-75.18657201273572,3.367459379270997],[-75.20212196900206,3.348254089410034],[-75.20534836493317,3.348236796149081],[-75.2140921482603,3.353763531059144],[-75.21616747430056,3.3531971327970496],[-75.21622153438153,3.34545861295112],[-75.20639444215578,3.3390628780513794],[-75.20479881358796,3.336218304775059],[-75.20521174148678,3.3319535768219453],[-75.21557239277661,3.329554648257897],[-75.22582687177453,3.3175728455423155],[-75.23607369093259,3.3142358570733563],[-75.23829387824384,3.3116485106407367],[-75.23944608559214,3.306928047925851],[-75.23667598286704,3.2973325928370514],[-75.23720253823757,3.2907638749340435],[-75.23189227607952,3.2772150826895086],[-75.2326863900272,3.2641242702966906],[-75.22705536898889,3.2564996669148627],[-75.22506417366043,3.2492313921262053],[-75.2277952850443,3.2425799103115764],[-75.23191531627725,3.2381307116523317],[-75.23323448406938,3.226869287669615],[-75.23882359607506,3.2274837645909997],[-75.24075027823272,3.229389909780082],[-75.24601183643841,3.2292645498361026],[-75.24606072962422,3.222305990511984],[-75.24964299752008,3.2182110913288966],[-75.24818745310779,3.216797202952364],[-75.24189898064895,3.21854669680539],[-75.23284617399912,3.2145255616334794],[-75.22974903375223,3.203016899040847],[-75.23232834804872,3.1994295907481956],[-75.24519186950266,3.19577973772374],[-75.25770431050557,3.18705731514774],[-75.26509671419245,3.176391753276846],[-75.26769106534704,3.1674219162272266],[-75.27439052297677,3.163483986168899],[-75.27548091475904,3.1588636814140045],[-75.2717199251507,3.1459743717639412],[-75.26483057692275,3.137495158360082],[-75.26631056432842,3.129344304026688],[-75.25909251250175,3.125872629697085],[-75.26831695900887,3.125898918744724],[-75.26766826477638,3.119445754586309],[-75.26975910281516,3.113594695185782],[-75.27403878020874,3.105636764327585],[-75.2783654944493,3.103555705748761],[-75.27922717089984,3.100980742792501],[-75.27848718593879,3.0988071285007663],[-75.28340145144722,3.0723638843934964],[-75.288680712234,3.0676818072672063],[-75.29253342348835,3.056144030495261],[-75.29598200516966,3.0546550483313695],[-75.29929316224786,3.0614080045124297],[-75.30410841548121,3.060085837781969],[-75.30665650420605,3.062577186304509],[-75.30814389434096,3.059651764076534],[-75.31273674585123,3.061975158679786],[-75.31376010066481,3.0681118834165773],[-75.3153993475367,3.0696989903096323],[-75.32342648846259,3.071277505593912],[-75.32904857233541,3.069672890495383],[-75.33883767389455,3.0715430587082437],[-75.33849558100269,3.07412811171406],[-75.34143247962078,3.077355172019054],[-75.33992980580155,3.0843893198114074],[-75.34050946377306,3.090689791109071],[-75.3426761093383,3.0908849802431746],[-75.34436247944643,3.0880485584022495],[-75.34625392099275,3.088919332455305],[-75.34433953180849,3.0980786631243404],[-75.35071729158994,3.096600666783388],[-75.35102263617375,3.09952341711778],[-75.3611249900112,3.0928761159219107],[-75.36538175679078,3.0960240416889064],[-75.36453437569122,3.1051029286125527],[-75.37024882912891,3.11289163233954],[-75.37549914748632,3.1101813119496455],[-75.3794581945549,3.1115755303345622],[-75.38096970166686,3.1138209206581564],[-75.38776685413677,3.1137853427176765],[-75.39244420762657,3.1164505648746967],[-75.39724287516748,3.116309496499696],[-75.39765541534342,3.1185144145248387],[-75.39883045617256,3.115515839180489],[-75.40215648452954,3.1154800113284864],[-75.40755790166185,3.112342752567315],[-75.40778680725543,3.1169335893586663],[-75.40136318099457,3.1293041155784067],[-75.4065664182819,3.1352453395630278],[-75.40835169679235,3.1405602903905105],[-75.41160164200028,3.1425281853252045],[-75.41094649634789,3.1489684415016086],[-75.40655077052895,3.1548862961868736],[-75.40619296200697,3.159987566483778],[-75.40308760964649,3.1643651166381233],[-75.39113938557915,3.203217171766255],[-75.38762966196168,3.20712798590921],[-75.38364739163256,3.216571918504883],[-75.37887012803736,3.2180217920851533],[-75.37595558878809,3.2218657070706627],[-75.37541397290533,3.22390967898383],[-75.3773221307564,3.2270970424360144],[-75.37494114337204,3.230979834605648],[-75.37275883257036,3.233291513191773],[-75.36805876489905,3.2331748631275445],[-75.36244340086961,3.243755028273881],[-75.35466134088125,3.2521946404700657],[-75.35433412029664,3.260239407872291],[-75.35127347124717,3.2669642577478157],[-75.35311307620526,3.2701150107032504],[-75.35033517685741,3.2817217373469134],[-75.35567631285988,3.283957667027778],[-75.3589563986327,3.281363179090306],[-75.3591093156939,3.278248884422169],[-75.36310009124264,3.2735293863863717],[-75.36268762717145,3.270146839970778],[-75.36500732658078,3.2661657852606822],[-75.36767040237822,3.2660775952862764],[-75.36954707549,3.2678449686125077],[-75.35924598953403,3.2941537171209347],[-75.33506720204616,3.3089312750033173],[-75.33183156658748,3.3161455915267766],[-75.32493463462441,3.319316442305933],[-75.32759462200903,3.32531330400235],[-75.33732969434044,3.3300453942883337],[-75.34628937449173,3.3319449533314582],[-75.3477645025065,3.3349245230580777],[-75.3556527831235,3.3379850744055375],[-75.36222457092737,3.3484700078315086],[-75.3679776999744,3.353637316479478],[-75.36919802209917,3.361197759446327],[-75.37289843438629,3.367991460463145],[-75.38267484805004,3.3753175378350875],[-75.37508134168462,3.375152853334555],[-75.37759749726922,3.3772656537632884],[-75.3773614655974,3.3820051683758265],[-75.37122174397916,3.3877793157026304],[-75.37379854167688,3.395282193656385],[-75.3702717839659,3.3968939790561876],[-75.37132098765375,3.4002586696527715],[-75.36974815862817,3.403559633837176],[-75.36044805269029,3.409208061265133],[-75.35953067065071,3.4077203533414604],[-75.35701742761535,3.4078745621264943],[-75.35665671374323,3.4063832700807097],[-75.35847923524261,3.405205496679798],[-75.35604101400367,3.4029755905867773],[-75.35059668819264,3.4028070782231907],[-75.34795054261588,3.404965743074513],[-75.34427173790613,3.404317386171215],[-75.3416435499642,3.405598470736834],[-75.33986361421262,3.402362940179273],[-75.34139144887803,3.3980946445590803],[-75.3389195389475,3.4002140712429423],[-75.33549310066206,3.3994771788085245],[-75.32999387864623,3.4016785332803465],[-75.3236652928154,3.407856243508377],[-75.32126948351748,3.408421622583944],[-75.32311465646336,3.4103749321468513],[-75.32292622111129,3.414258388690371],[-75.32121317526116,3.417985592933519],[-75.31845891980686,3.419257206572013],[-75.31682244767285,3.4147437899050033],[-75.31240676801218,3.4143889628378474],[-75.30926013499749,3.4122084106728607],[-75.31046106789546,3.410314987317804],[-75.30865420546183,3.4088543181763953],[-75.30824998847118,3.4040375397627827],[-75.30240876818021,3.4044642806730394],[-75.3014496488579,3.399237942509842],[-75.28931098294714,3.3913545521369883],[-75.28250563584726,3.388749552488548],[-75.2772188797714,3.3827780768672824],[-75.27142730034393,3.3837605983990784]]]}}]}