{"type":"FeatureCollection","features":[{"type":"Feature","properties":{"code":"412087"},"geometry":{"type":"Polygon","coordinates":[[[-75.42403151243866,2.7333850732584324],[-75.41959138567086,2.726983954462071],[-75.424558392797,2.7266359500825956],[-75.42696134462818,2.720728935181512],[-75.43245481250807,2.719858789506816],[-75.4370706270829,2.7170435474111514],[-75.43054062181324,2.7089615277640178],[-75.43252317616765,2.7035110066152583],[-75.43827637720563,2.69877897083677],[-75.43935978174943,2.6917552226551607],[-75.44213710311254,2.6885702801566254],[-75.43629995031176,2.6833618996282667],[-75.4357131580345,2.6786188872827097],[-75.4404888182878,2.6766686445353685],[-75.44329729734545,2.6788161086191735],[-75.44547091266566,2.678489889737591],[-75.4437625955942,2.671243843705554],[-75.44756235337172,2.661281077285821],[-75.44556308374109,2.6581602252682046],[-75.44245767995852,2.659813635850469],[-75.44181718858357,2.6588712657430165],[-75.44357179379591,2.6556287222359174],[-75.45036195697048,2.653911884518152],[-75.45334572994165,2.649489268012701],[-75.45334501517414,2.6473081563750043],[-75.44414398013254,2.6470833090155566],[-75.44349496811134,2.6398360401653918],[-75.44577688357094,2.636356740962924],[-75.45098791953791,2.633463553208742],[-75.46504958063991,2.6326822690814424],[-75.46761978807797,2.625254621697934],[-75.46585090705503,2.614413265062012],[-75.46806216851365,2.6070453743025723],[-75.47334251430726,2.6075706544042987],[-75.48149174987208,2.6000215654428303],[-75.48085816243179,2.5899802414413102],[-75.47553244895335,2.582827530681641],[-75.47600530522618,2.5774759775849247],[-75.4776610606574,2.575945145009598],[-75.48236816801767,2.5800404977358085],[-75.49328692729449,2.5805148452503204],[-75.49590393915156,2.5723459036983627],[-75.49548381626886,2.5683848552806126],[-75.50218215289624,2.5649724120409587],[-75.50128309050325,2.5628188976298247],[-75.49755180231489,2.561641574686746],[-75.49501849950815,2.554972318300031],[-75.4982997391935,2.55000026152112],[-75.50161142180582,2.5497530445085204],[-75.50679866681196,2.554265342230053],[-75.50898041608406,2.5544358106913023],[-75.51242942868276,2.5518954784799917],[-75.5159769876721,2.5434650595313997],[-75.52195876828745,2.5435617629530043],[-75.52662800633732,2.5465805811314794],[-75.53056563506203,2.5454291050058373],[-75.5306255984031,2.5427886220335836],[-75.52405702448209,2.5383825243718547],[-75.52381304809177,2.5357248674379775],[-75.52546890739569,2.5338815487739907],[-75.53607370682568,2.531923621504177],[-75.54654203810406,2.515557451088796],[-75.545237147151,2.5111838789501917],[-75.54711439721905,2.5053963916955126],[-75.54178073285146,2.500845397795729],[-75.54207881148886,2.497589912367971],[-75.54536005220262,2.4964115280722012],[-75.55317941277269,2.5022931856945547],[-75.55568273133781,2.5017660019457253],[-75.55901581686737,2.506759910042774],[-75.55323300799768,2.5200328246385766],[-75.56205252068969,2.5293163459124344],[-75.56226632977558,2.536032020023754],[-75.56473124424008,2.5362687500080483],[-75.56923938808228,2.5413996250513264],[-75.58191308681523,2.547701810762703],[-75.58830723585663,2.5580562235201683],[-75.58900851641192,2.563453038372188],[-75.58729241094528,2.5717874419271993],[-75.59020583022067,2.575482601958356],[-75.58766551446445,2.5832806634838335],[-75.58889350259977,2.586018417577918],[-75.58814657256636,2.589584028818763],[-75.5935633443454,2.598793007550398],[-75.59309088402296,2.6049449470657464],[-75.58942801914378,2.6103187484595196],[-75.59035125919195,2.6249923452014627],[-75.5898089367692,2.627207319337572],[-75.58710078022233,2.6275795702778737],[-75.58774129627989,2.641612771290056],[-75.58909240749665,2.6489309625648048],[-75.5950050304948,2.661190827341045],[-75.59048069691045,2.671521011021241],[-75.58804715611342,2.6833436756268156],[-75.58479609915912,2.6841573659778533],[-75.58027994992034,2.6824142227574157],[-75.57711317177359,2.684167438543909],[-75.56897245788343,2.681060751265079],[-75.55944386698496,2.682562908806119],[-75.55816887491278,2.684799708549349],[-75.5604659053921,2.687212967431492],[-75.5569869414619,2.6929420772034405],[-75.55762715618579,2.6949979996186926],[-75.55438435351118,2.695282197367476],[-75.55445292285924,2.697175517878293],[-75.54891413460285,2.7024822473362633],[-75.54453445351567,2.7171235756657666],[-75.53616497184322,2.7310346995225245],[-75.52204934527691,2.7459320493611017],[-75.51218447012991,2.750641156013671],[-75.51013194260344,2.754527705083831],[-75.50138915069488,2.759785209169081],[-75.49755137962501,2.7665352785120376],[-75.49246164742465,2.7657339459262857],[-75.48607679550366,2.760734705354764],[-75.46813925953637,2.765793312770654],[-75.46090657914334,2.76524804386014],[-75.45901316298739,2.769875208326596],[-75.45293349932689,2.7761312251964227],[-75.4370407539131,2.7757015809929158],[-75.43623933288126,2.7741384357820493],[-75.43794832872476,2.7717863990545766],[-75.43420916575201,2.7648461449788897],[-75.43492728191137,2.761842596086467],[-75.4327450924659,2.761673885233506],[-75.43213494940125,2.7568151021420704],[-75.4340422032513,2.752376639394299],[-75.43259209004395,2.7485963572327137],[-75.43604149036548,2.748339282598522],[-75.43583453893433,2.745708046353002],[-75.4340882929028,2.7434136435442724],[-75.4313337793094,2.7429653022558114],[-75.43213435496148,2.739314112256068],[-75.42847239511173,2.7348944082997946],[-75.4284342244676,2.732402542470652],[-75.42715235520029,2.7338194565250546],[-75.42403151243866,2.7333850732584324]],[[-75.5182217784137,2.6700410195018094],[-75.523193076202,2.669428903884409],[-75.52458225007638,2.66690838564665],[-75.52183741104176,2.6657418726629203],[-75.52246543357961,2.6631791018927515],[-75.51748377731826,2.659020303519071],[-75.51548370550245,2.6591888025128583],[-75.51142380318981,2.6644329543289587],[-75.51388313835366,2.6646304605440037],[-75.5182217784137,2.6700410195018094]]]}}]}