{"type":"FeatureCollection","features":[{"type":"Feature","properties":{"code":"412001"},"geometry":{"type":"Polygon","coordinates":[[[-75.43403623211407,2.892887887506845],[-75.42983458676815,2.8931668144876994],[-75.42853592714829,2.8885699026863563],[-75.42661836727575,2.887594633731169],[-75.4290309545849,2.8865661305343338],[-75.43072490739974,2.8809152173608368],[-75.4392605833263,2.8790765966222693],[-75.43962671400516,2.880711990948498],[-75.43751300957547,2.8816948662645245],[-75.4402202158414,2.8869229229551365],[-75.43762111945301,2.88932430538307],[-75.44019394119192,2.8942279789620216],[-75.4385135062256,2.895145358944717],[-75.43403623211407,2.892887887506845]]]}}]}