{"type":"FeatureCollection","features":[{"type":"Feature","properties":{"code":"413048"},"geometry":{"type":"Polygon","coordinates":[[[-75.22845755574644,2.474017713647413],[-75.25630989260281,2.45316561066295],[-75.27333853426654,2.4359517578143937],[-75.2942518295809,2.4087520705804764],[-75.3085968615639,2.377592026042123],[-75.31453982464478,2.3697025873988196],[-75.32355792444491,2.361766324796122],[-75.32698440181116,2.3474179843135516],[-75.33471990009292,2.3351831919374604],[-75.33775638897077,2.32200781380169],[-75.34209861418145,2.3135209158753582],[-75.34821010710942,2.3079086968231195],[-75.35730423555123,2.3058114238195344],[-75.36174383575644,2.3064990641417467],[-75.36671834845606,2.3098064550634376],[-75.37122804318955,2.309091466397774],[-75.37477549830618,2.3072042640915242],[-75.38148307446113,2.2994289157190337],[-75.38867001795853,2.2975174483399314],[-75.39141555324869,2.2990564344075892],[-75.39270569427919,2.305584636817514],[-75.3982301265064,2.311305916028175],[-75.4018303684922,2.3215800146240326],[-75.40737733389506,2.3290251856396935],[-75.40775142780433,2.3331865510058947],[-75.40587414276928,2.335095442136435],[-75.40432620616639,2.3455337192391426],[-75.40847644584142,2.359141076142919],[-75.41744130214391,2.368147480494713],[-75.42280508136531,2.3798000900729335],[-75.42965563776988,2.38533604394172],[-75.43633149572912,2.3948263942620542],[-75.4325623454294,2.4202313330868037],[-75.42690894753878,2.4325717290260513],[-75.41803505697703,2.4424421104543512],[-75.42604662625473,2.446720064178237],[-75.42897712384661,2.4502464609058734],[-75.42597830476137,2.4531239505134295],[-75.41067296354811,2.4546865167110923],[-75.41032245285419,2.4643907470798467],[-75.40760591347237,2.4670114294482346],[-75.40518787336094,2.473792949591882],[-75.39561948276543,2.481090220288877],[-75.39461283500054,2.486345234514772],[-75.38845475054114,2.4943595692744225],[-75.38512194989016,2.4960287314823404],[-75.38281752799446,2.504773247060541],[-75.378697237594,2.509525659370695],[-75.3620187456408,2.5177878055827705],[-75.3599052376436,2.526571741362716],[-75.35367218383834,2.5301141560825613],[-75.34927751011611,2.5406170923948252],[-75.34495936074478,2.5437665865366057],[-75.34424870593591,2.5467367799528233],[-75.34621820524097,2.550959933117099],[-75.33735175854622,2.5524198000733236],[-75.33543699089512,2.554218081182512],[-75.3243587664636,2.5531241649277376],[-75.31623266674166,2.561539418462928],[-75.31399770071147,2.5611115483227422],[-75.30595514651753,2.5671126286903814],[-75.29843343366747,2.5690338158796635],[-75.29770765663977,2.5727748506178614],[-75.30177471485547,2.577072390001092],[-75.2984945941156,2.5783927651847307],[-75.29136022768512,2.5871511781066374],[-75.28736202472453,2.5879642133398306],[-75.28177769806183,2.600164254643232],[-75.27553602590831,2.6048130287438767],[-75.26559537717338,2.6071235431330706],[-75.26194799549631,2.6106616671907545],[-75.26100873745594,2.61754203711547],[-75.24627641870302,2.6221976256762787],[-75.24408690571835,2.6236898577185457],[-75.24464355845913,2.626506919129042],[-75.24208182641593,2.6316285484740547],[-75.23685731579508,2.632311759294339],[-75.22575095214779,2.6292337285378267],[-75.22011960406473,2.620703174255027],[-75.21079770337303,2.620316178534324],[-75.20810403860975,2.616048349826997],[-75.21048718058114,2.609712030108426],[-75.21387506255655,2.6073140394839243],[-75.21515876759378,2.6091166709049958],[-75.2191358216624,2.604796389572357],[-75.23562486319082,2.5935830535049718],[-75.24877782642187,2.580005600624304],[-75.25507503755676,2.575645043425709],[-75.25176845910471,2.572909361643326],[-75.25325055687438,2.5629412637775886],[-75.2484514707574,2.55438027376681],[-75.2516416655119,2.530826425546195],[-75.25005715852149,2.5205498453184987],[-75.25218959088949,2.5154924164976933],[-75.24701133241405,2.5029211712084702],[-75.24291952678601,2.503139144458089],[-75.24030266096776,2.5066275453768867],[-75.23696190428547,2.506719659887949],[-75.23078813504918,2.4990588543009835],[-75.23349381613491,2.4827378181140034],[-75.22845755574644,2.474017713647413]],[[-75.31090711061489,2.529406544435062],[-75.31280342080811,2.5301023001972],[-75.3141728547568,2.5279532913926914],[-75.31859238182096,2.528387552274637],[-75.32224726495775,2.524847157415934],[-75.321760004319,2.522559514559873],[-75.32358644521287,2.5221853897973006],[-75.32339081487692,2.5202881221241],[-75.32489898983516,2.51998087183631],[-75.32369470832833,2.5171936002918187],[-75.30897107065874,2.5175679420557913],[-75.30996398048842,2.5207390941685617],[-75.30621422352931,2.521199718146079],[-75.30733224853361,2.5243924973765957],[-75.31086586801302,2.5256056389156925],[-75.31090711061489,2.529406544435062]]]}}]}