{"type":"FeatureCollection","features":[{"type":"Feature","properties":{"code":"413007"},"geometry":{"type":"Polygon","coordinates":[[[-75.29038312501694,2.867039327944724],[-75.27829746709045,2.862729724930773],[-75.27404003799393,2.8631455828623302],[-75.26085557048316,2.858181954169879],[-75.2543388352073,2.858084699503081],[-75.25137930776845,2.8564998058183164],[-75.24600193150854,2.8582249070716443],[-75.23883446876937,2.8571200646435386],[-75.23603352922379,2.858438467274425],[-75.23543564827935,2.860813614133747],[-75.22148700786789,2.86056432069563],[-75.21997635642009,2.862358336853731],[-75.21873265779686,2.8607253028030755],[-75.2157115060823,2.8610526869100568],[-75.21314749501045,2.855301346324609],[-75.20870007247146,2.8511793415104876],[-75.20856185391068,2.844862723665244],[-75.20162705366567,2.8355695710272357],[-75.20003239800445,2.8265774527704366],[-75.19523402459816,2.824950622285087],[-75.19337956481633,2.822203156608282],[-75.18077555643384,2.813605759732411],[-75.16556988055657,2.812026476201538],[-75.16012986186286,2.8074710538282943],[-75.15958762685773,2.7977702276043033],[-75.15272870407324,2.79330536473708],[-75.15265988378525,2.789910774231089],[-75.15065415245022,2.788748452150628],[-75.12714557935459,2.7938017116654805],[-75.12804544701805,2.791277767685699],[-75.13124857032341,2.7906933891630388],[-75.1318243335831,2.7887295545193638],[-75.12561804499438,2.7825735074045497],[-75.12464630976768,2.776737409785767],[-75.12116052726361,2.771850630432084],[-75.1266250300884,2.7582356352857005],[-75.12993276656675,2.7539001155203096],[-75.16416942466776,2.776261138055361],[-75.17127197622892,2.7765737496139877],[-75.18516289324714,2.773351126010027],[-75.19248960105432,2.7773083702189183],[-75.20018988546428,2.7723787099544097],[-75.20253146910193,2.7735971695697685],[-75.20467161170347,2.7787096879425235],[-75.2080279420909,2.7808140654270233],[-75.21492901250662,2.7826252987413795],[-75.22344300577959,2.782402831197942],[-75.23155639395196,2.786576493651296],[-75.23366484612575,2.788959555404233],[-75.2364752524847,2.8014042426139554],[-75.26825846428369,2.829653298086555],[-75.28504796426552,2.837253133487252],[-75.29110729870274,2.8430913856931284],[-75.2979441233428,2.843857691583537],[-75.29862313503224,2.855055224603234],[-75.29038312501694,2.867039327944724]]]}}]}