{"type":"FeatureCollection","features":[{"type":"Feature","properties":{"code":"414020"},"geometry":{"type":"Polygon","coordinates":[[[-75.60660342058344,2.1941061544007425],[-75.60649750951598,2.192225747014163],[-75.60817268502723,2.1931300071556734],[-75.60967674518696,2.191867870614942],[-75.61608409120277,2.1934146543337647],[-75.61087804112509,2.189067481286145],[-75.61584920418744,2.192026643627912],[-75.6201969829877,2.1916755168969075],[-75.62086738558486,2.1888915014014287],[-75.6174979075883,2.1828265660662964],[-75.61594073145784,2.182633309375717],[-75.61810768555586,2.1803727978617644],[-75.61994010787134,2.1864824776455976],[-75.62413950915567,2.187717743040139],[-75.62276358779161,2.186118728839574],[-75.62566681108785,2.1861043645829454],[-75.6242315115665,2.1871306206328427],[-75.62920892138874,2.193084802993212],[-75.63143388273011,2.19010541221553],[-75.63997854415896,2.1930659547271603],[-75.6413682157995,2.192336445481601],[-75.64721629168832,2.193127597514831],[-75.64137384549389,2.1933022054572007],[-75.64069793044484,2.197417360844156],[-75.64349390158458,2.1976779990317254],[-75.64307663880055,2.199444384024673],[-75.63710255196372,2.201079263101178],[-75.63692503969969,2.2041404099168176],[-75.63442495867167,2.201419129415001],[-75.63196436983634,2.2011616228349453],[-75.62948652990622,2.204157517029671],[-75.62681506304625,2.201751741095336],[-75.6211852360297,2.2082542848928597],[-75.62380434385261,2.1981189540460377],[-75.6138913859325,2.1939568975664656],[-75.60660342058344,2.1941061544007425]]]}}]}