{"type":"FeatureCollection","features":[{"type":"Feature","properties":{"code":"414060"},"geometry":{"type":"MultiPolygon","coordinates":[[[[-75.79887917034563,2.2638731505039686],[-75.79822652483699,2.2625298914458654],[-75.79912004803862,2.2635437784176133],[-75.79887917034563,2.2638731505039686]]],[[[-75.8034995604612,2.270733849408657],[-75.80022232861637,2.267978318685607],[-75.79972031702658,2.2642380357389698],[-75.80944328356111,2.2643839326515263],[-75.80884175267414,2.2691363501039064],[-75.80753833753607,2.2681770878281213],[-75.80763558500377,2.2702239794895718],[-75.8034995604612,2.270733849408657]]],[[[-75.807081061139,2.2719302355622517],[-75.80658354281456,2.270875478284779],[-75.80730732157843,2.2708349843890687],[-75.807081061139,2.2719302355622517]]]]}}]}