{"type":"FeatureCollection","features":[{"type":"Feature","properties":{"code":"414029"},"geometry":{"type":"Polygon","coordinates":[[[-75.63669476627751,2.2040456235121155],[-75.63710255196372,2.201079263101178],[-75.64307663880055,2.199444384024673],[-75.64349390158458,2.1976779990317254],[-75.64069793044484,2.197417360844156],[-75.64137384549389,2.1933022054572007],[-75.64548898339729,2.1938999743014733],[-75.64717667299715,2.1929172172563085],[-75.63997854415896,2.1930659547271603],[-75.63143388273011,2.19010541221553],[-75.62920892138874,2.193084802993212],[-75.6242315115665,2.1871306206328427],[-75.62566681108785,2.1861043645829454],[-75.62276358779161,2.186118728839574],[-75.62413950915567,2.187717743040139],[-75.61994010787134,2.1864824776455976],[-75.61810768555586,2.1803727978617644],[-75.61594073145784,2.182633309375717],[-75.6174979075883,2.1828265660662964],[-75.62086738558486,2.1888915014014287],[-75.62010672995757,2.191769146303841],[-75.61584920418744,2.192026643627912],[-75.61314799888356,2.1894476142099393],[-75.60678327049732,2.187784216422358],[-75.60095798592317,2.18044416148814],[-75.59732177724567,2.171150486401359],[-75.59708659609578,2.163082554359846],[-75.5936908023121,2.1564783644459453],[-75.59539897437315,2.1491457564640086],[-75.59321799848982,2.142787265581603],[-75.58423540875299,2.1336840282244793],[-75.57840604640427,2.1307446304910513],[-75.57136832580261,2.120958798350671],[-75.53073505142657,2.1021493632142665],[-75.5369064130789,2.098367071476048],[-75.54886939735331,2.085877584281718],[-75.55790364267256,2.0706759162450226],[-75.56115372569178,2.0621945492825375],[-75.57186591303264,2.0475830077336923],[-75.57612397976357,2.027453271461468],[-75.57931954710176,1.9937029257752101],[-75.58213584952165,2.004734183293749],[-75.58636275855804,2.0131073426766193],[-75.6051845113505,2.0251438688186454],[-75.6165908099739,2.0385860815081287],[-75.61979541629341,2.039915288956138],[-75.64747605775659,2.040322323879309],[-75.66225433657718,2.0421982739959503],[-75.67549983495235,2.0513047674021436],[-75.67857349482813,2.0593100025024],[-75.67968045687627,2.0588178989278276],[-75.6824269661015,2.0625542881911088],[-75.68087103335807,2.0644503073351075],[-75.68299131159233,2.065866875832853],[-75.68275544549977,2.068664420489654],[-75.6892635377447,2.0685199304864454],[-75.69231537304182,2.066478871122513],[-75.69474159029971,2.0688623586506196],[-75.69581680844107,2.071424647081244],[-75.69367308377423,2.0768135192716386],[-75.69811418961928,2.0801887472903218],[-75.69885357294146,2.086023254936947],[-75.70496491983062,2.0845146007245035],[-75.7083603207493,2.0883682622597917],[-75.70558321433066,2.092687695127381],[-75.7062617292824,2.097697336338058],[-75.70073846742275,2.105847502643371],[-75.69989187822398,2.1104745539811915],[-75.70137175250096,2.1175761089815524],[-75.69649654621094,2.1197864129601385],[-75.69057553832096,2.119765501638426],[-75.68444855190637,2.1264027312966505],[-75.6799396583296,2.126109692027569],[-75.66892269719045,2.1415683123138365],[-75.67594238713792,2.1588929232794385],[-75.68721852401927,2.157738543860546],[-75.68556981753306,2.1643513531511758],[-75.688446236532,2.166285077054738],[-75.68294569708132,2.1716008022994515],[-75.67687239125252,2.1733197925473746],[-75.67190565872056,2.181086490689836],[-75.66513005829205,2.1804919686386484],[-75.66082715866645,2.1883404804119095],[-75.66336056534584,2.198873969694489],[-75.66591622032223,2.19905939788066],[-75.66805971873168,2.196139430511721],[-75.67667396252449,2.198643323976171],[-75.67672803906055,2.2008964605287815],[-75.6696783813266,2.210974086494332],[-75.67066223880522,2.2166360399983205],[-75.66124761887824,2.2142330532000187],[-75.65876009719028,2.2168884095079875],[-75.65762332162194,2.2216560211701335],[-75.64763554862236,2.225988484404411],[-75.64777915725034,2.2309309611195545],[-75.64229101978805,2.2259050129242155],[-75.63669476627751,2.2040456235121155]]]}}]}