{"type":"FeatureCollection","features":[{"type":"Feature","properties":{"code":"414009"},"geometry":{"type":"Polygon","coordinates":[[[-75.54579040603147,2.496791038788274],[-75.54804209350863,2.480617252944228],[-75.5419693656645,2.482291436008495],[-75.53937753727939,2.4810143561980453],[-75.54235220030677,2.4701407486331277],[-75.5378742103992,2.4639968762209037],[-75.54103525806426,2.4634700349433842],[-75.53647710311924,2.453279118835326],[-75.5328574688213,2.4497260494509874],[-75.53222927350515,2.4422721109629038],[-75.52539155103477,2.4344635027593426],[-75.52506075661239,2.4300419208670405],[-75.52954094224475,2.4164722008456465],[-75.5291674335192,2.409117511174429],[-75.53686521161472,2.3974779998401345],[-75.54484010560378,2.390758448500492],[-75.54871991837541,2.3906288709137584],[-75.55222467255868,2.3884331152830214],[-75.55328333894613,2.3854009684894777],[-75.55037449418307,2.383809198638005],[-75.55461664473756,2.381957314076317],[-75.55328498136885,2.3798856657464853],[-75.55494291401283,2.3787194139871417],[-75.55327461363981,2.377108272392377],[-75.55189377734894,2.3778073798486616],[-75.54912433591238,2.3685620312758147],[-75.54313363458664,2.3619167859366144],[-75.53450491855074,2.36161255207071],[-75.53206620777314,2.360320246168726],[-75.53093225836489,2.3564193935200706],[-75.52546106757836,2.3552738659059287],[-75.52237714076091,2.3518047606256687],[-75.5143173334153,2.3480225861299004],[-75.51392748788038,2.3456480851325523],[-75.5170821879982,2.3394501793787867],[-75.51507811245568,2.332368428067582],[-75.5078123357539,2.3242911176587313],[-75.50680944694648,2.319462170713223],[-75.50111992295547,2.317674038274731],[-75.50079480450734,2.3162110150284434],[-75.50173832544198,2.312426069908497],[-75.50615921107868,2.311984514283779],[-75.50632176978849,2.297354302389465],[-75.51022316236953,2.2924775657769487],[-75.51152361559309,2.285975255435858],[-75.50892269783304,2.2791478245897565],[-75.5042085106744,2.2739459870127234],[-75.50423623131405,2.2693629365596735],[-75.50781418180821,2.2686153658065678],[-75.5169240608472,2.2573450015730714],[-75.52333255666173,2.2551338357595796],[-75.52829951236572,2.25556734073632],[-75.53611238552037,2.263125328810929],[-75.53930938342211,2.273583174089424],[-75.54997623907366,2.2754148518125135],[-75.55364522318587,2.277596068351386],[-75.55994041034586,2.2767177270182515],[-75.56225189867013,2.2779239419970168],[-75.56305281062288,2.2805906194001864],[-75.56605167084587,2.2800066543114212],[-75.57106409605046,2.2820423102384098],[-75.57368146066335,2.2889594644667],[-75.57673233950891,2.289793075749344],[-75.57766390274236,2.2938320338300855],[-75.58063205470012,2.296108772110074],[-75.57941874861024,2.2971457414457177],[-75.5847060394762,2.300918475867661],[-75.5846378228839,2.302809117285676],[-75.58605610682378,2.3022685689263085],[-75.58597249239011,2.3039439614389607],[-75.5888723321105,2.3048087376152466],[-75.59043508857008,2.3075723004743622],[-75.59215265853885,2.3069359454952405],[-75.59884343199997,2.3114918676915295],[-75.60136923746069,2.3113512744570244],[-75.6034063506907,2.3138187970517947],[-75.61659830629145,2.317878788838925],[-75.63117845668927,2.313406558209465],[-75.63307832632205,2.314127673307212],[-75.64259268974672,2.309903322007358],[-75.64591842705454,2.3109138223179],[-75.64575044022507,2.3134345184762424],[-75.64009761929066,2.315505890155009],[-75.64609492733115,2.3263485138321016],[-75.64456082945077,2.328785966824512],[-75.63957882763276,2.3305509634200234],[-75.639921567415,2.3347135762870153],[-75.64673430593126,2.3401966939214276],[-75.65410486035682,2.338631799329846],[-75.65860669676107,2.341994129650857],[-75.66158935798592,2.342041598443757],[-75.66686911036817,2.3548114071869577],[-75.66443556134357,2.3649961084169036],[-75.65879784514448,2.3650969214947963],[-75.65271700905953,2.3687735911578898],[-75.64768057897805,2.3696437964822508],[-75.64597205724652,2.3758065593266906],[-75.63886929485466,2.380425131155903],[-75.62644066574643,2.379903014543345],[-75.61800148549605,2.375965884613265],[-75.61202027360946,2.378023014420023],[-75.60914319949268,2.383182007081757],[-75.61089068479743,2.391256397742268],[-75.60971535189066,2.4006810737802198],[-75.60446618847419,2.4069818371556266],[-75.59982730696214,2.4165415240420884],[-75.592731446448,2.4221980154878224],[-75.59217502819212,2.425983138528295],[-75.58728431093203,2.429926851518985],[-75.58673553503246,2.4345250457881207],[-75.58337029216221,2.4377748974077917],[-75.5741537831745,2.4390084864410255],[-75.56296099436014,2.4474528716389727],[-75.56582202477364,2.454046389404823],[-75.57107142884564,2.4598365650082883],[-75.56037466505717,2.4683810300045934],[-75.55972585049699,2.477549934445051],[-75.56342608589193,2.4828994008319114],[-75.56945337920251,2.484371262513207],[-75.56992656149157,2.4865200800273897],[-75.5646931939238,2.487183706216797],[-75.55398889987919,2.5022431149421323],[-75.54579040603147,2.496791038788274]]]}}]}