{"type":"FeatureCollection","features":[{"type":"Feature","properties":{"code":"415001"},"geometry":{"type":"Polygon","coordinates":[[[-75.73080314457388,2.4834562325216893],[-75.73378711089231,2.4857296355626204],[-75.73074975812273,2.485372998436617],[-75.73250931322895,2.4888141609336003],[-75.72930031957367,2.490368035763595],[-75.72816941024149,2.488470020412649],[-75.72676523139074,2.489942283186565],[-75.72846678850954,2.4917906761859285],[-75.72758750306616,2.4926328060579976],[-75.72560981633023,2.4916575463587947],[-75.72530131339943,2.487530254321655],[-75.7220664616139,2.485408602088171],[-75.72461343345014,2.480218440419037],[-75.72832818222594,2.4822072158222],[-75.7288885712984,2.4849979892134684],[-75.73080314457388,2.4834562325216893]]]}}]}