{"type":"FeatureCollection","features":[{"type":"Feature","properties":{"code":"415068"},"geometry":{"type":"Polygon","coordinates":[[[-75.96257182650515,2.498518331652633],[-75.95879571364958,2.4909923445954405],[-75.95463656560543,2.4899093966801615],[-75.95337786714805,2.4874303185052327],[-75.94727480950564,2.48623436532597],[-75.93811139489134,2.4882240622136464],[-75.93758537431097,2.4844492595938164],[-75.93203826184089,2.478461645652544],[-75.93019197920552,2.481100766966904],[-75.92742210170934,2.4797228771638515],[-75.92471378061174,2.481223673046941],[-75.92237091861995,2.4746827930260906],[-75.91739684712218,2.4740307995500643],[-75.91582445724157,2.4705591262488724],[-75.91772520516423,2.4673114641833536],[-75.91774836466135,2.4574617194826374],[-75.91234575967798,2.4547987393303288],[-75.91058388440547,2.446971097741084],[-75.90715807655528,2.44536319676871],[-75.90592141762113,2.442209403737195],[-75.90138920102487,2.4427258690581084],[-75.89462999602699,2.436723616266022],[-75.89458474249932,2.4332273148518198],[-75.88844224820002,2.433896585133766],[-75.89154061949267,2.430821821739187],[-75.88681712287234,2.430424885093089],[-75.8899282396531,2.4236435325855723],[-75.88545025283088,2.412278059016387],[-75.88517338376352,2.399401311791678],[-75.88810572946659,2.395862369093777],[-75.89575637198459,2.39589576159392],[-75.89790007608258,2.393422873614554],[-75.8961970194946,2.390650092825126],[-75.89926713741437,2.3870791923044408],[-75.898462738013,2.385904811735429],[-75.90238125519039,2.3837928042358385],[-75.905058721984,2.3856898189121694],[-75.90351529510161,2.383004295299827],[-75.91746902733195,2.3758796188548104],[-75.92727672930243,2.3774057895001874],[-75.94890975337404,2.3738818908594794],[-75.95997129338258,2.380215673410362],[-75.97254630482826,2.381237824946197],[-75.9775784668733,2.3789649556669588],[-75.98009602731037,2.375931078004669],[-75.98915242630989,2.373661346503525],[-75.99267701092174,2.36976191104867],[-76.00344038590373,2.365191379826399],[-76.01171688094581,2.3656140769006697],[-76.02367551387988,2.375194414912926],[-76.04658990945256,2.402809805812069],[-76.03407008320397,2.409739944127125],[-76.02936240711495,2.4104421369110014],[-76.0269594552837,2.4212861315019722],[-76.02438780082707,2.4235446190410244],[-76.02125242925791,2.436820843164867],[-76.019328605142,2.4383010722545464],[-76.02107691011548,2.4385477112824674],[-76.02207581267976,2.4429338695006777],[-76.02005420116382,2.4472899262347596],[-76.00571798293322,2.4583564829858915],[-76.0033600182631,2.4644454283401274],[-75.99850782543132,2.467149524595868],[-75.99903412986185,2.4708198364273812],[-75.99475440104612,2.477029221656494],[-75.98928362986419,2.4789466591443556],[-75.98581891809044,2.4928552489187723],[-75.97941038010975,2.503436716073338],[-75.97710700825382,2.5044056323391146],[-75.97345961937765,2.5013560123071557],[-75.96257182650515,2.498518331652633]]]}}]}