{"type":"FeatureCollection","features":[{"type":"Feature","properties":{"code":"415047"},"geometry":{"type":"Polygon","coordinates":[[[-75.7950023236022,2.4756571898620336],[-75.78435078763039,2.467950171210475],[-75.78006280453508,2.467174901415035],[-75.76903020489902,2.460991279699442],[-75.76590217538103,2.457095837686836],[-75.7620192351157,2.4603889085748847],[-75.74503509827349,2.449509078932806],[-75.7463395408256,2.455519388543564],[-75.74410442978501,2.4568481907852515],[-75.74094557784474,2.4552493041115326],[-75.73703982158213,2.4483150725952214],[-75.72882212876948,2.4503710731720503],[-75.72490841133333,2.44606734667866],[-75.71869025348951,2.4470795531753424],[-75.71447870732749,2.4431207539614093],[-75.71244117346447,2.443912549799677],[-75.71180762613346,2.446768204544128],[-75.71595112848155,2.449263775851648],[-75.71497435388653,2.4530142270095325],[-75.70984675340424,2.450108001689557],[-75.7089244081011,2.4445343769997407],[-75.70576578756038,2.4472998938996398],[-75.7077796806152,2.451111118811241],[-75.70411785651987,2.4511867885264564],[-75.70140907982216,2.45435347308495],[-75.69782305708264,2.4539408886859633],[-75.69449650216308,2.46097231419094],[-75.69166579229193,2.461340187051462],[-75.69004799256032,2.457127847960237],[-75.68537884089955,2.460883952466645],[-75.67942779631738,2.455724236809772],[-75.67329333929638,2.4597560945234136],[-75.67058541414912,2.4566224733634385],[-75.67095064082702,2.4533913630518214],[-75.66649559341516,2.4515751263646166],[-75.66874687774282,2.446670502504844],[-75.67262201830005,2.445485017841918],[-75.67335476611112,2.4428354269827537],[-75.6666180850329,2.4430180372364134],[-75.65873545159377,2.4456060634694836],[-75.65792001289043,2.440495436402557],[-75.65914041111989,2.435934971575648],[-75.6574934190474,2.4316078439011335],[-75.65134254808379,2.432689723264673],[-75.6409820860274,2.442624503706611],[-75.6371748946674,2.440940685164378],[-75.63643496935595,2.437427203617915],[-75.64428544648291,2.435121291509006],[-75.64514055529952,2.430866351243367],[-75.64436178777106,2.4287326652039383],[-75.63854845884117,2.4288179508566827],[-75.63882314349667,2.425384646688997],[-75.63724400703308,2.4228428047240413],[-75.63373388643674,2.42396502680225],[-75.6314148514013,2.4292403661377193],[-75.62408170862926,2.433033271402735],[-75.61530013621024,2.4292153873258258],[-75.61247009791202,2.4332257125383876],[-75.60850987739053,2.433807679363383],[-75.59840041392994,2.445106003863657],[-75.59391454409581,2.447898344601299],[-75.5941046331834,2.4495858521668197],[-75.59817155050246,2.4489065782245234],[-75.59949994136713,2.4507554977864743],[-75.59194617402062,2.4579291301523085],[-75.58974125496701,2.4574253835800164],[-75.59000774602094,2.4531230022894306],[-75.58281332163267,2.4526672839827484],[-75.57914298614702,2.447311595518613],[-75.5756795928366,2.4492224417184048],[-75.57351312930564,2.453485171407692],[-75.57317688722327,2.460804334560578],[-75.56913381948618,2.4622943348826425],[-75.57107923472438,2.4587725908289713],[-75.56642525670458,2.4549587989248494],[-75.56296099436014,2.4474528716389727],[-75.5741537831745,2.4390084864410255],[-75.58337029216221,2.4377748974077917],[-75.58673553503246,2.4345250457881207],[-75.58728431093203,2.429926851518985],[-75.59217502819212,2.425983138528295],[-75.592731446448,2.4221980154878224],[-75.59982730696214,2.4165415240420884],[-75.60446618847419,2.4069818371556266],[-75.60971535189066,2.4006810737802198],[-75.61089068479743,2.391256397742268],[-75.60914319949268,2.383182007081757],[-75.61202027360946,2.378023014420023],[-75.61800148549605,2.375965884613265],[-75.62644066574643,2.379903014543345],[-75.63865537161166,2.3805112611599952],[-75.64597205724652,2.3758065593266906],[-75.64768057897805,2.3696437964822508],[-75.65271700905953,2.3687735911578898],[-75.65879784514448,2.3650969214947963],[-75.66443556134357,2.3649961084169036],[-75.66624438707396,2.355211012641405],[-75.67489630065933,2.349825114706732],[-75.67759725399475,2.3496197409064052],[-75.68145827300782,2.3456100183611284],[-75.68220498809671,2.3379076780946093],[-75.68030595458771,2.3304948258851823],[-75.68425706722229,2.3257172085057505],[-75.68948432686994,2.3333488155811324],[-75.69414606860232,2.3306693350970704],[-75.69858629718595,2.3337360756115686],[-75.69850982631402,2.3361046065001574],[-75.70411794393743,2.341229914584062],[-75.70559802595983,2.345176341634499],[-75.71468423642267,2.350337589670687],[-75.71996490103345,2.3572959546191896],[-75.7252971008989,2.3607439521451283],[-75.73017303224088,2.3611658244085447],[-75.73346058759171,2.3583194760404353],[-75.74031249845507,2.3611186487217424],[-75.74485260012011,2.3602114780879333],[-75.74836202343238,2.363064340610947],[-75.75747956333964,2.3633736303002593],[-75.76306435588674,2.3573272511534924],[-75.76533005589317,2.3567843785139644],[-75.77222044593339,2.3631228641324924],[-75.77981956245276,2.3637801911114593],[-75.78463389214477,2.361687251964611],[-75.78653307272106,2.357680425513479],[-75.78519067344087,2.347517168338527],[-75.78803636669107,2.340358373312881],[-75.78606049207082,2.3338868216306423],[-75.78118438897894,2.329860013569828],[-75.78243616807504,2.325994660700019],[-75.78895827182083,2.332330183375632],[-75.79182830830547,2.3329640299834296],[-75.79620484338699,2.3337947626554865],[-75.80204639895021,2.3309962111534333],[-75.80654122137645,2.33273453817759],[-75.80848934450381,2.3315812890170378],[-75.80937817800748,2.332719037491927],[-75.80819508961565,2.3339650963907275],[-75.81042571150465,2.3347763297926463],[-75.80984188422718,2.3419867978841467],[-75.81123495589873,2.345677494474785],[-75.81573931712933,2.3493687597941175],[-75.831021920507,2.354748644425399],[-75.83017535804771,2.35776713350225],[-75.83151792907779,2.3601851376181457],[-75.83001492821387,2.3610666650662324],[-75.828710095882,2.3690562195033635],[-75.83025885215358,2.3781822214356794],[-75.82841249135657,2.37981391234041],[-75.8282450382888,2.383771632718151],[-75.82616976264228,2.3838392538422113],[-75.81825787824101,2.3934762148142],[-75.81975279554672,2.399050434972253],[-75.81801288472104,2.4031678210509995],[-75.81886030798671,2.4074818782495413],[-75.81641145573747,2.4119594938040336],[-75.81813521281646,2.4167893612055877],[-75.81665528608892,2.423053272400182],[-75.82191931152818,2.424308006211618],[-75.82866374809146,2.431099617433233],[-75.83018226815295,2.4378443203631264],[-75.84260308212652,2.4483558637108445],[-75.84199262950068,2.4574597119628265],[-75.84103913370211,2.4594096245801325],[-75.8366603165066,2.460527220723918],[-75.83584354905554,2.4640141622827514],[-75.84136761310037,2.4626478877094655],[-75.84292407137792,2.463655190592249],[-75.84288579686114,2.466150013193669],[-75.82890781909845,2.474157099490469],[-75.82821459536183,2.4800463141084492],[-75.82636711459094,2.480220859315807],[-75.82619886036645,2.4763408408556984],[-75.82446724598663,2.4763832599958278],[-75.82216354708595,2.48370905043231],[-75.81770029475973,2.482562737088074],[-75.81159670335558,2.4845273852297964],[-75.80775854353442,2.4832454573412406],[-75.80649239195412,2.480612134385808],[-75.80263848873489,2.4801934842328706],[-75.80261657879544,2.475405450787605],[-75.7950023236022,2.4756571898620336]],[[-75.7701477208243,2.4517164364236237],[-75.77346107774105,2.452651455223929],[-75.77320907435688,2.4509659407800086],[-75.77649318956747,2.45268833105888],[-75.77689408468882,2.447878419555934],[-75.77197704649939,2.4467567764908154],[-75.7709517571854,2.447546648113189],[-75.77286118721986,2.450202306783183],[-75.76827429039179,2.447878151132443],[-75.77248867814046,2.450405054969792],[-75.7701477208243,2.4517164364236237]]]}}]}