{"type":"FeatureCollection","features":[{"type":"Feature","properties":{"code":"415027"},"geometry":{"type":"Polygon","coordinates":[[[-75.73220891236832,2.667957812506529],[-75.73362881713359,2.663478989560531],[-75.74015219614813,2.656474595638713],[-75.74100580652396,2.6461185096052304],[-75.74766651655335,2.641888008219155],[-75.75479315423831,2.6328291718108403],[-75.75946208169853,2.629786117355934],[-75.76104214993103,2.6203540128777263],[-75.76011865071536,2.617046200294567],[-75.75614391989836,2.613589958773389],[-75.75053551842478,2.612240399476377],[-75.74215826378384,2.6054865197539243],[-75.73852642598695,2.6042947276530413],[-75.7358410155033,2.588269203110997],[-75.73898426391366,2.586185939551342],[-75.74226534110511,2.5872731606453385],[-75.75093235119817,2.5863718500770574],[-75.75550324751754,2.5878782386305943],[-75.75953191808782,2.5859033790831063],[-75.75993498116594,2.5814118744124244],[-75.76864106590409,2.5701827568945532],[-75.76749607102317,2.5688034972060905],[-75.76924435028559,2.569291000557257],[-75.77086103827082,2.567102978814205],[-75.77361595707055,2.567998173234912],[-75.7754013805914,2.5655624871067175],[-75.77534752002828,2.542066024950202],[-75.77286793277432,2.537302082770964],[-75.7664664509378,2.536148902516004],[-75.76761098919025,2.532009544791265],[-75.76597083008983,2.5260303321969104],[-75.766345337433,2.5193507440766325],[-75.7698698737081,2.5085930347845533],[-75.77725548041838,2.49631172389644],[-75.77769836890462,2.4916936590893783],[-75.78600595787782,2.4875258320188323],[-75.7950023236022,2.4756571898620336],[-75.80261657879544,2.475405450787605],[-75.80263848873489,2.4801934842328706],[-75.80649239195412,2.480612134385808],[-75.80775854353442,2.4832454573412406],[-75.81159670335558,2.4845273852297964],[-75.81381687318327,2.4837852117429975],[-75.82233926266093,2.493915190574967],[-75.82174367308642,2.5045494589969053],[-75.8189432858145,2.5117526889100077],[-75.81956907560357,2.520026089368571],[-75.8234376433847,2.5215510618784265],[-75.8258556999512,2.526401256446377],[-75.82489484770326,2.528820010296897],[-75.82758765885927,2.5319028994158543],[-75.82955637449118,2.531921760023181],[-75.83058635658836,2.534757233640107],[-75.8354618816955,2.5373969504226466],[-75.83758238515873,2.540879937619991],[-75.8343027303033,2.543863220024093],[-75.83358450204372,2.552214477695088],[-75.83607273849924,2.5530814866201013],[-75.83653810051146,2.5564345979823884],[-75.83819382920314,2.5559474124199824],[-75.84004647069861,2.5587113527174665],[-75.83801770739336,2.561464729881891],[-75.83781921798726,2.5668560302250967],[-75.83547669435313,2.5686625656139768],[-75.8356825844316,2.5707225030687937],[-75.83290615884192,2.5703609458738015],[-75.82722207839714,2.5751076986647945],[-75.82452025397089,2.581185303383336],[-75.82583242629704,2.582701031223394],[-75.82568007796448,2.5867841578249795],[-75.82364347381355,2.5882801735073144],[-75.82468837964007,2.590748368703487],[-75.82000344344357,2.594120608068181],[-75.8199128664541,2.5959287797091406],[-75.81593021560121,2.594836992330329],[-75.81357990254344,2.59648918935045],[-75.80970420971255,2.600814903944922],[-75.80913193595836,2.6044517389439648],[-75.80631634933445,2.6049986893580126],[-75.80839868009667,2.6072379532495233],[-75.8026010246308,2.614025979320502],[-75.80380693107679,2.6161575467683065],[-75.80242465496639,2.6162075650702263],[-75.80055598519431,2.620446546993321],[-75.80072374062416,2.623450662557559],[-75.79770213228113,2.623215303487143],[-75.79732873565587,2.625711994768608],[-75.79452808921644,2.6258893651075823],[-75.79707747892098,2.6285546304592344],[-75.7907747337369,2.630197544757152],[-75.79117966549512,2.6341941721437934],[-75.78882114855139,2.6349782988862103],[-75.79152287836092,2.6402962219125925],[-75.79109463798147,2.646882846028234],[-75.78911834067134,2.648609333622119],[-75.79127030316272,2.650890542541731],[-75.78846324541263,2.651786624508304],[-75.78921734471885,2.658236608722518],[-75.7850448207513,2.6591487693593763],[-75.78261825999363,2.6572509329574814],[-75.77829998103857,2.6610532556706517],[-75.77869750286845,2.663484048469286],[-75.77051723096525,2.6699335071493238],[-75.76870183862945,2.6766824410917707],[-75.77000617936574,2.679183724369068],[-75.76726782774654,2.6830187124735403],[-75.76221632892532,2.682959559545168],[-75.75694431454457,2.6852141019787155],[-75.75771498308814,2.686503285529227],[-75.7553878212999,2.687532586797431],[-75.75161973132441,2.686308389501278],[-75.74698751926206,2.6817424029664494],[-75.74411893905204,2.681382483051948],[-75.74410400709513,2.6786457532866166],[-75.74041132149665,2.678338360045302],[-75.73693231334346,2.6710605114852797],[-75.73220891236832,2.667957812506529]],[[-75.80838092917878,2.5505062634679234],[-75.81299785447152,2.545314982853256],[-75.81068677855274,2.541807691502356],[-75.80784042709934,2.5430741948099467],[-75.80608512048917,2.5419384312290845],[-75.80781792374853,2.5437393266391837],[-75.80552271052716,2.5460759727243385],[-75.80838092917878,2.5505062634679234]]]}}]}