{"type":"FeatureCollection","features":[{"type":"Feature","properties":{"code":"415007"},"geometry":{"type":"Polygon","coordinates":[[[-75.58442366824136,2.5505058952854824],[-75.58191308681523,2.547701810762703],[-75.56911850700556,2.5413133140413606],[-75.56496792280223,2.53641199868116],[-75.56238051569153,2.5361465844065947],[-75.56205252068969,2.5293163459124344],[-75.55318802186503,2.5194994815474843],[-75.55901581686737,2.506759910042774],[-75.55718551725721,2.502771754965579],[-75.55450743956868,2.5017464255423647],[-75.5646931939238,2.487183706216797],[-75.56992656149157,2.4865200800273897],[-75.56945337920251,2.484371262513207],[-75.56447952059233,2.4835095788635613],[-75.56061942512065,2.479368316463308],[-75.55965681526447,2.469998950063996],[-75.5635794420981,2.4647041978475954],[-75.57317688722327,2.460804334560578],[-75.57351312930564,2.453485171407692],[-75.57624415532877,2.4487070562620943],[-75.57938794367146,2.447342399428919],[-75.58281332163267,2.4526672839827484],[-75.59000774602094,2.4531230022894306],[-75.58974125496701,2.4574253835800164],[-75.59194617402062,2.4579291301523085],[-75.59949994136713,2.4507554977864743],[-75.59817155050246,2.4489065782245234],[-75.5941046331834,2.4495858521668197],[-75.59391454409581,2.447898344601299],[-75.59840041392994,2.445106003863657],[-75.60850987739053,2.433807679363383],[-75.61247009791202,2.4332257125383876],[-75.61530013621024,2.4292153873258258],[-75.62408170862926,2.433033271402735],[-75.6314148514013,2.4292403661377193],[-75.63373388643674,2.42396502680225],[-75.63604510736599,2.422711411936291],[-75.63833493360545,2.423864773197124],[-75.63854845884117,2.4288179508566827],[-75.64436178777106,2.4287326652039383],[-75.64514055529952,2.430866351243367],[-75.64428544648291,2.435121291509006],[-75.63643496935595,2.437427203617915],[-75.6371748946674,2.440940685164378],[-75.6409820860274,2.442624503706611],[-75.65134254808379,2.432689723264673],[-75.6574934190474,2.4316078439011335],[-75.65914041111989,2.435934971575648],[-75.65792001289043,2.440495436402557],[-75.65873545159377,2.4456060634694836],[-75.6666180850329,2.4430180372364134],[-75.67335476611112,2.4428354269827537],[-75.67262201830005,2.445485017841918],[-75.66874687774282,2.446670502504844],[-75.66649559341516,2.4515751263646166],[-75.67095064082702,2.4533913630518214],[-75.67058541414912,2.4566224733634385],[-75.67329333929638,2.4597560945234136],[-75.67942779631738,2.455724236809772],[-75.68537884089955,2.460883952466645],[-75.69004799256032,2.457127847960237],[-75.69166579229193,2.461340187051462],[-75.69449650216308,2.46097231419094],[-75.69782305708264,2.4539408886859633],[-75.70140907982216,2.45435347308495],[-75.70411785651987,2.4511867885264564],[-75.7077796806152,2.451111118811241],[-75.70576578756038,2.4472998938996398],[-75.7089244081011,2.4445343769997407],[-75.70984675340424,2.450108001689557],[-75.71497435388653,2.4530142270095325],[-75.71595112848155,2.449263775851648],[-75.71180762613346,2.446768204544128],[-75.71244117346447,2.443912549799677],[-75.71447870732749,2.4431207539614093],[-75.71869025348951,2.4470795531753424],[-75.72490841133333,2.44606734667866],[-75.72882212876948,2.4503710731720503],[-75.73703982158213,2.4483150725952214],[-75.74094557784474,2.4552493041115326],[-75.74544714685396,2.4570176853114276],[-75.74503509827349,2.449509078932806],[-75.76005574705715,2.4585740993659897],[-75.75206565577298,2.4631963972424273],[-75.73282873924768,2.483676603070819],[-75.7289775706571,2.485041865656626],[-75.726562880183,2.480794077180235],[-75.72351977019218,2.4812754438149227],[-75.72427541936128,2.482184460503049],[-75.7220664616139,2.485408602088171],[-75.72599433350445,2.488473890441867],[-75.72560981633023,2.4916575463587947],[-75.72846678850954,2.4917906761859285],[-75.72676523139074,2.489942283186565],[-75.72816941024149,2.488470020412649],[-75.72924739695009,2.4903281393929433],[-75.72489915535067,2.5010340347225224],[-75.72598095038194,2.525814486794843],[-75.72265208558048,2.5324930742405627],[-75.72070440776878,2.54195727126762],[-75.72142916663836,2.5548692375063524],[-75.7170833665615,2.563113250219942],[-75.71955307151126,2.5837188715282196],[-75.70042831795547,2.6048578318137743],[-75.70189496029104,2.606884157710226],[-75.69958535813038,2.6162719589416383],[-75.70278636078723,2.6213595663797378],[-75.70139128570969,2.624275905403408],[-75.7003629162104,2.6227379148681393],[-75.69708231415945,2.6229845621236336],[-75.69123850013642,2.6283262575988147],[-75.67898440697962,2.6332762038920237],[-75.66950872224959,2.6402819533010984],[-75.65601882479433,2.6447616113424033],[-75.65162488538004,2.6354678282691566],[-75.64565079031564,2.6348437261542017],[-75.64962614951105,2.619020843869123],[-75.64825208551417,2.6177738984528673],[-75.65048772208888,2.6084230923557357],[-75.6492666779975,2.6059809702342704],[-75.65163270874228,2.6025495686852764],[-75.6500231550628,2.598947424080791],[-75.65074786251023,2.5930094407186175],[-75.65328781728311,2.587582244646171],[-75.6504957100019,2.5766534467419433],[-75.64729125897725,2.574390048389887],[-75.64762744860911,2.571829025971965],[-75.64481932436411,2.566072256238442],[-75.64554444524543,2.56086596036306],[-75.6444377495639,2.5595062246273415],[-75.64169175044617,2.560466146134786],[-75.64023413989281,2.555560281973328],[-75.6400210363185,2.5493590224685363],[-75.64140908507676,2.546917053584991],[-75.6449420062437,2.5458539330130066],[-75.6413323807484,2.543864986888366],[-75.64439254848679,2.5416492527332366],[-75.64002766257369,2.5389826452641273],[-75.63602976197512,2.5401937895678657],[-75.62997166372583,2.537541595720711],[-75.62819495111313,2.5391342438620654],[-75.62668374739167,2.535828490220865],[-75.6221360959301,2.538214914980813],[-75.61550573421101,2.5390551268075683],[-75.61338482451305,2.5365529467283636],[-75.6106460975123,2.537031388472485],[-75.60361152703007,2.533838922916914],[-75.60025429572704,2.5357972800757693],[-75.5974772756976,2.5400619308956607],[-75.5942191461441,2.539823381596591],[-75.58990866484021,2.5419173389014986],[-75.58442366824136,2.5505058952854824]]]}}]}