{"type":"FeatureCollection","features":[{"type":"Feature","properties":{"code":"415060"},"geometry":{"type":"Polygon","coordinates":[[[-75.89140510779265,2.3797985823762247],[-75.89148838078336,2.3817028835678116],[-75.88918767362202,2.3825082558757913],[-75.89078159086148,2.386152916293952],[-75.89802423686251,2.3799358856231265],[-75.89947328563193,2.381810155264702],[-75.90454208388473,2.3827210457750994],[-75.90351529510161,2.383004295299827],[-75.90560586471685,2.385162444901482],[-75.90238125519039,2.3837928042358385],[-75.898462738013,2.385904811735429],[-75.89926713741437,2.3870791923044408],[-75.8961970194946,2.390650092825126],[-75.89790007608258,2.393422873614554],[-75.89575637198459,2.39589576159392],[-75.88810572946659,2.395862369093777],[-75.8850839863976,2.399584271715753],[-75.88457347370195,2.3966892420210115],[-75.88017957234007,2.397603616894685],[-75.88097311550217,2.390278051687119],[-75.88456123934975,2.3900444368551916],[-75.88733659227387,2.387515799063749],[-75.88496189073021,2.384975890570786],[-75.88781911590638,2.383437382728914],[-75.88736361562951,2.3800147352826],[-75.8884026469924,2.381343240304318],[-75.89140510779265,2.3797985823762247]]]}}]}