{"type":"FeatureCollection","features":[{"type":"Feature","properties":{"code":"416048"},"geometry":{"type":"Polygon","coordinates":[[[-75.60132591123426,1.9811473179544805],[-75.65335859366883,1.9249792424410543],[-75.66832024893273,1.9004265790737236],[-75.67564491939532,1.891875814866978],[-75.68243561838841,1.8858895543560834],[-75.69044604095274,1.8831305680661785],[-75.69672538392734,1.8847649020681274],[-75.70115877851038,1.8958612054906894],[-75.70601060110283,1.8991482785019684],[-75.70858184212562,1.9075438939272544],[-75.70793332992753,1.9123605170460678],[-75.71368560948099,1.9141369992876776],[-75.71790533381795,1.917520059924584],[-75.72249897002985,1.917902640541513],[-75.72449758351416,1.922736443792644],[-75.72314710376111,1.92741981469959],[-75.72394040832455,1.9313615345686799],[-75.72246023065702,1.9337393183545828],[-75.72436041910703,1.938342132387504],[-75.73620088502412,1.9418514950216945],[-75.75038545220622,1.9388159194007812],[-75.75516038020845,1.9453677327940682],[-75.7618527796372,1.9455294132139898],[-75.77122932456524,1.954757865504689],[-75.77523505778197,1.9629515698956084],[-75.77551677389891,1.9750010379582932],[-75.7769362559743,1.976594495483937],[-75.77950681719659,1.9759302666272447],[-75.78200923793133,1.9772836177917839],[-75.78023237722289,1.9858905185050162],[-75.78820457874946,1.9871415818050764],[-75.79092086924817,1.9965522473705732],[-75.78770871724589,1.9963629604681614],[-75.78879286946744,2.0005465463634096],[-75.7805065291451,2.0116388326894707],[-75.7771343072639,2.024463294924999],[-75.77370856831936,2.029569181900399],[-75.77151833028273,2.029361877713484],[-75.76865022521321,2.022604405641289],[-75.76300120540236,2.024395637805469],[-75.75831526030373,2.0267559216134714],[-75.75141437500764,2.0349835748918963],[-75.74924025986434,2.0357570521120465],[-75.7464937845777,2.0413035022651798],[-75.74420860381309,2.041935265248469],[-75.74479437279001,2.036140534673109],[-75.74169993220471,2.0328440688962814],[-75.72627268044369,2.0345357838201608],[-75.72775731640957,2.0251157491433105],[-75.71681324819082,2.0041374367213507],[-75.6996559082587,1.9937129911421039],[-75.69464083070079,1.9936980303888276],[-75.69272898485491,1.981679327155632],[-75.70043090140308,1.9741145863274596],[-75.70785853438844,1.9709073471951228],[-75.7126861227614,1.9599570178183399],[-75.716693647525,1.957676725241015],[-75.71566724440777,1.9538028722938066],[-75.7110134648774,1.9493730114392065],[-75.70471631750593,1.9479407725628448],[-75.69204266299602,1.9536060304525904],[-75.6856367609135,1.9632937574041875],[-75.68285261994805,1.9713156974962658],[-75.6773251373603,1.9757006380385178],[-75.66467411475645,1.9778681032724421],[-75.65465054270129,1.9835565731098654],[-75.64654933540203,1.980164264717871],[-75.6315889368949,1.9918489267355994],[-75.60407759455381,1.9896759644764188],[-75.6036767014894,1.9847221275852007],[-75.60132591123426,1.9811473179544805]],[[-75.75292769320686,2.029877236430252],[-75.75499739366654,2.0280099694537626],[-75.75645032274952,2.0286348511281176],[-75.76044909546732,2.024320456600435],[-75.76565953082383,2.0223164499635686],[-75.75967420208184,2.0217161809755453],[-75.75813289584784,2.020167539889542],[-75.7569253480076,2.0230563094546596],[-75.7546450225201,2.022882802974209],[-75.75284195092564,2.0247276941267955],[-75.75292769320686,2.029877236430252]]]}}]}