{"type":"FeatureCollection","features":[{"type":"Feature","properties":{"code":"416067"},"geometry":{"type":"Polygon","coordinates":[[[-75.84103913370211,2.4594096245801325],[-75.8424047469868,2.447898517379656],[-75.83018226815295,2.4378443203631264],[-75.82866374809146,2.431099617433233],[-75.82191931152818,2.424308006211618],[-75.81665528608892,2.423053272400182],[-75.81813521281646,2.4167893612055877],[-75.81641145573747,2.4119594938040336],[-75.81886030798671,2.4074818782495413],[-75.81801288472104,2.4031678210509995],[-75.81975279554672,2.399050434972253],[-75.81837919846271,2.3930235211569766],[-75.82616976264228,2.3838392538422113],[-75.8282450382888,2.383771632718151],[-75.82841249135657,2.37981391234041],[-75.8303119814941,2.377999104159926],[-75.828710095882,2.3690562195033635],[-75.83001492821387,2.3610666650662324],[-75.83157134226843,2.3597895955401214],[-75.83017535804771,2.35776713350225],[-75.831021920507,2.354748644425399],[-75.82832134563836,2.352828929965767],[-75.83046457870967,2.350549469398402],[-75.82876322522253,2.348664663363195],[-75.83146458273586,2.3467127319132146],[-75.8331814225105,2.348408812575599],[-75.83436387326793,2.34630119035495],[-75.83636240961908,2.3464568307319382],[-75.8398188496297,2.3383990761576],[-75.83942255884551,2.3345403927375514],[-75.84540408852087,2.333234587499021],[-75.84538832146859,2.3282432834184306],[-75.84751770039077,2.3257062319387387],[-75.86715602934396,2.317868173255249],[-75.8740377002485,2.3125681626122514],[-75.87127537974794,2.3119140783125545],[-75.87112356517713,2.309535871836772],[-75.87724975043494,2.307763767674942],[-75.88268202187118,2.3102171604979276],[-75.88734399603157,2.3084203541753254],[-75.89604136986162,2.31387154792543],[-75.90199245763841,2.3118250265033],[-75.90612868889787,2.3021118949645825],[-75.90470124564894,2.299589054503599],[-75.90006222632559,2.2981634789063037],[-75.89757595213837,2.2928116419594176],[-75.90007009185393,2.287058560220771],[-75.90633477026665,2.28083290708787],[-75.9084323435755,2.2723715217350673],[-75.90621266637174,2.2690514213207393],[-75.90116161286613,2.2672189671234833],[-75.89119689137715,2.2692421644977685],[-75.8891908998462,2.258880350039476],[-75.89831546298745,2.2595784413945808],[-75.90445794083166,2.2562398485553103],[-75.9086838605063,2.258445088482972],[-75.91048481248077,2.256146913347095],[-75.92034249161549,2.2544543129342287],[-75.92943734510919,2.250885936211432],[-75.93003959590595,2.248850313194623],[-75.93942391997325,2.2437884908673595],[-75.93985204825248,2.241289860971733],[-75.94171345310662,2.2415608915709413],[-75.94157537441407,2.2394002449108825],[-75.95078525714666,2.2337110027131075],[-75.95344707515892,2.2239464068823054],[-75.9578575416445,2.217237481410791],[-75.96123041041602,2.2160214252655805],[-75.9664791675977,2.217695309053056],[-75.96977591002553,2.2250789946327245],[-75.9665477297466,2.2323049973484785],[-75.97158298843203,2.236040465127303],[-75.97127037275965,2.2379248340744198],[-75.97420532556447,2.2407558915591608],[-75.97555087907784,2.250659154351638],[-75.97127933049399,2.257006239806458],[-75.97230026949609,2.260483778315347],[-75.96654875818916,2.2804076862155966],[-75.96122096005769,2.2857906654303974],[-75.95228829914828,2.3003666475506748],[-75.94298872594362,2.308585509702482],[-75.93926224366709,2.3201740709659475],[-75.93925325199416,2.3313916894680347],[-75.9318089777804,2.343351046425653],[-75.92548617076812,2.3474589451221846],[-75.91989972242851,2.360167531710715],[-75.90390449888838,2.372867191418152],[-75.8884026469924,2.381343240304318],[-75.88736361562951,2.3800147352826],[-75.88781911590638,2.383437382728914],[-75.88496189073021,2.384975890570786],[-75.88733659227387,2.387515799063749],[-75.88456123934975,2.3900444368551916],[-75.88097311550217,2.390278051687119],[-75.8800200681045,2.396850730122196],[-75.88463072195475,2.3967412483023054],[-75.88545025283088,2.412278059016387],[-75.8899282396531,2.4236435325855723],[-75.88838928546721,2.4258606571950168],[-75.886504309739,2.4258088967114873],[-75.88439090664292,2.4294394592395747],[-75.88127056164745,2.4281273475916123],[-75.87277039372725,2.4316820758537006],[-75.87421995466099,2.426547237192949],[-75.86234133661179,2.427233274173261],[-75.85697776307887,2.432699605568871],[-75.85541342898847,2.4366967574612204],[-75.85604644770007,2.4387124492620273],[-75.85972437617681,2.4397035973696575],[-75.85973935235677,2.441788798515006],[-75.8512244314287,2.4478477740257745],[-75.85339882322296,2.4526513534081005],[-75.85252221481551,2.4552742489848356],[-75.85098034396663,2.4555101613573243],[-75.85042373544883,2.4510301834703796],[-75.84848607363881,2.4503452068142906],[-75.8455482350243,2.4522208288578327],[-75.84861511437856,2.4578802143407756],[-75.84542626894063,2.460218405146634],[-75.84103913370211,2.4594096245801325]]]}}]}