{"type":"FeatureCollection","features":[{"type":"Feature","properties":{"code":"417048"},"geometry":{"type":"Polygon","coordinates":[[[-76.1493467807345,1.7930371964527012],[-76.14471347955157,1.7846167246001983],[-76.15573159974537,1.7662063159050376],[-76.1593181068813,1.7641831946355069],[-76.16501124276243,1.7657062830386963],[-76.16762054335749,1.763554924243067],[-76.17706170224369,1.7519049505630164],[-76.18490392303408,1.738715192743939],[-76.19599908797079,1.7325139147271784],[-76.202714227292,1.719792533285272],[-76.20556269528015,1.7176072595407277],[-76.2048852488802,1.7079862569112834],[-76.20784435260072,1.7017635852332091],[-76.210126390445,1.6804867159481205],[-76.21383443994625,1.6671159080227085],[-76.22024260871603,1.6566917709762379],[-76.24723680902099,1.6218552799467716],[-76.2738179940095,1.5817465945591493],[-76.27816706967582,1.5727028299759809],[-76.27873980828605,1.5677114816723474],[-76.31455375371098,1.5782813407961953],[-76.31244715787597,1.5863142965361021],[-76.29582175104025,1.6051599246216028],[-76.29094737161802,1.6129848871181025],[-76.28204329626834,1.6455488359129617],[-76.26670751315652,1.667639222770788],[-76.26515133770067,1.6769371761785123],[-76.26628034955638,1.695258327375882],[-76.26407485251809,1.7102254786366302],[-76.26541960487475,1.7126732880451527],[-76.26373808593002,1.7226744163992862],[-76.26440508952464,1.7277282261308642],[-76.26845792129495,1.732222928229362],[-76.26874261783831,1.7352983806804332],[-76.26606889149014,1.738341228418392],[-76.25757924453688,1.7421081552253668],[-76.25255929833213,1.746291526176151],[-76.24784713309151,1.753172903974587],[-76.24321360873654,1.7631818299798852],[-76.23840983395007,1.769289928019134],[-76.23640212080636,1.784639369876004],[-76.22942521509617,1.78326732676868],[-76.22560332420716,1.7738381019294707],[-76.21998207028747,1.7688626502618376],[-76.2048153795808,1.7684505955107284],[-76.19545889750935,1.7744278592065257],[-76.18700386793137,1.7775713873532482],[-76.17439915198037,1.7806439046294145],[-76.16581784405923,1.7805887595415584],[-76.16175171349869,1.7828882726811344],[-76.15228220045225,1.7933104094068995],[-76.1493467807345,1.7930371964527012]]]}}]}