{"type":"FeatureCollection","features":[{"type":"Feature","properties":{"code":"417038"},"geometry":{"type":"Polygon","coordinates":[[[-75.96278669694368,1.8540619621770134],[-75.96282512675532,1.848461340871097],[-75.96809674415726,1.8440199923136333],[-75.97240775099527,1.8422415550027722],[-75.97714599753817,1.84367192005692],[-75.9801748265761,1.8409700791755768],[-75.98197600275103,1.8363296807107758],[-75.98024373428177,1.828073669158357],[-75.9847530834586,1.8233219366486537],[-75.98431822607995,1.8198210792341456],[-75.99276374770693,1.8178682355556361],[-75.99612092553093,1.8151463266754604],[-76.00570463580618,1.814546877356122],[-76.01030834869789,1.8101615604039125],[-76.02711393249223,1.8171972138360957],[-76.03279134348725,1.8267878352451135],[-76.0377462376174,1.8312923929082672],[-76.04403213999836,1.8342160379876304],[-76.0464831704889,1.8379306191272917],[-76.0451756744909,1.8385906025732766],[-76.04347949406963,1.8366467135438143],[-76.03959246574527,1.841358747143829],[-76.0379445408754,1.8395432262526583],[-76.03566595551263,1.8424002416265353],[-76.03923407923855,1.8451800261094604],[-76.0300184814509,1.857004355763479],[-76.02985658711492,1.8610997609403057],[-76.03185940281543,1.8649590521699224],[-76.0200539759349,1.872256251904389],[-76.01828026637435,1.8781262377326016],[-76.00653134829645,1.8805688092834316],[-75.99201611627569,1.8926747470679288],[-75.99009360753774,1.8863796339557553],[-75.98653091707365,1.887572692069341],[-75.98235661904278,1.8854888350983856],[-75.98070144982381,1.8828559163208638],[-75.97854998818389,1.8765888951161287],[-75.98225798626305,1.8690630726097197],[-75.98083155088779,1.8655486191851196],[-75.97677976298661,1.863512573478431],[-75.9682654632378,1.8527799376149119],[-75.96278669694368,1.8540619621770134]]]}}]}