{"type":"FeatureCollection","features":[{"type":"Feature","properties":{"code":"417018"},"geometry":{"type":"Polygon","coordinates":[[[-75.91274556156492,1.9968253225134731],[-75.90952265308238,1.9927104088105239],[-75.91487851843857,1.96020089753506],[-75.91213014978922,1.9456206340085487],[-75.91366265666903,1.9392750572788486],[-75.91788102654715,1.932033149699521],[-75.89903995137666,1.9130416010472118],[-75.90612942114893,1.9069374285730873],[-75.91253043812952,1.9045680296790124],[-75.915093588395,1.900928257448129],[-75.91920601018171,1.9006520990345734],[-75.92083153043131,1.8975500387186344],[-75.92505085778942,1.8948683162298607],[-75.92977326940286,1.8964608604985074],[-75.92870570081698,1.8888241955428384],[-75.92669174091338,1.8856085344946791],[-75.9349850695026,1.878294032243275],[-75.93865401864775,1.8707387829111326],[-75.94287332749388,1.868656476831518],[-75.94762698216266,1.8595516536159948],[-75.95183105874662,1.856370073096059],[-75.9682654632378,1.8527799376149119],[-75.97677976298661,1.863512573478431],[-75.98094573680373,1.865750718424465],[-75.98225798626305,1.8690630726097197],[-75.97854998818389,1.8765888951161287],[-75.98070144982381,1.8828559163208638],[-75.98235661904278,1.8854888350983856],[-75.98653091707365,1.887572692069341],[-75.99009360753774,1.8863796339557553],[-75.99518308879811,1.8977155953384113],[-75.99496872743862,1.9023887281001635],[-75.99692193312887,1.9043964854669184],[-75.99307679532518,1.9121473373670028],[-75.99227538252092,1.9210240540887753],[-75.98802576033154,1.9270343636995904],[-75.98765222486651,1.9314269435128608],[-75.98946785991478,1.936349179450815],[-75.9861033492956,1.9505796295674145],[-75.98723960550046,1.95445246949879],[-75.97091286454281,1.964894839802696],[-75.96934816946913,1.979903551454072],[-75.96697592693153,1.983342067768433],[-75.96313782778844,1.9839622319769887],[-75.96038333990612,1.9890004885723442],[-75.95664438056497,1.9864716841732388],[-75.95278457819944,1.9867834112712899],[-75.94265991641532,1.9962330918322095],[-75.93842565504337,1.9971434856048518],[-75.92994084177002,1.9919834860978654],[-75.92852999449798,1.987599556514624],[-75.925569234985,1.9865572115099894],[-75.92090721763003,1.9886052324013122],[-75.92115126292595,1.991445428626264],[-75.9185045146819,1.9920607930935716],[-75.91847377144967,1.9942148926885466],[-75.9151247892841,1.994497728779379],[-75.91274556156492,1.9968253225134731]],[[-75.92709751907978,1.9759862653223763],[-75.93514090939749,1.9808873235719489],[-75.93643334282632,1.9763479119918657],[-75.93195120726699,1.9662832022358998],[-75.92804343731393,1.9711253584971473],[-75.92971161118857,1.9745693913772016],[-75.92709751907978,1.9759862653223763]]]}}]}