{"type":"FeatureCollection","features":[{"type":"Feature","properties":{"code":"417037"},"geometry":{"type":"Polygon","coordinates":[[[-76.02643364964786,1.9765081063123375],[-76.02101649220282,1.9627084296291173],[-76.01843800374564,1.959998247050521],[-76.01084637737313,1.9568329076948316],[-75.99822692795465,1.9580823614823544],[-75.99224469893835,1.9606251136189599],[-75.98805617549056,1.9600870571757696],[-75.98664526651203,1.9581459583108654],[-75.98740745657551,1.95343318114692],[-75.9861033492956,1.9505796295674145],[-75.98946785991478,1.936349179450815],[-75.98765222486651,1.9314269435128608],[-75.98802576033154,1.9270343636995904],[-75.99227538252092,1.9210240540887753],[-75.99307679532518,1.9121473373670028],[-75.99694532711084,1.904739913277183],[-75.99485432657815,1.9020052938759022],[-75.99518308879811,1.8977155953384113],[-75.99201611627569,1.8926747470679288],[-76.00653134829645,1.8805688092834316],[-76.01828026637435,1.8781262377326016],[-76.0200539759349,1.872256251904389],[-76.0305920140188,1.8656369109753541],[-76.03386159527969,1.8697203502234743],[-76.03364146949986,1.8658196888650878],[-76.04009694251181,1.8660829516379067],[-76.04018032040364,1.8675630943383794],[-76.04514512357747,1.865925462121254],[-76.04850524480395,1.8627334408528782],[-76.05148284197787,1.8659269677610837],[-76.05290026613977,1.8641945892484841],[-76.05421068188605,1.8668876112351995],[-76.05544598430458,1.8635777098853623],[-76.05740805311245,1.8642785914049682],[-76.05985501816969,1.8617165775684725],[-76.0621065966319,1.8626378368363135],[-76.06474040706905,1.8557486850409077],[-76.07021871364935,1.8645305485091512],[-76.0837420786811,1.8719045800988852],[-76.087372824272,1.8797257013625313],[-76.10035788706278,1.884198852448037],[-76.10574811474044,1.8842135828302276],[-76.13297012843299,1.8740492632741734],[-76.14817496098738,1.8708734214635],[-76.16047739094262,1.873886504018003],[-76.16088490511999,1.8773671155131524],[-76.16469671521537,1.8810462359547842],[-76.16401949301593,1.8850223119745806],[-76.16611695525296,1.8865776327947401],[-76.16335620312725,1.8885274261127165],[-76.16173080423385,1.892575379980201],[-76.15769431852891,1.8928982749355896],[-76.15242977578305,1.8957870588988612],[-76.15382603562637,1.9001076137972177],[-76.15149131787092,1.9025279967007123],[-76.15425320025497,1.9080415654896115],[-76.15189642343597,1.9163895228885508],[-76.13991676605144,1.9181359334709214],[-76.13466833488604,1.922398471869883],[-76.12713781651115,1.9219788570378569],[-76.11319031458561,1.9351586975857344],[-76.10084528448436,1.9378414372041561],[-76.1016779639981,1.939828184518717],[-76.10555351901769,1.93991842623592],[-76.10534011410971,1.9455046575741335],[-76.10707185910178,1.9481438909887174],[-76.1127401879209,1.9502693659430292],[-76.1197670975348,1.948633446082681],[-76.12443647442444,1.9510735791963043],[-76.12724429013667,1.950783202564935],[-76.13733829507777,1.9576230580250922],[-76.13840703403127,1.9611600014306987],[-76.14287693935216,1.9570089935090778],[-76.14670698887568,1.9562224797516024],[-76.15377299267504,1.9591175896648565],[-76.15709949617246,1.9624731651754246],[-76.15875471578516,1.9612843535009574],[-76.16261551985372,1.9644968788278447],[-76.15535549008877,1.971501928896032],[-76.1490120504626,1.9748394007329466],[-76.14805675488958,1.9768320698195225],[-76.1398387946819,1.9739481617021966],[-76.13981499549357,1.9762986064006327],[-76.13470043052018,1.9837250875303312],[-76.13210625317237,1.9841197585175792],[-76.12616483275525,1.9792991974923666],[-76.1150780948766,1.987002692699832],[-76.10886915701991,1.9827810564882498],[-76.10616759998874,1.9843094681098705],[-76.09758598867705,1.9822289278660605],[-76.09453334399569,1.9835285202833006],[-76.09413913066538,1.9812740806939928],[-76.09257173798699,1.9818929706622725],[-76.08821395141257,1.979095882633942],[-76.08349849515588,1.9793839154448278],[-76.07871466598363,1.972793325654834],[-76.07509533096248,1.970626621468341],[-76.07200536821591,1.9731265523437287],[-76.06709946085982,1.9702255854503505],[-76.05841719176505,1.9690937988567043],[-76.05447992505214,1.9672739163408437],[-76.05238940788746,1.95986962900065],[-76.0399681979635,1.9656953465490687],[-76.0375273068878,1.9654451316264954],[-76.03803755013149,1.9629443492007113],[-76.03640584380014,1.9628039174316427],[-76.03504011121606,1.9673783207400106],[-76.03155284055566,1.9658227767478138],[-76.03122465632038,1.9732718270486203],[-76.02943246770462,1.9761215631063465],[-76.02643364964786,1.9765081063123375]]]}}]}