{"type":"FeatureCollection","features":[{"type":"Feature","properties":{"code":"417047"},"geometry":{"type":"Polygon","coordinates":[[[-76.07021871364935,1.8645305485091512],[-76.06288301519766,1.8525003853410453],[-76.07187208926456,1.850250755777381],[-76.07147234394199,1.8466090613874258],[-76.0859992004485,1.8449643997656722],[-76.08962277162436,1.8460708547916624],[-76.10343905045517,1.8378467095306519],[-76.12442572205788,1.8208619247696447],[-76.1493467807345,1.7930371964527012],[-76.15228220045225,1.7933104094068995],[-76.16175171349869,1.7828882726811344],[-76.16581784405923,1.7805887595415584],[-76.17439915198037,1.7806439046294145],[-76.18700386793137,1.7775713873532482],[-76.19545889750935,1.7744278592065257],[-76.2048153795808,1.7684505955107284],[-76.21687775151173,1.767973864066505],[-76.22476250559936,1.7726891804550178],[-76.22942521509617,1.78326732676868],[-76.23640212080636,1.784639369876004],[-76.23212517495614,1.7922361477171194],[-76.2232135775779,1.7988747493176334],[-76.21738702184882,1.8105916879754318],[-76.21265755614814,1.8135497056606482],[-76.2113252808561,1.8206310733627902],[-76.20147579532295,1.8279348828972957],[-76.20213787782006,1.8339207824249115],[-76.19986826664677,1.8394921064888194],[-76.2042770711692,1.8514948400665503],[-76.20158370773953,1.8543133834626815],[-76.20163656248587,1.8565354836770211],[-76.19931352680902,1.858676286538639],[-76.19787392634106,1.8580383127909954],[-76.1979268911308,1.8603614328001754],[-76.19541074480219,1.8623532832464775],[-76.1777212701989,1.867091530817845],[-76.17689068150884,1.870137273621424],[-76.17072158551537,1.8695378315011908],[-76.16761136656493,1.8667341789242755],[-76.1628168703869,1.8776888185036569],[-76.16380552246454,1.8796324216261269],[-76.16121953563294,1.8779122301573352],[-76.15999677301409,1.8734723923818706],[-76.14870428698202,1.8708347047164011],[-76.13297012843299,1.8740492632741734],[-76.10574811474044,1.8842135828302276],[-76.09951515143808,1.883998034648073],[-76.087372824272,1.8797257013625313],[-76.0837420786811,1.8719045800988852],[-76.07021871364935,1.8645305485091512]]]}}]}