{"type":"FeatureCollection","features":[{"type":"Feature","properties":{"code":"417079"},"geometry":{"type":"Polygon","coordinates":[[[-75.92893444905889,1.7810287200519497],[-75.93680599588765,1.7722868095186755],[-75.93867431907461,1.7660807944956787],[-75.9423117402859,1.7618921743742817],[-75.94406177304279,1.753986758876465],[-75.96535478887546,1.739685261893726],[-75.98197152388389,1.717931184995507],[-75.9885285699927,1.7193183924877644],[-75.9930643830524,1.7174572282891631],[-75.99482406260017,1.7147258721360004],[-76.00771634753443,1.7111583932435224],[-76.02032201273789,1.712594590595188],[-76.02300951198828,1.7171182526065536],[-76.01697315192854,1.735768637050569],[-76.01832961104634,1.746168080163784],[-76.02601615957803,1.7511417392560702],[-76.03554660064458,1.7544407339730697],[-76.02894390402923,1.7565698455001666],[-76.02638077124732,1.7631693786262872],[-76.01431786246934,1.771443140068186],[-76.00992342117513,1.7785943174200725],[-76.00875604121433,1.7848269763034068],[-76.01939230790003,1.7998363317597637],[-76.01030834869789,1.8101615604039125],[-76.0066149791852,1.8025411304417958],[-76.00169380974211,1.7985426837403224],[-75.99584991652904,1.797312383666224],[-75.9838545651117,1.798850250788405],[-75.9746273675209,1.7979275342174788],[-75.96816833506944,1.79546694641067],[-75.96355473884512,1.7960820866774725],[-75.95983248449579,1.7990100419594341],[-75.95685103271938,1.7975745213229288],[-75.94986074182975,1.7977492825032755],[-75.94321995067509,1.794428888982793],[-75.92893444905889,1.7810287200519497]]]}}]}