{"type":"FeatureCollection","features":[{"type":"Feature","properties":{"code":"417078"},"geometry":{"type":"Polygon","coordinates":[[[-75.84584777096472,1.7281727755517977],[-75.86446427748376,1.7204922794043682],[-75.89236540776693,1.7297403862600618],[-75.90402285102499,1.7305765635067587],[-75.9122673717892,1.7273663182369887],[-75.9192615573906,1.7377171077914682],[-75.92512432766608,1.736488133379794],[-75.93108496041788,1.737357540632729],[-75.93924301487732,1.7459831147767773],[-75.94591081293254,1.7472184377641042],[-75.94854565284066,1.7508959054986235],[-75.94406177304279,1.753986758876465],[-75.9423117402859,1.7618921743742817],[-75.93867431907461,1.7660807944956787],[-75.93680599588765,1.7722868095186755],[-75.93241170988824,1.7782668983460326],[-75.92395006845328,1.7845873934195424],[-75.92105083037177,1.790344569387912],[-75.91681939721678,1.7931182603489333],[-75.90454051653836,1.794433794653628],[-75.89942154674566,1.8022447250803566],[-75.89483894263668,1.8040476753186567],[-75.89555098892828,1.8030864158074564],[-75.89070358041107,1.799230869137034],[-75.88891288817922,1.8014008921075515],[-75.88597553293266,1.8016633886906561],[-75.8868360606129,1.8049172862031924],[-75.88283004251758,1.8059611625587877],[-75.88115447002747,1.8106267023293867],[-75.88732862904345,1.8093537568578313],[-75.87124698650689,1.826336784010607],[-75.87359676785991,1.821804829667201],[-75.86232754931137,1.808888938891755],[-75.8607409247578,1.8048793706128663],[-75.85739150961791,1.8033471434694661],[-75.85765089310559,1.7969804713268331],[-75.8535529980694,1.790696027277363],[-75.85675056367143,1.7691513577310047],[-75.8552850104565,1.7547397536353628],[-75.85315643063421,1.7432060433251877],[-75.84584777096472,1.7281727755517977]]]}}]}