{"type":"FeatureCollection","features":[{"type":"Feature","properties":{"code":"418077"},"geometry":{"type":"Polygon","coordinates":[[[-76.46525843350202,2.1198287806781764],[-76.46405916668095,2.0535442688638454],[-76.46281664665287,2.0473024784394056],[-76.46910731997866,2.016704387234597],[-76.46584783185261,2.0084869402197114],[-76.46095776251133,2.0027367021246505],[-76.45293791427133,1.999518119271329],[-76.45831572350556,1.9884999312002947],[-76.45320055277955,1.9774242213107414],[-76.4553039511868,1.974695833242663],[-76.44925183847295,1.9697475890218357],[-76.44716725645003,1.9643920198570868],[-76.4426630278885,1.9595814244398753],[-76.4378132508682,1.9566335327996853],[-76.4315129636617,1.9470991939359692],[-76.43110040805908,1.9401826979108705],[-76.4233638741357,1.9283413753011587],[-76.42228938516013,1.918472945856763],[-76.4177616227484,1.9128930240134423],[-76.4155674354925,1.904252210408174],[-76.41220061190609,1.9031585471502126],[-76.39371573985886,1.9046583958378278],[-76.38874614928511,1.9060195220278047],[-76.38708776412642,1.9105522929546055],[-76.38474430975174,1.9121248021345423],[-76.37712088290817,1.910345087498115],[-76.3714334240297,1.9119271550228518],[-76.37064351744033,1.9095283159333007],[-76.3734459636542,1.9062616883592796],[-76.37350842713903,1.9027779113180827],[-76.38146249311018,1.8998595894572077],[-76.38922759510984,1.9006843787599337],[-76.40071889759281,1.8901760750061385],[-76.40862757736716,1.8894495297319054],[-76.42114475949006,1.8827768208636257],[-76.43974925482888,1.8812554869834344],[-76.45111912704675,1.8742320164813009],[-76.45718887446446,1.8794682708872301],[-76.46646627547682,1.8822771808623315],[-76.47387578421967,1.8873439325145682],[-76.47404351291004,1.8896284849008111],[-76.4711211760096,1.8936465398873565],[-76.47190673434397,1.8960381531398411],[-76.47977284791097,1.8934579852359548],[-76.4894786877922,1.8954536532609154],[-76.4943613821722,1.8948404001861263],[-76.51560169855333,1.876058136501058],[-76.52784834784319,1.8687003779573388],[-76.53836915437267,1.8581706363192438],[-76.54873733591864,1.8691997299947616],[-76.55702272081788,1.8729308639167357],[-76.57669356912356,1.8672999210400576],[-76.58243788750349,1.8707120032963758],[-76.58857210284049,1.8699738880438304],[-76.59170040078197,1.8798686620717717],[-76.58444427395636,1.886906739542951],[-76.58402494297445,1.8957441491916711],[-76.58630635861101,1.9087382530206582],[-76.58978542641393,1.9099205135162265],[-76.59337847958648,1.9052004210406608],[-76.59583565604953,1.904683388019464],[-76.59954413749665,1.9090466798466537],[-76.60608947170203,1.9253766963936982],[-76.61047734741925,1.9270074030789601],[-76.61900680229701,1.927178750858559],[-76.61910555746141,1.9317722060645792],[-76.61525327403916,1.935326838681533],[-76.61084287543076,1.946007981456546],[-76.62127282934819,1.9564513514065993],[-76.62372941959893,1.9707551202188256],[-76.61126276691391,1.9950553965929316],[-76.60085617201145,1.9966705347153493],[-76.59229545556644,2.0060967534170686],[-76.58909075565867,2.0034630242268463],[-76.58883159739992,1.994769596530773],[-76.58536723015442,2.000144173370188],[-76.57889712651922,2.002954643492558],[-76.5796221023902,2.0094004470878986],[-76.57603693120109,2.027319603758883],[-76.57771500280649,2.0290953866595487],[-76.58391786462471,2.029923079255525],[-76.58605335249541,2.042202745664042],[-76.58287258238823,2.0494216490411077],[-76.57657086976042,2.0554769108459254],[-76.57959958669812,2.0639547543643744],[-76.58007255507118,2.0712974421114154],[-76.59009757620186,2.095244244848743],[-76.58909069498054,2.102857757506456],[-76.59100601387684,2.1078123575020413],[-76.58653431803754,2.106985164729167],[-76.58480244449015,2.10826875458082],[-76.57467778990514,2.1181728709805725],[-76.57231314755774,2.1233775809976123],[-76.56710228436913,2.1287712426448024],[-76.55371115030579,2.1382614458978537],[-76.54213751071478,2.1328196438847726],[-76.53915477235677,2.1347029525076664],[-76.53584300438371,2.1328518876146063],[-76.52619130891577,2.1355749164687268],[-76.51356437243572,2.1349479984781397],[-76.50891775189365,2.1332054651240924],[-76.50302012770123,2.1266430454031138],[-76.49139275713082,2.127552533117921],[-76.4821377411983,2.1214669240312105],[-76.47270724931792,2.121898412232156],[-76.46525843350202,2.1198287806781764]]]}}]}