{"type":"FeatureCollection","features":[{"type":"Feature","properties":{"code":"418048"},"geometry":{"type":"Polygon","coordinates":[[[-76.36035282698134,2.2709214692058026],[-76.36250463314946,2.2688328371762623],[-76.36522858348809,2.2598040816831713],[-76.37165958676712,2.2518092112266004],[-76.3698597547666,2.246482335608107],[-76.37637544823019,2.226902374881604],[-76.37413221249369,2.2182988690571506],[-76.37890035894594,2.2143544495265246],[-76.38448524610976,2.2132743730226707],[-76.383738384982,2.2084219745024143],[-76.37827508543495,2.199113027044234],[-76.37719894478067,2.186283791806943],[-76.36493854521427,2.1710465201186935],[-76.3655722282997,2.1638588608253144],[-76.37167510493629,2.1544902780992174],[-76.36596841418276,2.1479662182557604],[-76.35778226575906,2.147240374379294],[-76.3539212991966,2.145161590715304],[-76.34119479919627,2.1312022925540646],[-76.32978844812232,2.1094941510409626],[-76.32617196600069,2.0993005219015117],[-76.31437637411602,2.084454542766764],[-76.28546795843357,2.0693882928417793],[-76.26282303125589,2.0661518582832628],[-76.24749551065122,2.051929488639473],[-76.23849200239357,2.0475084754759223],[-76.23196947492943,2.041087952026146],[-76.21554946760511,2.0350765131854587],[-76.20705846825001,2.028861698808271],[-76.19952736366287,2.0255453460384274],[-76.16313393201631,2.011643425713771],[-76.16118800769908,2.010274471019329],[-76.16121179660303,2.0077733080697726],[-76.15861323397627,2.0070023793301743],[-76.16360392613359,2.002107892828292],[-76.16792119618657,2.000634820670143],[-76.16983012536946,1.9976204021687636],[-76.16356760565759,1.9899411452945515],[-76.16313913593547,1.9832415981903182],[-76.1962732265232,1.970686755530835],[-76.20412414382355,1.9719450240992273],[-76.2079546067809,1.9705691952949564],[-76.2093434854923,1.9656259287359603],[-76.20803827880735,1.9587388091429716],[-76.21189921965873,1.9504646486653883],[-76.21373266527456,1.9339279254564872],[-76.21420893289121,1.9386308984779248],[-76.2155703696709,1.9316753884858713],[-76.22744698637098,1.9531503933928889],[-76.25060260107955,1.969658624630199],[-76.25109795967467,1.9856349361409116],[-76.24877942446227,1.9985432082141301],[-76.26900467630497,2.0195775872084596],[-76.27944995915806,2.039386819654112],[-76.30122342219778,2.045971662507327],[-76.34162050446497,2.063884553906462],[-76.34460374984513,2.0733058741365085],[-76.35430998361988,2.0808246950061857],[-76.36127698954243,2.089845090290055],[-76.36575220265519,2.103623448388305],[-76.37545591263199,2.1174041719043544],[-76.37943263759905,2.132685176053883],[-76.38192139341805,2.134940616317749],[-76.38640275558862,2.1354436090417153],[-76.39187659050083,2.143711897112496],[-76.38738720030796,2.1609929165134645],[-76.38738368714831,2.168757760374092],[-76.3898728348039,2.170261776310781],[-76.39286097968426,2.1695117023285775],[-76.39908779701409,2.1645049284155675],[-76.4080498508107,2.167514702470555],[-76.41626643599079,2.1672678495265814],[-76.42016202609909,2.1651518856086227],[-76.42400018489184,2.168477354492893],[-76.42695998692477,2.1827827945242575],[-76.42870674100692,2.184312431020942],[-76.41031999266039,2.198738502217509],[-76.40690865191112,2.2061928510541406],[-76.40244609789733,2.2099447420315528],[-76.39695982602973,2.230814352193022],[-76.38815576260129,2.2551349814445416],[-76.38914774477581,2.2603882473182466],[-76.38506561782037,2.2646748677272512],[-76.38375236974338,2.2686706065395583],[-76.37320161291086,2.2788962984029695],[-76.3705155565653,2.2774780813118696],[-76.3675325508122,2.2721729634233157],[-76.36035282698134,2.2709214692058026]]]}}]}