{"type":"FeatureCollection","features":[{"type":"Feature","properties":{"code":"418068"},"geometry":{"type":"Polygon","coordinates":[[[-76.2343502566253,1.8755075248316189],[-76.23014533466153,1.8723988639715685],[-76.2315872532389,1.869129160325997],[-76.23710344044247,1.8710266943658098],[-76.24174924337274,1.869045784490993],[-76.24641237658784,1.8704683004718277],[-76.25838039714523,1.8691009614605605],[-76.26203578319041,1.8576976802875151],[-76.27835401892838,1.8325710266954047],[-76.30644007860309,1.8083507220115393],[-76.31546530653833,1.7892223257123874],[-76.32365328250444,1.783329061087727],[-76.35089992122465,1.7254135815165341],[-76.36890475024279,1.7062124013118591],[-76.3894176122065,1.7084636517009244],[-76.416598422378,1.6662441631199272],[-76.42091038052536,1.6578849041661101],[-76.42263508377147,1.6493399989963677],[-76.43009654325971,1.6365625900629652],[-76.43470500549893,1.6475677158856001],[-76.43858049984044,1.6715059198149902],[-76.43395664387356,1.7064980255103706],[-76.42612886550148,1.7277740833543476],[-76.42349737831597,1.7427026248260518],[-76.43691735196444,1.7769356844066806],[-76.44356278448015,1.8007002738692108],[-76.44722531305865,1.8255681795511123],[-76.44423416409768,1.8559545329532625],[-76.44716411044436,1.8682394125369228],[-76.45111912704675,1.8742320164813009],[-76.43974925482888,1.8812554869834344],[-76.42114475949006,1.8827768208636257],[-76.40862757736716,1.8894495297319054],[-76.40071889759281,1.8901760750061385],[-76.38922759510984,1.9006843787599337],[-76.38197099108692,1.8998024461055252],[-76.37469395808182,1.901813831817492],[-76.37064351744033,1.9095283159333007],[-76.3714334240297,1.9119271550228518],[-76.36022718832947,1.9170051897179974],[-76.35497301845481,1.9231557367221512],[-76.34669995326851,1.922490276819758],[-76.33231620556694,1.927068747618307],[-76.32090210415015,1.9188131032198044],[-76.31124001935581,1.9236968589524963],[-76.30848668949977,1.9278931450844539],[-76.29962418071142,1.9263291195267698],[-76.29320340837853,1.929040189651289],[-76.28620907776673,1.9282945204884072],[-76.28245483576978,1.930951866832629],[-76.27847999490939,1.925356678788546],[-76.27953240528103,1.923075754747515],[-76.27785450645393,1.918212704648056],[-76.2736650944318,1.9176979300866037],[-76.26955274155074,1.9142093419913522],[-76.27177286818386,1.9115682728068464],[-76.26910989728748,1.9102709285650121],[-76.26971343055209,1.9076889855693366],[-76.26530279848726,1.9031151695016888],[-76.2651127711062,1.8993074598066073],[-76.26061809369031,1.8961801789947685],[-76.25939747228881,1.8905934817721004],[-76.25052506268429,1.8861883991831405],[-76.24882251209004,1.8816618328501136],[-76.24531364105138,1.8808048697516142],[-76.24528235377306,1.8782039293657817],[-76.23939326976733,1.879544810664811],[-76.23920996222967,1.8751851811214237],[-76.2343502566253,1.8755075248316189]],[[-76.2796065888968,1.889422482722125],[-76.27753828711894,1.8822405415691605],[-76.27880996143557,1.8775366295797085],[-76.27296075528847,1.8792921326223677],[-76.27143507829544,1.8771324866369241],[-76.26981839648084,1.8776257369248697],[-76.27011315736269,1.876428854033577],[-76.26810533520404,1.8771993528841335],[-76.26784158392104,1.8720521852545176],[-76.26348355566262,1.870592036505002],[-76.26139959996118,1.8732428059593076],[-76.26132296968069,1.875942080876598],[-76.26335879015846,1.8778470999210413],[-76.26171572673638,1.8794247400007293],[-76.27286910254804,1.8879618320926852],[-76.27441241218804,1.8861601951755347],[-76.2796065888968,1.889422482722125]]]}}]}