{"type":"FeatureCollection","features":[{"type":"Feature","properties":{"code":"418040"},"geometry":{"type":"Polygon","coordinates":[[[-76.21420893289121,1.9386308984779248],[-76.21207337611486,1.9297866928810663],[-76.21333955443464,1.9275483062510261],[-76.2170384312571,1.9260371714352118],[-76.22233048586878,1.9310935975245798],[-76.22155045849826,1.9319211039724564],[-76.21928113220349,1.929862213472063],[-76.21623727350658,1.9308028341988006],[-76.2160283896319,1.9331362314340481],[-76.21452870549513,1.9329348541613172],[-76.21420893289121,1.9386308984779248]]]}}]}