{"type":"FeatureCollection","features":[{"type":"Feature","properties":{"code":"250057"},"geometry":{"type":"Polygon","coordinates":[[[-74.22630821080054,4.6334744944901445],[-74.22219480170895,4.628481240482529],[-74.22349649626273,4.624664988543884],[-74.22093263020122,4.623390881960688],[-74.2259449505047,4.618220025186076],[-74.231649525752,4.606362108656299],[-74.23378279321531,4.591473079946127],[-74.23257399993116,4.584520282985466],[-74.24203993502607,4.5834206393342924],[-74.24580167745432,4.58573242899223],[-74.24671316137608,4.582361806339122],[-74.25218344610471,4.578024723341059],[-74.24991925379499,4.575862960820871],[-74.2536128763046,4.5712635211078805],[-74.25295327955297,4.5691469874327595],[-74.24845507972151,4.56903941337373],[-74.24808666898554,4.566920532792835],[-74.25146666589217,4.564899252435396],[-74.24578300608044,4.560871185560927],[-74.24386485793877,4.555706292724437],[-74.24125616926699,4.55671275434122],[-74.23719034518234,4.553407056235926],[-74.24634847565892,4.541493932911749],[-74.24576543925377,4.543048692202262],[-74.25221499255053,4.546963969785736],[-74.25711491951336,4.544826921767708],[-74.261862438494,4.545978742421653],[-74.26513327034104,4.542787406095954],[-74.26845765421848,4.54426451489104],[-74.27373160618492,4.54190157770131],[-74.27622679799725,4.542800631866783],[-74.27790870466481,4.5399998990381505],[-74.27902634194629,4.530580118386581],[-74.28208860256518,4.53930828789936],[-74.28592347137032,4.541620895169103],[-74.28535734153172,4.545198139123272],[-74.29402516923659,4.551508242813611],[-74.29779966949434,4.55864262672759],[-74.30074616039576,4.572640338245378],[-74.30089551801746,4.582224762259727],[-74.29741977722608,4.593280385638479],[-74.3049869935154,4.606231035714131],[-74.30658850785971,4.621177500882084],[-74.29957364336462,4.61740707634209],[-74.29857477473894,4.614822780269947],[-74.29401918884338,4.614940016546427],[-74.29243747510287,4.612740216051293],[-74.28440507986414,4.61137705868731],[-74.28026609340714,4.608624639002869],[-74.26903620147203,4.617976487940723],[-74.26225377424214,4.6193477268060406],[-74.2571049333365,4.628118504692395],[-74.25513912202632,4.628118996287924],[-74.25347843007097,4.6250515564324814],[-74.2491113299211,4.622207439784631],[-74.24984561011155,4.618971538987751],[-74.24062144951148,4.633094403732514],[-74.23943808549706,4.63083053126843],[-74.22630821080054,4.6334744944901445]]]}}]}