{"type":"FeatureCollection","features":[{"type":"Feature","properties":{"code":"250052"},"geometry":{"type":"Polygon","coordinates":[[[-74.24580167745432,4.58573242899223],[-74.24203993502607,4.5834206393342924],[-74.22951654625257,4.584866281902066],[-74.22763643505749,4.582323596614231],[-74.21922573135203,4.581615062453864],[-74.21810325936224,4.579007126601994],[-74.22365853355217,4.575609478536421],[-74.22848475821036,4.563862823032082],[-74.23719134997066,4.553406884486037],[-74.24125616926699,4.55671275434122],[-74.24386485793877,4.555706292724437],[-74.24578300608044,4.560871185560927],[-74.25146666589217,4.564899252435396],[-74.24808666898554,4.566920532792835],[-74.24851764605057,4.56913434787424],[-74.25360691030954,4.57013188158146],[-74.24991925379499,4.575862960820871],[-74.25218344610471,4.578024723341059],[-74.24671316137608,4.582361806339122],[-74.24580167745432,4.58573242899223]]]}}]}