{"type":"FeatureCollection","features":[{"type":"Feature","properties":{"code":"250007"},"geometry":{"type":"Polygon","coordinates":[[[-74.03530172468567,4.889459067029975],[-74.03803797828215,4.882974829509294],[-74.04702456866039,4.887616020903238],[-74.05211897616039,4.887796356242006],[-74.05090918631544,4.887251372210017],[-74.05467238296143,4.881485529556585],[-74.05709031611485,4.880313456812587],[-74.05803819250355,4.875633731734354],[-74.06129732478848,4.8750680101874195],[-74.06026127488042,4.8718701905601165],[-74.06237994771595,4.870510364321433],[-74.06380435294568,4.8721342555181195],[-74.06380205334824,4.870248786137438],[-74.06617205799489,4.869299326975749],[-74.06540019645797,4.86743472983602],[-74.06739265985607,4.864858600625951],[-74.06647253084651,4.861558513703017],[-74.0683117182569,4.858328470914728],[-74.06672781804758,4.858443197791473],[-74.0681906572027,4.857421366101278],[-74.06644171459487,4.856421440236716],[-74.06765195489766,4.8547717505594505],[-74.07091912960306,4.852746498357021],[-74.07476858686533,4.8540024087067195],[-74.0751281149432,4.852571472866941],[-74.08244942137031,4.854386037306597],[-74.08313964616855,4.850585150299196],[-74.08448458158801,4.85027314655008],[-74.08059622348748,4.845707556994057],[-74.07908901423679,4.845009572597007],[-74.06930973224684,4.851963285900013],[-74.07004002722249,4.848180509765314],[-74.06555782481439,4.8460654447061415],[-74.07132628999625,4.833334634503274],[-74.07560675311987,4.836847534979711],[-74.08360432323803,4.8335743541699685],[-74.07671496678256,4.84184370050815],[-74.08145069055598,4.845454142586789],[-74.09387194161758,4.849747182534031],[-74.08967319956491,4.856213022246493],[-74.0850258478003,4.859261127382581],[-74.08395303312909,4.862488927137747],[-74.0823444276736,4.894046243594403],[-74.07751863701816,4.910842507642656],[-74.07049064959648,4.911268585207495],[-74.05815992101691,4.900340365288002],[-74.05679451650605,4.902753114062648],[-74.04841671987583,4.897572805901291],[-74.0483824172041,4.896112351704346],[-74.04995623867671,4.89605816409653],[-74.04790351163234,4.894957085767999],[-74.04953660636113,4.892739362605084],[-74.04271184843714,4.889655345284666],[-74.04162084370313,4.891210105603648],[-74.03597720881731,4.88797517874184],[-74.03530172468567,4.889459067029975]]]}}]}