{"type":"FeatureCollection","features":[{"type":"Feature","properties":{"code":"250037"},"geometry":{"type":"Polygon","coordinates":[[[-74.29879967352053,4.798185886727879],[-74.29476162149763,4.792301317584759],[-74.28716639249097,4.788368256173271],[-74.27953817104833,4.786812873646568],[-74.28015301820909,4.7876169490885445],[-74.27763349447525,4.787542511447498],[-74.27788070120346,4.789067303979891],[-74.27574563396576,4.7902192819855145],[-74.26774435322699,4.778080497803899],[-74.25961226282737,4.745459552724583],[-74.25745115953885,4.742029352396457],[-74.26051001601303,4.742088690444405],[-74.26082227275901,4.743931081453297],[-74.26436975050137,4.746251873068559],[-74.26749961373235,4.745339375102503],[-74.27213741743668,4.740131601355245],[-74.27651681981592,4.7384234848300935],[-74.28105876650687,4.730214555376108],[-74.28752537343746,4.726222423311697],[-74.28242108774708,4.723081498152965],[-74.27341402416363,4.726203854782],[-74.26928928574927,4.721061413874168],[-74.26589864960476,4.725935944477442],[-74.26327605844705,4.726678933519111],[-74.26201727977116,4.725107663612391],[-74.26040908877803,4.727690430390453],[-74.26135736214553,4.728547067472675],[-74.25938778673572,4.73007020215573],[-74.24967900139507,4.721696699273082],[-74.24665382332807,4.724013025390946],[-74.24661728996449,4.723951960587954],[-74.24951472827155,4.721629831997404],[-74.24730427722568,4.719681596769817],[-74.25239430973119,4.716147369480893],[-74.25338905121703,4.708832451738715],[-74.25124003521341,4.702286401737297],[-74.25521694632857,4.697039884503454],[-74.25353974478554,4.693941943099787],[-74.25505729091196,4.691546857825415],[-74.25403130020021,4.688466269332366],[-74.2565508208487,4.683238769029117],[-74.26410153989161,4.692248206257943],[-74.28648447442299,4.70774902868294],[-74.28998732187381,4.713651935984615],[-74.29685031214842,4.715080886930309],[-74.30324345331616,4.719923653057947],[-74.31403146463862,4.7369853560633715],[-74.32173888129739,4.742405666713125],[-74.32353657619439,4.745680298655259],[-74.32865173560754,4.7673318655454295],[-74.32123241243772,4.776449809630606],[-74.31793229260467,4.776964147103968],[-74.3158567248804,4.780148545556415],[-74.31634054949274,4.783077743196941],[-74.31134488481581,4.787865432113904],[-74.30735709997793,4.789340222799524],[-74.30379159055286,4.795231177542291],[-74.30544099740843,4.797986484064836],[-74.30378369931344,4.802142273215679],[-74.29879967352053,4.798185886727879]]]}}]}