{"type":"FeatureCollection","features":[{"type":"Feature","properties":{"code":"250227"},"geometry":{"type":"Polygon","coordinates":[[[-74.09345965341004,5.066260324552559],[-74.09310588461022,5.0464109951899445],[-74.08892778648425,5.0469152148457965],[-74.08040139945052,5.044131171582421],[-74.07941000965883,5.042142829153477],[-74.09163215219195,5.020273438137849],[-74.08864955061682,5.0142565022719054],[-74.0970986656219,5.019796471180314],[-74.10181695935148,5.017834818891629],[-74.10853508115605,5.018812014119646],[-74.11473571228248,5.012894201600545],[-74.12457527334533,5.008561017428065],[-74.12634321231491,5.005633990829722],[-74.13359221203388,5.003405908165291],[-74.13562749669308,4.994331998903419],[-74.13963286995494,4.992644261995224],[-74.14172350950429,4.982046981508461],[-74.14867115293947,4.971691264685887],[-74.14984813443965,4.964126821077571],[-74.15914093637872,4.939530993977769],[-74.16778921544824,4.933025115969599],[-74.1698324900774,4.932156416285068],[-74.17218498446175,4.935233306498844],[-74.17386605911935,4.931494773961333],[-74.17569011711186,4.932333917236292],[-74.17771743751223,4.930715784289305],[-74.17551429046506,4.927380051548653],[-74.19335940030317,4.898803354858444],[-74.19611367735479,4.888666136819609],[-74.19735394715065,4.889224116251228],[-74.19908140148044,4.894630960474672],[-74.20407298221215,4.8988819618055],[-74.20550112274509,4.903410535658338],[-74.21952844826518,4.9156808010737905],[-74.22150956280007,4.920277057757232],[-74.21996404715088,4.932012910501328],[-74.22751144535283,4.943282215439069],[-74.23144131036497,4.944586761863889],[-74.22663764665032,4.949432767585506],[-74.22306565906587,4.95050965694594],[-74.22307004537322,4.952661308847723],[-74.22109374703467,4.952758382508591],[-74.22092690589017,4.957908386582744],[-74.22652336611765,4.970543595854394],[-74.22493887044016,4.97670898534102],[-74.21958728957543,4.984464480659142],[-74.215604890691,4.99695816389891],[-74.21292056727111,4.996755814748042],[-74.20908153738753,4.9997780596969505],[-74.20987566881877,5.002959323456594],[-74.20729855127547,5.006538022656969],[-74.20571226199417,5.0075330562204385],[-74.20154823501872,5.005942811549232],[-74.19401465702731,5.011313442254675],[-74.18469731027909,5.0210576605254005],[-74.18568883582515,5.022051090747027],[-74.18905945950667,5.020858003837077],[-74.18826672881414,5.022249623347761],[-74.17161205250432,5.031001220781093],[-74.16011338534452,5.044524222772623],[-74.1472240582109,5.038759637904434],[-74.14167210177652,5.040350614826707],[-74.14187091102826,5.0448246020359875],[-74.1381042094502,5.056953824787513],[-74.13473360633753,5.0621244398781755],[-74.13116463517497,5.061130000754417],[-74.1270003757715,5.066897464233307],[-74.11272377532532,5.0718685625037665],[-74.10697287388479,5.0692847940226216],[-74.10042911628176,5.070875451099312],[-74.09666185317406,5.074653260885043],[-74.09345965341004,5.066260324552559]]]}}]}