{"type":"FeatureCollection","features":[{"type":"Feature","properties":{"code":"250257"},"geometry":{"type":"Polygon","coordinates":[[[-73.98913198427647,5.045533447814478],[-73.99266308201487,5.0399835379806746],[-73.99972234540195,5.04172591912527],[-74.00672157345701,5.03930284067394],[-74.01023471664593,5.040475783480304],[-74.01264810614026,5.034816801146803],[-74.0112333610711,5.028325615468418],[-74.01664268281252,5.028908157192745],[-74.01963861505965,5.03107188712346],[-74.02171912445016,5.030322902261901],[-74.01881757854369,5.025031729025443],[-74.02453473267138,5.028246409967835],[-74.02480400257696,5.025676177847174],[-74.03030427977478,5.024154737008928],[-74.0360024735362,5.02316510791087],[-74.04289545319466,5.024906868904566],[-74.05078101666658,5.018825856955971],[-74.0524662482888,5.022438577034791],[-74.05772989114746,5.024338182357894],[-74.06162498554647,5.019940622825914],[-74.06481860398611,5.020864826524701],[-74.07091278411275,5.015030978109735],[-74.07992278801333,5.018116160655495],[-74.08622284279181,5.014136841956429],[-74.08984549556851,5.0153523828519155],[-74.09163215219195,5.020273438137849],[-74.07941000965883,5.042142829153477],[-74.08040139945052,5.044131171582421],[-74.08892778648425,5.0469152148457965],[-74.09310588461022,5.0464109951899445],[-74.09345965341004,5.066260324552559],[-74.08734140258628,5.065506458702771],[-74.08436712625326,5.068290579099369],[-74.07608945261603,5.084848242426403],[-74.08067754757968,5.097957169805738],[-74.07794098339355,5.0991417844062426],[-74.07872893594214,5.111503513328671],[-74.0779408970044,5.117430035727409],[-74.0747188431576,5.124335445142151],[-74.07898817339094,5.126822287029654],[-74.07912289113335,5.128324549471813],[-74.06849102721003,5.136946880936591],[-74.06822650048139,5.144440082274684],[-74.06142813342086,5.148650543429881],[-74.05550758215935,5.147386580375269],[-74.0441229456207,5.158368671142341],[-74.03691842398376,5.145638008006756],[-74.03790542643964,5.137837413427292],[-74.04032267362192,5.1359306429452545],[-74.04085502632284,5.132461569546706],[-74.04008209212037,5.1342881986455495],[-74.03401661890979,5.136194703789442],[-74.02960484218846,5.133023702857713],[-74.02113322074729,5.131972834121427],[-74.0126654333398,5.126946373761768],[-74.00717732673075,5.127454429508191],[-74.00629346266135,5.122589216594179],[-74.01330094293917,5.108495423862507],[-74.01234997505225,5.103857420640338],[-74.00715799098299,5.099423542689294],[-74.0099935263064,5.086307060371269],[-74.02031087913775,5.070962202282658],[-74.02219350693167,5.057663557083458],[-74.02314565547061,5.0556628918562865],[-74.02742934893223,5.05372919469221],[-74.02755329579611,5.047436427457399],[-74.02693517510284,5.04533728371689],[-74.02405287032741,5.045141474431944],[-74.01527475964593,5.048857314385316],[-74.00144152899708,5.047191856627364],[-73.99953047608034,5.045659963727758],[-73.9941341867625,5.047657776055416],[-73.99149122215846,5.044728622637933],[-73.9907763713041,5.046101937928654],[-73.98913198427647,5.045533447814478]]]}}]}