{"type":"FeatureCollection","features":[{"type":"Feature","properties":{"code":"250251"},"geometry":{"type":"Polygon","coordinates":[[[-73.99972234540195,5.04172591912527],[-73.96972494278975,5.034787771299818],[-73.95780590592108,5.0279927343361805],[-73.96359080047216,5.017123147981579],[-73.98144608674897,5.021411002521575],[-73.9837746348777,5.025303502160114],[-73.98887476668881,5.026349440542958],[-73.99778362943835,5.025153935764649],[-74.00845061570215,5.028255071510728],[-74.01071681347474,5.027403422374732],[-74.01264810614026,5.034816801146803],[-74.01023471664593,5.040475783480304],[-74.00672157345701,5.03930284067394],[-73.99972234540195,5.04172591912527]]]}}]}