{"type":"FeatureCollection","features":[{"type":"Feature","properties":{"code":"250207"},"geometry":{"type":"Polygon","coordinates":[[[-74.08219454348938,4.894453175673334],[-74.08270161604474,4.869481457975155],[-74.0850258478003,4.859261127382581],[-74.09199684613668,4.853523235739942],[-74.11684102256436,4.8187378151091025],[-74.12738736943533,4.82124830089009],[-74.13042279696049,4.816785927882165],[-74.14877290807073,4.800008957415571],[-74.15540802839337,4.78732914870568],[-74.16550360993688,4.809864637258045],[-74.16772664397695,4.824937411622329],[-74.17629188659748,4.834804013524376],[-74.17458193224553,4.840530938884456],[-74.16816603781552,4.847289997843461],[-74.16540619277617,4.854244662455756],[-74.16565829386235,4.859074538084883],[-74.17105111012978,4.870479281703183],[-74.16600220195528,4.874316917018689],[-74.16492974929582,4.877544829902547],[-74.16904155196016,4.878620418283219],[-74.16314292915001,4.881668669458122],[-74.15778101038114,4.8877659883913225],[-74.1452680181331,4.890097577624601],[-74.13597316650805,4.901394265872852],[-74.13128171615665,4.903806851125125],[-74.12882304228128,4.901932866362074],[-74.11541587068535,4.902112287415491],[-74.11291267450491,4.899064915558881],[-74.1064775800815,4.89816938586597],[-74.10451091516404,4.895838037288229],[-74.1011143346218,4.900141504614169],[-74.09488152867118,4.898608870207511],[-74.0981767459188,4.895502527456927],[-74.09347552330655,4.892855288645762],[-74.08219454348938,4.894453175673334]],[[-74.13673725199112,4.871053024073319],[-74.14077135685159,4.877106726759337],[-74.14138749676454,4.878278608213009],[-74.14527895356241,4.874552662783515],[-74.14708344337907,4.876816007656544],[-74.14851311937673,4.876366633811756],[-74.14732471702246,4.874060105665762],[-74.14987018219034,4.871647590347607],[-74.14758923449511,4.871134706063515],[-74.14478792162492,4.8655247650114575],[-74.1423889673498,4.865729498092094],[-74.13673725199112,4.871053024073319]]]}}]}