{"type":"FeatureCollection","features":[{"type":"Feature","properties":{"code":"250208"},"geometry":{"type":"Polygon","coordinates":[[[-74.15540802839337,4.78732914870568],[-74.15743164537224,4.782209657492615],[-74.1643604045459,4.774112499171622],[-74.15866063418207,4.7642274284988275],[-74.16908859806318,4.754017141675945],[-74.17081339695443,4.760818990014343],[-74.1697419182301,4.765659971794207],[-74.17247983687497,4.773408936502335],[-74.17731706998188,4.773363053567834],[-74.1806450626641,4.769962396279425],[-74.18725905466363,4.776415879255069],[-74.19572021581598,4.774226090647801],[-74.19698412847686,4.775602671243519],[-74.19572931547538,4.778153586128383],[-74.19824869317034,4.7808570128680685],[-74.19567241997834,4.7883219166103],[-74.20173880644592,4.793088228321096],[-74.21585536375267,4.775693040487681],[-74.21568905739832,4.783794497698409],[-74.22012831204682,4.7935504515266985],[-74.21666422042392,4.794865209357283],[-74.21202647534079,4.799189270216232],[-74.21293774843184,4.800099008870973],[-74.20994737491651,4.801148575599029],[-74.20428628427584,4.79812022067307],[-74.20497964376688,4.800229945030253],[-74.20259328688417,4.8015732657949],[-74.20061225051091,4.810793540939187],[-74.19798887979374,4.813349771843377],[-74.19316554403059,4.831102044175282],[-74.1801198884919,4.847061032600209],[-74.17440161747561,4.860509948677986],[-74.18160100409904,4.86105714077604],[-74.17105111012978,4.870479281703183],[-74.16565829386235,4.859074538084883],[-74.16540619277617,4.854244662455756],[-74.16816603781552,4.847289997843461],[-74.17458193224553,4.840530938884456],[-74.17629188659748,4.834804013524376],[-74.16772664397695,4.824937411622329],[-74.16550360993688,4.809864637258045],[-74.15540802839337,4.78732914870568]]]}}]}