{"type":"FeatureCollection","features":[{"type":"Feature","properties":{"code":"250252"},"geometry":{"type":"Polygon","coordinates":[[[-74.01664268281252,5.028908157192745],[-73.99901636589277,5.025287966507449],[-73.98887476668881,5.026349440542958],[-73.9837746348777,5.025303502160114],[-73.98144608674897,5.021411002521575],[-73.98501895468024,5.011099006847303],[-73.97303522774865,5.005689684077424],[-73.9755318377832,5.00119578622099],[-73.988089367763,5.0074155278662715],[-73.98901353340938,5.006688328502605],[-73.99317454910516,5.010682904146449],[-73.99600403924347,5.0012790057327265],[-74.00116370039285,5.00044680341631],[-74.00604218947137,5.002769907998868],[-74.00711266443585,5.014728381524321],[-74.01564404044422,5.022333750974212],[-74.01664268281252,5.021501546600916],[-74.02171912445016,5.030322902261901],[-74.01963861505965,5.03107188712346],[-74.01664268281252,5.028908157192745]]]}}]}