{"type":"FeatureCollection","features":[{"type":"Feature","properties":{"code":"250430"},"geometry":{"type":"Polygon","coordinates":[[[-73.81481810137461,5.319594765272427],[-73.80903893113458,5.315506441950788],[-73.80752424202149,5.317928207080968],[-73.80498566124777,5.316671304284284],[-73.80270998432047,5.312573507978584],[-73.80395866574764,5.309498610886465],[-73.81184684660576,5.301632200099618],[-73.80983729152149,5.300420184705047],[-73.81133522730596,5.298623295078585],[-73.81027507173377,5.297684658217463],[-73.81448672588226,5.294175526982826],[-73.81666892046991,5.294897666409327],[-73.81772131644334,5.297969205636662],[-73.81929612213548,5.296264571417851],[-73.82094066548632,5.297912723573518],[-73.8246751644723,5.297638742372783],[-73.8227675835775,5.3019508897535275],[-73.82532302772319,5.3045829271558205],[-73.82379334391811,5.306149686313631],[-73.82491498698323,5.309822975486213],[-73.81888538379081,5.314266113533677],[-73.81481810137461,5.319594765272427]]]}}]}