{"type":"FeatureCollection","features":[{"type":"Feature","properties":{"code":"250447"},"geometry":{"type":"Polygon","coordinates":[[[-73.80479369319568,5.2588987483982805],[-73.80329601657866,5.254337104976287],[-73.80624889925042,5.248523890203558],[-73.81243303827256,5.243359727561256],[-73.8159093313376,5.237995439260828],[-73.8266140737831,5.234518381034604],[-73.8239122154182,5.228220064323978],[-73.82434944232841,5.223324686162414],[-73.82914879789735,5.223282551900866],[-73.83425274728705,5.219977149987017],[-73.83456658577762,5.213205322914121],[-73.84108099471649,5.214177686519179],[-73.84596499933224,5.212220620055746],[-73.8480880358494,5.207846927589344],[-73.84874174373908,5.200811831572992],[-73.8470644558069,5.193563349160627],[-73.85364763361167,5.190899248005962],[-73.86046265629875,5.184425844098712],[-73.86320091124435,5.1986433091001345],[-73.86623719237679,5.1971522762218],[-73.87075344548828,5.20026228948376],[-73.87262527566423,5.199667207959806],[-73.8725482946848,5.204029242001809],[-73.87539647985125,5.210646171233179],[-73.87256154822353,5.2134112140210505],[-73.87858215357238,5.2144847856259275],[-73.87924196424001,5.217360620469492],[-73.8824292587866,5.214511997186548],[-73.88633763346388,5.22057194663239],[-73.8921840751575,5.223644909224163],[-73.89187029734501,5.2266775733242525],[-73.89467459681231,5.23011923461587],[-73.89516016977683,5.233391765449937],[-73.89341115929182,5.235855411844852],[-73.89344447054498,5.239505360514443],[-73.89021610103265,5.241847609554441],[-73.89407755096312,5.245333690306836],[-73.89469192401185,5.251557629026081],[-73.89869901888648,5.254718161441417],[-73.89800092650296,5.257004678152896],[-73.89951508699664,5.257709336113464],[-73.89439901638343,5.262068748655452],[-73.89170750517872,5.267303756589115],[-73.87248243116903,5.276855903963451],[-73.8675052136656,5.281379033241649],[-73.86992653656552,5.283873422868737],[-73.8659092148585,5.284128643221095],[-73.85293577449659,5.291547043877927],[-73.84938712021597,5.291447316835331],[-73.85194869285067,5.286452168436597],[-73.85140123541441,5.2818095989296125],[-73.8441113324796,5.275111777551956],[-73.83842635626144,5.27380063983901],[-73.83413704544677,5.267654335160216],[-73.82988450865128,5.267015129338461],[-73.82447846455614,5.271819172548362],[-73.81978043114418,5.272715847926236],[-73.8190855618995,5.2679420748650045],[-73.80479369319568,5.2588987483982805]],[[-73.85117705859949,5.249133923224861],[-73.85448666272947,5.250390583309127],[-73.85434644179117,5.24449065232011],[-73.85017678923515,5.247043525359459],[-73.85117705859949,5.249133923224861]]]}}]}