{"type":"FeatureCollection","features":[{"type":"Feature","properties":{"code":"250610"},"geometry":{"type":"Polygon","coordinates":[[[-73.6867434929091,5.389139707266111],[-73.68312463714216,5.386597409701153],[-73.68213201733323,5.3809083485092515],[-73.68772858554718,5.379378997919616],[-73.6895336338082,5.3814671486380234],[-73.6916605907482,5.378378131030104],[-73.6926177436884,5.3788052637769965],[-73.68939098574555,5.383290043462068],[-73.69204407330926,5.383783184735137],[-73.6934187307175,5.386188962726408],[-73.68904735018987,5.384371923854076],[-73.6867434929091,5.389139707266111]]]}}]}