{"type":"FeatureCollection","features":[{"type":"Feature","properties":{"code":"250601"},"geometry":{"type":"Polygon","coordinates":[[[-73.70737000805553,5.305414916584596],[-73.71038124147043,5.304141664637143],[-73.71193432337122,5.29983463170106],[-73.71161528918907,5.303623041643789],[-73.71474913969172,5.303533564059364],[-73.71454711450019,5.306778718782027],[-73.71574628053389,5.307071721027171],[-73.713345818562,5.307622337838836],[-73.71321580183036,5.309824608652946],[-73.71063797260484,5.3102077292022045],[-73.7086639131856,5.309266077976076],[-73.70737000805553,5.305414916584596]]]}}]}