{"type":"FeatureCollection","features":[{"type":"Feature","properties":{"code":"250848"},"geometry":{"type":"Polygon","coordinates":[[[-73.55142862751444,5.076126165407061],[-73.54142550192495,5.072159498607846],[-73.53977458942956,5.0526080668768145],[-73.54183772328378,5.04397865149997],[-73.547456517169,5.038697892272467],[-73.55574257364117,5.025768068157788],[-73.56320125736306,5.025355820059474],[-73.57022533258936,5.01998269126716],[-73.57502892842683,5.020348703675154],[-73.58033746691518,5.016328822174671],[-73.59245145637618,4.994223607232584],[-73.60641799888651,4.982401502099776],[-73.62074170611385,4.960274012121204],[-73.63990583359146,4.941945588806732],[-73.65176311145842,4.938606988768413],[-73.6664715888569,4.9408035753806985],[-73.67638276859986,4.93127127180469],[-73.68573677109634,4.93441473413111],[-73.69628322081161,4.945445230602218],[-73.70409985909436,4.944304700190287],[-73.71059432139054,4.9505026686790075],[-73.71474067560979,4.9516285530410755],[-73.70978307050518,4.957191632081276],[-73.71100148486903,4.964138901163437],[-73.7058979160031,4.96152151803858],[-73.70329234556903,4.96413170515109],[-73.6886035083374,4.955451308850172],[-73.68211431680908,4.9396075697508195],[-73.67975461098575,4.93859626725515],[-73.67672070349863,4.939776120166812],[-73.66863028250458,4.946939513358927],[-73.66475362396613,4.953850080412906],[-73.65413494673282,4.966154260777273],[-73.6498369116403,4.982840752984828],[-73.63719563044401,5.001802675293504],[-73.62767253142857,5.022618652177641],[-73.62590275154685,5.029697769647555],[-73.61536835003574,5.048322591124304],[-73.60415974686077,5.060121121269333],[-73.59826048230252,5.069981321116643],[-73.59674352855893,5.071582549553966],[-73.56008381154703,5.0771447143087585],[-73.55142862751444,5.076126165407061]]]}}]}