{"type":"FeatureCollection","features":[{"type":"Feature","properties":{"code":"250817"},"geometry":{"type":"Polygon","coordinates":[[[-73.58208407907227,5.302994489458115],[-73.58390615525605,5.295918141583854],[-73.58367589931743,5.274718520673218],[-73.58692107152365,5.255963495288256],[-73.59336386075393,5.247106716981591],[-73.59153494542738,5.2346762263923665],[-73.59357634829115,5.2275474742295955],[-73.59106839659256,5.223102894305725],[-73.59365999666346,5.220684260782946],[-73.59510378494934,5.221267522417065],[-73.59895106705562,5.216624881947553],[-73.60278231677154,5.216512522545543],[-73.60317684171991,5.213751378583197],[-73.6005445060693,5.213276860347321],[-73.6005466442013,5.211834596213237],[-73.60359588988013,5.2081678314800115],[-73.60538322630407,5.201723527353863],[-73.59765467309467,5.211918324804003],[-73.59720653132399,5.207422184942857],[-73.60496422750907,5.197068598024714],[-73.61822023965209,5.1863887428597195],[-73.62293306309596,5.191385546022502],[-73.6243345967925,5.191221531038025],[-73.62386835031975,5.18894244070998],[-73.62990031275933,5.188758013198424],[-73.63170020440953,5.1944459965825445],[-73.63569531381506,5.200126492905156],[-73.63832508555845,5.200984016504776],[-73.6406162312897,5.2064835573377195],[-73.6399736120672,5.21370141787412],[-73.64539625933838,5.216195325161664],[-73.64771763099526,5.221351248950953],[-73.65541696409582,5.227810720547382],[-73.65042907855815,5.2381317953121425],[-73.66167773751232,5.242710508823109],[-73.65682864132094,5.247003636187969],[-73.6560830708886,5.2498843479058905],[-73.65942516146083,5.260778515065169],[-73.66351120883917,5.263766485110295],[-73.66265407399084,5.266542005670544],[-73.65658499094695,5.270436414098413],[-73.65357105992734,5.277661710274174],[-73.64939468649948,5.278058957509927],[-73.64819501961426,5.281149583601916],[-73.64375119045337,5.2834218245027955],[-73.63885674200384,5.289795680316388],[-73.63040527392229,5.291203626352058],[-73.61883680636873,5.298959336614644],[-73.61906533246702,5.302475944626394],[-73.6170322599877,5.305416661851552],[-73.61847393790953,5.310747240891544],[-73.61411947937506,5.312979733517523],[-73.61350284683817,5.315686409107116],[-73.60938471205321,5.31848759753575],[-73.60738438312677,5.325628591249824],[-73.59855173002472,5.339378878009541],[-73.59645404255878,5.346742400973596],[-73.59721755931315,5.356723745179011],[-73.59932298375213,5.359708327534463],[-73.5963138267627,5.364385468136675],[-73.59479757236005,5.362241192224644],[-73.59313913680762,5.348827473563631],[-73.59589670178997,5.338445418328092],[-73.59516962481092,5.328041349280454],[-73.59870836079187,5.322210537856222],[-73.59815769770029,5.3183251858932294],[-73.58698532861217,5.306210594793356],[-73.58208407907227,5.302994489458115]]]}}]}