{"type":"FeatureCollection","features":[{"type":"Feature","properties":{"code":"250807"},"geometry":{"type":"Polygon","coordinates":[[[-73.61823016000864,5.18639727481883],[-73.65562288605605,5.157738296556488],[-73.67528888011304,5.150751537338522],[-73.67478001601074,5.152753212496236],[-73.68309055867087,5.149153844686566],[-73.6910323265264,5.148298504470404],[-73.68933103063199,5.146668730582519],[-73.69023832262201,5.143344700489308],[-73.69127373695261,5.143600961625509],[-73.69577331284017,5.120804243531097],[-73.70112835852768,5.106915059438563],[-73.7061351087865,5.1019169408978655],[-73.71403709545694,5.097863041604171],[-73.71878026206889,5.090699480775925],[-73.72859566913075,5.082056179368237],[-73.73850670694867,5.084337795551107],[-73.73832896328503,5.096693689090671],[-73.74123866885452,5.097497790243665],[-73.75124386367037,5.107742841509037],[-73.75036165539336,5.113414489112188],[-73.75551673380289,5.1249625451670795],[-73.76262224522162,5.136703679991967],[-73.76974662444678,5.141454680250547],[-73.76713766940838,5.152181567120351],[-73.76415724813137,5.155903464600158],[-73.75813824406754,5.158835960455804],[-73.75848891828377,5.164313822748909],[-73.75570252297234,5.167577976918665],[-73.75085545795497,5.166997870546254],[-73.75404210561118,5.161526358885681],[-73.74881961176612,5.156693667380978],[-73.74155046588669,5.154942302790971],[-73.73426737844045,5.156111673816497],[-73.72334885981923,5.17050736276417],[-73.72268731828285,5.175961991512338],[-73.71589579550727,5.169919863946916],[-73.71649802779206,5.174494715656181],[-73.71317884886224,5.1872012525587365],[-73.7073719230155,5.194794880280369],[-73.70386075135093,5.196145816661897],[-73.69976187312375,5.2054449424940685],[-73.68344737577428,5.224798684947302],[-73.67934192477094,5.225052647514417],[-73.68030910091193,5.226311345971794],[-73.67735582126141,5.229416749754364],[-73.67422685997451,5.230404897895198],[-73.67303971334849,5.2336719389031146],[-73.66730863822283,5.23683085049305],[-73.66167773751232,5.242710508823109],[-73.65068859882865,5.2386903599276025],[-73.65572484070515,5.228543389168351],[-73.6544648752066,5.225994766681879],[-73.65100629912087,5.225044056934053],[-73.64771763099526,5.221351248950953],[-73.64539625933838,5.216195325161664],[-73.6399736120672,5.21370141787412],[-73.6406162312897,5.2064835573377195],[-73.63832508555845,5.200984016504776],[-73.63569531381506,5.200126492905156],[-73.63170020440953,5.1944459965825445],[-73.630157137482,5.189090524091398],[-73.62739685843985,5.187917525749128],[-73.62386835031975,5.18894244070998],[-73.6243345967925,5.191221531038025],[-73.62293306309596,5.191385546022502],[-73.61823016000864,5.18639727481883]]]}}]}