{"type":"FeatureCollection","features":[{"type":"Feature","properties":{"code":"250837"},"geometry":{"type":"Polygon","coordinates":[[[-73.52248993551274,5.029219534620381],[-73.52188463332703,5.017343888770029],[-73.51700692792167,5.012804285899563],[-73.51854557666019,5.004744748005919],[-73.50709019047531,4.996390801986138],[-73.51196988591693,4.991867002163474],[-73.51710050282117,4.9903924007113005],[-73.5187260395258,4.979464164336719],[-73.52994532616168,4.966694235265777],[-73.53270404402804,4.954751275795672],[-73.54087787068192,4.949793049511754],[-73.544484539405,4.943927902505607],[-73.54505982032515,4.93629865467733],[-73.54883738842693,4.925118238026528],[-73.54687080989862,4.923703762409275],[-73.54503339346621,4.917236794495352],[-73.55080597550347,4.919747943621758],[-73.56195780967983,4.917683130320938],[-73.59002713350941,4.919348483177714],[-73.5992755159877,4.921909797673322],[-73.60815555149344,4.92750908406083],[-73.6134900766674,4.938096210734557],[-73.61438989805094,4.948696022218371],[-73.62079135417645,4.960209044378814],[-73.61252194510331,4.971731552893118],[-73.60948740306713,4.978741997142265],[-73.59096565209961,4.996133314946519],[-73.58341169449125,5.012676253033533],[-73.58033746691518,5.016328822174671],[-73.57502892842683,5.020348703675154],[-73.57022533258936,5.01998269126716],[-73.56320125736306,5.025355820059474],[-73.55574257364117,5.025768068157788],[-73.547456517169,5.038697892272467],[-73.54219208549489,5.043451090312715],[-73.53977458942956,5.0526080668768145],[-73.54142550192495,5.072159498607846],[-73.53880608454085,5.071840808953937],[-73.53685870497748,5.068592888749322],[-73.53229066772832,5.066573665276906],[-73.52713016017071,5.061412758683673],[-73.52723094650912,5.046268822267734],[-73.52925901150184,5.039265952497658],[-73.5285879075069,5.035784007112625],[-73.52248993551274,5.029219534620381]],[[-73.53693662081116,5.011287090472024],[-73.5358355856772,5.012314466495866],[-73.54327495319171,5.011103614269814],[-73.54463826893584,5.007937598198964],[-73.54184843451259,5.00603106425865],[-73.53955560316405,5.00685430884073],[-73.53582147544586,5.008958555713036],[-73.53693662081116,5.011287090472024]]]}}]}