{"type":"FeatureCollection","features":[{"type":"Feature","properties":{"code":"250801"},"geometry":{"type":"Polygon","coordinates":[[[-73.67478001601074,5.152753212496236],[-73.67405489204407,5.148380042478607],[-73.67631473507038,5.145225268312913],[-73.67857180850098,5.144934783695078],[-73.6777897880088,5.143550010526212],[-73.68248584064054,5.139839377577346],[-73.68625545682471,5.141519046354006],[-73.68734587226118,5.1399046569378015],[-73.68423241268835,5.137569619336773],[-73.69130287992823,5.140077684164055],[-73.68933103063199,5.146668730582519],[-73.69082769217624,5.148482630648289],[-73.68309055867087,5.149153844686566],[-73.67478001601074,5.152753212496236]]]}}]}