{"type":"FeatureCollection","features":[{"type":"Feature","properties":{"code":"251017"},"geometry":{"type":"Polygon","coordinates":[[[-73.8736879570913,4.963344752248645],[-73.87756811336271,4.9591110349228416],[-73.88235931852466,4.957184643814344],[-73.88282169702512,4.954351521217063],[-73.89091517352193,4.950429256395125],[-73.9010377002594,4.938559244352916],[-73.90589328695143,4.926745343106006],[-73.91528267815505,4.914734735772356],[-73.92972060523692,4.920195038437896],[-73.93876988638578,4.931182564523681],[-73.9515469754736,4.940314055253737],[-73.95803147319026,4.943752390562224],[-73.96721394998661,4.944380620845436],[-73.96970435851273,4.950027253641224],[-73.97072752614974,4.964853398233572],[-73.97449776968392,4.964075748622122],[-73.99113366251953,4.972059220850213],[-73.98852651651157,4.98122054052709],[-73.98706766565653,4.979837885949848],[-73.9847997935795,4.980581343961262],[-73.98662777610866,4.9898913589428275],[-73.9846920457137,4.98909360122326],[-73.98277415879642,4.9933565273450995],[-73.97874312795062,4.992145833499194],[-73.98039350668432,4.994107293469085],[-73.9795857453044,4.995277662083822],[-73.97450502637429,4.996047772183147],[-73.97302024848341,4.994665089837952],[-73.97259560765275,4.996273531771067],[-73.97119625528273,4.9929296486234875],[-73.96429423150079,4.989635690189573],[-73.96493162932063,4.986457211452262],[-73.96196300325084,4.9789295274649135],[-73.96469330525042,4.9732058098170455],[-73.96242551853413,4.973616869035823],[-73.96306459682899,4.970345675176986],[-73.95897580967977,4.968517691619411],[-73.958734418794,4.969594324897685],[-73.95225376950924,4.968734010105038],[-73.95185427306973,4.971301572388882],[-73.94812682714257,4.971884668443749],[-73.94577669406226,4.9780543311090355],[-73.94402540763389,4.979624041896898],[-73.94354851883799,4.977375635151418],[-73.93916197084008,4.9819250174817284],[-73.93669657506445,4.991514544627876],[-73.94066557642822,4.992435527244709],[-73.943241244896,4.999726956388201],[-73.94434484702242,4.999171053382042],[-73.94560564761628,5.006947694506721],[-73.94188467264945,5.010650565799892],[-73.93681415586917,5.010472566054091],[-73.91418988187417,5.022940227641243],[-73.9142100362622,5.025663861219584],[-73.91207542051075,5.026782936263714],[-73.90582188218735,5.0220563553443185],[-73.90737553178843,5.0162941574911315],[-73.88987285422826,4.986844901371626],[-73.89433454640726,4.980955275376687],[-73.89562691915796,4.982471458816747],[-73.8960645235066,4.979469324032834],[-73.89445132605522,4.978522180923676],[-73.89891320026857,4.977764394651047],[-73.89861786757263,4.975846620862455],[-73.89211961546573,4.973577853011989],[-73.88540196777319,4.966366402757842],[-73.87975210258259,4.963768821265262],[-73.8736879570913,4.963344752248645]],[[-73.9134446004341,4.968465279103327],[-73.91442112306072,4.969966676625347],[-73.91753073934382,4.966330534796555],[-73.91664861128538,4.962612996884616],[-73.92099113885814,4.960983378291587],[-73.92004123335232,4.960045732849096],[-73.91481981731505,4.958607700755977],[-73.91187020817586,4.961024206431148],[-73.91043579414355,4.9596425556138115],[-73.90723392039581,4.963487826086521],[-73.9047033326774,4.963305938828],[-73.90582210947315,4.965835217339134],[-73.90262024395298,4.967481340377731],[-73.9072346331065,4.969284879913516],[-73.9134446004341,4.968465279103327]]]}}]}