{"type":"FeatureCollection","features":[{"type":"Feature","properties":{"code":"251001"},"geometry":{"type":"MultiPolygon","coordinates":[[[[-73.9403651107757,4.9205199841076706],[-73.93694574611789,4.920241715330064],[-73.93787879030856,4.917723696207645],[-73.93004651867113,4.919764794652394],[-73.92988801922394,4.9187681608323714],[-73.93299528037369,4.9132082493950975],[-73.93928949051332,4.912619404346572],[-73.93961501108242,4.910919884572422],[-73.9367897889806,4.910165617630128],[-73.93314390985802,4.912150613507038],[-73.93268890734737,4.910820598731675],[-73.93469434763313,4.909523727573344],[-73.93235339751601,4.90873320700382],[-73.93379608742532,4.90670319722625],[-73.9371135673681,4.907770721589145],[-73.9381658615257,4.905956462596919],[-73.93813673809046,4.904664949624134],[-73.93470699850451,4.904794308152589],[-73.93535278635841,4.90245678789131],[-73.93729422049563,4.903914191727665],[-73.94144911181615,4.901763937479302],[-73.94205164646303,4.899639794357995],[-73.9397071955276,4.898863277061821],[-73.9400383457911,4.89689051656552],[-73.94364645639058,4.89815566644279],[-73.94505058896141,4.90564699498708],[-73.94747341750116,4.9060763831083705],[-73.94790829339178,4.908728037023252],[-73.94311651950113,4.907619377016545],[-73.94290498121632,4.913324056136503],[-73.94429002383708,4.9139755641876945],[-73.94336973027674,4.915162694358571],[-73.94200220100362,4.913717426143933],[-73.9403651107757,4.9205199841076706]]],[[[-73.95784042353733,4.943589283692518],[-73.9607213070052,4.939987636854255],[-73.96550083831613,4.939964791032196],[-73.96652961199334,4.942136690910274],[-73.96548816996119,4.943394954336441],[-73.95784042353733,4.943589283692518]]]]}}]}