{"type":"FeatureCollection","features":[{"type":"Feature","properties":{"code":"251057"},"geometry":{"type":"Polygon","coordinates":[[[-73.79297715193684,5.075369445629349],[-73.79722657049462,5.058817642367785],[-73.79631220693386,5.054664538480381],[-73.79335544497695,5.053589353249151],[-73.79660500246206,5.047017108816817],[-73.79672895755351,5.04886778084483],[-73.79926678036509,5.05034568359747],[-73.79948630347758,5.046955409464772],[-73.80120810651579,5.047021292520981],[-73.79832817949944,5.041829508997978],[-73.8067703967406,5.032823397752281],[-73.80951966424868,5.016323224362054],[-73.80647240757764,5.007124843730594],[-73.80647607397526,4.998229069968943],[-73.812738247102,4.9802005199241535],[-73.81283653741036,4.9749175145781805],[-73.83438812014731,4.977517309279051],[-73.84726293698543,4.982599603783058],[-73.85602928742674,4.990198148488389],[-73.85197834284844,4.9952297016953935],[-73.85501027264058,5.0019897685280625],[-73.8473184348291,5.012036573099749],[-73.84557238008784,5.0232598819742975],[-73.853307781696,5.024580076152063],[-73.85715288658952,5.03036773721351],[-73.85229683401298,5.032266184510263],[-73.85580013089316,5.035657370871547],[-73.85232509664183,5.035256574480684],[-73.84941687202962,5.036949406293104],[-73.8511286004449,5.041596920551683],[-73.84640408772339,5.042580907614081],[-73.84221792352275,5.040171718278998],[-73.8397979982762,5.041156498270595],[-73.8401739186994,5.0365831974526145],[-73.83774802848626,5.036945132086032],[-73.83467699833795,5.045829759587605],[-73.83163571794643,5.048905445495166],[-73.8329584708892,5.050508794580935],[-73.83162593848652,5.050871127221626],[-73.83204195994045,5.055097718469256],[-73.83076700180686,5.056700068937346],[-73.82920717435161,5.056022379824981],[-73.83028174560258,5.0581207656033484],[-73.82757886290898,5.06475378996015],[-73.82399856859428,5.067943368677504],[-73.81990494776522,5.067887482082597],[-73.81731237273084,5.074561201909887],[-73.81041101332278,5.083160373877547],[-73.80573013536042,5.080145994456984],[-73.80081852323372,5.080289691530993],[-73.79925629950736,5.077261913561301],[-73.79297715193684,5.075369445629349]]]}}]}