{"type":"FeatureCollection","features":[{"type":"Feature","properties":{"code":"251047"},"geometry":{"type":"Polygon","coordinates":[[[-73.80260789803071,5.172076881233295],[-73.80027032326194,5.155900182840071],[-73.79106932832963,5.15078409680018],[-73.79642526361994,5.143974804594791],[-73.7923512880999,5.140735675516851],[-73.78460936308079,5.124539457284641],[-73.78811807471084,5.1156999269874746],[-73.79095504471161,5.115999183191548],[-73.79540009051999,5.1100948360703455],[-73.79847319195147,5.109968473394929],[-73.7992403535061,5.107425453863357],[-73.8026667105446,5.109108992669178],[-73.80328561079727,5.107777608008405],[-73.80203520364353,5.105696079431311],[-73.8036557842837,5.1000970378131],[-73.80156546663687,5.100814412465411],[-73.80188825154892,5.096221368636407],[-73.79573007041586,5.098224917616335],[-73.7924648785476,5.092724578712023],[-73.79134971981262,5.082645491329629],[-73.7929381348846,5.075318153087153],[-73.79925629950736,5.077261913561301],[-73.80081852323372,5.080289691530993],[-73.80573013536042,5.080145994456984],[-73.81041101332278,5.083160373877547],[-73.81731237273084,5.074561201909887],[-73.81990494776522,5.067887482082597],[-73.82399856859428,5.067943368677504],[-73.82757886290898,5.06475378996015],[-73.83028174560258,5.0581207656033484],[-73.82920717435161,5.056022379824981],[-73.83076700180686,5.056700068937346],[-73.83204195994045,5.055097718469256],[-73.83162593848652,5.050871127221626],[-73.8329584708892,5.050508794580935],[-73.83163571794643,5.048905445495166],[-73.83467699833795,5.045829759587605],[-73.83774802848626,5.036945132086032],[-73.8401739186994,5.0365831974526145],[-73.8397979982762,5.041156498270595],[-73.84221792352275,5.040171718278998],[-73.84640408772339,5.042580907614081],[-73.8511286004449,5.041596920551683],[-73.84933224149478,5.037191263063335],[-73.85232509664183,5.035256574480684],[-73.8541586440735,5.0364672703834685],[-73.85895339839055,5.03592522358332],[-73.87109198716814,5.047369657883792],[-73.87047424391329,5.0509436786990705],[-73.85325337708679,5.056204223888926],[-73.85476683104042,5.0638946136533605],[-73.85347464032401,5.068146579663221],[-73.84978395298936,5.074579296327556],[-73.84365351100797,5.077054826375729],[-73.83707069521495,5.09227379487254],[-73.83115106543795,5.095610612620021],[-73.83011079583025,5.09793875554243],[-73.83150927916631,5.102175875984528],[-73.83048196793436,5.105965568395163],[-73.83270748977691,5.106893331533513],[-73.83721920025778,5.10501640851021],[-73.8533800400674,5.119173316759202],[-73.84949864349426,5.1236707586285775],[-73.8530919126398,5.124207853477969],[-73.85360532657177,5.12765449448824],[-73.84895531216944,5.129757566879221],[-73.84428552287432,5.134990546724168],[-73.83907365284051,5.133504418488258],[-73.83477129623253,5.144548649809224],[-73.84582052681253,5.1439831154388],[-73.84481385230816,5.1498651330160214],[-73.84670157192102,5.151739963158832],[-73.84349981850107,5.162110945153756],[-73.84214600350896,5.164542970026503],[-73.83698007605932,5.164666478773938],[-73.83168452988525,5.173360259225774],[-73.82950177273949,5.173423814916532],[-73.82081993353376,5.18023523496953],[-73.81908489752567,5.179925928825128],[-73.8202268523305,5.1748386700290325],[-73.81461503025713,5.173377051635214],[-73.80848058969121,5.1668624544913655],[-73.80653166849248,5.167215420077525],[-73.80260789803071,5.172076881233295]]]}}]}