{"type":"FeatureCollection","features":[{"type":"Feature","properties":{"code":"251040"},"geometry":{"type":"Polygon","coordinates":[[[-73.79847319195147,5.109968473394929],[-73.79400903768112,5.109859073850487],[-73.79582362371804,5.105589421714569],[-73.79509223756486,5.103542280141539],[-73.79222876768574,5.1028488795128055],[-73.79493223762,5.102343762026635],[-73.7936564505618,5.101562120001347],[-73.79504549999461,5.101293632740521],[-73.79425073812808,5.098591722953529],[-73.80188825154892,5.096221368636407],[-73.80156546663687,5.100814412465411],[-73.8036557842837,5.1000970378131],[-73.80232236124982,5.101641673115466],[-73.8026667105446,5.109108992669178],[-73.79930348547856,5.107407453033943],[-73.79847319195147,5.109968473394929]]]}}]}