{"type":"FeatureCollection","features":[{"type":"Feature","properties":{"code":"251058"},"geometry":{"type":"Polygon","coordinates":[[[-73.7609084660919,5.050474992760712],[-73.7705183790257,5.037915763793876],[-73.7804535225078,5.029354013764134],[-73.77826712776084,5.028603576741716],[-73.769471060473,5.0311133384991535],[-73.75637922889365,5.027908611851899],[-73.74719944250296,5.027923760810211],[-73.74185698906564,5.023912202495069],[-73.74685442986276,5.017016796740677],[-73.74353043370814,5.0126575724036115],[-73.73653853227756,5.01081259074806],[-73.72710204252041,5.002392649571902],[-73.71807468365228,5.005685505515487],[-73.71094977786453,5.0021638663629915],[-73.70786894768753,5.002822243381729],[-73.70442128029157,4.9955272475995685],[-73.69999918109272,4.9913271521165825],[-73.70075225401325,4.983248417314826],[-73.69322432011438,4.972707483136844],[-73.69848776036991,4.969836069567691],[-73.70433503715884,4.961883461927982],[-73.71100148486903,4.964138901163437],[-73.70978307050518,4.957191632081276],[-73.71830889703773,4.948526009357124],[-73.72679683883325,4.9471334796748465],[-73.7328517818209,4.948377263658756],[-73.73938220052446,4.953206138613325],[-73.74756983196227,4.954064876803557],[-73.7542709515551,4.962811528456882],[-73.75392477471797,4.96768715023768],[-73.75776589851051,4.972270937055555],[-73.75830427479929,4.9776562230669015],[-73.76314702344342,4.9714235302449765],[-73.76610614361903,4.972694903227932],[-73.7701499384649,4.968334214388733],[-73.78399416110739,4.97276820341159],[-73.79451812187011,4.961595886774035],[-73.79834857762836,4.965376306746862],[-73.80536416614706,4.967897718701181],[-73.8098498642313,4.97501407710314],[-73.81283653741036,4.9749175145781805],[-73.812738247102,4.9802005199241535],[-73.80647607397526,4.998229069968943],[-73.80647240757764,5.007124843730594],[-73.80951966424868,5.016323224362054],[-73.8067703967406,5.032823397752281],[-73.79809544398591,5.0424089859635615],[-73.79561958483612,5.040073443397262],[-73.79334974534851,5.0439235948581995],[-73.79319624104659,5.042425706382062],[-73.79178118950159,5.043581834153258],[-73.79313734111514,5.04702312314862],[-73.79485440920399,5.045716993950748],[-73.79533454067916,5.047347136021074],[-73.79660500246206,5.047017108816817],[-73.79335544497695,5.053589353249151],[-73.79631220693386,5.054664538480381],[-73.79722657049462,5.058817642367785],[-73.79297715193684,5.075369445629349],[-73.79165542743664,5.074021205824124],[-73.78987075982104,5.0757249812933765],[-73.78656074945621,5.074046031398041],[-73.78265456433309,5.069538637290464],[-73.77533267580753,5.069105689729554],[-73.7609084660919,5.050474992760712]]]}}]}