{"type":"FeatureCollection","features":[{"type":"Feature","properties":{"code":"251201"},"geometry":{"type":"Polygon","coordinates":[[[-73.96306169662108,4.727269340771841],[-73.95427441428922,4.724895902155538],[-73.95679401207093,4.723216648869709],[-73.96212029839182,4.725027191070637],[-73.96352860129707,4.724184320719985],[-73.96608133035448,4.721179809205353],[-73.96448992971392,4.714956868075376],[-73.96731753266022,4.713036366857239],[-73.97542301828031,4.7189483316522],[-73.97327218604721,4.720903209589949],[-73.97504661037533,4.723848369686834],[-73.97249437805561,4.727915895843864],[-73.97026631287468,4.725937993134949],[-73.96981729075725,4.72850439019345],[-73.96518114798761,4.726156845702917],[-73.96306169662108,4.727269340771841]]]}}]}