{"type":"FeatureCollection","features":[{"type":"Feature","properties":{"code":"251260"},"geometry":{"type":"Polygon","coordinates":[[[-73.53194401163694,4.754720087279679],[-73.52657821461133,4.753515542491584],[-73.52653134128667,4.752271659777193],[-73.52876105814624,4.7491857737767305],[-73.53040723466387,4.7491905292949355],[-73.53121902239627,4.7473156446446865],[-73.52992574050234,4.745207364220846],[-73.5335832492529,4.741859983340248],[-73.53380802050754,4.738910328949601],[-73.53731159506725,4.747495926504428],[-73.53194401163694,4.754720087279679]]]}}]}