{"type":"FeatureCollection","features":[{"type":"Feature","properties":{"code":"251247"},"geometry":{"type":"Polygon","coordinates":[[[-73.59845268278264,4.78252999162612],[-73.58858804931958,4.779286803285572],[-73.5866109343977,4.774143484087801],[-73.57836373659762,4.7672830947443],[-73.5790480262541,4.765229206588401],[-73.57547091085519,4.7618485833602335],[-73.57362239649962,4.753583887639195],[-73.57155871037179,4.753015508596775],[-73.57107816649113,4.749199691689341],[-73.56837225914808,4.747116171019115],[-73.5696131470379,4.7419780135743395],[-73.5642887365961,4.731000179530838],[-73.55769106597938,4.729442143622464],[-73.54766798449123,4.722546799574616],[-73.53559722252623,4.719547120711411],[-73.53435396613327,4.715977676465286],[-73.54178083704272,4.7143580666748335],[-73.55269108390075,4.705450380463503],[-73.56061612722408,4.704883828963489],[-73.56289141745702,4.691799614029435],[-73.5581633103289,4.686968419937045],[-73.55772701415918,4.684353631572719],[-73.56177210689953,4.678873374036982],[-73.56219875319312,4.673201089827899],[-73.56567104767356,4.66982791149519],[-73.56798851536263,4.661887262585083],[-73.57083237798514,4.659654122040365],[-73.57747003444706,4.659628362640603],[-73.58179579326452,4.663079554509011],[-73.5856620233958,4.661608322234542],[-73.59123901829173,4.664057166256271],[-73.60125487188583,4.662951832232636],[-73.61124119683836,4.665554978627654],[-73.61698085431681,4.669250519182526],[-73.616553631067,4.674768594606576],[-73.63154266038543,4.69610015235105],[-73.63385981851332,4.708902831145622],[-73.63830598326712,4.711724769430532],[-73.6445039527843,4.711232465309649],[-73.6470534803002,4.708596394355823],[-73.65107424934655,4.712595810878611],[-73.65093262047037,4.718462820394166],[-73.65302635048954,4.721469711724751],[-73.64827830597471,4.743715454081041],[-73.64017922652312,4.749708504369494],[-73.63969537722818,4.764621459794796],[-73.63175588428754,4.77590564423889],[-73.63248924299342,4.779607448008733],[-73.63110200259098,4.7833914952983605],[-73.626240626796,4.787646857225411],[-73.62369460626911,4.7954343720729184],[-73.61874597124012,4.790165330919422],[-73.6148758690228,4.791342215745999],[-73.61304152866194,4.787964064893686],[-73.60689575877325,4.78858095454126],[-73.60412016827888,4.785882025180683],[-73.60064934035745,4.786508083393301],[-73.59845268278264,4.78252999162612]],[[-73.6105882839347,4.764378803924728],[-73.61295636333699,4.764097315093579],[-73.61314450455444,4.762440925113367],[-73.60805285225194,4.759137998660606],[-73.6105882839347,4.764378803924728]]]}}]}