{"type":"FeatureCollection","features":[{"type":"Feature","properties":{"code":"251267"},"geometry":{"type":"Polygon","coordinates":[[[-73.44772411124342,4.889925101643541],[-73.43718246229787,4.8870819414472635],[-73.4337723875613,4.882498102178829],[-73.42481698367402,4.879093964640958],[-73.41465875866828,4.879689804127054],[-73.41174743433027,4.881441693222655],[-73.40200492224568,4.879868699646295],[-73.39780941053101,4.870009382202625],[-73.39326709257233,4.865537806691066],[-73.39345573361288,4.8584278760548045],[-73.3909522967769,4.855844279323605],[-73.394547273137,4.853218883603176],[-73.39182626003026,4.85294822221482],[-73.39138071816228,4.848958385634148],[-73.38355576492177,4.84818683057307],[-73.3806697197009,4.846273657007828],[-73.37474283529036,4.839624753498583],[-73.37571743884325,4.832081610991736],[-73.37211176873785,4.829876045047797],[-73.37103701648095,4.826426956344335],[-73.36531011066126,4.824892227000305],[-73.36647194320312,4.82044914654557],[-73.3722850818711,4.811595417571027],[-73.37094222596244,4.805945398114034],[-73.37190183688028,4.80085610608711],[-73.37711408640939,4.803073502205336],[-73.37914812253939,4.799473908138339],[-73.38265694318437,4.799332260750248],[-73.38789766205929,4.791234500790381],[-73.39568079882696,4.783548952933302],[-73.39547454570828,4.7791015818164055],[-73.39686874763811,4.777487221196566],[-73.40044006262116,4.77669334790437],[-73.4031810655652,4.772361911055725],[-73.41283195781955,4.7692421347889535],[-73.4131118741621,4.766389522177519],[-73.41045407221782,4.761702947672063],[-73.41384663669203,4.753384939547686],[-73.41813738732623,4.748232619421003],[-73.42421623337486,4.745303026858608],[-73.42850513898316,4.744376855749238],[-73.43229326199048,4.747676958098793],[-73.4367881893179,4.748161568441162],[-73.44940393222959,4.738932365387427],[-73.4560312785552,4.739757861230146],[-73.46242500593513,4.7385264864336705],[-73.4678086207274,4.740542678057523],[-73.47468579322435,4.728834121206262],[-73.47857597063967,4.726346874112437],[-73.48576405159446,4.726192000953574],[-73.48952356024557,4.723636183483222],[-73.49511786588602,4.722949171539426],[-73.50152703327348,4.717838699767242],[-73.5191366174335,4.715958744895431],[-73.52136447281214,4.713894868505747],[-73.52554379375624,4.7158960860065235],[-73.52803455709505,4.714729316940577],[-73.53435396613327,4.715977676465286],[-73.53559722252623,4.719547120711411],[-73.54766798449123,4.722546799574616],[-73.55769106597938,4.729442143622464],[-73.5642887365961,4.731000179530838],[-73.5696131470379,4.7419780135743395],[-73.56837225914808,4.747116171019115],[-73.57107816649113,4.749199691689341],[-73.57155871037179,4.753015508596775],[-73.57362239649962,4.753583887639195],[-73.57547091085519,4.7618485833602335],[-73.5790480262541,4.765229206588401],[-73.57836373659762,4.7672830947443],[-73.5866109343977,4.774143484087801],[-73.58858804931958,4.779286803285572],[-73.5911602303388,4.779554275473629],[-73.59388486973393,4.78726061432468],[-73.59098987294936,4.7893502439434315],[-73.59090388898414,4.794597770079406],[-73.58348853765938,4.794735970128215],[-73.57873000714466,4.796530278363946],[-73.56033799420084,4.791800750956725],[-73.5437126994654,4.791820671888331],[-73.54247376767324,4.795489310443827],[-73.54493587963191,4.808296194539821],[-73.54444892649747,4.818595393303781],[-73.53731868000773,4.838227482696254],[-73.5373641567075,4.851813497360922],[-73.53164387919986,4.857861762671291],[-73.52937833448823,4.862692621491476],[-73.51911347336306,4.865674411625491],[-73.52424315952675,4.873693245821187],[-73.52047024409899,4.88062294499133],[-73.50895043216099,4.880068964144186],[-73.5035763715997,4.8839091571962285],[-73.49504739083397,4.883325862651986],[-73.48401085329152,4.891912747816889],[-73.47581043625627,4.890567660187969],[-73.46777368042126,4.891423907490434],[-73.45236351006207,4.8827327979037705],[-73.44772411124342,4.889925101643541]],[[-73.52657821461133,4.753515542491584],[-73.53194401163694,4.754720087279679],[-73.53731159506725,4.747495926504428],[-73.53380802050754,4.738910328949601],[-73.5335832492529,4.741859983340248],[-73.52992574050234,4.745207364220846],[-73.53121902239627,4.7473156446446865],[-73.53040723466387,4.7491905292949355],[-73.52876105814624,4.7491857737767305],[-73.52653134128667,4.752271659777193],[-73.52657821461133,4.753515542491584]]]}}]}