{"type":"FeatureCollection","features":[{"type":"Feature","properties":{"code":"251640"},"geometry":{"type":"Polygon","coordinates":[[[-73.89013666516098,4.489860027006898],[-73.88576191751253,4.484448459147018],[-73.8922397684052,4.482262347221763],[-73.89177064435029,4.479446696834373],[-73.89316231734,4.478903570169621],[-73.89398933424923,4.481038847209618],[-73.89830259234787,4.482611875753037],[-73.89759581065351,4.483835764516471],[-73.89972687416451,4.48560728349446],[-73.89825331863835,4.48769104996245],[-73.89511595806141,4.488220662892559],[-73.8953962117331,4.490572311897154],[-73.88828159551275,4.491279905032684],[-73.89013666516098,4.489860027006898]]]}}]}