{"type":"FeatureCollection","features":[{"type":"Feature","properties":{"code":"251628"},"geometry":{"type":"Polygon","coordinates":[[[-73.82204280619595,4.640930739774831],[-73.80593631751657,4.640050865033913],[-73.80264393671348,4.635878498418094],[-73.79767793848947,4.636410067445809],[-73.79230901499858,4.634610036955905],[-73.79215865567392,4.630362594036171],[-73.7987236279892,4.628660646109267],[-73.80214590313932,4.618878066932552],[-73.80940922494881,4.608146871917029],[-73.81199718124782,4.607102827925303],[-73.81661460842054,4.599683650794361],[-73.82209837294522,4.5979799267472],[-73.82407149236798,4.5946245507544745],[-73.82486976739415,4.584660025698042],[-73.84146126750846,4.57325519157672],[-73.84455043732584,4.568425551460962],[-73.85371716043971,4.561962185152709],[-73.85826697265901,4.555953942711426],[-73.86595045437502,4.551559674195516],[-73.86664949189725,4.545490314500626],[-73.87298547120133,4.541738183896143],[-73.87453188262396,4.5362246233347605],[-73.88030686813136,4.532197013088762],[-73.88536806208026,4.530879800365881],[-73.89372219836184,4.5318219370169],[-73.90388315285401,4.527798643144138],[-73.90691589717267,4.5281959983663],[-73.91442439865011,4.554255263174809],[-73.91651889074512,4.58228923737812],[-73.90921343981637,4.593083455351234],[-73.90185090929936,4.610501382048767],[-73.89328833960087,4.619069147438779],[-73.89056194876821,4.626211275524952],[-73.89113794548433,4.629144212582446],[-73.88801518879114,4.633334243727006],[-73.87896663166583,4.635905028121272],[-73.87288038494478,4.6400540017835965],[-73.8673512455361,4.6401122579100615],[-73.85724441077457,4.636477232969867],[-73.84692227568553,4.638686589752922],[-73.83703492804108,4.635999732250639],[-73.82977362300738,4.6396963393004285],[-73.82204280619595,4.640930739774831]]]}}]}