{"type":"FeatureCollection","features":[{"type":"Feature","properties":{"code":"251647"},"geometry":{"type":"Polygon","coordinates":[[[-73.7707816921922,4.44890569036005],[-73.77837055102589,4.447804519471731],[-73.78612686601264,4.439627692850991],[-73.8042290545987,4.425501588512361],[-73.80731369206995,4.420995892363294],[-73.81060216170619,4.408687290724515],[-73.81529687016348,4.400213403624491],[-73.82481551705126,4.3996295146404805],[-73.83215730079735,4.404030313766327],[-73.84067501086156,4.404590964063232],[-73.84536516229008,4.407689715879542],[-73.85413157958016,4.401621159398303],[-73.86141608936236,4.392640740703598],[-73.8671584598722,4.388615991584686],[-73.86980818031515,4.381134724293531],[-73.87141457873298,4.381330155111641],[-73.8775601336772,4.389149049797197],[-73.87870150329826,4.393293923059218],[-73.88232478445332,4.391886986954091],[-73.88777855342357,4.392885993391019],[-73.88874712516105,4.399237885786249],[-73.89211753801186,4.400232927577235],[-73.89463424587007,4.405983269545061],[-73.90262929733251,4.4121537436515155],[-73.90338607573148,4.417017437555955],[-73.9022378320006,4.419672983097314],[-73.90400629856123,4.423097343928873],[-73.90272954990922,4.426233301710226],[-73.9052318935108,4.433897349976462],[-73.9027758205666,4.437608950689707],[-73.9033709709962,4.447310629492563],[-73.90552139905134,4.45029875380402],[-73.90371727638865,4.452035719170283],[-73.90510827266314,4.456558735319788],[-73.9007844185212,4.459303383064082],[-73.90027871585119,4.46163806688088],[-73.90171069350322,4.464329309662105],[-73.90138971762156,4.468846811302797],[-73.90734257534791,4.474260523465318],[-73.91109260381592,4.486294919702914],[-73.91000110028727,4.4940157523943185],[-73.90698315422804,4.498583496537378],[-73.9041490237571,4.499717721568288],[-73.90338888749329,4.5051876843944],[-73.88151993870792,4.501169021598287],[-73.86912988339321,4.501323896814085],[-73.85859833478162,4.498071506998315],[-73.84868629114692,4.500549518678326],[-73.83722548815535,4.500239767218318],[-73.80377233664592,4.491411852150918],[-73.79246641195539,4.483203440003592],[-73.78518725315962,4.475614530776227],[-73.78116048520803,4.464463481301493],[-73.7707816921922,4.44890569036005]],[[-73.89013666516098,4.489860027006898],[-73.88828159551275,4.491279905032684],[-73.8953962117331,4.490572311897154],[-73.89511595806141,4.488220662892559],[-73.89825331863835,4.48769104996245],[-73.89972687416451,4.48560728349446],[-73.89759581065351,4.483835764516471],[-73.89830259234787,4.482611875753037],[-73.89398933424923,4.481038847209618],[-73.89316231734,4.478903570169621],[-73.89177064435029,4.479446696834373],[-73.8922397684052,4.482262347221763],[-73.88576191751253,4.484448459147018],[-73.89013666516098,4.489860027006898]]]}}]}