{"type":"FeatureCollection","features":[{"type":"Feature","properties":{"code":"251857"},"geometry":{"type":"Polygon","coordinates":[[[-73.78098969998649,4.284642320593605],[-73.75500687828202,4.266846310658252],[-73.75306183328314,4.264011628942114],[-73.75306556447259,4.255217276067924],[-73.75805554289082,4.2463719227292245],[-73.76049621799365,4.236335734769625],[-73.75890926536692,4.232152105679745],[-73.75510383984266,4.2289814914424255],[-73.75459927565856,4.214541832463283],[-73.75048283780376,4.2042321569553565],[-73.74282484603555,4.198429461092701],[-73.74604777817228,4.198148263310827],[-73.74858588894773,4.194560394516941],[-73.75444984810281,4.193483926817976],[-73.77818679611573,4.197188720270162],[-73.7895081957808,4.201308759730637],[-73.79423067527142,4.2014173354926925],[-73.80426631198583,4.198002676987869],[-73.80848452759761,4.2008956929921055],[-73.80955399057461,4.2045409889877305],[-73.81533931501468,4.1997219099482095],[-73.8156152152892,4.192857722566487],[-73.81860860419795,4.187049108017163],[-73.81993296871013,4.1791583241710555],[-73.8265321562796,4.168713446524293],[-73.83279741164853,4.170630350250519],[-73.83592892347292,4.174323735189887],[-73.8423290611351,4.177197467896917],[-73.84818655550043,4.1763785643707365],[-73.85322724333395,4.171593986492326],[-73.85676885792549,4.1706375627179],[-73.86085524983207,4.172142701713767],[-73.8669857257521,4.167084764842343],[-73.87216051014872,4.1676332826028215],[-73.87774763006126,4.156147108962784],[-73.891097050496,4.1493132688628975],[-73.89648898127444,4.1427435759964055],[-73.90006176075968,4.142608761580391],[-73.90626591635862,4.145995692246515],[-73.91523209935195,4.147621997197746],[-73.91840193711522,4.147149019568701],[-73.92157134396103,4.143155418888341],[-73.92487563412857,4.1429526038530184],[-73.9284493515533,4.1437660453210015],[-73.92918970778214,4.148979017845193],[-73.93362082950722,4.149490794496728],[-73.93742943394733,4.165332874718274],[-73.92642731014843,4.184629439881235],[-73.91440469060615,4.190087904719974],[-73.90833684889242,4.189811894402169],[-73.90393377382327,4.186359253458193],[-73.89805328142626,4.191536804365228],[-73.8998760240408,4.203870945317078],[-73.89911316240432,4.218777238491725],[-73.90261704549675,4.218621495270497],[-73.90547412052035,4.223357355826749],[-73.90908474360486,4.237090738076802],[-73.90698288683296,4.245954797756497],[-73.90798558023636,4.258451496389739],[-73.91054196746387,4.261573651444053],[-73.91761472504521,4.264572975494559],[-73.90142626126959,4.270355268086064],[-73.89355312446867,4.271192138503068],[-73.89002278983463,4.263600129549957],[-73.8687191069962,4.253786713552813],[-73.85895041693573,4.262996054296195],[-73.8560921777152,4.282134944822815],[-73.84180898598089,4.279760177458854],[-73.83600302481324,4.282504048729038],[-73.83590060016593,4.278756794998969],[-73.83124470101552,4.27850264216994],[-73.82703656619731,4.284445383107254],[-73.82810498633364,4.293505208877264],[-73.8243277452766,4.303693781164839],[-73.8158937596894,4.3133754516184695],[-73.81204375529575,4.313510867673358],[-73.80409013875396,4.320676322892723],[-73.806385169941,4.323462416870541],[-73.804290489641,4.324037016961711],[-73.80257796006902,4.329654957239654],[-73.80195593540793,4.340024276243014],[-73.79901995827436,4.34375626377232],[-73.79182714648397,4.347955152892268],[-73.78953271796422,4.343601174640526],[-73.78659094144325,4.341797061233763],[-73.78598280692688,4.336081642088573],[-73.78357589867727,4.333011721629816],[-73.78244040043455,4.319720271414496],[-73.78488119586513,4.290408783397879],[-73.78098969998649,4.284642320593605]],[[-73.8139356401008,4.214066967642225],[-73.81749597543154,4.222512931499466],[-73.82043104753569,4.226797479596769],[-73.81821899623327,4.221713424399184],[-73.81652299784628,4.209305572915127],[-73.81481068527563,4.209933063748167],[-73.81530592868518,4.214805735955792],[-73.8139356401008,4.214066967642225]]]}}]}