{"type":"FeatureCollection","features":[{"type":"Feature","properties":{"code":"251820"},"geometry":{"type":"Polygon","coordinates":[[[-73.9497931282234,4.410473368334806],[-73.94356107406423,4.404105784992112],[-73.94106298615782,4.404794405420034],[-73.9399452048944,4.403424890224414],[-73.94182902773855,4.401072753738049],[-73.94508638184641,4.402282773954084],[-73.94708034574211,4.3964317382077525],[-73.94858189753046,4.397001375035359],[-73.94771848301207,4.398849757750327],[-73.94925076671984,4.402988174450172],[-73.95066943632565,4.4029761838388595],[-73.94957908259573,4.405226888124901],[-73.95118980869972,4.408023101977108],[-73.9497931282234,4.410473368334806]]]}}]}