{"type":"FeatureCollection","features":[{"type":"Feature","properties":{"code":"251807"},"geometry":{"type":"Polygon","coordinates":[[[-74.04693589840332,4.5104656627133295],[-74.0362362385207,4.501254800903439],[-74.03877812162335,4.496277860051066],[-74.0266821864708,4.4840383286118595],[-74.02120493610096,4.483869489203528],[-74.01151786221038,4.479959157400174],[-74.00606753029501,4.481165320956791],[-74.00170958019828,4.478451355766595],[-73.98814740791653,4.476445582265455],[-73.98808245560082,4.4735116548177984],[-73.98410900108098,4.472487574952254],[-73.98491893453149,4.462895764663699],[-73.97597306944857,4.457520103845866],[-73.97577243471136,4.4547223535005855],[-73.97985551811837,4.452112312426891],[-73.98160098767579,4.4455381982860445],[-73.98686879675512,4.4385344317141175],[-73.98492751688434,4.43136411710384],[-73.98953989440423,4.418599221230579],[-74.00180083698825,4.425444013214815],[-74.00406640843943,4.429319223706159],[-74.00644831833671,4.429878442411052],[-74.01026577252463,4.428936080531116],[-74.01917923138382,4.430158831837161],[-74.02518851563741,4.426615528542982],[-74.03462348844187,4.426738261844719],[-74.0372176801879,4.424229169603336],[-74.04788426535907,4.432840193342599],[-74.05564587065419,4.441035307728214],[-74.05666706573845,4.444313260511251],[-74.06442899499297,4.448410899465216],[-74.06984270201332,4.457698563305485],[-74.0725835599469,4.455416526489614],[-74.07671255919865,4.455960448140502],[-74.07301687157644,4.463353816506412],[-74.07707181782462,4.465075243134663],[-74.07502788910602,4.469303521028053],[-74.07528456778982,4.484505180837232],[-74.06887002473326,4.486803862995259],[-74.0650409059503,4.486419910435984],[-74.05915219629759,4.497046859432487],[-74.05650467775007,4.507916682328869],[-74.05056584386591,4.5113600117542205],[-74.04693589840332,4.5104656627133295]],[[-74.04319881391285,4.445035851423995],[-74.04591365327917,4.445657116066002],[-74.04787384517948,4.44472636427372],[-74.04411924322761,4.438666670910038],[-74.04135076544173,4.441929437710883],[-74.04319881391285,4.445035851423995]]]}}]}