{"type":"FeatureCollection","features":[{"type":"Feature","properties":{"code":"251808"},"geometry":{"type":"Polygon","coordinates":[[[-74.0372176801879,4.424229169603336],[-74.0504502222442,4.4168939462920775],[-74.05469401213605,4.410548654440959],[-74.0576762424435,4.408917025242829],[-74.05945079429847,4.401297117729484],[-74.05777228251964,4.399141399365988],[-74.05941551049256,4.3950042034274475],[-74.05865090667447,4.392290127165438],[-74.06435060093355,4.387220462963967],[-74.07141406345141,4.376701707148868],[-74.07417320297924,4.3698956298547955],[-74.07523747849223,4.359884316834439],[-74.08093850766966,4.355551544038974],[-74.08496822930817,4.3350252763270305],[-74.08093850766966,4.328432835340493],[-74.07967732038145,4.319282846014858],[-74.0862658656277,4.309522997474744],[-74.08930451732016,4.3094732455394364],[-74.093252950862,4.304787703590307],[-74.09720029014096,4.304108819427711],[-74.09981768869238,4.300081165987137],[-74.10963014206737,4.303951895554462],[-74.11015731553181,4.308632273693718],[-74.11519127837965,4.312977334320408],[-74.11427949209582,4.317993071109925],[-74.11099169506099,4.323673664106082],[-74.10690102483352,4.324895545349705],[-74.10424543712605,4.332681692368624],[-74.10522633988933,4.336635326744272],[-74.09883185557567,4.344838994686313],[-74.09770485638194,4.357249201303716],[-74.09439282101386,4.3640897715314395],[-74.09520212300066,4.369790913837562],[-74.09862614855996,4.374071773940045],[-74.09848263249177,4.378048045363926],[-74.10500128169917,4.378450463608601],[-74.11117047950847,4.385825733443141],[-74.11372762161272,4.386387654894975],[-74.1130298213069,4.394208550929704],[-74.11462185032588,4.3975836473077266],[-74.11467160226118,4.405994752105755],[-74.11310687736261,4.409455176302686],[-74.11434495966125,4.413053654509554],[-74.1128256847229,4.417843413681339],[-74.11303444826979,4.430597649747938],[-74.10941302551032,4.442445919486886],[-74.10544461755796,4.446793995507051],[-74.10460464741521,4.450838918554382],[-74.09316900321295,4.455941691405826],[-74.09001709737345,4.459035027443861],[-74.08453139731989,4.456661797601441],[-74.0813455744746,4.458076240308515],[-74.07956361886187,4.4616281958896025],[-74.07683017908414,4.461714457534299],[-74.07688670331345,4.464434918367431],[-74.07336110671412,4.463767409807531],[-74.07671255919865,4.455960448140502],[-74.0725835599469,4.455416526489614],[-74.06984270201332,4.457698563305485],[-74.06442899499297,4.448410899465216],[-74.05666706573845,4.444313260511251],[-74.05564587065419,4.441035307728214],[-74.04788426535907,4.432840193342599],[-74.0372176801879,4.424229169603336]]]}}]}