{"type":"FeatureCollection","features":[{"type":"Feature","properties":{"code":"252008"},"geometry":{"type":"Polygon","coordinates":[[[-74.40471126548908,4.280703933906807],[-74.40180598839316,4.280183497769315],[-74.39910020960542,4.276032738730748],[-74.38958956708575,4.270468963434951],[-74.37431627008448,4.266191948679079],[-74.37074815150078,4.266462903173533],[-74.36701926678256,4.262828997178758],[-74.36589537348522,4.2532183437663775],[-74.3610036061853,4.243723779917104],[-74.34878877073629,4.2371108574977825],[-74.3376170475101,4.228034823473706],[-74.33354885389383,4.227309322068606],[-74.33233662458326,4.228524316861126],[-74.32680499531529,4.226893826148853],[-74.32481187885622,4.224328479130122],[-74.32299600315235,4.208718957529982],[-74.31914575501781,4.202361721347472],[-74.31217644641254,4.196435508509865],[-74.30431136540182,4.197567612892271],[-74.29708096712272,4.195599966840632],[-74.2833895833798,4.1973410336356665],[-74.27932043228361,4.196534978441832],[-74.27465002180924,4.193226931373829],[-74.26553832448394,4.193410006483475],[-74.252167731503,4.197616434087081],[-74.24943328488007,4.201811910834749],[-74.24360661807918,4.198220761309301],[-74.24492527165006,4.190067747246644],[-74.24067575127646,4.186261232601737],[-74.24488205135322,4.183771244708623],[-74.24875332290969,4.186308149121032],[-74.25187978508131,4.185929928071914],[-74.25593044478103,4.182468318080737],[-74.25919156504534,4.185188443641607],[-74.261852159211,4.181028553061992],[-74.27326796064335,4.181539605689977],[-74.28438429709769,4.177725658490999],[-74.29790421376168,4.17600213486844],[-74.31114325043245,4.180315890733311],[-74.31601899974015,4.175497861733561],[-74.31604446089159,4.179614714050672],[-74.32238691938352,4.1849776067546145],[-74.3293339210706,4.186370325670396],[-74.33638650883734,4.183435287504778],[-74.34773011154795,4.1834360033008124],[-74.35565711096888,4.192608024950516],[-74.3584746639749,4.1912093091864335],[-74.39239397865327,4.203362794953875],[-74.40073174315842,4.197929634943307],[-74.40988040682163,4.1988391668811005],[-74.41665423421517,4.201485328912952],[-74.42192567781035,4.218460738391968],[-74.43377254681064,4.227513705478771],[-74.43733676965405,4.227810499591499],[-74.44210433812162,4.225603193522829],[-74.44408484587541,4.231668622510426],[-74.4410818945081,4.242166226348218],[-74.44189482484018,4.246564322727181],[-74.44098934085207,4.248986091971119],[-74.43183117026621,4.252049778011383],[-74.43443517849607,4.261525791842985],[-74.43152999087465,4.264080213716795],[-74.42945233232672,4.269953497760184],[-74.42529851264328,4.273133418373902],[-74.42442233309635,4.276772833735208],[-74.4197533285029,4.272456909913501],[-74.42358741363483,4.270556266891958],[-74.41329683013385,4.267235818864037],[-74.40920855206366,4.2704370786315735],[-74.4086954044983,4.272653721929885],[-74.41050348460783,4.283696661527017],[-74.40786273218367,4.2842062054297685],[-74.40471126548908,4.280703933906807]]]}}]}