{"type":"FeatureCollection","features":[{"type":"Feature","properties":{"code":"252017"},"geometry":{"type":"Polygon","coordinates":[[[-74.47649187593925,4.2297922095946205],[-74.46128491759418,4.210510603128057],[-74.46203356204126,4.205741198890621],[-74.4586957107091,4.205337025094536],[-74.44483414852573,4.196199460382957],[-74.44306671554983,4.185574747220528],[-74.43955567346904,4.18293807154248],[-74.43940355653609,4.172747227425361],[-74.43264743789422,4.165160941754891],[-74.43030895501073,4.159740689726334],[-74.43181205151978,4.156223976813465],[-74.42694640871679,4.151321431436031],[-74.42748969684703,4.146374077846417],[-74.43478176259646,4.1406550828066315],[-74.43750955622477,4.1243006726314775],[-74.44145270768581,4.119675647325437],[-74.44190415178537,4.108408952574848],[-74.44029028173259,4.099395483851367],[-74.45007118866175,4.089592904553001],[-74.45242986090034,4.091458067336134],[-74.45847547180057,4.090123655968966],[-74.46390929618502,4.099592491271778],[-74.46851154868835,4.101340649177985],[-74.4737951865265,4.106004245192253],[-74.47548455351608,4.105274883013919],[-74.47785018933894,4.109660120776084],[-74.4762474943426,4.112634364198868],[-74.47478212110514,4.128214460001686],[-74.4754986339226,4.133843939404699],[-74.47915930204857,4.135404273882102],[-74.48369368248791,4.1471742318370275],[-74.48078253915577,4.150810988674436],[-74.483078990622,4.151581854679023],[-74.48444251719684,4.156388069959576],[-74.48297732496525,4.176398080095964],[-74.48749764453845,4.182043084867189],[-74.4916576132797,4.1820335635463834],[-74.50057057128737,4.186724385519426],[-74.50034532694912,4.193984285700594],[-74.50796224375159,4.198022349036364],[-74.51347906241887,4.215544491928085],[-74.51171420260619,4.21854886665983],[-74.51384481360247,4.220328553528304],[-74.51284271566732,4.222265999365391],[-74.5196026518878,4.2403915551939235],[-74.50758905487174,4.243419196380728],[-74.49353189114885,4.242430434259745],[-74.48830065759927,4.239937922568629],[-74.48288723957126,4.241089215631575],[-74.47649187593925,4.2297922095946205]],[[-74.48764764905042,4.193413600890096],[-74.48835355554019,4.191322462546111],[-74.49095139722874,4.191447599317996],[-74.49058701695901,4.189778829975182],[-74.48858883027833,4.187982560499506],[-74.48658274927288,4.190131696830861],[-74.48260537947237,4.188014781603613],[-74.48397928714598,4.190927568386883],[-74.48229897764963,4.191961565523627],[-74.48764764905042,4.193413600890096]]]}}]}