{"type":"FeatureCollection","features":[{"type":"Feature","properties":{"code":"252218"},"geometry":{"type":"Polygon","coordinates":[[[-74.34382494766822,4.322022473931213],[-74.35177711924825,4.295283861132589],[-74.34904765337245,4.2920926286795975],[-74.34822544031823,4.288225302228625],[-74.34270920992009,4.286766529535214],[-74.33846335183028,4.282733318391308],[-74.33699199922802,4.277003887745195],[-74.3279062793323,4.265673847106086],[-74.32810236423978,4.263234188104491],[-74.33577751968522,4.252799917813888],[-74.33323260164872,4.248600812721008],[-74.33574999033584,4.244380261516312],[-74.33083337277941,4.2403887640008975],[-74.33438573150994,4.2300315847330126],[-74.33118657182206,4.228799942541457],[-74.32887964155503,4.2267534200908585],[-74.33233662458326,4.228524316861126],[-74.33354885389383,4.227309322068606],[-74.33771501797287,4.228086219888553],[-74.34878877073629,4.2371108574977825],[-74.3610036061853,4.243723779917104],[-74.36589537348522,4.2532183437663775],[-74.36701926678256,4.262828997178758],[-74.37074815150078,4.266462903173533],[-74.37431627008448,4.266191948679079],[-74.38958956708575,4.270468963434951],[-74.39781337810297,4.275087166053311],[-74.40180598839316,4.280183497769315],[-74.40523153810426,4.280829752536079],[-74.40913803690233,4.284623189505908],[-74.4057457737618,4.29242598700921],[-74.4085780355527,4.295244891388677],[-74.40794120234784,4.299852277877051],[-74.397959517728,4.316110043251854],[-74.39345315514822,4.316482870119955],[-74.38918067890916,4.31991358981162],[-74.38959189959337,4.321756753180807],[-74.3956687103543,4.325738580251198],[-74.38703095636555,4.325547631385575],[-74.37805236624166,4.321946533735627],[-74.35938287333562,4.322190211877569],[-74.35469417406796,4.324575722352165],[-74.35407284771935,4.3266825783830996],[-74.35918264071944,4.330360391674333],[-74.35663194592132,4.333967636325212],[-74.3585168496586,4.333320374713196],[-74.35899375902335,4.336512929743208],[-74.3563201036377,4.338808041148809],[-74.35455183145274,4.337901033008961],[-74.35243989594414,4.339223727330477],[-74.3523979005223,4.33439125179865],[-74.34746133632319,4.329268591954246],[-74.34720775016604,4.324304114796689],[-74.34382494766822,4.322022473931213]]]}}]}