{"type":"FeatureCollection","features":[{"type":"Feature","properties":{"code":"252212"},"geometry":{"type":"Polygon","coordinates":[[[-74.35595024999691,4.338925740224454],[-74.35899375902335,4.336512929743208],[-74.3585168496586,4.333320374713196],[-74.35663194592132,4.333967636325212],[-74.35918264071944,4.330360391674333],[-74.35414449622431,4.326317234462749],[-74.35469417406796,4.324575722352165],[-74.35938287333562,4.322190211877569],[-74.37805236624166,4.321946533735627],[-74.38703095636555,4.325547631385575],[-74.39855424649613,4.326409294466373],[-74.4002374777977,4.325749618524696],[-74.39999620826813,4.3240881120429435],[-74.41492222388501,4.323878139047679],[-74.41869516399538,4.328408448911489],[-74.40110912911223,4.331571485584391],[-74.39893929948892,4.338497369232755],[-74.38282152365292,4.334207978199629],[-74.38007750325852,4.334822822274987],[-74.37803167192129,4.331413259702856],[-74.36988644419694,4.333542473045782],[-74.36095974311189,4.340981180300162],[-74.35595024999691,4.338925740224454]]]}}]}