{"type":"FeatureCollection","features":[{"type":"Feature","properties":{"code":"252237"},"geometry":{"type":"Polygon","coordinates":[[[-74.43100938812944,4.365273877052914],[-74.4230282226979,4.363247210741974],[-74.42041378708933,4.359134943221591],[-74.42328831683932,4.34696123107517],[-74.42820478012942,4.3419740356224],[-74.4328863389207,4.340500113970677],[-74.43780115464585,4.3322127472627585],[-74.43764576623727,4.328640278367175],[-74.44034661672845,4.323847910036704],[-74.44673158897729,4.318501586570221],[-74.4501940433197,4.312428678748631],[-74.45966873765957,4.302658172458678],[-74.47685488015287,4.292303724734154],[-74.4798448916564,4.292142759081742],[-74.48403993748667,4.288091022602714],[-74.49048912054411,4.28605349696727],[-74.49218542540694,4.287131522756681],[-74.49470617298738,4.284390710074547],[-74.50231235387838,4.281564041982506],[-74.50466955955795,4.282517319751264],[-74.5149413575279,4.276555107311765],[-74.52526551144962,4.272835933147803],[-74.53280180967147,4.273215282398382],[-74.53343793222257,4.271211913395803],[-74.5370138073198,4.269941521547025],[-74.53735258862673,4.26781002300487],[-74.5403449789178,4.267126622951196],[-74.543855038836,4.26131729157737],[-74.5485836272752,4.259252486504124],[-74.549696723983,4.262695036370076],[-74.55572104509469,4.267171506239549],[-74.55443808259298,4.268207158140342],[-74.55433885434496,4.276238407694109],[-74.55118288101534,4.287468196784914],[-74.54234417038685,4.304740382893158],[-74.53159810306403,4.31242594720527],[-74.51663614646645,4.328383531806139],[-74.50815664098496,4.333769464707814],[-74.50711492333016,4.343604206489033],[-74.50301069514501,4.35024570212687],[-74.4985993400851,4.3534708413012595],[-74.48888112598348,4.355407425303497],[-74.48286441431799,4.360745407072727],[-74.48115453092856,4.35987424426844],[-74.47266577049282,4.362728390287657],[-74.46262241428889,4.351213402773567],[-74.46166960960363,4.364404163324082],[-74.45373522596543,4.383008373784321],[-74.45121637277612,4.377898107700673],[-74.44572609512488,4.374814323836745],[-74.4398395945667,4.367238603356213],[-74.43391091038177,4.367929249815916],[-74.43100938812944,4.365273877052914]],[[-74.45157527041874,4.346172949424954],[-74.45277979463799,4.3501761156491625],[-74.4539802164,4.34901523441664],[-74.45371896526075,4.345485206258502],[-74.45157527041874,4.346172949424954]]]}}]}