{"type":"FeatureCollection","features":[{"type":"Feature","properties":{"code":"252410"},"geometry":{"type":"Polygon","coordinates":[[[-74.77452725706036,4.302472537555616],[-74.76636622628831,4.2998669280407285],[-74.77064217454927,4.287453950799147],[-74.7687001089484,4.2864644358582495],[-74.76804420739074,4.288897460377143],[-74.76640052896005,4.288500444541],[-74.76487946144641,4.29114796617381],[-74.76567112050185,4.289429697892558],[-74.76017831905273,4.2870100266712825],[-74.76096149551427,4.281395601609859],[-74.75649285929137,4.278971184126419],[-74.75460104030662,4.279944314949603],[-74.75212596997221,4.2764333973103135],[-74.7594054815238,4.272456765931565],[-74.75456461595797,4.262704780862919],[-74.75149702286461,4.260098628330411],[-74.7633189264227,4.254909114580016],[-74.7658386239633,4.2516543881428674],[-74.76782005628695,4.252773886905288],[-74.76596139120363,4.259985269282254],[-74.76833195429464,4.26058901749127],[-74.77043288135451,4.258697808372972],[-74.7716982739442,4.259829800655098],[-74.76882854907768,4.265745622109478],[-74.78070118879054,4.2669160544876945],[-74.77711483283565,4.273341768486887],[-74.77735910336048,4.282198086051267],[-74.78428921082235,4.285087617692284],[-74.78529020729553,4.287585803300715],[-74.79701873650049,4.2885117172994],[-74.79328827312298,4.292576534538853],[-74.79489259305853,4.303889978172606],[-74.79013740703891,4.308478395038719],[-74.78635824073746,4.3031225492229055],[-74.78318165536285,4.3022393320438255],[-74.78281900287658,4.299678953430941],[-74.78149969007404,4.305559468453623],[-74.77776802650413,4.307163992020776],[-74.77578802063027,4.306563916379957],[-74.77735242876855,4.303942417428175],[-74.77666523890417,4.300452088179725],[-74.77452725706036,4.302472537555616]]]}}]}