{"type":"FeatureCollection","features":[{"type":"Feature","properties":{"code":"252417"},"geometry":{"type":"Polygon","coordinates":[[[-74.74829217383268,4.374128519284454],[-74.73815444877164,4.379683403694685],[-74.73785965189433,4.3818821356380795],[-74.73574694711073,4.382352528791046],[-74.73043171243313,4.373105474032059],[-74.73190354017584,4.371851239015257],[-74.72804501102212,4.360646885364758],[-74.72373397847304,4.358764646322072],[-74.72753682774879,4.349712022735048],[-74.72333550019164,4.347623391733919],[-74.72226580375815,4.349034377845669],[-74.71223320917676,4.342801787867984],[-74.71254467813577,4.340926321119298],[-74.70267846807036,4.334160455927702],[-74.69820927031788,4.339692575762797],[-74.6961833496278,4.340155402664152],[-74.69263071630309,4.333866874669411],[-74.6905588437728,4.333883246445907],[-74.68746274636658,4.329536221493981],[-74.68353985213787,4.328327645211232],[-74.67671211173058,4.340374503086764],[-74.67558752114923,4.3407986934596465],[-74.67491325469354,4.338948877095788],[-74.66836538640575,4.3418996504319125],[-74.66412397530144,4.3402153557207725],[-74.66329873039865,4.335260041986089],[-74.66363348946697,4.3320117587413165],[-74.66500918148836,4.331599252503906],[-74.66379826241354,4.3302935264555344],[-74.66516726955854,4.321905941109435],[-74.66270805986466,4.316004086932878],[-74.6635264296292,4.312736201573671],[-74.6607119537232,4.310448297493281],[-74.66354702316221,4.307257460990684],[-74.66175158569655,4.30572439566663],[-74.6688829984401,4.298320297559883],[-74.66900982288615,4.2948438594845015],[-74.67179562375787,4.295036688342975],[-74.67218151390284,4.292435478505183],[-74.67531458381762,4.2895998670770155],[-74.67531223279803,4.285096609365212],[-74.68092190131279,4.2816774781638856],[-74.68235400649166,4.282997155035048],[-74.68382064574183,4.276628261456551],[-74.68739683759935,4.271860519182212],[-74.6916513469476,4.2699361438210985],[-74.69157101530243,4.265878306621062],[-74.69499159352239,4.261648701008369],[-74.69223496853652,4.261892219741753],[-74.69217557495267,4.260814495285956],[-74.7012701260843,4.260754644045164],[-74.7015551260182,4.258840764968397],[-74.69874664696056,4.256855342287793],[-74.7012977953018,4.255246519830905],[-74.70698463197255,4.258567328842162],[-74.7114391209401,4.254879959263064],[-74.71449750535913,4.2560704997493986],[-74.7143868171762,4.254300497724103],[-74.72038507241223,4.249528938899573],[-74.72405456251812,4.250430146623671],[-74.72491380053145,4.247937057976287],[-74.73073606354143,4.24490063800414],[-74.73487611135113,4.247770406065229],[-74.74375220895047,4.24068700616067],[-74.74407281150752,4.236392638494181],[-74.74623184042747,4.237907091065551],[-74.74649157564244,4.243433593547593],[-74.74465800969887,4.247978494953827],[-74.74896743993446,4.253958681483255],[-74.74761527867793,4.2566070752353085],[-74.75456461595797,4.262704780862919],[-74.7594054815238,4.272456765931565],[-74.75212596997221,4.2764333973103135],[-74.75269310768454,4.27799566320283],[-74.75460104030662,4.279944314949603],[-74.75649285929137,4.278971184126419],[-74.76096149551427,4.281395601609859],[-74.76017831905273,4.2870100266712825],[-74.76567112050185,4.289429697892558],[-74.76487946144641,4.29114796617381],[-74.76640052896005,4.288500444541],[-74.76804420739074,4.288897460377143],[-74.7687001089484,4.2864644358582495],[-74.77064217454927,4.287453950799147],[-74.76636622628831,4.2998669280407285],[-74.77126976411279,4.30047970186132],[-74.77544061171903,4.304022160804209],[-74.77453172872845,4.3062581789311025],[-74.76429590979154,4.312314071171215],[-74.76104762448983,4.31123358946104],[-74.76209240690332,4.320568485552428],[-74.77027108574902,4.3262188680496365],[-74.77168449384288,4.325914087052297],[-74.77050569714169,4.32418577705829],[-74.77524940779972,4.324695175950694],[-74.77739194358702,4.327455760440273],[-74.77133320153268,4.328355389505077],[-74.77079361888082,4.330597307806727],[-74.7670484580313,4.331137615510556],[-74.76540874630336,4.333359018440831],[-74.76813816075708,4.334573340631948],[-74.76913969099195,4.338868743940054],[-74.76532258853138,4.339588273179402],[-74.76575209698046,4.3420225811946125],[-74.76903337163282,4.340837846266311],[-74.76989075742114,4.3419826344302805],[-74.77041211504314,4.349428668309201],[-74.76723673706005,4.349466598297681],[-74.76741555647459,4.350469024306051],[-74.775872511297,4.353396679282753],[-74.7721295040061,4.35766026875001],[-74.76923858191077,4.3560160586145],[-74.76747435253338,4.36067117512016],[-74.77485556676561,4.368594641841071],[-74.76746938207066,4.367580221107687],[-74.7679384732154,4.377567225860673],[-74.76590746893396,4.374334153280699],[-74.75987078388636,4.38140014679567],[-74.75459274797458,4.381928828985281],[-74.75321072177576,4.38534023041268],[-74.75320707697546,4.378739768602941],[-74.74484061892406,4.382293617546679],[-74.74588474107742,4.378112202693558],[-74.74918207691655,4.37640644644398],[-74.74829217383268,4.374128519284454]]]}}]}