{"type":"FeatureCollection","features":[{"type":"Feature","properties":{"code":"252431"},"geometry":{"type":"Polygon","coordinates":[[[-74.77593956472077,4.324891448034748],[-74.77050569714169,4.32418577705829],[-74.77168449384288,4.325914087052297],[-74.77027108574902,4.3262188680496365],[-74.76223731959641,4.320813067695383],[-74.76104762448983,4.31123358946104],[-74.76422725302587,4.312345222695114],[-74.77453172872845,4.3062581789311025],[-74.77548483063356,4.304352173610255],[-74.77418702667791,4.3029732461087065],[-74.77605143047043,4.300277446298708],[-74.77741711368918,4.303263047840744],[-74.77578794144023,4.306475749031279],[-74.77685885863497,4.30722246720552],[-74.78142659969268,4.305658446790119],[-74.7826821840261,4.299661550126643],[-74.78318165536285,4.3022393320438255],[-74.78635824073746,4.3031225492229055],[-74.78994039859003,4.308521525861067],[-74.79489259305853,4.303889978172606],[-74.79497393566265,4.301359972552632],[-74.79855679285612,4.299947323449317],[-74.80327817705546,4.304340933761978],[-74.80543814905724,4.315109279206638],[-74.80135541429223,4.329635667771811],[-74.8007214658686,4.327577375825001],[-74.7966248584425,4.326111855520196],[-74.79050021996221,4.320868489434247],[-74.78833233615217,4.321704867227254],[-74.78872891078646,4.324361100796693],[-74.7849075855409,4.325280220904119],[-74.78499922902529,4.329414802541805],[-74.78377362893355,4.331896969129559],[-74.7841625766381,4.329973393896751],[-74.7803210970045,4.32922304120666],[-74.7807032580169,4.3272553869274475],[-74.77882854820189,4.328565445804202],[-74.77593956472077,4.324891448034748]]]}}]}