{"type":"FeatureCollection","features":[{"type":"Feature","properties":{"code":"252407"},"geometry":{"type":"Polygon","coordinates":[[[-74.55366021083796,4.371174050754348],[-74.54552334846505,4.362647223547242],[-74.53879862714484,4.365976862765933],[-74.52842537023508,4.367595024509285],[-74.52199828017984,4.364004847890442],[-74.51055847284226,4.363497748595535],[-74.5051522138026,4.359769501511664],[-74.50334683335473,4.363358290761539],[-74.50010037765225,4.3615046239089],[-74.4985769200382,4.354659987219463],[-74.50670457065144,4.344800359186195],[-74.50815664098496,4.333769464707814],[-74.51663614646645,4.328383531806139],[-74.53159810306403,4.31242594720527],[-74.542450973114,4.304532390678162],[-74.55718684410732,4.306696400345231],[-74.57943342670114,4.300356700136092],[-74.59176702463537,4.302546777735699],[-74.5978761901979,4.300010897652044],[-74.60329375182084,4.300471966945167],[-74.60675177049069,4.298858225447702],[-74.62208231780164,4.298858225447702],[-74.6236960592991,4.295861277099391],[-74.63084263025695,4.295169673159762],[-74.63741286408418,4.298973493285189],[-74.65620143006498,4.304275787070651],[-74.66903948419684,4.29726430717983],[-74.66175158569655,4.30572439566663],[-74.66354702316221,4.307257460990684],[-74.6607119537232,4.310448297493281],[-74.6635264296292,4.312736201573671],[-74.66270805986466,4.316004086932878],[-74.66516726955854,4.321905941109435],[-74.66379826241354,4.3302935264555344],[-74.66500918148836,4.331599252503906],[-74.66363348946697,4.3320117587413165],[-74.66329873039865,4.335260041986089],[-74.66438743347834,4.34090861442445],[-74.66090691042928,4.342479083174453],[-74.65958564769971,4.3463571537644725],[-74.6547648449905,4.34835645733375],[-74.65138922822058,4.353238686857708],[-74.64645355053892,4.35379968065439],[-74.6420619878553,4.349365259685669],[-74.63887757089088,4.349474439143478],[-74.63089643528417,4.343794710038992],[-74.61537146811418,4.358082132785853],[-74.61122289862976,4.358723724594256],[-74.60944815034225,4.355432835032786],[-74.60185497205003,4.356178515508532],[-74.5781385651195,4.369765028967834],[-74.55791157418054,4.373421879515149],[-74.55366021083796,4.371174050754348]],[[-74.61872042559713,4.311390875346092],[-74.62192293183699,4.30748410503918],[-74.62483677483073,4.308268624646644],[-74.6222925725902,4.306227969460565],[-74.62391937736447,4.305497224027079],[-74.6234162458008,4.3043314597495055],[-74.61796456251204,4.303912682069665],[-74.61615610496409,4.3073788274923],[-74.61872042559713,4.311390875346092]]]}}]}