{"type":"FeatureCollection","features":[{"type":"Feature","properties":{"code":"252627"},"geometry":{"type":"Polygon","coordinates":[[[-74.34324173539937,4.64925013321124],[-74.32681782616413,4.645107596570654],[-74.31607556613557,4.63670861196772],[-74.3133953616279,4.636171431757532],[-74.3082104954093,4.627565877275629],[-74.3049869935154,4.606231035714131],[-74.29731408727378,4.592096902324727],[-74.3007770661219,4.5835072331659035],[-74.30021695987114,4.577134331746947],[-74.30060739058985,4.571981941686204],[-74.30259185681888,4.57090916095359],[-74.30198827110377,4.566138644969783],[-74.30557705109766,4.560483878222158],[-74.3050035452693,4.55631070016517],[-74.30240335358963,4.5530769189883245],[-74.30339059670104,4.551093944000911],[-74.31259132115304,4.5499436917218645],[-74.32314583488602,4.553539909412052],[-74.33208593452025,4.549572029050637],[-74.33676567708204,4.553013510364849],[-74.33998803329092,4.552177580972739],[-74.35108849573504,4.554368119314574],[-74.3545303915115,4.557720635208682],[-74.35863494776987,4.558903138416724],[-74.36350021107762,4.55816139481891],[-74.37292971153943,4.572751876950292],[-74.38501750554099,4.579378163980152],[-74.38923392137838,4.586237129959159],[-74.39007067660975,4.596218517359148],[-74.39452497737238,4.607050008145961],[-74.39576370244754,4.616326419796678],[-74.39379969194022,4.620271699105274],[-74.39503326451842,4.6229365592504905],[-74.38826567668559,4.626746628192734],[-74.38783910032612,4.6328485319226616],[-74.38377594607823,4.636081459492232],[-74.38204385655797,4.646611020124453],[-74.37243908789367,4.6361992644974634],[-74.35768853691178,4.647225781924419],[-74.35126041430021,4.648756519883079],[-74.34948908455567,4.652211046990601],[-74.34653242030078,4.653750048484881],[-74.34413674778574,4.653687567516499],[-74.34324173539937,4.64925013321124]],[[-74.35343610296053,4.617288984401398],[-74.35138517980437,4.613796317503102],[-74.34941622660227,4.615940202606964],[-74.35012649060303,4.6175089641424165],[-74.35343610296053,4.617288984401398]]]}}]}