{"type":"FeatureCollection","features":[{"type":"Feature","properties":{"code":"252647"},"geometry":{"type":"Polygon","coordinates":[[[-74.55138795348199,4.647125270180197],[-74.54233327918058,4.631266257680977],[-74.54090083667256,4.623270542873172],[-74.5346536860057,4.621256333058],[-74.53449049891748,4.617073564774557],[-74.53330912493931,4.618435256607938],[-74.52921720104041,4.617630802699125],[-74.52292283971974,4.612921748497115],[-74.51893742441342,4.6075358155954405],[-74.51428066651346,4.606790840631277],[-74.514242655278,4.600739051876815],[-74.5077161138027,4.600117354260476],[-74.50625869351126,4.594818541753],[-74.50047829736769,4.591950308128105],[-74.4991658319355,4.592649640813306],[-74.49647601971782,4.5900344297591005],[-74.49284435367088,4.591023354374045],[-74.49169277058718,4.5845471932124156],[-74.49553429855763,4.581065125442706],[-74.49747463328976,4.572388027356908],[-74.50375162113096,4.570502589857995],[-74.51175184463085,4.562233687807009],[-74.5255246614808,4.558676750450388],[-74.52672267360202,4.564238438007862],[-74.52180611466679,4.567459068490223],[-74.52530596112229,4.57203263053259],[-74.52320676595963,4.5736475074305645],[-74.51932200329418,4.5736267370054975],[-74.5194061144656,4.578109035058731],[-74.52295485307849,4.579878687413611],[-74.52868079936127,4.577749445274321],[-74.52999233405302,4.5800635962362435],[-74.5335683305064,4.579319235252228],[-74.53179640632209,4.577548584279725],[-74.53328235046678,4.575040191379287],[-74.5316958040749,4.572380788150042],[-74.5320830929017,4.566786357039632],[-74.53473918454603,4.565928365498621],[-74.5338090467339,4.562631204494664],[-74.53824807203978,4.561601960819246],[-74.54004314955051,4.558332444350185],[-74.53955503324761,4.554148147801129],[-74.53724608723326,4.5516391162378795],[-74.54500630104565,4.547342756478201],[-74.54620168858156,4.544098363831438],[-74.55395256002208,4.538742420313611],[-74.56011934099143,4.531687222359778],[-74.56078166208727,4.5249882892357505],[-74.56278017169893,4.524723604126905],[-74.5647648539009,4.530747036664252],[-74.56349767696338,4.533263468899861],[-74.55565465501633,4.537213030643102],[-74.55253233746805,4.542339511151511],[-74.55026485311384,4.553490778656055],[-74.5611854903267,4.562447784856772],[-74.56443441120587,4.568947925184148],[-74.56771539275212,4.569411975932155],[-74.57093696425937,4.573633309781599],[-74.57189818674664,4.5766761153533935],[-74.56974063261322,4.580137570049715],[-74.57013335470185,4.582873308396472],[-74.57589993886239,4.5932543814693645],[-74.57460563675346,4.5973296065471345],[-74.57819761417517,4.6034264431407905],[-74.57885334706822,4.611702926870009],[-74.58253038697063,4.6168874742714365],[-74.58327120702705,4.623483620736408],[-74.58575323374663,4.626380048084457],[-74.5962826287996,4.631147023140727],[-74.58830621580091,4.634793059614935],[-74.58153698143167,4.629900663936667],[-74.57843941849484,4.629538900024727],[-74.57507652870106,4.624250679446789],[-74.56936119594508,4.623337372096444],[-74.56861575715328,4.63035788068413],[-74.56525855361821,4.636643229763024],[-74.56575703353639,4.639114941204184],[-74.56377360294897,4.638833724910285],[-74.56151246099978,4.641832947145019],[-74.55881446340811,4.641040713190193],[-74.55690112632055,4.647004578336862],[-74.55138795348199,4.647125270180197]]]}}]}