{"type":"FeatureCollection","features":[{"type":"Feature","properties":{"code":"252657"},"geometry":{"type":"Polygon","coordinates":[[[-74.5957282962251,4.630237508686378],[-74.58348265686578,4.623827099968764],[-74.58253038697063,4.6168874742714365],[-74.5789448105752,4.612018230891181],[-74.57819761417517,4.6034264431407905],[-74.57460563675346,4.5973296065471345],[-74.57589993886239,4.5932543814693645],[-74.57013335470185,4.582873308396472],[-74.56974063261322,4.580137570049715],[-74.57189818674664,4.5766761153533935],[-74.57093696425937,4.573633309781599],[-74.56771539275212,4.569411975932155],[-74.56443441120587,4.568947925184148],[-74.5611854903267,4.562447784856772],[-74.55418799828254,4.557712320250914],[-74.5499239748126,4.552404160229344],[-74.55253233746805,4.542339511151511],[-74.55565465501633,4.537213030643102],[-74.56396127931043,4.532579862129239],[-74.56414267394501,4.52587169256293],[-74.55758205399843,4.524610064072874],[-74.55503486104709,4.528136730252413],[-74.54738907894841,4.529663159036886],[-74.54341582188954,4.522469330116849],[-74.54146633916122,4.5219263093816835],[-74.54481905251629,4.513305226446107],[-74.5527780539831,4.505218081041448],[-74.556432595677,4.504708732542781],[-74.5574707106976,4.501576413391035],[-74.55286352064172,4.499760691953554],[-74.55072227760667,4.4969288446250175],[-74.54734081928325,4.501722599295988],[-74.54315990322476,4.500731106660055],[-74.54221185714306,4.498530920498979],[-74.5422919018527,4.500450769684562],[-74.5393509192894,4.501023466128629],[-74.54211518663163,4.503321417064001],[-74.53762057092229,4.503172221936268],[-74.53511534973859,4.5017755486590545],[-74.53511289381782,4.497817627735003],[-74.53269095076706,4.495350999885261],[-74.52722621345737,4.497313270267853],[-74.5199242098679,4.496064152781003],[-74.51499017975112,4.493734010566357],[-74.51664245390441,4.488011198976324],[-74.50982146008005,4.491574181518104],[-74.50237219483478,4.483827647019666],[-74.51007202775844,4.479924553394767],[-74.51233703150928,4.476191903548454],[-74.51145240022174,4.474368591176756],[-74.51400319375034,4.473999159197376],[-74.51480416638123,4.475286722950898],[-74.51700366554275,4.474164665423473],[-74.51435039594469,4.469748795500948],[-74.52009992749976,4.465914038796086],[-74.52056541703882,4.463671689576984],[-74.52316553158528,4.462983998861148],[-74.52510121981413,4.466161961320267],[-74.52741810129095,4.46552471879528],[-74.52918309685805,4.462076621510391],[-74.52591354130817,4.458230310253782],[-74.52741400911816,4.458765186752714],[-74.52813618351172,4.457324121782619],[-74.53152636199928,4.460415833909906],[-74.53514955676519,4.4568348855058275],[-74.53913599845714,4.460673916417818],[-74.53873502928798,4.464268132758832],[-74.54052776092135,4.467456875352468],[-74.54258576901799,4.465321472842504],[-74.54395319750375,4.469162131779001],[-74.53999383058954,4.4727585654421205],[-74.54028660966264,4.475386458221067],[-74.5427488100674,4.475677102247516],[-74.54102915544559,4.482237625520497],[-74.53814219696778,4.4826435414981916],[-74.5369353011601,4.485205124417291],[-74.54243874493244,4.482309075536023],[-74.54727050775358,4.482365917554034],[-74.55225625515925,4.480194138003753],[-74.56468067896606,4.481834633404844],[-74.57243370190832,4.477277522329018],[-74.57086318996375,4.472294875677505],[-74.56671515526943,4.4688359550635255],[-74.56181420192098,4.459227247464412],[-74.56326959823758,4.45103293937774],[-74.5617690172989,4.448474398591657],[-74.56231488167771,4.446670397285118],[-74.57063570464925,4.445107863997578],[-74.57531263853451,4.445611705186593],[-74.57760892647832,4.448029667136382],[-74.58396449247022,4.446826614618374],[-74.59505767354125,4.4524769014704475],[-74.6005807214849,4.450923863792639],[-74.60158897053475,4.452943647766233],[-74.60579174716742,4.450157192805136],[-74.60713324861729,4.451206879860933],[-74.60856164111868,4.4548450004131155],[-74.60508490993715,4.4626830251580145],[-74.60946605449806,4.475374750431399],[-74.60488080214958,4.49079593026778],[-74.61348541149283,4.496779941574914],[-74.61815375274085,4.496618815485533],[-74.61867490364591,4.500789389526062],[-74.62206913316857,4.505568772741242],[-74.61767432163504,4.510935499478933],[-74.61959909294654,4.513106011988043],[-74.61893718219926,4.516664815967829],[-74.6172353371166,4.517462411193492],[-74.61886905199617,4.52430087825627],[-74.61508869990053,4.534511206216848],[-74.61278238258524,4.569612765964166],[-74.60779418748638,4.578946277771934],[-74.60227097704882,4.599334889481156],[-74.60121677410189,4.604202892559783],[-74.60318418772556,4.606606827582027],[-74.60001146312413,4.615839493401779],[-74.60129327994088,4.618776305630661],[-74.59816944646838,4.6225268010115315],[-74.5957282962251,4.630237508686378]],[[-74.59069286270443,4.530190039395222],[-74.59199706974329,4.522681973977399],[-74.5941392589454,4.524118247433762],[-74.59605157684643,4.523052624661091],[-74.60232609128343,4.51254780629904],[-74.60020738965147,4.513851428154055],[-74.59915148463222,4.5123155346130375],[-74.59651213911741,4.512574027469498],[-74.59140933541266,4.515841531276521],[-74.59057188701098,4.525338120129163],[-74.58506656324573,4.526481977552635],[-74.58515056437375,4.528334997514946],[-74.59069286270443,4.530190039395222]]]}}]}