{"type":"FeatureCollection","features":[{"type":"Feature","properties":{"code":"252850"},"geometry":{"type":"Polygon","coordinates":[[[-74.66659819717074,4.390032322512241],[-74.66173942950593,4.385358257981579],[-74.66227445512902,4.383436239810692],[-74.6595017360462,4.383061980322168],[-74.66149607018122,4.380148706057184],[-74.65889498889874,4.377530048692051],[-74.661200197553,4.375413413201159],[-74.66522934326366,4.3747286741153175],[-74.6664353288997,4.357850145978489],[-74.6704963491294,4.35780066555202],[-74.67048493650276,4.364729106936977],[-74.66717869846514,4.366805862512308],[-74.67084554547375,4.3709342909784255],[-74.67362815303142,4.368716655233072],[-74.67853918923032,4.370521323998787],[-74.67972082443288,4.375929004345949],[-74.6782020133221,4.378424763858504],[-74.67950379323656,4.381284677383462],[-74.67025384752566,4.383963037893636],[-74.66859976845575,4.38919720250442],[-74.66659819717074,4.390032322512241]]]}}]}