{"type":"FeatureCollection","features":[{"type":"Feature","properties":{"code":"252840"},"geometry":{"type":"Polygon","coordinates":[[[-74.6430597231373,4.454335714649403],[-74.65066763592552,4.4504521943425175],[-74.64753188074735,4.455045974536347],[-74.64971982227183,4.456269618530484],[-74.64848714649554,4.45833513322907],[-74.6471471095478,4.457155491148171],[-74.64461586362614,4.463891163324263],[-74.64388584838684,4.462220895540668],[-74.639578318713,4.463824638519952],[-74.64099410250907,4.466928553117725],[-74.64540749388516,4.46863883554289],[-74.6452736071243,4.47096285749609],[-74.6388417821197,4.467479550453163],[-74.63867553850031,4.4651466489272025],[-74.62805454521441,4.4665896165159324],[-74.6243091745626,4.4657299650687605],[-74.62536433910327,4.464051207492162],[-74.62112534586731,4.459696264561273],[-74.6430597231373,4.454335714649403]]]}}]}