{"type":"FeatureCollection","features":[{"type":"Feature","properties":{"code":"252837"},"geometry":{"type":"Polygon","coordinates":[[[-74.72575365137482,4.460660198023049],[-74.73138322539455,4.4577373170764645],[-74.73745886373098,4.460017407050657],[-74.74131511796986,4.458900588409392],[-74.74429659957116,4.455591153972421],[-74.74682626580511,4.442695365134455],[-74.75331078511903,4.434601516341445],[-74.76030044660183,4.431063452961951],[-74.76770311311657,4.430317384763384],[-74.7723372895041,4.427949570699241],[-74.77606690750184,4.428367686062131],[-74.78433674029333,4.411603045592869],[-74.78975131429075,4.406462356122631],[-74.80614612580177,4.38117579000334],[-74.82714267353799,4.359437551119868],[-74.84725332500238,4.335247667765714],[-74.85677307540897,4.334212749144456],[-74.85597119774872,4.343417540058169],[-74.85258906682384,4.352646457204855],[-74.85227407339232,4.358454779676549],[-74.85453204259636,4.367001967988642],[-74.84007973583113,4.37911712781721],[-74.83800903572535,4.397671880476764],[-74.8327127840397,4.405259837366316],[-74.83529195949654,4.412355472651541],[-74.83091092703586,4.423109028064346],[-74.83396912119304,4.431077317395534],[-74.83261474569974,4.44481517028521],[-74.82877174397117,4.446507743958591],[-74.81915738405195,4.445070132498472],[-74.81516075872219,4.4378057256821535],[-74.81873217654947,4.434789357253749],[-74.81507942743093,4.432426712141705],[-74.80883027747177,4.4345652154058826],[-74.80901635049139,4.4279092526671775],[-74.80642037953982,4.424233799651574],[-74.8100415421033,4.416830167429282],[-74.79977163132537,4.418935781101709],[-74.78773807018314,4.430484975642457],[-74.78392258649103,4.436354903877884],[-74.78136378859432,4.4361866681653055],[-74.77714124838178,4.43977488045897],[-74.77255130839228,4.447958107077511],[-74.76988514726725,4.449243508016423],[-74.76814439928938,4.4562785011884785],[-74.76300958531124,4.461842167469399],[-74.75676108121405,4.467606871636974],[-74.74880506223053,4.466495170525718],[-74.74253546374882,4.47596159310234],[-74.74105134097579,4.471206568548212],[-74.73762400794533,4.469682034154857],[-74.73301044154584,4.462673090403314],[-74.72575365137482,4.460660198023049]],[[-74.81925595101143,4.400299240522429],[-74.82476048904658,4.404911427780462],[-74.82680818289322,4.404286808358961],[-74.82702945435801,4.401653532711919],[-74.82896876784673,4.402114672967514],[-74.83410172548611,4.395655384433894],[-74.82765763938977,4.394390964750812],[-74.81925595101143,4.400299240522429]]]}}]}