{"type":"FeatureCollection","features":[{"type":"Feature","properties":{"code":"253052"},"geometry":{"type":"Polygon","coordinates":[[[-74.36776881317371,4.8211783544575155],[-74.3521472731943,4.806256487577741],[-74.3504625948741,4.809982931801869],[-74.34711928148369,4.8116317329048],[-74.3398447352526,4.810463552815747],[-74.3431565824157,4.804519983982175],[-74.34278961664148,4.802363211465092],[-74.34533401531456,4.80109282681542],[-74.34132750253838,4.794710042063855],[-74.33621153991163,4.790321903065376],[-74.33576318833872,4.792723268009809],[-74.33083086749343,4.791796484977169],[-74.33536634630934,4.79163350357743],[-74.33281755927209,4.784482831190871],[-74.33761421929313,4.784357276871276],[-74.33858040607242,4.7888320395261985],[-74.33972300365389,4.790397168602681],[-74.341693002782,4.789900768195253],[-74.3410798803194,4.791008756629026],[-74.3490257845707,4.803415973564086],[-74.3513505233484,4.800910905618309],[-74.35418915017004,4.801390017906954],[-74.35427564527117,4.803569334912481],[-74.35583557248538,4.803218280172473],[-74.35969799326557,4.807242517127008],[-74.36310269438997,4.813583028777259],[-74.36558940155146,4.813194686825341],[-74.36412370024084,4.815277335376322],[-74.3667249563585,4.816475250823885],[-74.3665924466822,4.818925945013746],[-74.36856830279044,4.819966758667533],[-74.36776881317371,4.8211783544575155]]]}}]}