{"type":"FeatureCollection","features":[{"type":"Feature","properties":{"code":"253048"},"geometry":{"type":"Polygon","coordinates":[[[-74.50511325022939,4.831812215616196],[-74.49721434991488,4.826702286861689],[-74.49163644176201,4.825611514555703],[-74.47711039258286,4.825504851696735],[-74.47064935261164,4.827738440642406],[-74.470816597934,4.8238879467101015],[-74.47798422933778,4.817310070526503],[-74.47236770111141,4.809149702071409],[-74.46917837641928,4.807720850884664],[-74.46677800495036,4.796856392344466],[-74.46744608326742,4.794171104245436],[-74.46682822174165,4.7920806343890945],[-74.46372977023054,4.791776976451047],[-74.46169838336846,4.77919103986045],[-74.46517086605388,4.771941241041645],[-74.46547598849412,4.76699881574865],[-74.46712646390142,4.76428354443641],[-74.46830899282054,4.766147065825294],[-74.46942528592763,4.765577934991427],[-74.4668142081839,4.763225906491471],[-74.46830563598417,4.7613433907977765],[-74.47047108547076,4.761833529018645],[-74.47140399185014,4.760932282213787],[-74.46647408990168,4.759944741882464],[-74.46578669743411,4.757742597566789],[-74.4642527630761,4.758965972108967],[-74.46346725924917,4.755570191695028],[-74.46107867064615,4.756703061238625],[-74.46165456143274,4.758054078867133],[-74.45483167013191,4.758376966623416],[-74.45053131898686,4.75322291254264],[-74.44927135451672,4.744350705541308],[-74.45510938560744,4.734971800337689],[-74.46347118172895,4.7320503509831155],[-74.46493295438916,4.734922333280963],[-74.46679448779861,4.733355759242784],[-74.47114226145663,4.736192768324372],[-74.47641675644081,4.736049043482353],[-74.4814782949179,4.732952359863873],[-74.48204887996951,4.729842976008797],[-74.48539113406412,4.726899277328755],[-74.48672806100166,4.727131353610673],[-74.48556415306285,4.7309170309816295],[-74.48999917669886,4.7335385402178645],[-74.49482045352005,4.72726108443527],[-74.49785853751223,4.726362892104703],[-74.50417642239864,4.726511095813862],[-74.5058838149003,4.728241737287021],[-74.51127645941784,4.727986344156363],[-74.51294755201235,4.729299894595442],[-74.51283822548726,4.734681570773546],[-74.51165822242302,4.7349959697652935],[-74.5137602776843,4.73626799786615],[-74.51241406185397,4.737440453190743],[-74.512620246067,4.745617277754604],[-74.50593379926357,4.762979094685193],[-74.50853469851171,4.767285242132289],[-74.51517457229568,4.770936052636728],[-74.51624584533153,4.774113920479181],[-74.52135788445008,4.777654854241803],[-74.52487766520693,4.793103858590484],[-74.51970561852431,4.791972908120613],[-74.5158767311409,4.7944666354307515],[-74.51106098734044,4.7946092814365215],[-74.50856430017274,4.7932760383801],[-74.50758849437057,4.80767433340111],[-74.51879337252672,4.825268982518821],[-74.51935720173941,4.8320665144840405],[-74.517465502054,4.833353517736384],[-74.50511325022939,4.831812215616196]]]}}]}