{"type":"FeatureCollection","features":[{"type":"Feature","properties":{"code":"253040"},"geometry":{"type":"Polygon","coordinates":[[[-74.45857770618602,4.7583241900387065],[-74.46165456143274,4.758054078867133],[-74.46107867064615,4.756703061238625],[-74.46346725924917,4.755570191695028],[-74.4641907593051,4.758920723723463],[-74.46578669743411,4.757742597566789],[-74.46647408990168,4.759944741882464],[-74.4705510982987,4.759763259830265],[-74.47149349720252,4.761667908635445],[-74.46830563598417,4.7613433907977765],[-74.4668142081839,4.763225906491471],[-74.46942528592763,4.765577934991427],[-74.46861274948907,4.766202816665782],[-74.46712646390142,4.76428354443641],[-74.46539126231409,4.767085811701293],[-74.46442311120961,4.765382288200385],[-74.46055635760109,4.765892519102806],[-74.46048236424718,4.763859505244682],[-74.45896256788848,4.763775116393788],[-74.45857770618602,4.7583241900387065]]]}}]}