{"type":"FeatureCollection","features":[{"type":"Feature","properties":{"code":"253027"},"geometry":{"type":"Polygon","coordinates":[[[-74.43351002760176,4.711226933317334],[-74.43616904516506,4.709238409882573],[-74.44161181185723,4.711289462622517],[-74.44649025876959,4.709228526549964],[-74.4481558101158,4.709927901401329],[-74.45272261631925,4.705567366828461],[-74.45416591403807,4.701478656812469],[-74.45692755370965,4.699848321394995],[-74.45690870955741,4.697275639524207],[-74.46448009618109,4.695034531635315],[-74.46450487650361,4.690888366649517],[-74.46799037207222,4.68532112653088],[-74.48693122982127,4.682082080756743],[-74.49100891081969,4.680061451403446],[-74.4937356358962,4.68069905491177],[-74.50919894382349,4.674617504059256],[-74.50935559207414,4.680266911592923],[-74.50744675339416,4.680541632243887],[-74.50611717570689,4.684888645882893],[-74.50733373064668,4.686465879727791],[-74.50578245880473,4.694937114474612],[-74.50692797099225,4.695442247387405],[-74.50500915436294,4.69699877559907],[-74.5063954033468,4.697840624706316],[-74.49874164979019,4.702462169762839],[-74.49905043965646,4.7054280375498365],[-74.5011015201643,4.705515555951251],[-74.50170821588961,4.7102338219129365],[-74.50425170336257,4.712245437995989],[-74.50645201293679,4.7112674652654505],[-74.50641125678823,4.713718091578073],[-74.50988869450975,4.716546923513192],[-74.51189878746948,4.727724273348429],[-74.50859371157185,4.7286848746563805],[-74.50417642239864,4.726511095813862],[-74.49785853751223,4.726362892104703],[-74.49482045352005,4.72726108443527],[-74.48999917669886,4.7335385402178645],[-74.48556415306285,4.7309170309816295],[-74.48672806100166,4.727131353610673],[-74.48539113406412,4.726899277328755],[-74.48204887996951,4.729842976008797],[-74.4814782949179,4.732952359863873],[-74.47641675644081,4.736049043482353],[-74.47114226145663,4.736192768324372],[-74.46679448779861,4.733355759242784],[-74.46493295438916,4.734922333280963],[-74.46347118172895,4.7320503509831155],[-74.45510938560744,4.734971800337689],[-74.4505815974847,4.744126753955356],[-74.44933433325127,4.744121212707057],[-74.45094383345173,4.751517978018626],[-74.44826791137876,4.759014256456794],[-74.44324008010523,4.760433255164173],[-74.43539350797454,4.759325629770615],[-74.43252442896988,4.761818426340312],[-74.43209389824892,4.760459379661029],[-74.42798120701025,4.760248404962738],[-74.42081341722638,4.769232131128604],[-74.41684917240929,4.771981449030363],[-74.41060063334504,4.772867836897774],[-74.40679114855817,4.78139258767942],[-74.40405604887422,4.770861174822244],[-74.40613001531341,4.767654484878221],[-74.40533996679898,4.76122591283729],[-74.40886957021036,4.74954024191743],[-74.41315409773887,4.7393174461481635],[-74.41904824065341,4.731963833256202],[-74.4221589357727,4.722604607300184],[-74.43159494113343,4.718403994510538],[-74.43351002760176,4.711226933317334]],[[-74.42786991307469,4.733733557602022],[-74.43969668733655,4.733501485433919],[-74.43968281981762,4.731732969508073],[-74.44274981332899,4.72990533870626],[-74.44097612845104,4.728388693495447],[-74.43837078941658,4.7296769493907505],[-74.439695721629,4.727322304533118],[-74.43673337317233,4.725573523390722],[-74.43735613728359,4.7284171772394075],[-74.4342646637549,4.727431901538523],[-74.4323715921272,4.729133035967436],[-74.43194680422926,4.732462065319737],[-74.42951859796358,4.733369312058301],[-74.42860132699576,4.731882169778032],[-74.42899208064546,4.733687190271041],[-74.42786991307469,4.733733557602022]]]}}]}