{"type":"FeatureCollection","features":[{"type":"Feature","properties":{"code":"253227"},"geometry":{"type":"Polygon","coordinates":[[[-74.5113747219583,4.925858687843572],[-74.50834387717299,4.919100060830431],[-74.5085211354118,4.916051405477617],[-74.5136967816432,4.902959798098777],[-74.50511126944906,4.895255215827547],[-74.50796713810956,4.88844081534819],[-74.50857122364778,4.8822760706950135],[-74.50475528641255,4.874836861560652],[-74.49974900512353,4.872133943899996],[-74.49890941447603,4.868415053586148],[-74.49641911599326,4.866830160929851],[-74.50457651122105,4.8628699918304505],[-74.50595746064062,4.860097504147177],[-74.50511325022939,4.831812215616196],[-74.517465502054,4.833353517736384],[-74.51935720173941,4.8320665144840405],[-74.51879337252672,4.825268982518821],[-74.50758849437057,4.80767433340111],[-74.50856430017274,4.7932760383801],[-74.51560238175773,4.794496199039372],[-74.52057494555874,4.792012467162067],[-74.52447808340673,4.793769327748862],[-74.52606231271761,4.798087357820862],[-74.52865247502586,4.797619947151134],[-74.5322127712758,4.790260190343588],[-74.53435661524196,4.788823801701653],[-74.54382743338192,4.786846134506106],[-74.54892007607458,4.7905580962026875],[-74.55419124507563,4.789968961133354],[-74.55656232650159,4.788056476624661],[-74.55856601432134,4.789310323918642],[-74.56024792921647,4.796094016132827],[-74.55617643532815,4.810863636495924],[-74.55404228340433,4.830741366298639],[-74.55310959094095,4.830082134644158],[-74.55334680326479,4.8544334567342275],[-74.54353002528904,4.874969529617147],[-74.54460682003275,4.881602761719307],[-74.53888837726657,4.883399973248288],[-74.53317149361925,4.888424271821805],[-74.53263760751048,4.892189793776311],[-74.53639493483502,4.89738681824241],[-74.52047199743419,4.897726988975251],[-74.52298057031209,4.901144034495189],[-74.52187752868684,4.902376839855208],[-74.51949136103752,4.901742596268605],[-74.52011150776252,4.9048302943847375],[-74.51719723590827,4.909236581279913],[-74.5142127039465,4.926158645445469],[-74.51329960639845,4.927544479967025],[-74.5132050997301,4.925179854074713],[-74.5113747219583,4.925858687843572]],[[-74.53869607394222,4.874917963509233],[-74.54164956339503,4.872269323959415],[-74.54109368507147,4.869198540637342],[-74.53831570550511,4.871399547495571],[-74.53869607394222,4.874917963509233]]]}}]}