{"type":"FeatureCollection","features":[{"type":"Feature","properties":{"code":"253267"},"geometry":{"type":"Polygon","coordinates":[[[-74.69128351728165,4.830378732324334],[-74.68101428733269,4.829003831175214],[-74.68008791876235,4.822423936158998],[-74.68427707881608,4.815111588494631],[-74.69049130800948,4.809465212809528],[-74.69115747650875,4.806569870468309],[-74.68981750743825,4.804393506121244],[-74.69253283222946,4.797896285542151],[-74.69232340019494,4.787900526686428],[-74.69040527262212,4.78488202012602],[-74.69690934159996,4.7710456630119324],[-74.69635211293132,4.766527713998755],[-74.68978741726704,4.7588502404439055],[-74.69441545076745,4.757784198066702],[-74.69562116695158,4.754797382962522],[-74.70520411000871,4.757899382600328],[-74.70940814339815,4.757078911727774],[-74.71425462220327,4.745432246547296],[-74.72035818892476,4.749585599317811],[-74.72307517773595,4.744773035461662],[-74.72683254002754,4.75138861846176],[-74.73631710947245,4.754073752294346],[-74.73893376754529,4.745141819522246],[-74.7489273389038,4.731232291808226],[-74.74826008539765,4.724454492569635],[-74.74412488977975,4.721556961702731],[-74.74283866197305,4.71600216265324],[-74.74659401674484,4.711065348542604],[-74.75183552854895,4.7099073942574705],[-74.76013526844889,4.69785480692866],[-74.76134267950624,4.687682589962435],[-74.76466873563123,4.683533392099662],[-74.7608978534343,4.681435249033711],[-74.75456462315708,4.671074218248634],[-74.75760917708112,4.66645625731428],[-74.75471675551665,4.662273515770323],[-74.75716879696614,4.653604542380435],[-74.75162539717354,4.6454139819383045],[-74.74517521549842,4.6419166911624075],[-74.74690171234823,4.636676084387716],[-74.74637164176124,4.628181181064804],[-74.74129895393878,4.623087096495738],[-74.73713961460436,4.6213751541644115],[-74.73170011321719,4.621545192736676],[-74.73149001578037,4.615362018393569],[-74.73450518813013,4.613789239761672],[-74.73657531127964,4.605473878848329],[-74.74467560429343,4.601974821208216],[-74.74580146294443,4.595891003668385],[-74.75113998670292,4.587337465752171],[-74.75339235706588,4.589279477874015],[-74.76441542818196,4.592363219571837],[-74.76955616907435,4.591606054478461],[-74.77917028730957,4.597687320452394],[-74.78285055652151,4.596834855761529],[-74.78486479410458,4.593031670185098],[-74.78877070360511,4.59544212758982],[-74.79101368223098,4.592342867722834],[-74.79395732023289,4.591561713179317],[-74.79908610342409,4.599743872274473],[-74.81449893436411,4.606559651895282],[-74.81689644984817,4.612507595723287],[-74.81319336258207,4.618583364671963],[-74.8060233318219,4.622753053223448],[-74.79997762630495,4.628808006495547],[-74.7991585314885,4.639240905872271],[-74.7955504064908,4.6431130228085635],[-74.7869154694061,4.64716141582096],[-74.78623899591275,4.653920707207988],[-74.79024727246787,4.659743375424341],[-74.80426316067866,4.667394180436247],[-74.80783001324966,4.671528505991773],[-74.80715665182339,4.681127649075449],[-74.8022876480702,4.69251870412387],[-74.8058610487347,4.702847585795837],[-74.81846849520053,4.716228829327463],[-74.82072273630047,4.724673653670379],[-74.81623913212519,4.7313392395457186],[-74.79980288260816,4.744358261508523],[-74.7945334537319,4.746958885134063],[-74.77735226627465,4.748250859877544],[-74.77505916547415,4.7495750608673575],[-74.77335446852038,4.7534452309619155],[-74.77740941888226,4.7563799163717135],[-74.77770533573351,4.759880713108146],[-74.77146952364541,4.772032062800463],[-74.76093309507411,4.7798541034917434],[-74.75014783174998,4.783489059526289],[-74.74375792194866,4.789029252635146],[-74.74298187670757,4.793976218501939],[-74.74538775137245,4.808249053820077],[-74.7444729023868,4.821692663134456],[-74.74555271149558,4.827275301094517],[-74.76191366153665,4.833502850675416],[-74.76709452197167,4.839520424175703],[-74.76827107049752,4.844147225601944],[-74.76670607203329,4.847087597270445],[-74.76116553542465,4.844279315673759],[-74.76116199244012,4.840742054479392],[-74.75200030972309,4.840554525185155],[-74.74711320435313,4.837530150331759],[-74.73868127050878,4.84506169509234],[-74.7383027902921,4.8422792551708085],[-74.73392253224864,4.840761544493546],[-74.73423773959621,4.837506523921775],[-74.73017697544879,4.837772101718713],[-74.72653351316615,4.835470324977166],[-74.7231680286119,4.837553286174682],[-74.72010451123623,4.837251588448055],[-74.71871983885472,4.83984806642178],[-74.71419671986104,4.840367175868437],[-74.70576736226514,4.835221351384689],[-74.69524584096814,4.833426439453149],[-74.69128351728165,4.830378732324334]],[[-74.73853341647003,4.806564410466933],[-74.74387585345232,4.806393935835047],[-74.74332549683658,4.798435232616555],[-74.73962149528512,4.798168963706246],[-74.73853341647003,4.806564410466933]]]}}]}