{"type":"FeatureCollection","features":[{"type":"Feature","properties":{"code":"253207"},"geometry":{"type":"Polygon","coordinates":[[[-74.4310042644288,4.921327356736356],[-74.42490672026668,4.919295905082379],[-74.42346425764322,4.913972097307919],[-74.4182478799458,4.911484583847482],[-74.41682994876174,4.908860617662128],[-74.41415544799634,4.8902935699723],[-74.40390378693087,4.881304320041693],[-74.40775461305009,4.880323564345645],[-74.40846558461925,4.877764084591547],[-74.4110167843827,4.87740564666268],[-74.41540590862911,4.873474343887949],[-74.41380149099155,4.863810008861435],[-74.40760359963599,4.85814146406932],[-74.40911806249176,4.853304488073093],[-74.41217430775038,4.852426397679949],[-74.4104966238678,4.844762814269757],[-74.411951140866,4.843082950089013],[-74.41733624587147,4.842642285095451],[-74.42046121782988,4.840745680767668],[-74.42250026041802,4.845189218879341],[-74.42518118072167,4.845366453463896],[-74.42607634120372,4.847339604768365],[-74.43179617236734,4.848053300681727],[-74.44698345763544,4.836212110741087],[-74.4587240422436,4.833992981697236],[-74.45934266378833,4.843082390616303],[-74.45222830262173,4.8494553259738495],[-74.45414862900464,4.850713482441961],[-74.45349777298605,4.851602858963304],[-74.44889254725541,4.850105406546788],[-74.44756167681584,4.839618126214987],[-74.44373755420662,4.845725243120057],[-74.44587603073126,4.849327663347083],[-74.43993352427884,4.8526693579690345],[-74.44445180239364,4.855907671492048],[-74.4498825651047,4.863703603113095],[-74.45004378889615,4.866942546042935],[-74.45540606761995,4.875921938352008],[-74.45630379612294,4.883272113160615],[-74.46062206685048,4.8840213870145135],[-74.45949631310066,4.887132752678383],[-74.4559175871608,4.888929750291311],[-74.45304617359164,4.895094044486655],[-74.45766483283847,4.900782804344885],[-74.46403909488686,4.906104251843772],[-74.4643566038888,4.8986867037657476],[-74.46980598758012,4.892828328025132],[-74.47640629615194,4.889580364625942],[-74.47487373990691,4.902247971893871],[-74.47809225282617,4.908754049419883],[-74.47543672476831,4.910017098189087],[-74.47280781383131,4.91539063218778],[-74.48210470588629,4.916081389719238],[-74.47513945551515,4.926714789107223],[-74.47782289961674,4.932507928682014],[-74.48260309427309,4.935287981588431],[-74.48435582566316,4.9403141406144755],[-74.4908174261356,4.945505247422318],[-74.49032394239117,4.948516790398401],[-74.48273685453552,4.947780501659736],[-74.47708154579868,4.953731806437929],[-74.47325422576165,4.9539652351217],[-74.46988625134804,4.956245453651206],[-74.46674058301244,4.950327652444969],[-74.46795452570825,4.947611273500172],[-74.46495614885328,4.943864216202655],[-74.47019718551695,4.932901280177475],[-74.46958003875875,4.930740425772058],[-74.46576335178895,4.931606229362387],[-74.45794449824103,4.9392117551355454],[-74.4502595705348,4.941726600484344],[-74.44578773791261,4.939039399482283],[-74.44415420506732,4.934046404642174],[-74.44501771625931,4.932370185261675],[-74.44023766969866,4.924315610631595],[-74.43481499671645,4.921997901258578],[-74.43309333354642,4.919529567222639],[-74.4310042644288,4.921327356736356]],[[-74.43939944482287,4.882512782167339],[-74.44135939298229,4.880387150889703],[-74.44039551094266,4.874919588448449],[-74.4357828629424,4.873577428795386],[-74.43516020887449,4.876608828939595],[-74.43772502830217,4.879177742596937],[-74.43743974760349,4.882354526460972],[-74.43939944482287,4.882512782167339]]]}}]}