{"type":"FeatureCollection","features":[{"type":"Feature","properties":{"code":"253258"},"geometry":{"type":"Polygon","coordinates":[[[-74.72816977858315,4.977086940023526],[-74.72910570961199,4.963755792955453],[-74.72685358196145,4.961661854162514],[-74.72670218185294,4.957213122416135],[-74.72272864917147,4.952855145579861],[-74.72365412916747,4.951333420891444],[-74.72256469383672,4.949960596167784],[-74.7202137678272,4.948778318188715],[-74.71801560358409,4.952347677074101],[-74.70333187256955,4.954771480577392],[-74.69798627518344,4.9515257231873875],[-74.68572708198013,4.948844639361425],[-74.68371148376758,4.946409530189499],[-74.6778834481097,4.944172825062992],[-74.67274342095646,4.940588680259509],[-74.67114430288319,4.930496959489233],[-74.6674863745281,4.923041790983916],[-74.6610584154389,4.919430976609021],[-74.65652280909615,4.9080797130301335],[-74.65275808007078,4.903910378262822],[-74.64643431866381,4.901254420316036],[-74.64369298764666,4.896472651114152],[-74.63233831992295,4.892603386049018],[-74.62659266662462,4.892535195167795],[-74.62535687569596,4.889874615400345],[-74.63859567582494,4.88385445845239],[-74.64590261388162,4.869368773585279],[-74.65359412670529,4.858216078602538],[-74.66045239437187,4.852575637030725],[-74.66750294787931,4.8430253398244645],[-74.681155384504,4.8310393986561735],[-74.69128351728165,4.830378732324334],[-74.69524584096814,4.833426439453149],[-74.70624473340064,4.835410233080779],[-74.71419671986104,4.840367175868437],[-74.71871983885472,4.83984806642178],[-74.72010451123623,4.837251588448055],[-74.7231680286119,4.837553286174682],[-74.72676453015225,4.835484792078091],[-74.72952665319178,4.837598091301459],[-74.73423773959621,4.837506523921775],[-74.73392253224864,4.840761544493546],[-74.7383027902921,4.8422792551708085],[-74.73868127050878,4.84506169509234],[-74.74825474263878,4.8376307484651875],[-74.75200030972309,4.840554525185155],[-74.76116199244012,4.840742054479392],[-74.76116553542465,4.844279315673759],[-74.76670607203329,4.847087597270445],[-74.75666311177969,4.855937792516556],[-74.7531067801757,4.863286038995398],[-74.75267038938927,4.866372185191835],[-74.75605036675552,4.877657127598013],[-74.7524492300247,4.889879848115868],[-74.74991055052055,4.890077338904291],[-74.74746698857956,4.887337696589725],[-74.7379412084145,4.8824980929228445],[-74.73189651797031,4.892323512901044],[-74.73307513366564,4.899179359613925],[-74.73986544390743,4.902746712007968],[-74.74045811167679,4.909529069303801],[-74.73948615430652,4.914721508973116],[-74.73246387062704,4.9236171140701686],[-74.73125486445537,4.935420364766344],[-74.73521486077635,4.940411274953476],[-74.74833659226505,4.947499301820926],[-74.75054009721015,4.953912648798848],[-74.74443112910859,4.965679582104315],[-74.73197070569984,4.977062839501571],[-74.72816977858315,4.977086940023526]]]}}]}