{"type":"FeatureCollection","features":[{"type":"Feature","properties":{"code":"253480"},"geometry":{"type":"Polygon","coordinates":[[[-74.64164232571488,5.481355494217382],[-74.64640077086887,5.474344323887806],[-74.64410922301659,5.470079635015509],[-74.64785749079095,5.4677731356659365],[-74.64744336784196,5.464576350651782],[-74.65019047150696,5.462854601092602],[-74.6490170566455,5.4618042002976495],[-74.6530160833886,5.459952704487193],[-74.65588580414135,5.460421603313193],[-74.65599658385571,5.455172044974802],[-74.65999497810662,5.45378242887017],[-74.66341350252685,5.46983012251917],[-74.66077566265193,5.469961979134496],[-74.65959115089566,5.464580663939728],[-74.65471772998183,5.466118035352565],[-74.64975013870037,5.474319087965284],[-74.64795883248831,5.472937690144818],[-74.64368014959865,5.48067025016627],[-74.64164232571488,5.481355494217382]]]}}]}