{"type":"FeatureCollection","features":[{"type":"Feature","properties":{"code":"253410"},"geometry":{"type":"Polygon","coordinates":[[[-74.46898720849549,5.001020209485773],[-74.47358252415404,4.994582664283826],[-74.47719501797553,4.994673558033639],[-74.48086503155866,4.991435929453303],[-74.48327057403657,5.000047395422882],[-74.47954893263903,5.003095907822171],[-74.47660783283322,5.00254913532865],[-74.47658345360333,5.004110273019705],[-74.47853213208958,5.005244169977402],[-74.48146811745073,5.004174803674005],[-74.48351265192196,5.010839999769644],[-74.48171432658972,5.0127870090936995],[-74.47962713335124,5.012495253320878],[-74.47832419746737,5.016214150833832],[-74.47187072580465,5.017184259064436],[-74.47064514113953,5.025113322569553],[-74.46631838576121,5.022108523091049],[-74.46179669424572,5.029945203661555],[-74.46239094581654,5.033359362343333],[-74.46126990644723,5.0338756106629035],[-74.46042326479784,5.032090342436902],[-74.4573897625171,5.036683374953043],[-74.45741464671227,5.034617473560047],[-74.46167006211834,5.029997580182169],[-74.46616139092538,5.021283011821708],[-74.46596252202397,5.01878011594647],[-74.46398783114108,5.018291853604751],[-74.46258288507227,5.021752876355208],[-74.46085408656802,5.0212294896161325],[-74.46295203937211,5.018758470316811],[-74.46345960043772,5.011490154390458],[-74.46890155568877,5.006655386460295],[-74.46773940124439,5.0044949814842425],[-74.469174329498,5.00372785695356],[-74.46855756840574,5.001946594511139],[-74.4716135442124,5.001606348702012],[-74.47264907475699,5.002981872058854],[-74.47434664460411,5.000946358056922],[-74.4737071353918,4.998264957470667],[-74.47152330763737,4.999579209307512],[-74.4721248220693,5.000761718686192],[-74.47135279803842,4.999795084534412],[-74.46898720849549,5.001020209485773]]]}}]}