{"type":"FeatureCollection","features":[{"type":"Feature","properties":{"code":"253448"},"geometry":{"type":"Polygon","coordinates":[[[-74.61576088890234,5.088182149681529],[-74.61465055459115,5.08603180390179],[-74.61644603833673,5.076855726074768],[-74.61542176820933,5.075413327214733],[-74.60998182253496,5.076170058305308],[-74.61039760641864,5.072671771997079],[-74.60860617165127,5.072269514189429],[-74.6135798914217,5.062849573100834],[-74.61272412748724,5.061054550097481],[-74.61077117890761,5.061213538054915],[-74.61484783660575,5.0586724129144045],[-74.61460620917819,5.057466018986702],[-74.608565625305,5.05753886871247],[-74.6098255496658,5.056628111899613],[-74.6091726789283,5.050812552277932],[-74.60632859930439,5.050079841490799],[-74.60323811616587,5.038018588505338],[-74.59690534251712,5.026960445442455],[-74.60131736503621,5.022238846298592],[-74.6016068469226,5.018952475713547],[-74.59334802360831,5.007600574500259],[-74.58763496268182,5.0055704083994215],[-74.59267364710928,4.999452910395576],[-74.59523879255323,5.001168357659026],[-74.59755514026841,4.999906204663262],[-74.60653785033304,5.001631289461557],[-74.60849479441185,5.000576249362382],[-74.6150911815323,5.003363368697364],[-74.61751546943202,5.00181962813997],[-74.62408941799367,5.002639909779134],[-74.63025851295868,4.999783532039601],[-74.6341260111596,5.005654547338793],[-74.64020682873257,5.00306491056466],[-74.64419879418932,4.998829573441867],[-74.65995546740191,4.993562126374343],[-74.66563812653914,4.9934672237556015],[-74.67332147558608,4.995999008581123],[-74.67914150790426,5.000089977056916],[-74.68238655978269,5.004583378175596],[-74.6871373697794,5.0046688633462395],[-74.69153541267934,5.00782568925473],[-74.69362128539763,5.006799680031008],[-74.69673042859716,5.008043497953565],[-74.70175132405438,5.0124469422335665],[-74.71009704047708,5.010746889726192],[-74.71231823669041,5.012168939822573],[-74.71413553370184,5.009051489892784],[-74.71639938148326,5.008559315355683],[-74.72035194216488,5.009534299432289],[-74.72279004924673,5.005702446020678],[-74.72736266203668,5.0056979476131005],[-74.7277153694838,5.002759937248641],[-74.73125644105772,4.998520059552106],[-74.74290818777268,5.001924722624096],[-74.7426333138838,5.010452542278244],[-74.73584446814414,5.024246764102372],[-74.73542921287992,5.034480356461188],[-74.73258410584191,5.047274238986859],[-74.72618752659088,5.059294600069393],[-74.724400636511,5.083464457590821],[-74.72273214690449,5.087237933519759],[-74.71744277035714,5.091992708162422],[-74.71648103981926,5.105544850044282],[-74.71412005769878,5.113090810483584],[-74.71677478357145,5.12105114584034],[-74.7282059159964,5.127046083320806],[-74.72988024818483,5.1295593016735666],[-74.73088060599525,5.144458988133522],[-74.73060148361031,5.149888087853071],[-74.71822233081474,5.1664707906700755],[-74.71481509149424,5.17861700534894],[-74.7148246467537,5.188187230685912],[-74.72234201649098,5.201357774113376],[-74.73000993478644,5.202141126438562],[-74.73358737722998,5.205704721932079],[-74.72473806027381,5.2049652563345035],[-74.7079141784302,5.189141801206915],[-74.7048855273128,5.191930260602533],[-74.70094344851731,5.18876713959736],[-74.69798947363967,5.190604384279823],[-74.69164180814323,5.187392565492985],[-74.68047220145172,5.202677104399413],[-74.67688202997505,5.2028850822161985],[-74.67449066149192,5.200411954609706],[-74.67078514504459,5.186256026466424],[-74.6594196879305,5.186358037679895],[-74.65880181817721,5.1800944185629305],[-74.65625253337373,5.179238818150793],[-74.65499200840247,5.174143376037648],[-74.65165603294946,5.173525838471278],[-74.65068705703402,5.153928138139747],[-74.64329563756667,5.146411314505428],[-74.63681865879323,5.130411655292676],[-74.63551841125815,5.123346010419766],[-74.63723323220006,5.113715818656374],[-74.63088372270624,5.111763068566177],[-74.63032132405709,5.103941726187372],[-74.62584364473912,5.099805154513433],[-74.62327000744529,5.092306503458417],[-74.61576088890234,5.088182149681529]]]}}]}