{"type":"FeatureCollection","features":[{"type":"Feature","properties":{"code":"253427"},"geometry":{"type":"Polygon","coordinates":[[[-74.45108527412293,5.123385088150144],[-74.4469672164712,5.116657368920016],[-74.44967921630769,5.104184700874669],[-74.45154230060848,5.1016301761565614],[-74.45139241848113,5.097775784427142],[-74.45531236416514,5.090566418825972],[-74.45011703045856,5.082239890055348],[-74.45142486687104,5.077675936751405],[-74.44849547279802,5.073329154511953],[-74.44979338371172,5.072108773765933],[-74.44893960055748,5.068340666306938],[-74.45317726504572,5.067933590246071],[-74.45426755398375,5.063466950230122],[-74.45237491430186,5.06344995830284],[-74.45246608470273,5.062230258385796],[-74.45752601983793,5.060849456033509],[-74.4641600284142,5.063185371924476],[-74.47358865675676,5.06200415426963],[-74.48183057967515,5.06595983318897],[-74.48340767570875,5.061543720553971],[-74.48874441717635,5.061333539813347],[-74.49080126210453,5.063451629521921],[-74.491123931831,5.066593782641007],[-74.49546374431549,5.0638522027407475],[-74.49737121311006,5.065020867226281],[-74.5086245422217,5.064397490163287],[-74.5110135607137,5.065869868122775],[-74.51756535868032,5.06549020828254],[-74.5200063957949,5.068017117262116],[-74.52058364926779,5.065683700486488],[-74.52400731075846,5.063595896353149],[-74.53113814551728,5.064384470080995],[-74.53223660440267,5.061895843845775],[-74.54106668948378,5.0658627513005285],[-74.54423961977369,5.072661711772355],[-74.5441323100244,5.076302587522093],[-74.54091675284894,5.084124551080151],[-74.54295600215409,5.091262278460761],[-74.54024826726868,5.098404538187594],[-74.5404329714313,5.119483993817482],[-74.53693504199259,5.128489614496061],[-74.53369055987133,5.130066477073228],[-74.52609975111062,5.1246100269533486],[-74.52194000656982,5.127245452045315],[-74.51914366004854,5.1314104087327905],[-74.51306494358363,5.132167360938524],[-74.50735080896317,5.130232654872316],[-74.50147339058088,5.132828443789549],[-74.49648015508518,5.142100486616414],[-74.48148173300126,5.135971208831961],[-74.47959592629144,5.146376046126136],[-74.4747220806309,5.153410942624646],[-74.46665249691068,5.149222325588539],[-74.46217412236564,5.149495167275006],[-74.46558971881007,5.138549127531974],[-74.46882635185801,5.136618807773118],[-74.46879680676136,5.1343570024785095],[-74.46598234833885,5.132478941997761],[-74.46535698843871,5.127375828731829],[-74.46066751886758,5.1269185770173635],[-74.45275806261913,5.122095526132796],[-74.45108527412293,5.123385088150144]],[[-74.47763201348613,5.1189179102587445],[-74.48219028978741,5.119705192262813],[-74.48164840753805,5.116723661296305],[-74.47937808879624,5.115914644188081],[-74.47763201348613,5.1189179102587445]]]}}]}