{"type":"FeatureCollection","features":[{"type":"Feature","properties":{"code":"253601"},"geometry":{"type":"Polygon","coordinates":[[[-74.29585588228065,4.979956111588024],[-74.28997982555626,4.977180424420055],[-74.29074959626956,4.978362691086318],[-74.28947392542534,4.97910919020228],[-74.2865149790565,4.974557012565185],[-74.28753777851114,4.970846107079069],[-74.28643613145391,4.967444688743228],[-74.2898542671229,4.964312803594225],[-74.291371059401,4.965298197566028],[-74.28981198682254,4.968768225359156],[-74.2921949364752,4.970970375845468],[-74.29095850585526,4.972871389106331],[-74.29245641284336,4.9775511923462545],[-74.29585588228065,4.979956111588024]]]}}]}