{"type":"FeatureCollection","features":[{"type":"Feature","properties":{"code":"253667"},"geometry":{"type":"Polygon","coordinates":[[[-74.22799182262582,5.117603053697678],[-74.22360947273029,5.116056556914316],[-74.21965843722887,5.1097466167463494],[-74.21978132582547,5.107116215596136],[-74.21552237874772,5.102352626172717],[-74.20810973428365,5.099893340374081],[-74.19879009410857,5.102679209122982],[-74.19541875051732,5.102281927948638],[-74.19105507919483,5.096914572832588],[-74.18629507492199,5.0941312710762645],[-74.18173179421944,5.0764349460173435],[-74.17459229174705,5.073454111306432],[-74.17379816237269,5.065897699834181],[-74.17042617189105,5.059336380546711],[-74.15912300548342,5.052974984314233],[-74.15733730428309,5.047010237792335],[-74.15784648720256,5.044202328491849],[-74.16189759427476,5.042933564667521],[-74.17161205250432,5.031001220781093],[-74.18826672881414,5.022249623347761],[-74.18905945950667,5.020858003837077],[-74.18568883582515,5.022051090747027],[-74.18469731027909,5.0210576605254005],[-74.19401465702731,5.011313442254675],[-74.20154823501872,5.005942811549232],[-74.20571226199417,5.0075330562204385],[-74.20729855127547,5.006538022656969],[-74.20987566881877,5.002959323456594],[-74.20908153738753,4.9997780596969505],[-74.21458863521616,4.996277900594919],[-74.22195750813819,5.00233287032205],[-74.22353940288457,5.00724906518866],[-74.22828249339176,5.009777207270815],[-74.2292794563134,5.012193143188824],[-74.23264143387865,5.0130198176266845],[-74.23294149535326,5.016444205197729],[-74.23612280950658,5.020659724233212],[-74.24794872193365,5.020845582308311],[-74.26738412477971,5.03456013686116],[-74.27089148812166,5.034791413014773],[-74.27880170130379,5.031217108349324],[-74.28211971706514,5.031568755472222],[-74.28739304065328,5.041386583487736],[-74.28860813931846,5.048320988810872],[-74.28723684903105,5.050036197475663],[-74.29252325235115,5.0491301900103736],[-74.29521177181653,5.051069013960387],[-74.2975373744859,5.054834623332567],[-74.29859630826843,5.064627722447767],[-74.3016785083309,5.068761539952618],[-74.29852854933307,5.07600936827555],[-74.30071103805534,5.079587360935875],[-74.29952220272673,5.082569670433372],[-74.29496161140139,5.082174438945003],[-74.29575855767979,5.093905079542424],[-74.29139653392218,5.095894836079822],[-74.28882002830215,5.101065950993529],[-74.27276125935566,5.113995516969112],[-74.26106056186217,5.112010602339126],[-74.24678002350953,5.103464377677653],[-74.24063432149802,5.110027704484935],[-74.22799182262582,5.117603053697678]],[[-74.24022110152157,5.061541854959273],[-74.23696188901812,5.057916421274001],[-74.23090266359577,5.061758932435453],[-74.23416738032364,5.064795355492947],[-74.23593857431376,5.0637279740835766],[-74.2386770349479,5.0651990027265015],[-74.23794789491319,5.063572613442943],[-74.24022110152157,5.061541854959273]]]}}]}