{"type":"FeatureCollection","features":[{"type":"Feature","properties":{"code":"253620"},"geometry":{"type":"Polygon","coordinates":[[[-74.37595883162663,5.073378681218344],[-74.37489230690989,5.072184910394071],[-74.37674877523995,5.065728108634403],[-74.38043862953612,5.069267909053394],[-74.38513155261722,5.067064916272614],[-74.38487590546123,5.070114694684662],[-74.38299434519064,5.068423412735115],[-74.38038024382587,5.072163940451105],[-74.37782115487994,5.071698298702529],[-74.37595883162663,5.073378681218344]]]}}]}