{"type":"FeatureCollection","features":[{"type":"Feature","properties":{"code":"253827"},"geometry":{"type":"Polygon","coordinates":[[[-74.35616660550642,5.423040453414785],[-74.35304161606456,5.4201798354067705],[-74.35030611940181,5.412994312188516],[-74.34902887812581,5.4080654499954335],[-74.34992051310695,5.404329259221527],[-74.34820256364281,5.399977038578015],[-74.3398737013361,5.399432443297314],[-74.33922559434433,5.397739445905586],[-74.33382051492828,5.3953487716211725],[-74.33161543235235,5.390865599391759],[-74.32266345729238,5.38860739570282],[-74.32069895621794,5.386227647591738],[-74.3094385442227,5.387278688077913],[-74.29403989550502,5.404067739658785],[-74.28861449817856,5.402990126274801],[-74.28736396761173,5.400463085654565],[-74.27625287210043,5.391616105319827],[-74.27019187981386,5.391758190824419],[-74.26765322602074,5.390326809669091],[-74.26818411627642,5.398451625894722],[-74.26677550689533,5.402418471642932],[-74.26378731367816,5.406454742403412],[-74.25933223849836,5.4084556657696226],[-74.25619179876452,5.404951352788203],[-74.2539843991076,5.406384147023573],[-74.24737500116078,5.401973094325797],[-74.24432534616182,5.402267813041533],[-74.2416478896526,5.3983507264276795],[-74.23839242993591,5.398748327447606],[-74.23921271260349,5.395669030678391],[-74.23491651739465,5.397080809719341],[-74.23358896265381,5.392326880456437],[-74.23601536194599,5.382803011137582],[-74.23233157546065,5.379322436666371],[-74.23325719532477,5.378016648911455],[-74.23097523564212,5.374173991711132],[-74.2311255682273,5.370911751472875],[-74.22661168464742,5.366898943600063],[-74.22654567406431,5.364312709942283],[-74.22265128312,5.3589693000533885],[-74.222873347514,5.351136988306678],[-74.2205452292742,5.34198502642829],[-74.22395491628788,5.341581824510399],[-74.2229266753439,5.337874489776709],[-74.22502724039197,5.338474223974629],[-74.22822395341512,5.331856339320154],[-74.22974518650801,5.331488603242519],[-74.22855263850192,5.329258705377015],[-74.22968682753731,5.325669543830941],[-74.2314200709701,5.325376351323939],[-74.2305456418323,5.318875873667423],[-74.23181386161048,5.312392958723763],[-74.22652240041015,5.30392670472412],[-74.21499501502143,5.297816339997553],[-74.21765664277183,5.294138689200281],[-74.21803364100282,5.290651446307777],[-74.22186637990347,5.289880811702801],[-74.22393511568407,5.292474515967058],[-74.2301494816603,5.291670492975641],[-74.23433299145086,5.293504040407299],[-74.24251404599875,5.292878000706651],[-74.24704763350888,5.290109690556903],[-74.24747424586383,5.280871149245058],[-74.25453004751341,5.281379006502107],[-74.25380491840457,5.289357272754216],[-74.2601042327044,5.303815026150971],[-74.26028661875756,5.306705302384387],[-74.2575792284004,5.311299842597293],[-74.2629549591523,5.315147153499993],[-74.26819932282751,5.316957540406065],[-74.2698193450234,5.315367761619314],[-74.27799118164103,5.315118788026837],[-74.28176681112865,5.3101880910923],[-74.2812863814051,5.306593725627067],[-74.28957827120325,5.311627831428439],[-74.29194618811164,5.304317023342605],[-74.29330267602592,5.3039774563055175],[-74.30605201876295,5.308052388277133],[-74.31118740969737,5.316894381694112],[-74.31724357653161,5.32240482298937],[-74.32348138791195,5.334994518537371],[-74.32848526470235,5.339499232523735],[-74.33549943088502,5.337191580290096],[-74.34026579401797,5.3277477669937525],[-74.3438568149881,5.327253421414525],[-74.35182012357217,5.330923593377804],[-74.35728489687739,5.330542502974026],[-74.35967862974985,5.333342426418369],[-74.35775049131757,5.333952551999516],[-74.35907494016203,5.343795032810704],[-74.35441306061836,5.354484575904223],[-74.35884760294323,5.358580075697773],[-74.3582075435142,5.372196548716033],[-74.36033573252831,5.373511297290634],[-74.35850354572614,5.377068196594905],[-74.36020905412107,5.378892938501735],[-74.36383335960494,5.379055152683293],[-74.36451684604776,5.382781598964357],[-74.36912279580196,5.38743645630251],[-74.37061670831935,5.391217885177468],[-74.37253339607264,5.391085853726906],[-74.3760985846236,5.394791671507903],[-74.37616476798502,5.398736538411015],[-74.37217494066027,5.405675388662701],[-74.36585054264737,5.408247672526215],[-74.36336792148802,5.41150422650577],[-74.35895247425532,5.42298491957564],[-74.35616660550642,5.423040453414785]],[[-74.30357948251094,5.33909840116587],[-74.30497879785696,5.336887018351035],[-74.30264498718788,5.333496841920351],[-74.29820757653675,5.33458120394414],[-74.29804844459738,5.335908339080447],[-74.30336773750918,5.336871752150273],[-74.30357948251094,5.33909840116587]]]}}]}