{"type":"FeatureCollection","features":[{"type":"Feature","properties":{"code":"253808"},"geometry":{"type":"Polygon","coordinates":[[[-74.35895247425532,5.42298491957564],[-74.36336792148802,5.41150422650577],[-74.36585054264737,5.408247672526215],[-74.37217494066027,5.405675388662701],[-74.37616476798502,5.398736538411015],[-74.3760985846236,5.394791671507903],[-74.37253339607264,5.391085853726906],[-74.37061670831935,5.391217885177468],[-74.36966704861135,5.388329236968559],[-74.37323135064486,5.367087044708285],[-74.3790779455764,5.367004641779943],[-74.38850220612358,5.363390565185398],[-74.39343948714713,5.364487530772237],[-74.39397876023781,5.361960435644562],[-74.40018397204722,5.362330743857001],[-74.40452437074396,5.365219967993653],[-74.40953436368204,5.360514089622143],[-74.41352102443227,5.359331197662868],[-74.41231542343371,5.355270658744303],[-74.41357624459641,5.351019893955254],[-74.41808410664538,5.346660011414997],[-74.42132542630588,5.333201485570271],[-74.42451845236258,5.327688653146197],[-74.42961888036513,5.321441327644152],[-74.43688239552176,5.320894191081948],[-74.4384043937759,5.319537355554132],[-74.43691289398464,5.3060861193100095],[-74.43735279895918,5.298181106961636],[-74.44049900414177,5.29033859820737],[-74.43915870082748,5.286068133601873],[-74.44860057756654,5.264079971873514],[-74.4533466114762,5.263655041022105],[-74.46259597303174,5.258358750255638],[-74.46356478336787,5.259582821053414],[-74.4706588842169,5.254920295647821],[-74.47429612442227,5.255309106569541],[-74.47650165539915,5.251717766782235],[-74.47819605558647,5.254758425994453],[-74.48073961196508,5.252593333377433],[-74.48124422859973,5.25441398105454],[-74.48286244999281,5.253783340102075],[-74.4849210689843,5.255887833800614],[-74.48630949723787,5.254753204591793],[-74.48852058591814,5.257229448379121],[-74.48932612586219,5.254451696098613],[-74.49052774781666,5.254769661728972],[-74.49084618755904,5.256331583093242],[-74.49217206902398,5.256111414118834],[-74.48525141706261,5.259341920734698],[-74.48152385080772,5.2649541922374965],[-74.47949550916394,5.274986097762394],[-74.47153052936073,5.283830409288839],[-74.47356919348209,5.2899487609000175],[-74.46865407642326,5.294882396094806],[-74.46136203432803,5.29471624400685],[-74.45441044167353,5.299990119868539],[-74.45862750234437,5.306787675487897],[-74.46505802225539,5.31222401544278],[-74.45809406360809,5.315967479362143],[-74.45765476849999,5.319576913567175],[-74.4600489765129,5.328021332703713],[-74.4532867808042,5.3450302694088805],[-74.44300669358756,5.352424317575299],[-74.43680643167198,5.363363991259121],[-74.43603292154171,5.367543302947297],[-74.43768429889309,5.371916753729693],[-74.45302418446215,5.378824120270565],[-74.45739961705328,5.386348340463485],[-74.44963893427115,5.388866959167899],[-74.44588743101656,5.392965560744074],[-74.44602678497785,5.394941306809017],[-74.43838967984874,5.401701889919821],[-74.43298940120235,5.417053898769268],[-74.4311122364951,5.418363916508326],[-74.4343497324063,5.424044257536082],[-74.43443736907864,5.427343654374056],[-74.43937639948291,5.4320836328141695],[-74.43872341458831,5.434108439700992],[-74.43599747318495,5.435431427128663],[-74.43096278322827,5.432998488998919],[-74.42512857794372,5.434804739509218],[-74.42739024542703,5.438133424333273],[-74.42293927064759,5.442707043968426],[-74.4231741226958,5.4401489515832395],[-74.42104731179467,5.43794486865346],[-74.41187531482757,5.432143430575991],[-74.40556486558057,5.432492734906816],[-74.40556777915822,5.42317984954218],[-74.40779972876652,5.41977065515249],[-74.40881106417237,5.4086136581946676],[-74.40295324070541,5.411293449268442],[-74.38481740456547,5.413002843119216],[-74.37487496428366,5.418364466725052],[-74.36845356048707,5.419990728481707],[-74.36527257440696,5.419240550626853],[-74.35895247425532,5.42298491957564]]]}}]}