{"type":"FeatureCollection","features":[{"type":"Feature","properties":{"code":"253848"},"geometry":{"type":"Polygon","coordinates":[[[-74.32792349443162,5.8240998581602526],[-74.3253672378163,5.824493201428197],[-74.32598430024223,5.821168620089793],[-74.32377812237502,5.8206948423325],[-74.3244984435151,5.818619238612769],[-74.31557052681097,5.815360874574367],[-74.31831103096039,5.811674839913678],[-74.31822669250317,5.808350551681428],[-74.31453677135823,5.808744316610785],[-74.31843154076938,5.804314048492927],[-74.31570888318305,5.801982174381067],[-74.31686126228124,5.796696235917068],[-74.31263676494257,5.800599906498235],[-74.31144031194026,5.798917328257687],[-74.3085547151203,5.799641915377379],[-74.30700794991344,5.798279337026543],[-74.30335981027423,5.800036206869265],[-74.30131785513686,5.797889353680318],[-74.3029654509051,5.794502225553231],[-74.30148003537983,5.791189775722842],[-74.30420110813628,5.791229411897518],[-74.3055422753423,5.793603722633009],[-74.30638545114039,5.788173260227154],[-74.30931217434824,5.787397801198267],[-74.3130830308341,5.782399051193806],[-74.30757697481778,5.777560050194211],[-74.30773963740029,5.772232709719731],[-74.3037963656115,5.772111055254186],[-74.3048735491065,5.769125419773559],[-74.30211265814108,5.766580984076597],[-74.29918396238048,5.766363951851872],[-74.29666456617355,5.7621713619423645],[-74.29484913887063,5.761734608115717],[-74.2940734556413,5.759237986768369],[-74.29576607970836,5.754231076072529],[-74.28913214312308,5.749978937284254],[-74.28731562155735,5.746390785668723],[-74.29152486812188,5.739928221545654],[-74.29169244048899,5.7352858494996894],[-74.29570983213011,5.7336114566331275],[-74.29861216273827,5.72724541492579],[-74.30212072318727,5.724626207343931],[-74.30064376043106,5.722225933577022],[-74.30112540577363,5.715789597823516],[-74.30436629451674,5.709859722702106],[-74.30126714675004,5.707243056401751],[-74.30187098340514,5.704636254921979],[-74.299717503961,5.706455801137167],[-74.29666785821803,5.706359735349963],[-74.29509418278423,5.704663680398653],[-74.29613470333192,5.703426704704157],[-74.29296310796042,5.701511954536613],[-74.28483042517792,5.7012605599904305],[-74.28163453079497,5.697528168283213],[-74.27943239470687,5.699104625654002],[-74.2771321853117,5.696062535878241],[-74.27831720409011,5.6932735818018045],[-74.2761868779724,5.691941626355401],[-74.27858185114661,5.690073492401837],[-74.27848467464145,5.688025340898264],[-74.28097709171578,5.687370022467576],[-74.27913703012928,5.685115627101254],[-74.2816776215081,5.683490444180791],[-74.28106747021593,5.6811225766376765],[-74.2838481165337,5.678733196133919],[-74.28248995945722,5.675062325858164],[-74.28506888603096,5.675115671171625],[-74.28519050758632,5.672831204146121],[-74.2833308346294,5.67250518992455],[-74.28394071955495,5.669255244716624],[-74.28628922358234,5.670329368595162],[-74.28421205251624,5.66756980534899],[-74.2856096153962,5.662986896820996],[-74.29266825143338,5.663555189474209],[-74.29235516062056,5.660522603535753],[-74.2971196375899,5.656033390234995],[-74.30052712785033,5.655733690772195],[-74.30025551823803,5.652116699571536],[-74.3028210812297,5.651408130444054],[-74.30407022339915,5.653107692384367],[-74.30549522923928,5.651379971687902],[-74.30473508166267,5.649354697888157],[-74.30823752493558,5.648183440699086],[-74.3057533364298,5.63749701584328],[-74.30800628374902,5.635333791906305],[-74.30894278556343,5.629608248772968],[-74.3134356344085,5.626764787243019],[-74.31510404791021,5.623147038080219],[-74.31499584135906,5.620577795321253],[-74.31399721544585,5.62174924380065],[-74.3101125011172,5.618686430908099],[-74.31064249354256,5.615048769041323],[-74.30800436261836,5.612924758589088],[-74.3071367499976,5.607128698237602],[-74.30571200332497,5.606287142236454],[-74.30574909718973,5.601487691022385],[-74.30709253828218,5.600725311725512],[-74.30479749989598,5.598646366596029],[-74.30499463587176,5.593422966693083],[-74.30236548427922,5.590885217929383],[-74.30000299446198,5.578748473149233],[-74.29069453037181,5.568314254280779],[-74.28393563596359,5.56664597139121],[-74.26978942865901,5.559384794912887],[-74.26308191523901,5.561040601766194],[-74.25977325624768,5.559976817848792],[-74.25123752787056,5.551792246027446],[-74.25033217552311,5.547861148941138],[-74.24298372335574,5.544585190308169],[-74.24027023227757,5.539128594149474],[-74.245946696077,5.5321471355242124],[-74.24624518917676,5.522397782240034],[-74.24998248346947,5.5122348706217394],[-74.25102614796594,5.503002997731187],[-74.25648271841357,5.499791224195803],[-74.25276665528821,5.492891518523265],[-74.25435506521796,5.487493626891933],[-74.24604523526853,5.476330357463269],[-74.2355919295353,5.480334616921823],[-74.2225541662645,5.493758510993189],[-74.21288156770237,5.5002783490801335],[-74.2073324394849,5.499079113112316],[-74.20207294536334,5.496399011448943],[-74.19740076905316,5.491507769683153],[-74.1886312150134,5.477661441818839],[-74.18377458548065,5.464493664901738],[-74.17911341247697,5.462405551207212],[-74.17699968953525,5.459482783389319],[-74.17961186771248,5.454824159894656],[-74.18470311686553,5.452527553133621],[-74.18302771612537,5.450344003058717],[-74.18801133568348,5.445701880924275],[-74.18737529849307,5.443232177002926],[-74.19477276314558,5.439443001898894],[-74.20062832918126,5.430342505341059],[-74.2104239695779,5.420827399380869],[-74.21181104748644,5.417085624164088],[-74.21950881118374,5.416643071978569],[-74.22385390472056,5.411379123672418],[-74.22396055112443,5.40919299734901],[-74.22684299473963,5.407513735835607],[-74.22752847121876,5.401715970326393],[-74.2319976350326,5.401677556969844],[-74.2317370112433,5.3990687736813925],[-74.23339665213035,5.399067222790052],[-74.23601918775216,5.395683418589215],[-74.23921271260349,5.395669030678391],[-74.23839242993591,5.398748327447606],[-74.24176801276724,5.398412851554895],[-74.24432534616182,5.402267813041533],[-74.24737500116078,5.401973094325797],[-74.2539843991076,5.406384147023573],[-74.25619179876452,5.404951352788203],[-74.25933223849836,5.4084556657696226],[-74.26378731367816,5.406454742403412],[-74.26677550689533,5.402418471642932],[-74.26818411627642,5.398451625894722],[-74.26765322602074,5.390326809669091],[-74.27019187981386,5.391758190824419],[-74.27625287210043,5.391616105319827],[-74.28736396761173,5.400463085654565],[-74.28861449817856,5.402990126274801],[-74.29403989550502,5.404067739658785],[-74.3094385442227,5.387278688077913],[-74.32069895621794,5.386227647591738],[-74.31843022847676,5.3942011017612685],[-74.31884626638572,5.407868887890572],[-74.31761455940227,5.409516119590194],[-74.32127723916182,5.421567716528898],[-74.3283869579389,5.434048292268756],[-74.32880179976922,5.444010897222995],[-74.32502335132068,5.4464825305025215],[-74.32420354893571,5.451011386148593],[-74.33616275676917,5.460157053958767],[-74.33692478948097,5.463218087645771],[-74.34064051836253,5.465455083821496],[-74.34658627675014,5.475933643989208],[-74.34688603689108,5.4847694369262285],[-74.34049703931828,5.513020895869033],[-74.34400077328655,5.5253075669995155],[-74.35086347971105,5.53407597843966],[-74.35276347995602,5.5446551130866055],[-74.36386997113016,5.55685762059511],[-74.36477377567161,5.559570013296707],[-74.36252276799496,5.570784050761915],[-74.37624612395888,5.580453084742317],[-74.37725555160387,5.591904314990927],[-74.38924988383468,5.595451113961246],[-74.41038005710737,5.608399772972234],[-74.41841177665935,5.622585661702942],[-74.43241983533733,5.634881260742986],[-74.44276402640463,5.649215823181123],[-74.45667320753347,5.662590731506839],[-74.47109765276241,5.682677376037475],[-74.47476334791543,5.717259117741264],[-74.4717758499254,5.719223117964134],[-74.46986074700203,5.728187871422392],[-74.46730050002981,5.729408087617571],[-74.46723766939101,5.73160547538663],[-74.4689366605457,5.734234584813009],[-74.4714661303471,5.734232863200248],[-74.48085190966054,5.741072724831042],[-74.47832666367253,5.74719969376207],[-74.4695871730645,5.749146463459056],[-74.47122382517591,5.754565232473453],[-74.48035088640404,5.757269426431321],[-74.48438971592947,5.760266460140315],[-74.48336175060808,5.771640429673198],[-74.48139297532657,5.775613748438616],[-74.47715084842622,5.77498714617991],[-74.47482678842061,5.776908048490668],[-74.4742915920761,5.774895312433671],[-74.47130778413782,5.776691188015832],[-74.47005005961557,5.775118651067885],[-74.46477096337958,5.774713072419331],[-74.46272757767866,5.77282567162365],[-74.46179053284658,5.766402693281577],[-74.45991458375835,5.765084850123401],[-74.45568460584951,5.766457613140517],[-74.45271719539875,5.762272839394143],[-74.45196126135107,5.768642705879245],[-74.44950476674546,5.7709286806014575],[-74.447476795341,5.769229997979551],[-74.45003338002942,5.765523145585348],[-74.44088705195918,5.766302145541829],[-74.44204974530743,5.761403708792216],[-74.44083227711064,5.7599587912764605],[-74.43847562987537,5.759528500182569],[-74.43480304518596,5.761738306395046],[-74.43084835562831,5.758454901838206],[-74.42717799443159,5.763405683226722],[-74.4234028565395,5.764066965595589],[-74.42444420292651,5.768254205547123],[-74.42076967962294,5.7673555401329395],[-74.41871572153292,5.764513989449199],[-74.41894685061925,5.769843346699474],[-74.41628665343234,5.770454143853556],[-74.41430957142063,5.768780181904447],[-74.41486540449273,5.765938203388657],[-74.41169799693915,5.76566087152213],[-74.41160741172206,5.772933456513385],[-74.40516077097453,5.778348037709861],[-74.39460875532836,5.783717375663059],[-74.38946618689369,5.781312597317935],[-74.38487439467917,5.7841748083834545],[-74.38191437667331,5.789993064581381],[-74.36778444652845,5.804731983878412],[-74.36118189903726,5.809144717051254],[-74.35936283516162,5.812053956736236],[-74.35467464908675,5.813629673628441],[-74.35354587891499,5.8168957489288005],[-74.34608587672983,5.82256339794742],[-74.34551239764096,5.8319691598990175],[-74.33341289379285,5.836980955696845],[-74.33390331792077,5.8269365988183495],[-74.32792349443162,5.8240998581602526]]]}}]}