{"type":"FeatureCollection","features":[{"type":"Feature","properties":{"code":"254057"},"geometry":{"type":"Polygon","coordinates":[[[-73.99976363942596,5.367892080715535],[-73.99918816824396,5.36593084597456],[-74.00164457748889,5.361103400555123],[-74.00673048285455,5.35534936956401],[-74.00598083876139,5.352584413165289],[-74.00721806539582,5.352114331630389],[-74.00480104344251,5.34922709752999],[-74.00605482902995,5.3469405376239365],[-73.99779684492472,5.337999454798705],[-73.99623488859345,5.334127751296364],[-73.99180686967941,5.333702112876438],[-73.98630344339063,5.330300035308937],[-73.98205468097916,5.330380745420939],[-73.97816017896304,5.326274639299697],[-73.97700915226676,5.317267735124801],[-73.97282821975318,5.3137493335093495],[-73.97516130125655,5.304651464622111],[-73.98226541502191,5.295911551324195],[-73.98626642665903,5.280950705444525],[-73.98685881057827,5.267215774360068],[-73.9951862608334,5.259220781518877],[-74.00239721126445,5.259922552641285],[-74.0097834988037,5.250985656605508],[-74.01457044621361,5.2479409823536685],[-74.0158382175909,5.2444358497036205],[-74.01985987418311,5.243078692273286],[-74.02357444812372,5.245620094064805],[-74.02803312388079,5.236376373516464],[-74.03165990276887,5.2368141177332745],[-74.0366861060179,5.243869099714175],[-74.04632919239356,5.243278524825314],[-74.04853729961894,5.237462923037469],[-74.04732666439429,5.230204788692106],[-74.05391402898852,5.226045353712493],[-74.04804040350228,5.219713898527061],[-74.04955162470719,5.213022213865884],[-74.0564514939021,5.213586568612698],[-74.05958810680136,5.218517342680457],[-74.06315105437608,5.220489943768143],[-74.06796453148922,5.219654712688566],[-74.0685491280417,5.221455397267903],[-74.07626428990113,5.225351881092763],[-74.07816362474375,5.230391051973527],[-74.08809968148284,5.233523261081928],[-74.09194754157386,5.237442183465646],[-74.09351272104402,5.243153887876474],[-74.09758279259626,5.2457027767295585],[-74.10334812719913,5.24570258852458],[-74.10860536388935,5.242982721102749],[-74.12251053306392,5.2411123276609715],[-74.13943259722947,5.234799020372236],[-74.13951179964477,5.237904112536739],[-74.14521480343183,5.246490938051977],[-74.14528954343501,5.249675164754478],[-74.16142321282172,5.2593819795992545],[-74.16244291563589,5.266361843110133],[-74.16517746510311,5.271102227785036],[-74.16892387653877,5.274124300984113],[-74.16905047884126,5.276317191374005],[-74.17138352537756,5.276122433157298],[-74.17392910573108,5.279430617008188],[-74.17708048706487,5.2806102416055865],[-74.17441148332472,5.285328783189868],[-74.17715744130476,5.289850937504525],[-74.17416131056825,5.29771645663169],[-74.16133785003575,5.309957798129744],[-74.1570531055059,5.323271745525176],[-74.15462188281828,5.324548228838978],[-74.14896222171268,5.323066975420602],[-74.14503987872916,5.332677724478117],[-74.13269631210164,5.33400932614029],[-74.13127379714922,5.349392525594453],[-74.12766562072943,5.351228520719303],[-74.12230011783839,5.357904835307011],[-74.11424493334187,5.35847953824242],[-74.10780400353565,5.355464048103954],[-74.10395101563023,5.357441208277351],[-74.10407626450234,5.359311944190438],[-74.1075691525158,5.361944421766111],[-74.10744541236886,5.369461325619],[-74.11040188841872,5.379472784678171],[-74.11407990842685,5.3829303724306214],[-74.10959596897936,5.389757973998201],[-74.11011024474618,5.401057021493557],[-74.10549909004436,5.404173627072055],[-74.10307789569976,5.413925325205184],[-74.09998251408956,5.417539187883733],[-74.09921190622401,5.427754264163411],[-74.09315631737445,5.437099089867331],[-74.09040974849955,5.434292464063105],[-74.09258033814189,5.428579596483814],[-74.08702759906271,5.428023528926815],[-74.07538653478025,5.410077962880393],[-74.06913193921798,5.405764432244439],[-74.06770022176192,5.400615616021412],[-74.06462686321981,5.397701464494958],[-74.06465754474544,5.388907266915567],[-74.05903773578746,5.382271882283192],[-74.06034050814895,5.3782467104744],[-74.05785046883369,5.373212003034212],[-74.05480094341851,5.3714112145821105],[-74.05529216870315,5.369645616347668],[-74.04636268465265,5.370932654567071],[-74.03885629148232,5.366314658665658],[-74.03662990060582,5.367471975316391],[-74.03562354491862,5.364926334284803],[-74.02714924335623,5.35856172211254],[-74.02408042538787,5.359835370010387],[-74.02023130545473,5.365269762095124],[-74.01550954176008,5.367435054229986],[-74.00983541149668,5.368614506049084],[-73.99976363942596,5.367892080715535]],[[-74.02239775458747,5.335691812849461],[-74.02476495981364,5.335499828342279],[-74.0259291444035,5.331716669626985],[-74.02322268787213,5.330168895518057],[-74.02110410348268,5.332014644391734],[-74.02239775458747,5.335691812849461]]]}}]}