{"type":"FeatureCollection","features":[{"type":"Feature","properties":{"code":"990001"},"geometry":{"type":"Polygon","coordinates":[[[-67.48400120642793,6.200756899213445],[-67.48027512318708,6.199163604181706],[-67.47968502035337,6.192214842829458],[-67.47649421059032,6.190929176552402],[-67.4793594020822,6.186384860329952],[-67.47399893958794,6.184560014550414],[-67.47802414636374,6.177381151525935],[-67.49373568740486,6.168665950673301],[-67.49870515148018,6.175289893882621],[-67.50322606652156,6.186352096208168],[-67.49925845766899,6.1868455634975135],[-67.50066298104798,6.189606832929769],[-67.49934419069427,6.189692448712606],[-67.49673996237772,6.194931704113799],[-67.49600203738697,6.193620441959297],[-67.4896486619777,6.193287899184668],[-67.48830299327875,6.196596548920013],[-67.48636229962017,6.196768140440497],[-67.48677992338753,6.199333148073151],[-67.48400120642793,6.200756899213445]]]}}]}