{"type":"FeatureCollection","features":[{"type":"Feature","properties":{"code":"990009"},"geometry":{"type":"Polygon","coordinates":[[[-68.17545697837608,5.825554766995083],[-68.17359461089973,5.819359059023043],[-68.16725765663216,5.816526086578335],[-68.17009285051267,5.8131067260342775],[-68.1700558625775,5.804756703522742],[-68.17493976023525,5.801670417458183],[-68.18021559527995,5.790847784646758],[-68.17558703727389,5.780462868284133],[-68.17544669806466,5.776127398912365],[-68.17271038996074,5.773476816634627],[-68.17270411029074,5.76883934923103],[-68.17902996457826,5.762884275211036],[-68.18648087121778,5.750883719874537],[-68.18695867738444,5.746120892527017],[-68.17790796361516,5.72974736566232],[-68.17764297717264,5.726007415931008],[-68.18525331194303,5.715443073372853],[-68.18705604415146,5.709821049149639],[-68.19636364537837,5.707226808038399],[-68.20084096062766,5.694821468010957],[-68.20974025269118,5.683331950904233],[-68.20898704195929,5.675484016087239],[-68.21014357802215,5.672456619669731],[-68.20871287255358,5.666024216680398],[-68.21815729468784,5.663852602709312],[-68.22536756017621,5.668408744992348],[-68.23268062775031,5.656560145123308],[-68.23998533511514,5.652576823725951],[-68.2506093849322,5.651869435250546],[-68.26123356844681,5.639068723866558],[-68.27257589280333,5.635335921810736],[-68.28516713924267,5.635575865677879],[-68.29647321511419,5.623319300145226],[-68.31802914507767,5.618036563222745],[-68.32445979354407,5.615070776682785],[-68.33993058133376,5.596460838826147],[-68.35621166047201,5.5945477948446865],[-68.36575735951175,5.586574596757316],[-68.37299732333474,5.583264596676997],[-68.38579306014225,5.58071811335094],[-68.39778167937487,5.581570396007521],[-68.41009593024842,5.586430741303161],[-68.42070599838945,5.5945890847549435],[-68.4378652954477,5.583500131611061],[-68.43897801883082,5.574303507559421],[-68.44400836773167,5.56461258215154],[-68.45633902020649,5.5592363340931],[-68.4683083664263,5.546782649039756],[-68.47182875602113,5.540685277655939],[-68.46888682523382,5.55833920002982],[-68.47199866500966,5.563712638383322],[-68.47783633511705,5.561943567098524],[-68.4849081722424,5.552569643670438],[-68.49089827501456,5.5495113034743895],[-68.49971053307303,5.555327044102],[-68.51482310713436,5.553457359257095],[-68.51906634475256,5.549896081873044],[-68.52504085222239,5.540740043248547],[-68.52557480106617,5.535045251574957],[-68.52545982942013,5.530534729973624],[-68.51944024017246,5.528609355994831],[-68.51479267243491,5.52477853822478],[-68.51257366680414,5.5185798631960665],[-68.5126271838675,5.512735584317056],[-68.51904419210075,5.5071983973456895],[-68.53664509826274,5.503650088621782],[-68.5437630497222,5.520890730341023],[-68.55713851032152,5.5382059742521506],[-68.5604732691271,5.535115941571462],[-68.56067128442118,5.524690787395343],[-68.56391393180098,5.523161539649891],[-68.57520444116659,5.523232910475372],[-68.58048463989292,5.5141249947332085],[-68.58516138248785,5.511240535370689],[-68.6007641143105,5.509987317483535],[-68.61602356436168,5.5042023632827295],[-68.61999896778013,5.505671407031571],[-68.62457656851626,5.510304749352258],[-68.6293983101935,5.51011836574304],[-68.63153335891928,5.506416544489639],[-68.63626525585806,5.481953897610708],[-68.6319853974586,5.455996770514105],[-68.63907378530939,5.449984427672462],[-68.65694115784271,5.457445324602588],[-68.66598193274348,5.469452666631241],[-68.67202479667378,5.4824132689452085],[-68.68111995047275,5.485954082380033],[-68.6810050065946,5.4831406308027795],[-68.67482472731723,5.477173015954747],[-68.67300211325801,5.472430977544263],[-68.67525239074041,5.469969880658368],[-68.68556818548132,5.4672731747905345],[-68.69363998240982,5.456456332110463],[-68.69376910953872,5.453953418751723],[-68.68981772950912,5.446477873714798],[-68.6899021800665,5.437655336373325],[-68.69449493798851,5.433413148794898],[-68.69766871365817,5.4341550733985855],[-68.69951492738784,5.451650677331088],[-68.70287963649645,5.454540582296772],[-68.7078464101661,5.4530871770448925],[-68.7112037083179,5.447112996619751],[-68.71119568646628,5.4341319457832356],[-68.71964222727973,5.4314577124128505],[-68.72484566922714,5.420886259203087],[-68.72952217939411,5.419592991707361],[-68.73664748216066,5.424225660398179],[-68.74094378124221,5.4219946682698605],[-68.74121104774173,5.418558640786387],[-68.73768626978267,5.414678226375884],[-68.73687713748882,5.408880388875673],[-68.7503288118495,5.393014407649957],[-68.75441051611506,5.393586034513817],[-68.75744689289269,5.396451365873929],[-68.76107805808812,5.409622865752965],[-68.76365658048394,5.408345555571373],[-68.76648790227836,5.402702144886007],[-68.77062282227365,5.400928557710131],[-68.77371149226798,5.403224778805168],[-68.78214234933307,5.417526099924203],[-68.78685096439011,5.4197949356519075],[-68.79361085021691,5.419442279626878],[-68.795539868996,5.408297621922429],[-68.80104815570411,5.402697439761482],[-68.80670326800845,5.404367636582549],[-68.8092825997885,5.414519690933162],[-68.81324199344226,5.4184995835032055],[-68.81817012955491,5.418425506845438],[-68.82484955518129,5.411457422086698],[-68.82228391608487,5.805236250842597],[-68.81949231376899,5.807198787591801],[-68.81019675354702,5.80754341867987],[-68.80855091847235,5.818518029584482],[-68.80589827930953,5.821181464308381],[-68.79561234334028,5.826182164239867],[-68.7856523907393,5.826527271496786],[-68.78169936725851,5.851469835934893],[-68.77705552351131,5.855133165670111],[-68.7710797932233,5.85580559224212],[-68.75512905907806,5.844852484013643],[-68.74450382758056,5.844532698040041],[-68.72824103003654,5.850204356955999],[-68.71662937303944,5.858530335509897],[-68.71231402925929,5.8595327543191615],[-68.7076640107432,5.858207984600597],[-68.70101331054485,5.849237736173961],[-68.69071741719512,5.846589022576268],[-68.67643970088875,5.846271925979806],[-68.65917092818131,5.843297483039123],[-68.65452419039684,5.844964819761572],[-68.65020709003687,5.844304214107865],[-68.64189730019666,5.835334843971111],[-68.62461799418094,5.821053922009469],[-68.60334124213824,5.791480513337547],[-68.60100559158548,5.778847166575247],[-68.59336544432335,5.774198976629975],[-68.59269726316211,5.769544402113468],[-68.59568065766643,5.76455397426588],[-68.59500674705185,5.753581635190756],[-68.59002433591371,5.7505934944242085],[-68.57774189990948,5.751601938878139],[-68.55781014087904,5.736323326885952],[-68.5468511797842,5.73167718868342],[-68.535894497718,5.729690958675462],[-68.51597567443753,5.72904150956623],[-68.50933473827246,5.727051443467644],[-68.50335925481068,5.727055919249494],[-68.49639197532247,5.732713872112072],[-68.48544034188058,5.737709571756],[-68.4718305784213,5.739714228368598],[-68.46154387934769,5.746704139762869],[-68.42967474426155,5.74905233114373],[-68.42270762726724,5.756704571861405],[-68.41308415123353,5.764025787785556],[-68.39416606731567,5.774344806693762],[-68.38818930447138,5.773018011971942],[-68.38254311493432,5.769030806147157],[-68.37456975126776,5.758726819983281],[-68.37058479156144,5.756733745690326],[-68.36128881584875,5.756405917296206],[-68.34602695204296,5.777362284811659],[-68.34005345141833,5.783017982299782],[-68.33075924256991,5.787677534478064],[-68.32411928445367,5.788345518178346],[-68.30884288875507,5.77904126144648],[-68.29888160843478,5.776385031990856],[-68.29323749223784,5.7763872133174345],[-68.28361158085227,5.782708756373893],[-68.2597081753039,5.7870397581913835],[-68.25605675698995,5.789368593255574],[-68.25605842820909,5.794688988657754],[-68.26602361146871,5.808651813348433],[-68.26635674251247,5.811976952102668],[-68.26569434119813,5.8169650453857],[-68.25739525744456,5.822288144563288],[-68.24710219025485,5.8222913337635305],[-68.24278486980825,5.819299889639581],[-68.24078864025364,5.80533441156723],[-68.2384631465992,5.800679719808329],[-68.23348172070894,5.796690818081856],[-68.22850125229871,5.796027121958389],[-68.22318918522404,5.797026072859467],[-68.21688415278379,5.810661216223195],[-68.2082525684217,5.815651168930344],[-68.20094955078787,5.823300901276696],[-68.19563759992724,5.82629477046811],[-68.18999349298628,5.828956132880364],[-68.1840167856779,5.828957295020416],[-68.17545697837608,5.825554766995083]]]}}]}