{"type":"FeatureCollection","features":[{"type":"Feature","properties":{"code":"991028"},"geometry":{"type":"Polygon","coordinates":[[[-68.37371300414219,3.9172643116626773],[-68.39084394189797,3.9140991965074363],[-68.40173179236331,3.922954260400445],[-68.41129083441632,3.9266215115869727],[-68.42309436073509,3.925875263410944],[-68.43005216826771,3.9225602887541413],[-68.43677279535825,3.9125360842067494],[-68.43749922647532,3.90876908129502],[-68.43466069324194,3.9001345555873286],[-68.42916745984695,3.8955442196474337],[-68.4080324446669,3.88380302414447],[-68.39201895598762,3.8713661839511246],[-68.39032512350059,3.8686111962457517],[-68.39017893553876,3.8619955854777004],[-68.3931102970223,3.854871368746444],[-68.39658975974714,3.8515139842054396],[-68.4027159100379,3.8491181245138364],[-68.41148946060531,3.8509469503658806],[-68.43208971035824,3.8799398248332864],[-68.4380785296342,3.883283526974992],[-68.44520501408118,3.882305432888188],[-68.44757742116963,3.880089984640108],[-68.45050760714338,3.8726415627176607],[-68.44901232474058,3.8664088452131296],[-68.44128366148777,3.854153080837193],[-68.44073395484776,3.850731269514654],[-68.4437863671011,3.8408098619107705],[-68.45565770686267,3.8390015000080098],[-68.46877302704064,3.8512895842185344],[-68.48000331595455,3.8511738998618057],[-68.48945661354782,3.8453597615476838],[-68.4961936401827,3.8373257547395383],[-68.5048987694978,3.8314881710213626],[-68.51250642311845,3.8219770039960395],[-68.51474909938224,3.816906907848704],[-68.51447450934353,3.8120896902901222],[-68.5110180611054,3.802010057833229],[-68.50783702977378,3.799240241015184],[-68.50467151661127,3.790586423782713],[-68.50656238222984,3.7844417142182465],[-68.51004953050557,3.7817399155030103],[-68.51870885504775,3.779929339363491],[-68.52445502565268,3.7833782995116394],[-68.55163803052056,3.813548938123972],[-68.556482848391,3.8171965779400807],[-68.56347950431132,3.8187411361092813],[-68.56999352655583,3.8166116214327417],[-68.57454995885962,3.810717444579609],[-68.5731995541829,3.8034399148367584],[-68.56938497654863,3.79718118287866],[-68.55655897370622,3.7866909046369415],[-68.55142435101845,3.7800076624603776],[-68.54874648827439,3.7699164065461446],[-68.55113446495415,3.764618706813451],[-68.55494961851616,3.764594133207936],[-68.55760497482407,3.7667680673453106],[-68.56046590856397,3.779114322321618],[-68.5692630186926,3.7851656637035376],[-68.57564114974173,3.787109726539825],[-68.57983760248135,3.7872344766173],[-68.5876810275779,3.783330521157552],[-68.592249487517,3.7756388664088263],[-68.59479962798457,3.774471889597521],[-68.59777510348158,3.776027322517905],[-68.60285544291634,3.784161988137555],[-68.6063507415991,3.784649543939281],[-68.62688165375744,3.774913269358592],[-68.633946133405,3.7748740054801146],[-68.64114160783305,3.780413232881415],[-68.65266990750712,3.800535723776079],[-68.65770486383047,3.8054932702594897],[-68.66582300237883,3.8093957077380765],[-68.67579442108547,3.8095386571343965],[-68.68028058299728,3.805396265504214],[-68.67998324483852,3.795051425489703],[-68.67178933270219,3.7876381248792654],[-68.65713334906684,3.7826083107685236],[-68.64890074897988,3.7759152562219356],[-68.6470089279382,3.7670570380957997],[-68.65296761590525,3.761817138889512],[-68.65692762148228,3.76275176173948],[-68.66427447853528,3.772303220057381],[-68.67018773196872,3.7762194448363857],[-68.67857215588248,3.775871389034762],[-68.69352675397386,3.7702117032465594],[-68.70774818156428,3.7673768909181717],[-68.7334209556173,3.773392001298646],[-68.74427793532357,3.780355762485044],[-68.75210661975348,3.7818010163015288],[-68.76160482017553,3.779449932940281],[-68.7680068697124,3.7708821963466335],[-68.77075361239406,3.74422147881279],[-68.7754382205174,3.734947118904927],[-68.77962681389931,3.7304178817066713],[-68.7924368182899,3.723558459099138],[-68.80131743795101,3.7204063537417937],[-68.8114491486802,3.7203750335533528],[-68.81669855378061,3.723605109251821],[-68.82876854544219,3.7385005215046476],[-68.83353754550177,3.7419023316771245],[-68.84798823349843,3.739876920066081],[-68.85442013049402,3.73351524615407],[-68.85501485103464,3.7248727160782664],[-68.85105434563457,3.7148971887437483],[-68.83761151279424,3.6983323468879803],[-68.82929553995763,3.6752278848534274],[-68.83107339105624,3.6689785189213353],[-68.83308747951514,3.667919902927565],[-68.83619371942149,3.667870135565636],[-68.8397627769732,3.6701144573374336],[-68.84516539944008,3.690258136204875],[-68.84987211085007,3.6983703282986085],[-68.8618753000278,3.7046904623888395],[-68.87436303681295,3.704884368026626],[-68.88181735993857,3.70199640167516],[-68.90488901877052,3.6832412981285643],[-68.91553447150483,3.684104559409036],[-68.92095027757637,3.6868635097034144],[-68.92429960632711,3.6894364764527268],[-68.92749571359758,3.6991188616739237],[-68.92605377753671,3.7304258603637663],[-68.93067025751384,3.7382451191180053],[-68.93826160106465,3.7404470999113073],[-68.94232030009954,3.7394110428041927],[-68.94685189551649,3.735315879311372],[-68.9478895559655,3.729186482227533],[-68.93682674788732,3.7066316908375256],[-68.93662052870724,3.694631577731343],[-68.94140469315175,3.6860943848520265],[-68.95065919177767,3.6810557312778656],[-68.95701527507612,3.681734315135202],[-68.97576713697191,3.692326250806161],[-68.99335591985351,3.6932131899187652],[-69.00855262462665,3.687343620609795],[-69.03334960891243,3.6633299043168677],[-69.04581571857989,3.648061973728659],[-69.05303349375549,3.6424936825417262],[-69.05810770778663,3.641244652472494],[-69.06180750300825,3.642065485356852],[-69.07371041184132,3.654671915721508],[-69.07920295720828,3.657051818099035],[-69.08120840469314,3.6568181384752734],[-69.09011404738919,3.6458725049670306],[-69.0934020089748,3.6449955777423497],[-69.10506768080148,3.6487853472861502],[-69.10744649714366,3.6519957766471975],[-69.11159052605433,3.6724695279703496],[-69.11365129037694,3.6752204831526],[-69.12325629249767,3.676352570051449],[-69.13412839236582,3.6719704083609486],[-69.14585543238604,3.6539924011236735],[-69.15700257172227,3.644374483821821],[-69.17162034151897,3.6374133945290623],[-69.18259209335343,3.637990433057496],[-69.18694180459721,3.639634935270635],[-69.18653513271425,3.6470291058217867],[-69.17526059814628,3.6554999610732466],[-69.16923261577926,3.663731319830106],[-69.17112424655903,3.677365130332362],[-69.18023486813348,3.681113152309024],[-69.19142660485113,3.676638827770603],[-69.20112396008159,3.67997268051829],[-69.2023682510877,3.684929158449904],[-69.19974302814558,3.6897657117562517],[-69.19973566141181,3.695402909620384],[-69.2036117512215,3.700053553429541],[-69.2084099590486,3.701548834803873],[-69.21462914224958,3.6978482805916997],[-69.21910002047713,3.6866156396297924],[-69.22630974706163,3.6755628331551407],[-69.23142763698968,3.673118453602342],[-69.2395699624492,3.675123383780658],[-69.24277398975556,3.6766327702441117],[-69.24414714975148,3.6806254319564573],[-69.2439724235382,3.6849413763470125],[-69.24062241498694,3.690703686300367],[-69.24004282797802,3.6972859076536224],[-69.24146185342494,3.7078670981571236],[-69.24484154591255,3.716645096738432],[-69.25141124597815,3.720694679658834],[-69.28173891953548,3.724355038223621],[-69.28698034597886,3.7215963275563126],[-69.28831498051807,3.715333725569053],[-69.28720161847212,3.7105536882643833],[-69.27255288741333,3.6954593217494107],[-69.27012622175454,3.6907313966556217],[-69.27056845717982,3.678782879482128],[-69.27284117836331,3.668766517837412],[-69.28405851610057,3.6495500714320315],[-69.28940704351942,3.6459126841593275],[-69.30097472945664,3.644235904277707],[-69.30668785826032,3.6484034546972453],[-69.30520784514363,3.6657176300565766],[-69.29160440660581,3.690678595388249],[-69.29068845615825,3.696699684105056],[-69.29167961969256,3.7046196428085523],[-69.29589191661762,3.711149096833026],[-69.30400199937571,3.714358682871193],[-69.31145639140698,3.712330963435136],[-69.31552305058699,3.7080362656386114],[-69.31963632700945,3.697126261492997],[-69.32266401036242,3.6943871447125503],[-69.32884384946647,3.691001972683182],[-69.34479007800502,3.6868985281711844],[-69.35729422873277,3.676355870323505],[-69.36551941066381,3.6717000740173376],[-69.37589536517828,3.670898894669506],[-69.38120634313236,3.674102379986664],[-69.38515017439386,3.68268054498742],[-69.39059851627292,3.6847362349746504],[-69.397358298227,3.6820123350297536],[-69.40314148556354,3.669372017484079],[-69.40835187361171,3.666973743009464],[-69.41895699288733,3.668145380722251],[-69.42504624780275,3.6723088729075926],[-69.43050028416803,3.6864910191360423],[-69.43728352900973,3.698691146828594],[-69.44668264002354,3.705672217730978],[-69.45711234300097,3.710138261250222],[-69.46497912094179,3.708844984498512],[-69.47005915184383,3.7054270637740387],[-69.48009908333415,3.7173328244782056],[-69.48257692429274,3.717074803676894],[-69.48700193192707,3.7204026575194007],[-69.4967353196696,3.7169940513987854],[-69.49878579133951,3.719525386794942],[-69.50462614259652,3.7210245320278545],[-69.51220617945029,3.726743891136323],[-69.51532075694013,3.726994900016564],[-69.5166571861115,3.7247011698092365],[-69.51983253426977,3.728112049816275],[-69.52532176188112,3.727512520278424],[-69.52635711553359,3.7314048841625436],[-69.52497960419737,3.737843181155938],[-69.52878569101017,3.74862730188039],[-69.53685228813328,3.75211531507631],[-69.54036749232097,3.756778095535651],[-69.54752654034343,3.7585699169973736],[-69.55104304756782,3.77063720591201],[-69.55910256283573,3.775313725334968],[-69.55744413036865,3.782204467102531],[-69.56638613776369,3.784621293651753],[-69.57021056067816,3.794555957879652],[-69.57566330017744,3.795285397191151],[-69.58794003243946,3.7898291064798286],[-69.5959971144124,3.788842377589674],[-69.60092524229754,3.7905607260894953],[-69.60351894347644,3.7952559929910876],[-69.60793236056361,3.7958449470544906],[-69.60974675839554,3.7997395632277744],[-69.6162327391263,3.8021960166956887],[-69.6222174960543,3.8150415846285455],[-69.62939052061057,3.8189019608650483],[-69.63301016519296,3.8244846307067633],[-69.64020779009428,3.8296876396798893],[-69.64614392740219,3.837566469938622],[-69.6488599659325,3.8430729702420763],[-69.65289582223062,3.860807441262466],[-69.65621033100297,3.8642222519767984],[-69.65869815402459,3.871179105114777],[-69.6625363169311,3.8749628366725233],[-69.66767264066283,3.8768073586142577],[-69.67768849939915,3.877379630311566],[-69.69452787267244,3.8728136283501726],[-69.6986802216831,3.874273768872115],[-69.70115738078425,3.8783321367484973],[-69.70929311598417,3.878468785905966],[-69.71468471149035,3.8820207384017067],[-69.72327712864757,3.899804533525298],[-69.72825900808095,3.905883378545525],[-69.734616905552,3.9103470206515],[-69.74861755121628,3.9134159373504076],[-69.76055036407246,3.9258550329181503],[-69.77538807144401,3.9290929700312063],[-69.78512928563418,3.9290358019969744],[-69.78858163244354,3.9331649935674022],[-69.79499795264877,3.9354359993088224],[-69.79901917009607,3.94047916774565],[-69.80730327664122,3.9460098981548413],[-69.81341398486757,3.9468335417726053],[-69.8193547614797,3.9530617001914834],[-69.82816753067408,3.9551297232613933],[-69.83699230076422,3.964682316979861],[-69.84310427911709,3.9641759519928996],[-69.84872583539891,3.959009592597397],[-69.85450008351307,3.9589567039124063],[-69.86195148997564,3.964911325417688],[-69.86790547281811,3.9662946659661316],[-69.87366770358142,3.971252230961454],[-69.883608769864,3.9694354162896275],[-69.88921263693453,3.970445662574832],[-69.89694516918809,3.9759188814499566],[-69.89747670016345,3.982565948160925],[-69.90064441213605,3.985340843428105],[-69.91232404918367,3.985207857582907],[-69.91931574903947,3.9901533805448253],[-69.9270006458924,3.9915749781264935],[-69.93008251479642,3.996883544382797],[-69.9344265469806,4.0004880173810875],[-69.93525515900416,4.0042408565824985],[-69.93142748415443,4.0133345047416356],[-69.91570139270857,4.034992566246274],[-69.91374444657288,4.041033402087919],[-69.9138789267451,4.047312824252572],[-69.91629227715862,4.053717456208574],[-69.9216015725807,4.059777022045353],[-69.92278060170986,4.064429943854691],[-69.92930312608866,4.071987594600159],[-69.93493422220331,4.076287967342523],[-69.94521662752942,4.080632993002155],[-69.94690845146818,4.0912855728431055],[-69.94084498680581,4.0977340185072535],[-69.93345324749282,4.09940135934346],[-69.92660269211672,4.100024513234416],[-69.90892298566047,4.0956951342992625],[-69.88851450341332,4.1042673528453975],[-69.8681095610653,4.098019576885463],[-69.85516638776676,4.097851384367516],[-69.84088215524861,4.109475805364752],[-69.81982596915913,4.112707790880961],[-69.80929035100053,4.1259539875685505],[-69.79524251319441,4.12431467590477],[-69.77942572545965,4.128021434710661],[-69.75721778762193,4.128107024782423],[-69.74699440666888,4.132387873571986],[-69.73855497547851,4.14267998328171],[-69.72681980973402,4.146110279255026],[-69.7192526829192,4.1538597643550474],[-69.70946202224121,4.153120938448694],[-69.69890048321736,4.1466076268579855],[-69.6911098059091,4.151191778773011],[-69.68092343551695,4.14945205923766],[-69.67346528247145,4.155717212790819],[-69.66368961545692,4.155902668744886],[-69.66119846439528,4.163734922898811],[-69.65502179906491,4.1685479526394715],[-69.64318054433238,4.165382266698657],[-69.62340575648352,4.166434582453576],[-69.61200126174828,4.1629151081725695],[-69.60435857114783,4.169473267056219],[-69.59058012048973,4.170272612691008],[-69.58523714357517,4.1774534739793125],[-69.57748315081159,4.180934273679441],[-69.57091933446566,4.1908575674468125],[-69.56522050101302,4.1930635931045686],[-69.56108607261325,4.189369907859998],[-69.56000015558436,4.195676220711164],[-69.55576502003629,4.192664270471823],[-69.55889516197522,4.183495307410169],[-69.56404832439631,4.177517053324266],[-69.563860662433,4.172743935380879],[-69.56110901510897,4.169734688916947],[-69.56096731629873,4.166250298924012],[-69.56922240533822,4.158426701170754],[-69.56936094888681,4.1550848214291705],[-69.56165180341617,4.148778673128788],[-69.56072443828504,4.140344687541585],[-69.54667163413,4.127588015094716],[-69.5344304129597,4.126128573913661],[-69.5274553790149,4.128066644015348],[-69.52113588461594,4.136644821357436],[-69.51089529679109,4.137627173196279],[-69.50602569037062,4.14181443577354],[-69.50081155570632,4.149516145604764],[-69.49665280566944,4.152036333712488],[-69.48799127614654,4.152124340624141],[-69.4845210097547,4.155726581902172],[-69.47512460868694,4.156846822171701],[-69.46780276849813,4.161739513012947],[-69.44821724184072,4.160074019259525],[-69.44019341661351,4.163779377326705],[-69.43300795613027,4.1622188916682035],[-69.41144416783749,4.1513949990147125],[-69.40386539905336,4.144842668314823],[-69.40118590622797,4.1377920541293065],[-69.3978400926938,4.133825243348156],[-69.38813088774862,4.127014671760264],[-69.37701214371026,4.122705188045643],[-69.36753896632314,4.12130783908168],[-69.3557057180156,4.124290592866316],[-69.34618635533184,4.131804307518962],[-69.33198560457828,4.134222584172107],[-69.32754743905036,4.13680347301414],[-69.32104571903528,4.1351327578580594],[-69.30416277682315,4.123506813737492],[-69.2788626620021,4.111952750549847],[-69.26114855825733,4.118273155120448],[-69.24623394395422,4.11441558858894],[-69.23829350998864,4.121709451027414],[-69.22664882558848,4.11961121334474],[-69.22067780968098,4.120095649880341],[-69.19254457226265,4.131200778368111],[-69.1824370186198,4.130460870540276],[-69.16362036073156,4.125005794419565],[-69.15245535940568,4.123704352862717],[-69.11950469976864,4.133584578542752],[-69.09169188904366,4.130091236986175],[-69.07086492427965,4.1376735518400665],[-69.04859809988017,4.134245684019561],[-69.03957621746844,4.135179925317345],[-69.02898421803405,4.138634723933649],[-69.01083507487635,4.1373757035738095],[-68.99783599544247,4.140822116269817],[-68.99490182631087,4.1394643921676675],[-68.98915935912743,4.140611542664146],[-68.98084570131488,4.137383246171225],[-68.97417813980144,4.138621246194475],[-68.96821222188356,4.133593217459918],[-68.95324474974876,4.129625874973954],[-68.9465514586604,4.125993317267387],[-68.9339661391353,4.12328349361519],[-68.92112375834574,4.125102783748218],[-68.91027580527953,4.119953533522448],[-68.89141273378044,4.115791166453221],[-68.87460328921287,4.1177249901157325],[-68.86276624698087,4.122171345131449],[-68.85054797139162,4.118657994197179],[-68.83251084516468,4.120770659899961],[-68.81350389250031,4.117995273037195],[-68.79107478501362,4.126291757916533],[-68.78099460233994,4.143239957891865],[-68.76897601429232,4.143539366305447],[-68.76632784988294,4.157601746288776],[-68.75647611103221,4.163713100377038],[-68.7483361787584,4.175149687661076],[-68.7399280461592,4.181286340406871],[-68.72136070844863,4.20392979999707],[-68.71130400306077,4.203224444752493],[-68.70670363774946,4.205641379288181],[-68.69774890749198,4.2047750933583075],[-68.69048954004404,4.2068704195202145],[-68.68481729183048,4.203783500963482],[-68.6768902101341,4.207722254804253],[-68.66278559818716,4.206175483426762],[-68.65382779391501,4.2017100209775435],[-68.64854655749019,4.202589275567618],[-68.64296164152995,4.20130187636488],[-68.6370944942031,4.206731467679958],[-68.63567925753841,4.2166809270819385],[-68.62022483946828,4.229420873968138],[-68.61202077968966,4.230317463985273],[-68.60813785279413,4.23225982063542],[-68.60626938459677,4.23397920374839],[-68.6051770099773,4.240557708310348],[-68.60185158223072,4.239932522216975],[-68.59835083177421,4.236493447458315],[-68.59120254537424,4.235184177397002],[-68.58924894270518,4.236625128209937],[-68.58922318639071,4.240856327908546],[-68.58635202170467,4.242569103278299],[-68.58538016306488,4.2452135292991215],[-68.57954454058654,4.246203947212621],[-68.5767046827192,4.249652710928274],[-68.57232603007452,4.251559984318703],[-68.56732098703031,4.250447992158229],[-68.56296960456746,4.2514475405843655],[-68.55722454056666,4.258233585875075],[-68.54500060751514,4.259213208227436],[-68.54380743010216,4.2581018629572895],[-68.54058339444663,4.26166493188822],[-68.52904181655117,4.256869444291624],[-68.51528923945,4.258775176046754],[-68.50961053878802,4.260531552237126],[-68.50630374950521,4.268079964483434],[-68.49977703010939,4.27020688748479],[-68.49449962977513,4.26097279007314],[-68.49466961795372,4.257464397260264],[-68.50011193933028,4.257691513363852],[-68.5057744091124,4.252275111824133],[-68.50646632981233,4.249693747841661],[-68.51334145468024,4.251185259974193],[-68.52313604195177,4.248936690734752],[-68.52663085109583,4.249624831908477],[-68.53160089315583,4.247329571378714],[-68.53917355401984,4.240715187542605],[-68.53959184627485,4.23569284712363],[-68.54820861797936,4.231854799402697],[-68.55432003788792,4.2194190318749065],[-68.54670498770861,4.197557999011622],[-68.53631840938289,4.186974205520073],[-68.52334846469711,4.182964174442077],[-68.52712560188144,4.17526044989188],[-68.52502235362681,4.168546696911164],[-68.51745728472548,4.162363435150439],[-68.51164551697138,4.153326403780454],[-68.49956391522221,4.149075087746212],[-68.49492890785314,4.141933337098465],[-68.493122913425,4.090578120604221],[-68.48208452879976,4.075085882588894],[-68.48098461878197,4.063820275930482],[-68.48524594259038,4.055925443106219],[-68.48524366253326,4.0450650551414356],[-68.48388158811929,4.039236277976556],[-68.47876060052238,4.033956738481834],[-68.47749796621554,4.029635844197458],[-68.47909570720424,4.026127870989114],[-68.48697976812161,4.018780923433155],[-68.49396222125074,4.02198985846718],[-68.49823325047117,4.021321137373604],[-68.49842869157368,4.017753569006629],[-68.49518370448715,4.013182925684077],[-68.49659758874992,4.004991055006201],[-68.50050853453342,4.000832059171557],[-68.50117892170397,3.997799727258382],[-68.49491367661943,3.9860098925948932],[-68.49234092070083,3.984167231105687],[-68.48861788267828,3.9851862325220395],[-68.48842035897968,3.982006275912852],[-68.4839344675483,3.980164409409724],[-68.48151783023246,3.975254536379282],[-68.47731981323176,3.9745330150467453],[-68.47257190447141,3.970690402069465],[-68.46818076550608,3.9729461035577174],[-68.46459215623366,3.971463419575798],[-68.4637805711044,3.9741410344651626],[-68.46139195884723,3.9754056701211766],[-68.45600004349541,3.9673607484525633],[-68.4526553931297,3.9661252598859846],[-68.44990677148354,3.9664094864311323],[-68.44736185241857,3.96931520164361],[-68.44431436434803,3.9693263417329376],[-68.44378982369642,3.9633449560395775],[-68.44099126396685,3.959657477445546],[-68.43108241364615,3.959830145745343],[-68.43131503808792,3.963621458981379],[-68.4348708421009,3.963882323426219],[-68.4367134470258,3.965654143737879],[-68.43546817488556,3.968487010253],[-68.42426415342203,3.9687924011167297],[-68.41395205901728,3.9715452938847307],[-68.40962855865956,3.970639292590022],[-68.40721166731845,3.968093726634777],[-68.40566250172674,3.9616790529660193],[-68.41040042842405,3.954851021509512],[-68.40860327037404,3.9446068598468855],[-68.38802425076,3.9378858110949295],[-68.38562449121434,3.9343266132216286],[-68.38503571712835,3.924695208924561],[-68.37371300414219,3.9172643116626773]]]}}]}