{"type":"FeatureCollection","features":[{"type":"Feature","properties":{"code":"991009"},"geometry":{"type":"Polygon","coordinates":[[[-68.35883049781455,5.004708081973206],[-68.35250238403881,4.99497405042564],[-68.33009500034342,4.988652825157942],[-68.30231638018995,4.974230169418945],[-68.29101171534154,4.945575870570053],[-68.28380195173315,4.945440175807278],[-68.2866476758366,4.93776359494052],[-68.28580081924275,4.923161820510245],[-68.28914925633381,4.915139697355414],[-68.30384292518846,4.918242748061516],[-68.33771934250092,4.900386533101084],[-68.35241062845415,4.897874592073947],[-68.35492488656234,4.895346572376468],[-68.35792810841002,4.900798524088771],[-68.37509239238602,4.9090682807755],[-68.3816549571174,4.905209059480001],[-68.38587101608516,4.888183740713998],[-68.37973402086806,4.878027784452456],[-68.36830002525915,4.865357632817734],[-68.36481786081583,4.863578738878459],[-68.36542087163161,4.862686370617837],[-68.36199191263353,4.863433075422336],[-68.36215133973593,4.857699985577767],[-68.36497719330151,4.85096700894951],[-68.35825031328045,4.84500630729201],[-68.35718810082318,4.83985319937841],[-68.36063202057454,4.832383900072841],[-68.37983664091945,4.830838832824611],[-68.38146686320823,4.828111252083886],[-68.38033508895592,4.823423686159856],[-68.38193896768956,4.816013863742057],[-68.37868035682499,4.811206170589628],[-68.38254071249264,4.811894944255471],[-68.38297316331574,4.817183832292642],[-68.38434292636606,4.8172271636613],[-68.3906566717713,4.809952399400402],[-68.39553185749247,4.798985606715803],[-68.40189360750918,4.797918353861746],[-68.40790780977494,4.800898722688203],[-68.41056594390614,4.8065649360010525],[-68.4128389674517,4.8200399796610895],[-68.41758488000517,4.8234369674665345],[-68.42232706959669,4.819355362959868],[-68.42368043824479,4.815162159070212],[-68.41887338786893,4.801362398054664],[-68.41965098914358,4.793503169910366],[-68.42656176805667,4.786149083934845],[-68.43322150620787,4.7856255953799405],[-68.43961625483126,4.789532111661572],[-68.44283368171523,4.795543415776251],[-68.4427170594189,4.800744337011054],[-68.43881777103132,4.809070730027315],[-68.43959806991069,4.8156939265873575],[-68.44417810291338,4.81845722513674],[-68.44921461115644,4.816845488073739],[-68.4536837112069,4.813080549246138],[-68.44924030267902,4.810258910238019],[-68.44756648162655,4.806744756090154],[-68.44789403439808,4.803724926952668],[-68.45206775752962,4.799836588392566],[-68.45493073992697,4.798736960168014],[-68.45512622628092,4.801074599728679],[-68.45261874149526,4.803619125928549],[-68.45852642899774,4.804280591360225],[-68.4611328293849,4.801462573498213],[-68.46129898044444,4.794110683247482],[-68.46606687698517,4.788175974446233],[-68.47095238415545,4.786597879794954],[-68.4828883502164,4.787227070643439],[-68.48579998103025,4.78508241729304],[-68.48701538514291,4.778676728098105],[-68.4797599854262,4.77116053901284],[-68.47769959545661,4.7634769122863645],[-68.47912498490587,4.757577240464855],[-68.48561525115662,4.7548369934261245],[-68.4916998102035,4.755985291664388],[-68.49308887197765,4.758460792916253],[-68.49412467814477,4.763617214471651],[-68.49161758828097,4.771442139944213],[-68.49331448552675,4.775329948856438],[-68.49891642118217,4.7748460563669255],[-68.50435543714445,4.777481647038087],[-68.51216300867793,4.7903669416485855],[-68.51809400274482,4.789755300143213],[-68.51829521546671,4.7821684693981865],[-68.52023062293074,4.7784483727213],[-68.52300400535898,4.777080800253543],[-68.53006122111702,4.7779847981421995],[-68.5355117885457,4.782908061494197],[-68.54355188064824,4.783759788791826],[-68.54502622087603,4.781537962143261],[-68.54424484933111,4.774720153405326],[-68.541944674903,4.772415727395867],[-68.53452745181283,4.77293773396508],[-68.52775620272467,4.770922164548949],[-68.52430893127911,4.765911628593244],[-68.5241369684909,4.762763697684079],[-68.52673319860997,4.758814000186419],[-68.53149615759816,4.757256659505174],[-68.54442824017264,4.758745627270912],[-68.55102905268126,4.756598193011882],[-68.55316197150256,4.752116103732419],[-68.55271007797359,4.745600231319884],[-68.54399941049559,4.7377171741624124],[-68.54034973230637,4.737620555073079],[-68.53729551719329,4.735359045969915],[-68.5335452758377,4.726664443792458],[-68.53652087269091,4.722068466845371],[-68.54397773401263,4.722714596142225],[-68.55315025137162,4.73497286169038],[-68.5581969710205,4.732242032099748],[-68.55875707829972,4.726745427470178],[-68.55265800072982,4.716489678345738],[-68.5526544793426,4.7052536579216735],[-68.55429174337735,4.702197029053991],[-68.56053686595556,4.69899043784045],[-68.56222696416779,4.695111789265752],[-68.56549828555347,4.69547997580122],[-68.57022122784326,4.70033937492974],[-68.5721311813549,4.712539908857082],[-68.57574442491102,4.720995998759349],[-68.57794890996189,4.7227572065726235],[-68.58331400558967,4.723072083790157],[-68.58915523102286,4.720321108039059],[-68.59063527499285,4.710785235767503],[-68.59437838821333,4.706194669456522],[-68.59980067141584,4.7058690501569345],[-68.6048786803999,4.717444701381453],[-68.60746587873678,4.718010614218713],[-68.61119021979596,4.71471356531498],[-68.61184955326627,4.708764605385738],[-68.61586680812457,4.702447120563477],[-68.62205663751922,4.701415100093243],[-68.62964003943688,4.707852163984057],[-68.64290356640936,4.6994937956614535],[-68.64955267663561,4.691933581008811],[-68.65194597139157,4.68658577247129],[-68.65562280766238,4.664847621005492],[-68.66232268798194,4.658818388052339],[-68.66838843887206,4.659915825694327],[-68.67202472468279,4.665799503177766],[-68.67285454718319,4.674121209581472],[-68.66828856167683,4.683735787530452],[-68.66825805498638,4.689689076174261],[-68.6696206323088,4.6937788537136385],[-68.67504726890849,4.6965796461918785],[-68.6803968360827,4.694237318990247],[-68.68246857594391,4.69135905188017],[-68.67926181195202,4.671994306120439],[-68.68171469158221,4.666357764402676],[-68.68487420069727,4.663884560691429],[-68.6907140881267,4.663883944654401],[-68.69894382502969,4.666996135129125],[-68.7046087013673,4.6763385748463975],[-68.7091885893596,4.678737029298475],[-68.7150136332782,4.6778928250578815],[-68.730925675359,4.6679329958699896],[-68.73501895371669,4.668171449523925],[-68.73995978800912,4.672843950821971],[-68.74362213043952,4.673052482969297],[-68.74440004538911,4.662067811839904],[-68.74798658749211,4.656708740828378],[-68.75935753134706,4.654968286985081],[-68.76783498302888,4.658826275178001],[-68.77209575867738,4.6575824521132745],[-68.7740371722457,4.651605105113617],[-68.77286375635578,4.6483772014858005],[-68.76398073116763,4.644283937526268],[-68.76237811124759,4.637359057637752],[-68.76859364039234,4.63149118423047],[-68.772733678946,4.624948590824374],[-68.78028650218226,4.624702587373918],[-68.78618564949812,4.62835305849228],[-68.7967237215206,4.625819038861152],[-68.80296358978597,4.628992839213424],[-68.80900098034516,4.62940913834683],[-68.8103229588707,4.626749279517526],[-68.80935675049415,4.621782610749051],[-68.79754016809761,4.6182497060371475],[-68.79556262842891,4.6130784132029135],[-68.79619012748952,4.60888417881381],[-68.8016086702466,4.605593863123261],[-68.80847971014077,4.608184533482074],[-68.81255546898018,4.607596021648931],[-68.81469006519126,4.605453311026395],[-68.81680772192556,4.598233521131874],[-68.82264525319317,4.594802381835677],[-68.83710921221217,4.5944164700933925],[-68.83599331608383,4.613800901271418],[-68.83730998784597,4.618841521227694],[-68.84236804298826,4.617248060616703],[-68.85370940986485,4.631767646034632],[-68.86443049426197,4.639584685409886],[-68.87322957180112,4.650262428154008],[-68.88229681984075,4.656831087435705],[-68.8845940066434,4.665426693793165],[-68.88786945516887,4.670432106048281],[-68.89400905028867,4.67534117483666],[-68.89711055833101,4.682479550136065],[-68.90473317476193,4.685547727384801],[-68.90589633399458,4.689043880703252],[-68.90901118710701,4.690798052941318],[-68.91664205781757,4.7021542160204035],[-68.9254578681165,4.704526957352584],[-68.92756298299429,4.7082309043966575],[-68.93389815908478,4.7107303025388205],[-68.94078856249473,4.710827261014174],[-68.94707812818797,4.7166056156992795],[-68.95337746819888,4.717693914601057],[-68.96170335419299,4.728440625728865],[-68.96289845890715,4.7434795211397045],[-68.96476445781406,4.748120307327326],[-68.95734582575761,4.756937479284147],[-68.95313615136098,4.765250522088024],[-68.95697460223141,4.781619450786195],[-68.95609678129017,4.789669278125643],[-68.95882162328849,4.794598733730027],[-68.95716031118235,4.799284138896326],[-68.95282784177738,4.801296829701869],[-68.94516723982207,4.808498783317816],[-68.93866543856001,4.8091760703091495],[-68.934837858327,4.815034997294958],[-68.9263390561785,4.8188926522724955],[-68.92201007936438,4.823915869952941],[-68.91383371759969,4.818908144730642],[-68.90849867409071,4.8194164781565405],[-68.90300195530398,4.824106498972867],[-68.8995080727866,4.830466668273459],[-68.89100362860245,4.829975138569807],[-68.88617246742018,4.833660681635024],[-68.86816747487973,4.836525394901116],[-68.85741279229393,4.844862720261347],[-68.84873222218624,4.845819266420449],[-68.84194595578037,4.85302099789277],[-68.82571730047113,4.855310971199572],[-68.81496737854576,4.862706175335404],[-68.80970011042717,4.878803903741414],[-68.80176966880913,4.8757834174291474],[-68.79667644710332,4.878439336295173],[-68.79063406448415,4.8759846445492485],[-68.78705033105769,4.878260255656244],[-68.78554712964751,4.8846986688636775],[-68.77988910273706,4.8888696265132126],[-68.7789518768991,4.8951181234113506],[-68.76461237073778,4.900433935045214],[-68.75782998978781,4.912935937356565],[-68.74878094826602,4.924114972809093],[-68.74765675877728,4.9324461563105615],[-68.74577161027071,4.934909215464813],[-68.74275200121991,4.935480201608982],[-68.7317953037271,4.926782367036708],[-68.72764223274976,4.92640778153185],[-68.72028387256717,4.9298227238868435],[-68.70745867602369,4.94100493928363],[-68.7031178052718,4.941766332304155],[-68.69783115821087,4.940446053794119],[-68.69217800200425,4.951053316343973],[-68.67311141304356,4.949934815170764],[-68.6604672624926,4.9537325232623175],[-68.6489531121307,4.954689184607048],[-68.64064610011371,4.953371045257427],[-68.63611752009024,4.955646772578405],[-68.62763191388768,4.966634646277782],[-68.62215777044275,4.967017829562053],[-68.61252812889614,4.964375175547673],[-68.60554845564712,4.970628491727439],[-68.60177397801516,4.971956778719402],[-68.59252347180308,4.971396096540786],[-68.5889405169076,4.976321332445536],[-68.58629834626117,4.977270000735018],[-68.57289435049569,4.976333595594156],[-68.56666660962446,4.978988800721027],[-68.56005766830617,4.976721780194396],[-68.54231704822797,4.983360945381435],[-68.52835327325647,4.992269008002779],[-68.51609152025975,4.992521639765243],[-68.51005418523641,4.988418952186976],[-68.50186630697237,4.991450275198019],[-68.48656362942523,4.990595422463571],[-68.48376288939755,4.992326281966598],[-68.48117977911966,4.997515307206811],[-68.47708532113842,4.998382388122764],[-68.47147919149432,4.994279067023854],[-68.4671619450956,4.982826077110076],[-68.46435991642937,4.9823954538293265],[-68.45165077551036,4.994074526261954],[-68.44906483907243,4.994724426857488],[-68.44065769789188,4.9917031219050045],[-68.43591837868343,4.995812458364185],[-68.43678991069862,5.013103446458558],[-68.42946252309093,5.01440429049029],[-68.42601526810046,5.016783711556684],[-68.41610040756166,5.016140500979759],[-68.4074731118049,5.004256988572536],[-68.39928035460957,4.998857470973633],[-68.39432269294059,4.997779154134946],[-68.38699485487507,4.997998792433009],[-68.36997217200724,5.007084689220903],[-68.36436864226584,5.007735605917617],[-68.35883049781455,5.004708081973206]]]}}]}