{"type":"FeatureCollection","features":[{"type":"Feature","properties":{"code":"991018"},"geometry":{"type":"Polygon","coordinates":[[[-67.83827941540693,4.940653940079528],[-67.83926426533259,4.9192708902750155],[-67.83722760050352,4.9016176487301095],[-67.83765640035574,4.886134410615284],[-67.83325292008021,4.8597465954459835],[-67.82293769612488,4.814921834679296],[-67.82613568441678,4.773750846331438],[-67.8233203549035,4.727557508308678],[-67.82613606288362,4.700263066551713],[-67.83353018304103,4.677569447762949],[-67.84573604018686,4.648585636959467],[-67.84865117490438,4.6366526215001045],[-67.84888899812307,4.632658615613423],[-67.83990029223855,4.593620979061143],[-67.84313513168274,4.579275162376575],[-67.84263902849523,4.557223695897392],[-67.84453100586012,4.549771905825708],[-67.85140691851501,4.541027115653378],[-67.8529304861724,4.5355968260258805],[-67.88062370754443,4.527977832797944],[-67.88543836839494,4.5251610264411966],[-67.88824751182648,4.521135908111432],[-67.8930615977776,4.520331977679859],[-67.89667169429958,4.521540641380227],[-67.8982755257249,4.524761732604873],[-67.89867400709164,4.535631655260204],[-67.90709939489943,4.531607831739564],[-67.91191068554377,4.543283953570665],[-67.915521019636,4.544089947057898],[-67.922742491034,4.542078600426748],[-67.93156932623674,4.5364442235804745],[-67.94360472006355,4.534031043888376],[-67.95764493402527,4.537254210510014],[-67.96566862761188,4.534839965351523],[-67.97289075412777,4.5267893018883],[-67.97650320064093,4.512296660635968],[-67.97931192035412,4.5074659992767465],[-67.98613180963122,4.50464876508795],[-67.99977265879409,4.4877416647610175],[-68.00538868205518,4.4869370648133895],[-68.03066023085682,4.4901598293139955],[-68.03667714512551,4.493783492021237],[-68.04309507175793,4.5014329939964455],[-68.04750760335605,4.503446141430459],[-68.05638996931253,4.502717342838707],[-68.04965706673215,4.513024385533754],[-68.04855864075688,4.520711096559353],[-68.05342415089086,4.5299992777061675],[-68.06230111135346,4.537697283087482],[-68.06824798662973,4.5371784338368],[-68.07695283003773,4.531470034840254],[-68.08419244213337,4.531642991103922],[-68.09151836318205,4.538389244925156],[-68.10779671077694,4.549193679446205],[-68.12340724642144,4.548722972618293],[-68.12256692866515,4.555391262268984],[-68.12453771455176,4.557047721154902],[-68.13144547498615,4.556264466531729],[-68.1362046318223,4.553847761338716],[-68.14070617100668,4.557388951183498],[-68.1453594918517,4.5546392311607065],[-68.14946420443334,4.557720632123335],[-68.15729234378875,4.55287340358359],[-68.1641348505737,4.55646212804163],[-68.16718943078388,4.562512110851003],[-68.1713846596769,4.563680942972667],[-68.19042253966467,4.5595473496682075],[-68.20791844698778,4.565998852891994],[-68.23364610901803,4.565477355401811],[-68.26091906661077,4.5716671827395885],[-68.28330197645954,4.570370202566323],[-68.2928205112471,4.567785641156092],[-68.30413884306813,4.561844061330362],[-68.31468711826881,4.5618406582140665],[-68.3229213103848,4.565968719526211],[-68.3299663750945,4.57230335362749],[-68.33452319203582,4.56909274428898],[-68.34226405878752,4.5810255838847525],[-68.34671700303443,4.584415727405258],[-68.34734889354456,4.586873468483191],[-68.3496437529817,4.587379907518027],[-68.35082600524976,4.590568791008309],[-68.34885569450358,4.600579419085932],[-68.35022015798955,4.605554976683152],[-68.35329206539927,4.608866174899049],[-68.3524516345143,4.61821969711292],[-68.36104833924838,4.631230884400566],[-68.37300129929349,4.635878598176987],[-68.37586989698707,4.639820921741773],[-68.3798445856379,4.638731957437756],[-68.38647867648956,4.6419703038709486],[-68.39265282419268,4.64162898231092],[-68.40557870114498,4.651545539779818],[-68.42695704993878,4.652453622642156],[-68.43459593633031,4.658120601116252],[-68.44193660524473,4.66077663619626],[-68.44718164049289,4.668270625321384],[-68.45451762896539,4.67374059740348],[-68.45635950369609,4.679859632928867],[-68.46354529019567,4.685835020745515],[-68.46428545307725,4.689179096211831],[-68.47469517033119,4.696223535628462],[-68.47417690832117,4.7060008203830535],[-68.48608984241196,4.723848506469665],[-68.48662342204483,4.728985034861466],[-68.48247573804946,4.733414273508288],[-68.47483020997612,4.737861038872552],[-68.4574563222157,4.762793504005174],[-68.45602423246345,4.77070831329695],[-68.45075691600812,4.778162710470383],[-68.45178731051072,4.78342619906266],[-68.45035254063731,4.7890244672921085],[-68.44732082373275,4.792023797513309],[-68.44465258515379,4.792310154991355],[-68.4401966316841,4.787716984663916],[-68.4382935810786,4.788446508307686],[-68.43322150620787,4.7856255953799405],[-68.42910070261462,4.785282233389978],[-68.42015368670451,4.792520566103121],[-68.41879349228344,4.800889089267116],[-68.42368043824479,4.815162159070212],[-68.41984359071625,4.822529342261134],[-68.41758488000517,4.8234369674665345],[-68.4128389674517,4.8200399796610895],[-68.41056594390614,4.8065649360010525],[-68.40790780977494,4.800898722688203],[-68.40189360750918,4.797918353861746],[-68.39529660229476,4.799125629164735],[-68.3906566717713,4.809952399400402],[-68.38434292636606,4.8172271636613],[-68.38297316331574,4.817183832292642],[-68.38254071249264,4.811894944255471],[-68.37868035682499,4.811206170589628],[-68.38193896768956,4.816013863742057],[-68.38033508895592,4.823423686159856],[-68.38146686320823,4.828111252083886],[-68.37983664091945,4.830838832824611],[-68.36140513475448,4.832132379028224],[-68.35879668673829,4.834805520192674],[-68.35712086536506,4.84050881708589],[-68.35814163570262,4.844819194517072],[-68.36503636371339,4.851342602327975],[-68.36221849703242,4.857444198553594],[-68.36113289573535,4.8648245519794955],[-68.35565981364306,4.8662817449851445],[-68.34550535890764,4.862829599750512],[-68.34176114319678,4.863416422881073],[-68.33640307491669,4.8686208572754595],[-68.33662979815523,4.876902858598839],[-68.33053348298193,4.877873583894939],[-68.325978547062,4.875097204585188],[-68.322687300631,4.86892950830196],[-68.32207511507949,4.865324552964125],[-68.3232434093257,4.865343124579169],[-68.32160293140811,4.860871396858101],[-68.31486108651995,4.854948024578732],[-68.31423606394895,4.852657216176624],[-68.30634352249461,4.856660165399489],[-68.30178372924064,4.8563492178608385],[-68.2996988561685,4.8584227112165195],[-68.2993950429356,4.853353289727465],[-68.29374861788523,4.849567919860817],[-68.28963472851103,4.8509138148170905],[-68.2853222335167,4.859165101704605],[-68.2803647333132,4.862905186161868],[-68.26826295763561,4.863086925324694],[-68.26397102429257,4.859593201187465],[-68.25124726097783,4.858697835016869],[-68.23800908202804,4.85556284911371],[-68.23502011747905,4.857970401168302],[-68.2335584075538,4.861714493466081],[-68.23344608826102,4.865669093549229],[-68.23564442014026,4.869930505803666],[-68.23258845873175,4.869931221599643],[-68.22693854726128,4.865594644595319],[-68.22311653501606,4.8589137452108275],[-68.22248541275252,4.853374185622556],[-68.2195714288622,4.849868125317357],[-68.21441884853954,4.848529309130868],[-68.20144276302346,4.8504884705317295],[-68.19471080661015,4.844028433291953],[-68.19585843430394,4.842917449005142],[-68.20173513894713,4.844836069201904],[-68.19977900528102,4.841043011727379],[-68.19559569809371,4.841374391333545],[-68.1930376972399,4.838709509591013],[-68.18876071950797,4.83737576465461],[-68.1864723382302,4.837885334268492],[-68.17887269926206,4.846920741727786],[-68.16347526307811,4.852803937900148],[-68.15684176563775,4.867606627832345],[-68.15276305928211,4.867022647316958],[-68.15023778449773,4.863321428730899],[-68.14963064448523,4.854819851844525],[-68.14033091392889,4.845415634613573],[-68.142202481852,4.833957842901668],[-68.139796332593,4.83109071176716],[-68.13536646351088,4.8297879476332355],[-68.13090845007082,4.831454146898238],[-68.12149164778879,4.838777138942589],[-68.1129462294262,4.838193184138277],[-68.10575349991126,4.8347386066370746],[-68.10164523611763,4.835236124961455],[-68.09542978513451,4.841057683488373],[-68.0892348382099,4.844175348362626],[-68.06807529261886,4.841502750215852],[-68.05984744496476,4.843616499897053],[-68.05410472889827,4.840699973696815],[-68.048947248047,4.846634153878597],[-68.05074764363405,4.842774026525262],[-68.04925208355178,4.841692368276824],[-68.04679287180102,4.847076107510645],[-68.04261625668914,4.846288389446954],[-68.04176818550468,4.849753400497491],[-68.03441930756208,4.8565885940276985],[-68.0296270009382,4.865076995537038],[-68.02457678149943,4.87131072400058],[-68.02049790853613,4.873648177413088],[-68.01772756309862,4.873140674968738],[-68.01583707389005,4.867998108590882],[-68.00709765732984,4.862737237384806],[-67.99330977688231,4.8489037341987],[-67.9795427213673,4.843522335700072],[-67.96043089944777,4.839988369635478],[-67.95505959716934,4.843291438013296],[-67.95373213704517,4.848959983833822],[-67.9584774201918,4.8553231798406955],[-67.96580158568912,4.859287577895714],[-67.96747647220803,4.865069703879556],[-67.96359143186311,4.868770556340053],[-67.95206910229786,4.86500638164523],[-67.94029632538195,4.882903344526653],[-67.9243053246268,4.895580161497321],[-67.92206954509851,4.904434353271029],[-67.91542621574774,4.910575175322776],[-67.91249984323883,4.915515513905916],[-67.91469969207077,4.924255157751929],[-67.9082216622291,4.935385520105342],[-67.89831145744961,4.937603196988391],[-67.88822558748888,4.9281182418775415],[-67.87852115760228,4.930748473334745],[-67.86768711730645,4.930707724385286],[-67.8599356236582,4.926836475454479],[-67.84611877507024,4.938517878337905],[-67.84256135948777,4.945205570585188],[-67.83417754749729,4.95042764276883],[-67.83827941540693,4.940653940079528]]]}}]}