{"type":"FeatureCollection","features":[{"type":"Feature","properties":{"code":"991019"},"geometry":{"type":"Polygon","coordinates":[[[-68.44231825820651,4.8182250346977185],[-68.43959806991069,4.8156939265873575],[-68.43881777103132,4.809070730027315],[-68.44305801485336,4.796807899222813],[-68.44191264253402,4.792587042570631],[-68.43829273981265,4.788446022882795],[-68.4401966316841,4.787716984663916],[-68.44519200942551,4.792384790093365],[-68.4508247561904,4.788487469116319],[-68.45179463919209,4.7823857124536175],[-68.45075691600812,4.778162710470383],[-68.45602423246345,4.77070831329695],[-68.4574563222157,4.762793504005174],[-68.47483020997612,4.737861038872552],[-68.48247573804946,4.733414273508288],[-68.48709880211561,4.727745918978144],[-68.48355630100662,4.718295881547647],[-68.47417690832117,4.7060008203830535],[-68.47469517033119,4.696223535628462],[-68.46428545307725,4.689179096211831],[-68.46354529019567,4.685835020745515],[-68.45635950369609,4.679859632928867],[-68.45451762896539,4.67374059740348],[-68.44718164049289,4.668270625321384],[-68.44193660524473,4.66077663619626],[-68.43459593633031,4.658120601116252],[-68.42695704993878,4.652453622642156],[-68.40557870114498,4.651545539779818],[-68.39265282419268,4.64162898231092],[-68.38647867648956,4.6419703038709486],[-68.3798445856379,4.638731957437756],[-68.37586989698707,4.639820921741773],[-68.37300129929349,4.635878598176987],[-68.36104833924838,4.631230884400566],[-68.3524516345143,4.61821969711292],[-68.35329206539927,4.608866174899049],[-68.35022015798955,4.605554976683152],[-68.34885569450358,4.600579419085932],[-68.35013896965177,4.588239929204576],[-68.34226405878752,4.5810255838847525],[-68.33452319203582,4.56909274428898],[-68.33009872022001,4.572343225315478],[-68.31803211933345,4.563130435175879],[-68.30413884306813,4.561844061330362],[-68.2928205112471,4.567785641156092],[-68.28330197645954,4.570370202566323],[-68.26091906661077,4.5716671827395885],[-68.23364610901803,4.565477355401811],[-68.20791844698778,4.565998852891994],[-68.19042253966467,4.5595473496682075],[-68.1713846596769,4.563680942972667],[-68.16718943078388,4.562512110851003],[-68.1641348505737,4.55646212804163],[-68.15729234378875,4.55287340358359],[-68.14946420443334,4.557720632123335],[-68.1453594918517,4.5546392311607065],[-68.14070617100668,4.557388951183498],[-68.1362046318223,4.553847761338716],[-68.13144547498615,4.556264466531729],[-68.12453771455176,4.557047721154902],[-68.12256692866515,4.555391262268984],[-68.12340724642144,4.548722972618293],[-68.10779671077694,4.549193679446205],[-68.09151836318205,4.538389244925156],[-68.08419244213337,4.531642991103922],[-68.07695283003773,4.531470034840254],[-68.06609331110695,4.537870337053221],[-68.06230111135346,4.537697283087482],[-68.05833659708446,4.53510243622361],[-68.05095377025435,4.526651103896427],[-68.04842618867337,4.51963399328281],[-68.04986765679291,4.512545769982864],[-68.0558696339624,4.503446438650371],[-68.07839601977008,4.503446750268438],[-68.0864189111715,4.497407867439165],[-68.09805211095409,4.497407637068022],[-68.10366806016725,4.495394528714826],[-68.12452637905835,4.4772769865104465],[-68.13054335914728,4.476873998508552],[-68.1458894071439,4.463561673995457],[-68.16036131808039,4.463400580816199],[-68.17499282169854,4.4677083017803625],[-68.18055881637326,4.466590251064986],[-68.1886679190257,4.456214308891788],[-68.20886336146197,4.448230389291211],[-68.21013509439985,4.445516769657672],[-68.2102915565024,4.431151694358505],[-68.212516836661,4.425245657506196],[-68.2222156059999,4.416624795685834],[-68.23239209100257,4.41231322217601],[-68.24121717168237,4.412576011865269],[-68.25048607364579,4.402983931096344],[-68.25594998717298,4.403713714936032],[-68.26721260312058,4.40898324459971],[-68.27818844918471,4.406556244697072],[-68.28405443334304,4.400018096219526],[-68.28692684450147,4.379100714903075],[-68.28939767353893,4.374226533970216],[-68.29873596451904,4.37602674032388],[-68.30854987622553,4.370156124060372],[-68.3172920315281,4.359299819012449],[-68.32381029506956,4.355945890038356],[-68.34030375684387,4.356117549436021],[-68.34244843179158,4.35420230870136],[-68.34062782216688,4.352419161123805],[-68.34241101910965,4.346841738395767],[-68.34997437771108,4.342612202717191],[-68.35342866621994,4.342924939745842],[-68.36209926146364,4.336819289399784],[-68.37637290205231,4.341196843667888],[-68.38234530327185,4.327677118294218],[-68.39331514323163,4.3331042423756685],[-68.40338724440397,4.319257936108613],[-68.40633325707967,4.319756359462474],[-68.41360496892321,4.325050128487817],[-68.41686413720362,4.324769763744371],[-68.42007955451089,4.319260075269085],[-68.42569392403635,4.297373171934225],[-68.43028445332345,4.29141777909706],[-68.4441824933345,4.293609473408253],[-68.45359548626544,4.2842803067701425],[-68.46061378678701,4.289898887767777],[-68.4688438311943,4.2935207712694705],[-68.47285245639142,4.290434796822979],[-68.47894790972987,4.2895668869823],[-68.48250555979718,4.2907966594654],[-68.48456043320107,4.28804183836769],[-68.48865503207895,4.273465626904738],[-68.50574589657202,4.268463099430903],[-68.51035707698486,4.260069615966984],[-68.52878201140209,4.256850048894137],[-68.54058339444663,4.26166493188822],[-68.54380743010216,4.2581018629572895],[-68.54500060751514,4.259213208227436],[-68.55663207848579,4.258433486304341],[-68.56296960456746,4.2514475405843655],[-68.56732098703031,4.250447992158229],[-68.57232603007452,4.251559984318703],[-68.5767046827192,4.249652710928274],[-68.57954454058654,4.246203947212621],[-68.58538016306488,4.2452135292991215],[-68.58635202170467,4.242569103278299],[-68.58926323805616,4.24077278957958],[-68.58937748465024,4.236336403257269],[-68.59147035283456,4.235119058473572],[-68.59861675204246,4.236595930726878],[-68.60171892445868,4.239852590635962],[-68.60512139077741,4.240581284326652],[-68.60626938459677,4.23397920374839],[-68.60813785279413,4.23225982063542],[-68.61202077968966,4.230317463985273],[-68.62022483946828,4.229420873968138],[-68.63567925753841,4.2166809270819385],[-68.6370944942031,4.206731467679958],[-68.64296164152995,4.20130187636488],[-68.64854655749019,4.202589275567618],[-68.65382779391501,4.2017100209775435],[-68.66278559818716,4.206175483426762],[-68.6768902101341,4.207722254804253],[-68.68481729183048,4.203783500963482],[-68.69048954004404,4.2068704195202145],[-68.69774890749198,4.2047750933583075],[-68.70670363774946,4.205641379288181],[-68.71130400306077,4.203224444752493],[-68.72136070844863,4.20392979999707],[-68.7399280461592,4.181286340406871],[-68.7483361787584,4.175149687661076],[-68.75647611103221,4.163713100377038],[-68.76632784988294,4.157601746288776],[-68.76897601429232,4.143539366305447],[-68.78099460233994,4.143239957891865],[-68.79069242139798,4.126601878587394],[-68.81055597720592,4.118558314462916],[-68.8189907022433,4.11791632464724],[-68.83251084516468,4.120770659899961],[-68.85054797139162,4.118657994197179],[-68.86276624698087,4.122171345131449],[-68.87460328921287,4.1177249901157325],[-68.89141273378044,4.115791166453221],[-68.91027580527953,4.119953533522448],[-68.92112375834574,4.125102783748218],[-68.9339661391353,4.12328349361519],[-68.9465514586604,4.125993317267387],[-68.95324474974876,4.129625874973954],[-68.96821222188356,4.133593217459918],[-68.97417813980144,4.138621246194475],[-68.98084570131488,4.137383246171225],[-68.98915935912743,4.140611542664146],[-68.99490182631087,4.1394643921676675],[-68.99783599544247,4.140822116269817],[-69.01083507487635,4.1373757035738095],[-69.02898421803405,4.138634723933649],[-69.03957621746844,4.135179925317345],[-69.04859809988017,4.134245684019561],[-69.07086492427965,4.1376735518400665],[-69.09169188904366,4.130091236986175],[-69.11950469976864,4.133584578542752],[-69.15245535940568,4.123704352862717],[-69.16362036073156,4.125005794419565],[-69.1824370186198,4.130460870540276],[-69.19254457226265,4.131200778368111],[-69.22067780968098,4.120095649880341],[-69.22664882558848,4.11961121334474],[-69.23829350998864,4.121709451027414],[-69.24623394395422,4.11441558858894],[-69.26114855825733,4.118273155120448],[-69.2788626620021,4.111952750549847],[-69.30416277682315,4.123506813737492],[-69.32104571903528,4.1351327578580594],[-69.32754743905036,4.13680347301414],[-69.33198560457828,4.134222584172107],[-69.34618635533184,4.131804307518962],[-69.3557057180156,4.124290592866316],[-69.36753896632314,4.12130783908168],[-69.37701214371026,4.122705188045643],[-69.38813088774862,4.127014671760264],[-69.3978400926938,4.133825243348156],[-69.40118590622797,4.1377920541293065],[-69.40386539905336,4.144842668314823],[-69.41144416783749,4.1513949990147125],[-69.43300795613027,4.1622188916682035],[-69.44019341661351,4.163779377326705],[-69.44821724184072,4.160074019259525],[-69.46780276849813,4.161739513012947],[-69.47512460868694,4.156846822171701],[-69.4845210097547,4.155726581902172],[-69.48799127614654,4.152124340624141],[-69.49665280566944,4.152036333712488],[-69.50081155570632,4.149516145604764],[-69.51014920082457,4.138158581786968],[-69.5214661874428,4.136473693664584],[-69.52680851026793,4.128632899323975],[-69.53149509505778,4.1262145064567335],[-69.54667163413,4.127588015094716],[-69.56123245186535,4.141108185783935],[-69.56165180341617,4.148778673128788],[-69.56871208084755,4.15403171068823],[-69.56963299455873,4.1574263145639065],[-69.56644601985778,4.161818534422309],[-69.56129085711598,4.165268774981428],[-69.5609688589625,4.169320616361574],[-69.563860662433,4.172743935380879],[-69.56404832439631,4.177517053324266],[-69.55889516197522,4.183495307410169],[-69.55644644753721,4.191725852668981],[-69.54787032810862,4.197181046032085],[-69.54023185103716,4.207933909303051],[-69.52807710439919,4.213432776506181],[-69.52273115117197,4.220526155388541],[-69.5142707274129,4.219113149415648],[-69.51257031392225,4.223151891523457],[-69.50782578976617,4.222237445687313],[-69.5048991056392,4.225600851759225],[-69.4998475019168,4.223146809988975],[-69.49792095551356,4.223931392331451],[-69.49488687010586,4.233174610999811],[-69.48936016399222,4.237510212012239],[-69.4856751207501,4.24344162671207],[-69.48618992822173,4.257720392029796],[-69.48275619107972,4.267133640014492],[-69.46469573669106,4.284459508765281],[-69.45881660286665,4.297821458715248],[-69.44661330345735,4.300044108117845],[-69.44220689417756,4.310573537109406],[-69.43548121332049,4.30642922229174],[-69.42072961846947,4.310282909538046],[-69.41647857394406,4.314097618812923],[-69.41772929785816,4.319891188276642],[-69.41558927044213,4.322526539320734],[-69.41119670708395,4.321240140792554],[-69.40801532299656,4.324189434199866],[-69.402455443441,4.3251062146005665],[-69.39745120258198,4.328875354615889],[-69.38837807082263,4.326928645597036],[-69.39045961791169,4.336011827296659],[-69.38577918835028,4.342693586459063],[-69.36879221403518,4.3509309760028145],[-69.36160474706054,4.359124707133219],[-69.3529525393406,4.357499538610966],[-69.34706124829722,4.364516715044886],[-69.34075535402212,4.366778087365219],[-69.33853867267146,4.3736143813289345],[-69.3312892008974,4.379080295176834],[-69.32672227950832,4.388337482151542],[-69.32331980599048,4.391160979555309],[-69.31897781937846,4.391337696833261],[-69.32126519381097,4.398279155215164],[-69.31601623916839,4.400590933560238],[-69.31407194698943,4.4049041474359],[-69.30881577782253,4.402679859724344],[-69.31165189832979,4.3978092536577265],[-69.31364289105505,4.400288891305365],[-69.31426578269316,4.391488330752111],[-69.31183523877758,4.387383023730706],[-69.30822039187962,4.385145632633055],[-69.29824601434387,4.389765677191917],[-69.28292367194729,4.384192011364462],[-69.2804714854874,4.390195486974676],[-69.28485279151374,4.396777569488165],[-69.2845608341662,4.399832287509696],[-69.28322830073512,4.4019202736773195],[-69.27832974777147,4.401779212501481],[-69.26756485172308,4.388317636296222],[-69.26379453105574,4.386715424667898],[-69.25614916136254,4.386828046322762],[-69.25608689225339,4.384975751412469],[-69.26090894966245,4.382719703339092],[-69.26248109785911,4.379365058568965],[-69.25942799860616,4.37194259145042],[-69.25509047543466,4.3683970410093025],[-69.24754740697568,4.370141780372592],[-69.24141120160243,4.380830360843902],[-69.23725775832895,4.382550202642221],[-69.22925728491754,4.371028609441794],[-69.2210186931245,4.363349561341465],[-69.21853277272152,4.357142835664661],[-69.21972110411332,4.3520218593806135],[-69.22580662064013,4.347635501644618],[-69.22530648390108,4.343449347728381],[-69.22151629680963,4.341845762100775],[-69.21557997026832,4.344457673911393],[-69.20679020219086,4.3391479239177215],[-69.2028139533927,4.338904102822312],[-69.19916566565774,4.341098398064673],[-69.19610140883191,4.349503977041024],[-69.1932633538243,4.349933974000351],[-69.18966859549403,4.346107231947997],[-69.19073812840514,4.3411927556088585],[-69.19511058056986,4.334876098682798],[-69.19464242016562,4.329206457571047],[-69.19170927536271,4.327347013956739],[-69.18841832306623,4.328051561873963],[-69.18105397529126,4.325755007563544],[-69.17187163219245,4.333396885694356],[-69.17042891554365,4.336096320020204],[-69.16989177235746,4.349618259630631],[-69.16566756709648,4.3538148193282495],[-69.16004576707377,4.353822935796586],[-69.15715639278449,4.349806145794389],[-69.15240565786405,4.347341264240015],[-69.14060287305239,4.348454281757654],[-69.13591929851378,4.341078229278423],[-69.13645300053133,4.339231804717997],[-69.14446627805205,4.331782686540009],[-69.14504255964675,4.327007454118814],[-69.14737663359716,4.326755524782527],[-69.1468781516221,4.330974235075132],[-69.14780324698057,4.331410263849818],[-69.14852100421348,4.326694000265718],[-69.14497767829357,4.326557126907801],[-69.14182604910513,4.321812558528734],[-69.13285910095055,4.317284168767117],[-69.12610931340083,4.317235082234106],[-69.12108975080514,4.31915856182178],[-69.11881235637884,4.322154681245479],[-69.11839723892587,4.331881008730136],[-69.11690392599053,4.33318108862909],[-69.11144441316884,4.33214443193998],[-69.10750494970267,4.328110002091648],[-69.10696578151311,4.329503937654863],[-69.10308961662713,4.323886926060538],[-69.09756002778909,4.3219822608003255],[-69.0995938026947,4.318795399228065],[-69.09581134434876,4.317407267165947],[-69.09818328349581,4.31571840411317],[-69.10349511711405,4.317635264644821],[-69.10511866892466,4.320648323545186],[-69.10509967564826,4.317701976625642],[-69.09920575796264,4.315208262685303],[-69.09187658189336,4.317982724978208],[-69.08702778086501,4.325493238089223],[-69.07354769269449,4.325527617894181],[-69.06859036321248,4.3282610391599405],[-69.06492803415182,4.332184307741784],[-69.06499358604952,4.335632200366604],[-69.06750865559883,4.341764958400518],[-69.07505841510482,4.348384291102093],[-69.07525485379654,4.351334502908571],[-69.07293485511042,4.356175252260414],[-69.0664771946013,4.362229351925237],[-69.06314509329121,4.3677570093482245],[-69.05159820863236,4.369611042326369],[-69.04139180417997,4.375102695005239],[-69.03860679212369,4.362423192771132],[-69.03566629292834,4.359479058031468],[-69.03126703852314,4.359656258677489],[-69.02657164512306,4.364435577100778],[-69.01995420886954,4.366088350048699],[-69.00797872593324,4.361583774902044],[-69.01375524690536,4.359313714299333],[-69.00228802231868,4.361472957135334],[-69.00230489083287,4.375987055812402],[-69.00918910507573,4.381741979491608],[-69.01352450759873,4.3890241382542285],[-69.01158928525439,4.39732578385815],[-69.00639258680457,4.402093724621864],[-69.00488852561642,4.3973864640236116],[-69.00928159496834,4.388258645861811],[-69.0088504317552,4.386156762350424],[-68.99455083533428,4.3761616802098615],[-68.98600083011809,4.364852206364219],[-68.9763888623562,4.365141434225336],[-68.9726548025152,4.370068025617343],[-68.96958902256597,4.380654275029599],[-68.95821441025657,4.391253770781532],[-68.95869324075198,4.396295996136587],[-68.96549145765988,4.401528899876837],[-68.96852271587903,4.407595738859072],[-68.96697608025596,4.414533913424066],[-68.96350277584492,4.419371865412245],[-68.95887661205307,4.421690511696454],[-68.94366694067662,4.416558127927999],[-68.93029200149766,4.416783671542987],[-68.92209921859126,4.423753527279757],[-68.9177679606916,4.4328836861766945],[-68.90550964474977,4.4467308954162945],[-68.90297628949253,4.453677184392689],[-68.90543219068678,4.459442936543212],[-68.91165102524582,4.4625443139732965],[-68.92130795034399,4.4628080086919795],[-68.9283415571756,4.471544267933666],[-68.92051123443667,4.479719216618321],[-68.92019793896378,4.483761568559373],[-68.9223938005241,4.489766233049181],[-68.91297495781214,4.495321184308182],[-68.91127642122899,4.494511551162873],[-68.90492104035678,4.496407628928068],[-68.90204051684384,4.499946238410587],[-68.89962204581497,4.508391033957139],[-68.89548376178425,4.508589161351438],[-68.89374367303805,4.5071202471863785],[-68.88356632414366,4.510270839704788],[-68.88298407963924,4.517800732786668],[-68.88861244318207,4.5246107418165025],[-68.88857610933633,4.526560680144826],[-68.88564565699596,4.527693906558056],[-68.87899283100694,4.526378219015385],[-68.87067890374249,4.530251700694862],[-68.86430270616523,4.530749382541671],[-68.85859552998687,4.5262468550240555],[-68.85383241159008,4.514192533741095],[-68.84813473307833,4.513114305348495],[-68.84055826594857,4.521671158963443],[-68.84331637600542,4.539009020382423],[-68.8415040648834,4.541005195429534],[-68.83666634840853,4.541703953215347],[-68.83214511352145,4.546351379027897],[-68.8317901455577,4.551469362544196],[-68.8358556415692,4.557399055631265],[-68.83148735562509,4.565344402466735],[-68.82937163750495,4.563938143076825],[-68.82939833278738,4.561636901125382],[-68.82603137961723,4.5608701355211],[-68.82385557679982,4.562038421539739],[-68.82284499627076,4.565269416665842],[-68.81701988961714,4.562954363759786],[-68.8094364229076,4.568417655079315],[-68.80485009172293,4.5684259988334475],[-68.80235484643163,4.56564988383343],[-68.80174111513105,4.556999286654502],[-68.79737716407215,4.5561659016291856],[-68.79138664272386,4.558968762305369],[-68.78956034066977,4.564476688030197],[-68.7922671808102,4.575469103331727],[-68.79488433047857,4.577279802884334],[-68.80296643754332,4.577614268846503],[-68.80757129714846,4.580427733793499],[-68.81351007755359,4.5923195878979755],[-68.81710053596572,4.595678003966782],[-68.81469006519126,4.605453311026395],[-68.81255546898018,4.607596021648931],[-68.80847971014077,4.608184533482074],[-68.80133749772233,4.605624693773052],[-68.79561476943616,4.610109538250015],[-68.79754016809761,4.6182497060371475],[-68.80935675049415,4.621782610749051],[-68.8103229588707,4.626749279517526],[-68.80900098034516,4.62940913834683],[-68.80296358978597,4.628992839213424],[-68.7967237215206,4.625819038861152],[-68.78618564949812,4.62835305849228],[-68.78054797135138,4.624769592460893],[-68.77294741398401,4.624784434943308],[-68.76237811124759,4.637359057637752],[-68.76398073116763,4.644283937526268],[-68.77286375635578,4.6483772014858005],[-68.7740371722457,4.651605105113617],[-68.77209575867738,4.6575824521132745],[-68.76783498302888,4.658826275178001],[-68.75935753134706,4.654968286985081],[-68.74798658749211,4.656708740828378],[-68.74440004538911,4.662067811839904],[-68.74362213043952,4.673052482969297],[-68.73995978800912,4.672843950821971],[-68.73501895371669,4.668171449523925],[-68.730925675359,4.6679329958699896],[-68.7150136332782,4.6778928250578815],[-68.7091885893596,4.678737029298475],[-68.7046087013673,4.6763385748463975],[-68.69894382502969,4.666996135129125],[-68.6907140881267,4.663883944654401],[-68.68462519110926,4.663996142590975],[-68.68036541202156,4.668382078665559],[-68.67924012107085,4.672264397751576],[-68.68246857594391,4.69135905188017],[-68.6803968360827,4.694237318990247],[-68.67504726890849,4.6965796461918785],[-68.6696206323088,4.6937788537136385],[-68.66825805498638,4.689689076174261],[-68.66828856167683,4.683735787530452],[-68.67285454718319,4.674121209581472],[-68.67202472468279,4.665799503177766],[-68.66838843887206,4.659915825694327],[-68.66523732390482,4.6583600955540305],[-68.66206934556567,4.6589057758416175],[-68.65562280766238,4.664847621005492],[-68.65194597139157,4.68658577247129],[-68.64955267663561,4.691933581008811],[-68.64365901811749,4.698717761733235],[-68.62964003943688,4.707852163984057],[-68.62205663751922,4.701415100093243],[-68.61586680812457,4.702447120563477],[-68.61184955326627,4.708764605385738],[-68.61119021979596,4.71471356531498],[-68.60768161820926,4.7179715827682],[-68.6048786803999,4.717444701381453],[-68.60178726446401,4.708139259883808],[-68.59842566433719,4.7051947528479445],[-68.59420906543704,4.706282335953745],[-68.59186351098282,4.708805441752872],[-68.5883038605948,4.7212738993545145],[-68.58331400558967,4.723072083790157],[-68.57739059731483,4.722534067456252],[-68.57305061513733,4.715899169277179],[-68.57022122784326,4.70033937492974],[-68.56549828555347,4.69547997580122],[-68.56222696416779,4.695111789265752],[-68.56053686595556,4.69899043784045],[-68.55429174337735,4.702197029053991],[-68.5526544793426,4.7052536579216735],[-68.55265800072982,4.716489678345738],[-68.55875707829972,4.726745427470178],[-68.5581969710205,4.732242032099748],[-68.55315025137162,4.73497286169038],[-68.54397773401263,4.722714596142225],[-68.53652087269091,4.722068466845371],[-68.5335452758377,4.726664443792458],[-68.53729551719329,4.735359045969915],[-68.54034973230637,4.737620555073079],[-68.54399941049559,4.7377171741624124],[-68.55271007797359,4.745600231319884],[-68.55316197150256,4.752116103732419],[-68.55102905268126,4.756598193011882],[-68.54442824017264,4.758745627270912],[-68.53149615759816,4.757256659505174],[-68.52673319860997,4.758814000186419],[-68.5241369684909,4.762763697684079],[-68.52430893127911,4.765911628593244],[-68.52775620272467,4.770922164548949],[-68.53452745181283,4.77293773396508],[-68.541944674903,4.772415727395867],[-68.54424484933111,4.774720153405326],[-68.54502622087603,4.781537962143261],[-68.54355188064824,4.783759788791826],[-68.5355117885457,4.782908061494197],[-68.53006122111702,4.7779847981421995],[-68.52300400535898,4.777080800253543],[-68.52023062293074,4.7784483727213],[-68.51829521546671,4.7821684693981865],[-68.51809400274482,4.789755300143213],[-68.51216300867793,4.7903669416485855],[-68.50435543714445,4.777481647038087],[-68.4993093119354,4.774925193990327],[-68.49331448552675,4.775329948856438],[-68.49259017402966,4.77416891232906],[-68.49200386614882,4.767935305221727],[-68.49417024431904,4.762531535013011],[-68.49184811161467,4.756091844480011],[-68.48320443688232,4.755437872280538],[-68.47853397498585,4.758418862286305],[-68.47778889512051,4.765339503963162],[-68.4797599854262,4.77116053901284],[-68.48701538514291,4.778676728098105],[-68.48579998103025,4.78508241729304],[-68.4828883502164,4.787227070643439],[-68.46930320355727,4.786827216305937],[-68.46420503709987,4.789587201213521],[-68.46118343184213,4.794428631394339],[-68.4611328293849,4.801462573498213],[-68.45924898082967,4.803785070271147],[-68.45261874149526,4.803619125928549],[-68.45512622628092,4.801074599728679],[-68.4541539480366,4.798737390056999],[-68.44778800403128,4.803906737078023],[-68.44828504927216,4.808948203442469],[-68.45346654014241,4.812011402000962],[-68.45355279767335,4.8134877734027555],[-68.44870540561129,4.817067023848267],[-68.44231825820651,4.8182250346977185]]]}}]}