{"type":"FeatureCollection","features":[{"type":"Feature","properties":{"code":"992008"},"geometry":{"type":"Polygon","coordinates":[[[-68.82147504810081,5.9438942681621825],[-68.8238762001576,5.669067577611145],[-68.83969366769281,5.6696426939805065],[-68.84539895050858,5.667359979421008],[-68.85060962549221,5.6685896799131115],[-68.8532581704253,5.6669887589800965],[-68.86879153997074,5.6657411563890605],[-68.87923909156802,5.661540708150255],[-68.88607751235088,5.661379138802147],[-68.89018710797757,5.666013429346833],[-68.89619310841425,5.668287004137653],[-68.90161391065953,5.667222901403022],[-68.90864679860977,5.670039769466314],[-68.9140347596001,5.668319560514021],[-68.92289664926608,5.677967781903135],[-68.9335839061319,5.67972801886674],[-68.95681333730226,5.670001890899869],[-68.97186807175632,5.670908300486246],[-68.9809192781496,5.6582425073909235],[-68.9836804786762,5.656988784538498],[-68.99766201073629,5.662372347908615],[-69.00198482100905,5.668035302087162],[-69.00890586275011,5.666438419847907],[-69.01794260512776,5.66799471254626],[-69.02565124049096,5.6655299461774575],[-69.03211898179364,5.665533255705498],[-69.0418449194986,5.667849705236449],[-69.06046240509488,5.676627636968988],[-69.0656670451778,5.672125878726376],[-69.08207099131533,5.673265872291324],[-69.0953328408981,5.669749723993391],[-69.12367376611246,5.652871073471886],[-69.13470575485366,5.652928143804104],[-69.14804282575062,5.655659057727007],[-69.16520040016769,5.655379207204817],[-69.17449549450515,5.646641366218546],[-69.18840235443923,5.639456828248285],[-69.19847187319243,5.6384324645325705],[-69.2096905972702,5.632467372454016],[-69.2389639773777,5.633604344454852],[-69.24663412945023,5.630059194077887],[-69.25477669659375,5.628469099559311],[-69.26160130127982,5.624707055797387],[-69.27891263813785,5.622700369039251],[-69.3053386218943,5.604477036095204],[-69.31785183114374,5.590248112187226],[-69.32193491352228,5.575497545778717],[-69.32185416741481,5.561698811148858],[-69.32414286031064,5.5554284701316305],[-69.33349030545764,5.552949545194622],[-69.34886614434873,5.544408293052754],[-69.35701575735197,5.542839960377819],[-69.37280784703955,5.527616885310067],[-69.38782486439271,5.522176335940003],[-69.4090302960036,5.519789924549798],[-69.4295600017989,5.508492436173299],[-69.44731293130559,5.5036518410877875],[-69.46400367200914,5.502057424025281],[-69.47426692979246,5.499402170561609],[-69.4770638316727,5.4965337672437045],[-69.47784739585705,5.490992306065266],[-69.48303925137105,5.48314358448971],[-69.49669599305611,5.478959656123095],[-69.50749360180419,5.473521832125698],[-69.5226610813263,5.461587735773207],[-69.54361954583607,5.459991016027857],[-69.55839442051195,5.460608051714303],[-69.56917337331271,5.51109893940469],[-69.58703549153319,5.535308864018248],[-69.59032172739222,5.536907145967689],[-69.59850177509492,5.5457257186632205],[-69.60343517889021,5.559512528502125],[-69.617393483576,5.567881024926635],[-69.6184204194264,5.573092813713515],[-69.62854834960086,5.588629320008579],[-69.64285708784735,5.596188116439009],[-69.64723519644593,5.600944867748126],[-69.6524310978528,5.602462756345972],[-69.65680850299668,5.608029648851016],[-69.66088463310382,5.610412586162397],[-69.67804078209952,5.605966767993721],[-69.69099976770184,5.612497620700026],[-69.69975555295315,5.620362664686752],[-69.70366768247402,5.622032572515479],[-69.71320932430808,5.622225698593866],[-69.72243364740206,5.626594552238203],[-69.72801895211353,5.623832122722774],[-69.73499307382986,5.612941013123134],[-69.73995876557797,5.615242868026314],[-69.75447690192038,5.616203831346013],[-69.76329295904549,5.611271908508002],[-69.77148454690172,5.609124022762728],[-69.77920289693293,5.611307602662521],[-69.79016877430365,5.61195122873022],[-69.80330853438971,5.607337789857638],[-69.81505048168418,5.606434428574914],[-69.83218599909452,5.611578157092765],[-69.84299599337584,5.612994561039727],[-69.86522545240172,5.620159785888006],[-69.87055001299609,5.619341110676032],[-69.8918891894428,5.624652108170494],[-69.90868696941527,5.632813409422965],[-69.91346118984904,5.6522649917267245],[-69.90543048331295,5.656593788563441],[-69.87537461991417,5.658110227057307],[-69.8590503976123,5.660768830158247],[-69.85699814673683,5.662894006864292],[-69.8572494302112,5.671051538874906],[-69.84435671127414,5.685581879744689],[-69.82713301931608,5.689328550347852],[-69.8308931943979,5.697360369658725],[-69.83098436891254,5.707786450461583],[-69.86042576773116,5.723481801760556],[-69.87190566067278,5.726275170940767],[-69.87895851686301,5.725661183557975],[-69.88078895736982,5.728872350312315],[-69.89381028715758,5.735405158087815],[-69.90295195226946,5.734814292149792],[-69.91994062454319,5.736637193144475],[-69.92920343195624,5.74104961778454],[-69.93232628737991,5.7448115401902555],[-69.93535283327549,5.744468307784075],[-69.93926344892895,5.7474187612745595],[-69.95473037286013,5.746966230111241],[-69.9646794116291,5.751799026517119],[-69.96617054015258,5.754679532546561],[-69.96174729629718,5.761713915852226],[-69.9354755922883,5.780047062803192],[-69.94583309345865,5.77957414893757],[-69.95511522119284,5.776657727638451],[-69.96700662381107,5.784968458503556],[-69.97758797269472,5.798526343208437],[-69.9851809411847,5.802531104547029],[-69.97712904564736,5.81465504624623],[-69.96811071547614,5.837903179643774],[-69.96966656183042,5.850845592923349],[-69.96846834402066,5.861944660799395],[-69.94313888567768,5.886541069997634],[-69.9381869822584,5.89702317109294],[-69.92736780398536,5.913047525267416],[-69.90575355721734,5.933677449700838],[-69.8875180979075,5.957089797600702],[-69.8766148567999,5.976919946510293],[-69.86997698950728,6.001284779249772],[-69.86128764678489,6.009426845541782],[-69.85207709042248,6.013591923585466],[-69.84340305915231,6.014199800991264],[-69.83492691359248,6.020354169687835],[-69.83344639962422,6.0279889567075315],[-69.8365826690237,6.035616971433228],[-69.82872387282521,6.043592796162784],[-69.82183362573852,6.046260081375465],[-69.80577391885248,6.04854258407579],[-69.79857077224324,6.054793653108618],[-69.79033196242034,6.057029093250833],[-69.77601080470197,6.0550846426917815],[-69.76030865745486,6.046313150037861],[-69.7484901631837,6.044524710095118],[-69.7304776126191,6.047728048344993],[-69.66236707540179,6.041944279938434],[-69.6029176697001,6.0413462971781655],[-69.58980266011173,6.041652520051855],[-69.56609688419155,6.045838150490852],[-69.53376306895063,6.046687933003682],[-69.51654278319415,6.053984534184565],[-69.5034427857812,6.0565219271071555],[-69.48399472692148,6.072453848981866],[-69.47039845045737,6.08129202790559],[-69.46437186060155,6.084069578611377],[-69.4490281142593,6.0860076353433215],[-69.4400786784239,6.094488903575325],[-69.42619910821202,6.102833954595724],[-69.4229805078752,6.092567917960707],[-69.43043184851751,6.085915186588409],[-69.43316172371345,6.058353681963524],[-69.43485313833213,6.054947403208303],[-69.43282015944101,6.050131600786642],[-69.42302487282859,6.045651252660377],[-69.41616146500627,6.034144053541411],[-69.41636763687802,6.0295741373277565],[-69.4250242237062,6.014321561386396],[-69.42496332139712,6.011524600884911],[-69.42239851945294,6.007147532041699],[-69.42301969667739,5.994525768627568],[-69.41339733856069,5.969961415982539],[-69.41337738883271,5.961692995242686],[-69.41534039043796,5.946973536135033],[-69.41827736104699,5.940786563753704],[-69.44153192221029,5.916397481368108],[-69.46697018565806,5.883442297612419],[-69.4669436826943,5.872729922066583],[-69.46296794914588,5.8671851595876205],[-69.4566508499895,5.863074328801417],[-69.44855979753174,5.849734400891123],[-69.45070445191061,5.833617978485449],[-69.43080714056231,5.8415016578506425],[-69.41353795750626,5.840822330429319],[-69.40900747794944,5.842166521256388],[-69.39802983108251,5.854837081182723],[-69.3868162656724,5.8594746894829655],[-69.3695998859406,5.857064708247151],[-69.3601029443322,5.857374665395639],[-69.35118450164055,5.858980124845459],[-69.33838828043662,5.864052762274241],[-69.33162340049296,5.863491473314582],[-69.32010228448985,5.85962611016032],[-69.29614952604192,5.843249904202878],[-69.27656547417104,5.837095078877837],[-69.25815339219992,5.8407367023052075],[-69.2506847037892,5.847669719230964],[-69.22852757306879,5.849562399022091],[-69.22112141499173,5.848633580701687],[-69.18833381183072,5.836805522943564],[-69.18553218322864,5.836961258965744],[-69.18065507740533,5.8470366244146135],[-69.1778223415024,5.8482035960836924],[-69.17046416438257,5.856868929815505],[-69.16507220583617,5.8520998371961355],[-69.16396665275425,5.84593887618297],[-69.15262826116191,5.851874481786126],[-69.14795498544669,5.851784857134362],[-69.12900227489763,5.836945230689082],[-69.07949497831925,5.827046511555636],[-69.05042514035597,5.828944172093884],[-69.02880591695458,5.836205959467122],[-69.02089623444874,5.8346769400359335],[-69.01118637438572,5.835484075094371],[-68.99596192223339,5.842733856429618],[-68.97313387469461,5.8460675693091275],[-68.96850500507043,5.8509207998394],[-68.96994569260215,5.855938261327026],[-68.96888361384242,5.860093016893188],[-68.96230042472473,5.866458346918307],[-68.95370043205992,5.873018316889215],[-68.94450833007005,5.876583287410369],[-68.928948483272,5.885762366232655],[-68.91291861664564,5.903336412561373],[-68.88854703629477,5.924508632677998],[-68.84103141327063,5.945177670837268],[-68.82147504810081,5.9438942681621825]]]}}]}