{"type":"FeatureCollection","features":[{"type":"Feature","properties":{"code":"851057"},"geometry":{"type":"Polygon","coordinates":[[[-72.0289469910224,6.047762255371595],[-72.02764185015775,6.0395721001358424],[-72.02122516896924,6.032858225798861],[-72.02272067248714,6.0306588829606085],[-72.02638372145753,6.030278481613379],[-72.02807772260917,6.026899391793052],[-72.02099660687543,6.02286025270638],[-72.01876861265703,6.01943360873247],[-72.02003515196014,6.015401164806633],[-72.02654330694008,6.013348325662037],[-72.01976119132826,6.00425306901883],[-72.02202702811752,6.001509860065596],[-72.0259559891287,6.0005712304036365],[-72.02654357433511,5.9885858949879776],[-72.01849494410283,5.968852904071525],[-72.01250575355914,5.9617511166432],[-72.00927828907624,5.9547252313579975],[-72.01147601314597,5.95112212207448],[-72.00869882033817,5.9467852910448755],[-72.00875201858435,5.937695504687383],[-72.01138383384301,5.928691055404784],[-72.01204764000983,5.917666253419895],[-72.0153292262803,5.908295888402961],[-72.01894517361177,5.910652164370447],[-72.02564457981936,5.911427081410125],[-72.02982535703808,5.899811891712943],[-72.03332667108111,5.895300629633027],[-72.02920742454984,5.88008180614662],[-72.03042841721913,5.863323748737969],[-72.03301447809861,5.854501771897731],[-72.04482478699572,5.848644687880892],[-72.04786993535959,5.838169282974832],[-72.05604856998224,5.833615834182808],[-72.06189296918905,5.822519927739052],[-72.07067498280992,5.8213934407096986],[-72.08189841304062,5.815043968239763],[-72.0873307112164,5.797110491535136],[-72.08666622422061,5.792008825287837],[-72.09032933901136,5.787948102278051],[-72.09794324144877,5.786566092534258],[-72.10178830109083,5.783346375308895],[-72.10291008299566,5.770834561655931],[-72.10432928944846,5.768791383700375],[-72.10172036937712,5.765235112774462],[-72.10416187957526,5.746755212218375],[-72.10232292150755,5.744954906105818],[-72.09777619050203,5.730699528599416],[-72.0995758250416,5.719686848866502],[-72.10534445991647,5.713477670354337],[-72.1160715277922,5.721248366052862],[-72.12935497363941,5.720278138522872],[-72.13607685234444,5.718609804211212],[-72.1450873745801,5.710809124271066],[-72.15209887812512,5.708504382529725],[-72.17841385693828,5.717242460057776],[-72.1812052412244,5.719994725475772],[-72.19548130790895,5.719108683165075],[-72.20336930056209,5.731202255985181],[-72.20187821420478,5.752241689774451],[-72.20972570781993,5.762835099203528],[-72.21107428495435,5.767326866127064],[-72.20802711878628,5.785478834416381],[-72.20910396495213,5.8186724985654905],[-72.20126769164483,5.845893564034043],[-72.20307822870353,5.857675131048154],[-72.20854582405502,5.866803065423937],[-72.21547573405587,5.870316789682818],[-72.2272554231339,5.873383826388817],[-72.23603915836753,5.870623527806288],[-72.24271006643295,5.864268711549016],[-72.24776484084362,5.853831365186807],[-72.25729566860457,5.849815096604914],[-72.26793356434325,5.852134115185265],[-72.28471067982025,5.865150254423668],[-72.27979977011972,5.872648492044789],[-72.27396107156983,5.891153607954607],[-72.27182884797571,5.907965533125548],[-72.27225812605366,5.921553108965895],[-72.27563671707935,5.9396295391806575],[-72.28288603150173,5.957130508497755],[-72.27833589326616,5.975653715739952],[-72.28025863854589,5.987265697724865],[-72.28663592215838,5.998790687870951],[-72.29796103758628,6.006753021491534],[-72.29941055018321,6.009501935215383],[-72.29554879172002,6.011196666561204],[-72.28905614668173,6.011287251778242],[-72.27881726401455,6.00919620805098],[-72.27184362052401,6.01416000849332],[-72.26772389165319,6.023204912590813],[-72.25993365348995,6.026259823959492],[-72.25626424874474,6.031150765420023],[-72.25272410791132,6.031800931353757],[-72.24626901542314,6.021023826664134],[-72.23875453149554,6.015921351032603],[-72.2359843002152,6.011171514970954],[-72.23190250956043,6.009186281523796],[-72.2252577486176,6.009608877810706],[-72.217880226494,6.007495992021234],[-72.20864007155586,6.002304868758301],[-72.20304742993545,5.990450556919541],[-72.19860684653918,5.986246247907559],[-72.1957458860598,5.979460263294982],[-72.19175578311246,5.974893733742533],[-72.18939823084776,5.973358221753699],[-72.17627580207505,5.9732021771988],[-72.16116166889486,5.965988331702022],[-72.14773357877806,5.972353503346994],[-72.13271743148732,5.98832970892812],[-72.1366922929165,6.00212836951016],[-72.13118436822015,6.012018421958487],[-72.13377023163866,6.022608349081224],[-72.12919325002485,6.026717601208077],[-72.12596484451706,6.027008778996219],[-72.12118103385683,6.023959519947596],[-72.11670277346889,6.007803626946554],[-72.10383207451457,6.0050504996936525],[-72.09218866846845,6.006193288565385],[-72.09089170269345,6.012216454736119],[-72.09209691082697,6.029240392303791],[-72.09035767877339,6.038605707668012],[-72.09234159375723,6.041972587818748],[-72.09371446064705,6.054146383269085],[-72.08797774965637,6.061398089848751],[-72.07541828928998,6.064898826935519],[-72.06895632783426,6.061003548445285],[-72.06150280483695,6.04975843967469],[-72.04597668375442,6.04610256203398],[-72.03964303078726,6.046645858391798],[-72.03333434943295,6.049548955189607],[-72.0289469910224,6.047762255371595]],[[-72.16028983348912,5.8309831128662495],[-72.16331277675056,5.8347031570925765],[-72.16355831123127,5.830545504403915],[-72.16558537966318,5.82927024905041],[-72.16311856360846,5.827258844826474],[-72.16028983348912,5.8309831128662495]]]}}]}