{"type":"FeatureCollection","features":[{"type":"Feature","properties":{"code":"851078"},"geometry":{"type":"Polygon","coordinates":[[[-71.95397346044507,5.5483996023631335],[-71.95944354051363,5.548388754351436],[-71.96165618934123,5.546925974846033],[-71.96133595599508,5.5422020143981285],[-71.95978001502408,5.541935496604765],[-71.95845921817897,5.536121289384994],[-71.95958190408481,5.5263656615729815],[-71.95182211707606,5.52078143878299],[-71.94742704740344,5.513748703042211],[-71.94632917575876,5.509615024377069],[-71.94835831855926,5.504559509487763],[-71.94565690859531,5.502150601945914],[-71.93959957756414,5.500705598041009],[-71.93526553978438,5.502498450002179],[-71.93035285910588,5.500939984204763],[-71.92785733202129,5.498365736016069],[-71.92589650145823,5.5000789803556245],[-71.92355401073422,5.498525261848954],[-71.91915266756229,5.5008588092367745],[-71.91362089431232,5.498765971905755],[-71.91072191539837,5.490593265225755],[-71.91270540563545,5.484791164831336],[-71.90597576630313,5.482958306456169],[-71.90119996823853,5.4779302334986255],[-71.89769763603744,5.478274393560014],[-71.89070183989503,5.474364338407668],[-71.8870998505854,5.474530741435615],[-71.88416234724315,5.469921637448238],[-71.87412942458855,5.468376844794136],[-71.87040660562428,5.46310067036336],[-71.86887337780632,5.463492617006352],[-71.87054342756011,5.467587642687931],[-71.8666303477583,5.469314933495411],[-71.86413544905213,5.4547405372334765],[-71.86076262347518,5.453944191565483],[-71.85490362758372,5.458885607956404],[-71.85121011408904,5.454897133033569],[-71.85172949093078,5.450072669068959],[-71.84507650141938,5.447541589755019],[-71.84513698103859,5.444904416310806],[-71.85150861541638,5.446090329834249],[-71.85229361324957,5.444727655838221],[-71.84623617011817,5.441784286259804],[-71.8485400315127,5.433816229356637],[-71.84377883116122,5.435454433387804],[-71.84312363202986,5.439517104267679],[-71.84123894632239,5.438960029865484],[-71.84006334499213,5.429834915479034],[-71.83865177163966,5.427222780496379],[-71.83511941303078,5.425441982910002],[-71.83756131198021,5.4240369247409035],[-71.83775961112445,5.421914197784986],[-71.83529518105632,5.421493903152395],[-71.83680588598315,5.419844799687439],[-71.83418907055858,5.415528295824174],[-71.83585274602564,5.41426153334902],[-71.83546375409804,5.412475470136883],[-71.8373556605004,5.412884597940604],[-71.8340360444825,5.410275549313951],[-71.83421192152292,5.408734442597847],[-71.83789687323366,5.409766915582793],[-71.84077293947678,5.4082640175631695],[-71.85076104672015,5.408475940485459],[-71.85868836495831,5.404530281681559],[-71.872558473499,5.4040161869206145],[-71.87574790514913,5.401242370489626],[-71.88311030813924,5.406084309749474],[-71.8902741425332,5.405700203952222],[-71.9058465610126,5.398512450042176],[-71.91159184510008,5.39800776450187],[-71.91420881376257,5.3929510329650725],[-71.91974763801443,5.389954817896296],[-71.92833885600766,5.378199352753313],[-71.94122545159797,5.380464364731722],[-71.95041954979479,5.3873701351298],[-71.9581558132378,5.386707000535921],[-71.96947012179169,5.3940074604331585],[-71.97598624617268,5.392265617164071],[-71.98487450921857,5.386040540987381],[-71.99101613551238,5.385687772862184],[-71.9945864241098,5.388431438443888],[-72.00190372783862,5.388723081088017],[-72.0044754090348,5.3908273248749765],[-72.01099833244928,5.387746487498873],[-72.01622499560034,5.389348000814721],[-72.02206917060664,5.386994438907038],[-72.03267383531062,5.387461754959986],[-72.03654272807961,5.390990237369067],[-72.04123476567173,5.391742517360456],[-72.05420467333357,5.384660014257747],[-72.05955379724907,5.385427907034966],[-72.06255148504755,5.3821652266233855],[-72.06777768642786,5.382961985725217],[-72.0687392349314,5.38053296904684],[-72.07485891426188,5.3773098733877305],[-72.08036708064225,5.378398919967196],[-72.09162121913812,5.374368888767492],[-72.09489437732213,5.367785555667922],[-72.09944133767033,5.36391419669377],[-72.10047104517332,5.357775397588455],[-72.09641993810112,5.3508700231407715],[-72.09830403862475,5.343649483511683],[-72.10684150712666,5.337050216752118],[-72.11469346521079,5.335431695053842],[-72.11817174831202,5.337175786498335],[-72.12011775798999,5.342293934565419],[-72.11283856628404,5.343109986220497],[-72.11024521477555,5.349063091801554],[-72.10420958079618,5.354311418065777],[-72.10343877444126,5.358823180997206],[-72.10681106625651,5.359548044767905],[-72.1107020623121,5.354578624915689],[-72.11445592584226,5.353700491327913],[-72.12257407261819,5.35846789730158],[-72.12260410931037,5.361772394186005],[-72.11698138677474,5.370047507001402],[-72.11775972441421,5.374075143986886],[-72.12780039329783,5.372704292844389],[-72.13985477217352,5.375064334968442],[-72.14011498150052,5.377954989668638],[-72.13807037298142,5.3807693791854945],[-72.12722015734164,5.388152358225113],[-72.12645797653414,5.390329110294999],[-72.12798389006895,5.393600011047681],[-72.1318596014118,5.394186338468899],[-72.13684900081688,5.386993611010837],[-72.1414577767311,5.385323905785299],[-72.14945294132218,5.392833762750001],[-72.15398503142,5.3936931807407404],[-72.15724276502311,5.39653121517955],[-72.15709822256935,5.399117844787725],[-72.15514468983434,5.400553189560526],[-72.14648559874865,5.399392531500041],[-72.14341858158309,5.401110091184421],[-72.13872563999001,5.406505303722952],[-72.1399470460932,5.411971404747419],[-72.14383732738122,5.412284363919639],[-72.14532598250042,5.405330047949349],[-72.14820960573917,5.405283890420662],[-72.15166526207656,5.407565633101967],[-72.15527417074748,5.406665414739564],[-72.15934892994073,5.400308936519195],[-72.15995912442747,5.393755030245416],[-72.1680393679544,5.387909277608287],[-72.16907660468513,5.38964894880678],[-72.16805469689012,5.395250345558338],[-72.16499475335223,5.39724712532967],[-72.16462888801152,5.400317718389886],[-72.17005338750766,5.402049756488054],[-72.17776653464819,5.4109119814262385],[-72.1718533058974,5.414365059458248],[-72.17256361617802,5.418635447958991],[-72.17537816098968,5.419087194420683],[-72.17653098026125,5.414893828037066],[-72.18406142973055,5.4140938900193305],[-72.18580788967813,5.4176151342499566],[-72.18258902503158,5.421728608133378],[-72.1822607101841,5.4254195875457185],[-72.18441234563079,5.425540452167411],[-72.18779989747617,5.421925719426497],[-72.19230867689583,5.422419961133073],[-72.19455221602288,5.425978902924214],[-72.20022855949458,5.429867159208868],[-72.2057515714427,5.439977621287198],[-72.20007503873757,5.456038604470393],[-72.21557825846213,5.470734352835791],[-72.21354205848905,5.488178327925425],[-72.21622754610593,5.494363139549023],[-72.21618850437102,5.513754288513553],[-72.21739132857476,5.515804736529276],[-72.1882716121778,5.542142059284629],[-72.188460429082,5.544180991829478],[-72.18545478216686,5.548338259880666],[-72.17679823956172,5.552128629006461],[-72.17304769173029,5.560942171589602],[-72.15573312350585,5.569549864203566],[-72.14265912306291,5.580190614898697],[-72.13962711202385,5.587825980931484],[-72.12392697846713,5.595938126745352],[-72.11535949281347,5.6062290568314666],[-72.10996928673308,5.616186801366382],[-72.10505581723919,5.620364676320321],[-72.10242785658306,5.625871025442791],[-72.09829187009291,5.628076127559098],[-72.08575165908513,5.654702490999057],[-72.0859224185956,5.662872901166907],[-72.08788133111335,5.66561057092872],[-72.08586677676999,5.666928806951944],[-72.08086132337723,5.667146501493619],[-72.0764056702127,5.6635918349380745],[-72.07114070477695,5.662565921359487],[-72.06375602880718,5.657229731137079],[-72.04266737067366,5.647033232643025],[-72.03313768551232,5.632935692266869],[-72.02657655751517,5.628031429390376],[-72.01938213518378,5.627209630798518],[-72.01817627193242,5.619667360410915],[-72.00722759629122,5.613016879270845],[-72.00648776662496,5.608919379156589],[-72.00404650530987,5.607051348047321],[-72.00127713689278,5.600735996214837],[-71.99083140563874,5.594220474501128],[-71.98802476235096,5.587971643359197],[-71.98175234696515,5.583934614636632],[-71.9799289060382,5.577698337692482],[-71.98083001914551,5.5750865287261036],[-71.97632866508081,5.573671993459243],[-71.97150608933674,5.5697180731766025],[-71.97252903071643,5.566139777125727],[-71.96511315385749,5.559119881489778],[-71.9643349293467,5.553847549320267],[-71.95397346044507,5.5483996023631335]]]}}]}