{"type":"FeatureCollection","features":[{"type":"Feature","properties":{"code":"851038"},"geometry":{"type":"Polygon","coordinates":[[[-72.06107485036449,6.116868919386832],[-72.06753717280355,6.105129047489356],[-72.06817078698339,6.096535941275647],[-72.06807877120275,6.092460957881883],[-72.06448596691331,6.084473367769931],[-72.06676667703829,6.080238935676562],[-72.06361567519974,6.072415687593775],[-72.05912924486444,6.067148346455781],[-72.0508591457064,6.069413924077594],[-72.03583642461103,6.068330493822714],[-72.03091539606459,6.056622558150764],[-72.02644410440314,6.052254319515043],[-72.0273679748866,6.048454393072916],[-72.03333434943295,6.049548955189607],[-72.03964303078726,6.046645858391798],[-72.04657094560969,6.046215491193209],[-72.06184619150952,6.049970974520306],[-72.06880349716221,6.060832407382634],[-72.07466296613723,6.064688171054399],[-72.08780130080191,6.0615070193949805],[-72.09371446064705,6.054146383269085],[-72.09234159375723,6.041972587818748],[-72.09035767877339,6.038605707668012],[-72.09209691082697,6.029240392303791],[-72.09089170269345,6.012216454736119],[-72.09218866846845,6.006193288565385],[-72.10383207451457,6.0050504996936525],[-72.11670277346889,6.007803626946554],[-72.12118103385683,6.023959519947596],[-72.12596484451706,6.027008778996219],[-72.12919325002485,6.026717601208077],[-72.13377023163866,6.022608349081224],[-72.13118436822015,6.012018421958487],[-72.1366922929165,6.00212836951016],[-72.13271743148732,5.98832970892812],[-72.14773357877806,5.972353503346994],[-72.16116166889486,5.965988331702022],[-72.17627580207505,5.9732021771988],[-72.18939823084776,5.973358221753699],[-72.19175578311246,5.974893733742533],[-72.1957458860598,5.979460263294982],[-72.19860684653918,5.986246247907559],[-72.20304742993545,5.990450556919541],[-72.20864007155586,6.002304868758301],[-72.217880226494,6.007495992021234],[-72.2252577486176,6.009608877810706],[-72.23190250956043,6.009186281523796],[-72.2359843002152,6.011171514970954],[-72.23875453149554,6.015921351032603],[-72.24626901542314,6.021023826664134],[-72.25177063988065,6.030749288200241],[-72.25391982557727,6.031401675569782],[-72.25312779319722,6.036766046145601],[-72.24492376632878,6.050064763335797],[-72.24051992918368,6.054189027638131],[-72.2353228512386,6.055284254128651],[-72.22912512340542,6.051853750409975],[-72.22348075626854,6.058124609762217],[-72.20710286983598,6.060844825826052],[-72.1947999297733,6.0708687300681845],[-72.18481323149615,6.075197154608645],[-72.17637077565632,6.076163687973121],[-72.1659131010993,6.072224161771942],[-72.15880960028574,6.073623232348666],[-72.14478770082837,6.06752264605359],[-72.14192588571325,6.068415038996818],[-72.1396451015404,6.066804943328123],[-72.12540757368231,6.068706915097437],[-72.11895397037893,6.073601002563635],[-72.11206420871707,6.0760658100701335],[-72.10080988921533,6.088612329544333],[-72.09194383847091,6.094711751642478],[-72.08967043851533,6.099112379018436],[-72.07784487987249,6.111961365494267],[-72.06689563138883,6.116433309188267],[-72.06107485036449,6.116868919386832]]]}}]}