{"type":"FeatureCollection","features":[{"type":"Feature","properties":{"code":"851017"},"geometry":{"type":"Polygon","coordinates":[[[-72.36229138108814,6.279917370465512],[-72.36355779697811,6.27110435650178],[-72.3615364076058,6.262592288473229],[-72.34642990752599,6.243207939570652],[-72.34745273166322,6.241177714848618],[-72.34391995344976,6.234672992809806],[-72.34348448929006,6.225654513514371],[-72.3375877721839,6.220527271958531],[-72.3291946178216,6.220935507074103],[-72.3265925656894,6.2194987831599065],[-72.32287730577764,6.215724257191141],[-72.32479282419177,6.212755733965594],[-72.32372464162569,6.209394438257732],[-72.31920022885129,6.209604224076429],[-72.31618569516434,6.2072984312668495],[-72.30423070703051,6.204801111607026],[-72.29340403346845,6.204537567040916],[-72.28747648262714,6.200742912395185],[-72.28473654103578,6.196762433612946],[-72.2866597470578,6.194190844976617],[-72.28730847934258,6.18865364360704],[-72.28230338796158,6.17448882663507],[-72.28875810198292,6.169482661560039],[-72.28902468045442,6.163100375603108],[-72.28299716191498,6.1599166024437295],[-72.27760339845196,6.1526327734904385],[-72.27921341390214,6.150838554729148],[-72.2770689857806,6.144386958945574],[-72.27839665673548,6.140317418069628],[-72.27742067609807,6.136523738387382],[-72.27404010326364,6.134460604533217],[-72.27248421782855,6.130907778889764],[-72.28357055564305,6.126304086566904],[-72.28741537462957,6.121144792571499],[-72.29749363000195,6.118864575070461],[-72.30198789295548,6.113185328305576],[-72.30625349919848,6.092928583496075],[-72.32426612792466,6.086702662968094],[-72.33763566058133,6.091050678310182],[-72.34668293729572,6.099173798634126],[-72.35330435979245,6.102533705944552],[-72.36254061899035,6.098499383054275],[-72.37604723172188,6.1099738982699705],[-72.38383334171687,6.1135260070889785],[-72.38902745363373,6.123727840114384],[-72.38998828839817,6.1290355003128525],[-72.37665902749364,6.1351384540826075],[-72.3768732860089,6.139460783044342],[-72.37441567142935,6.141988286463686],[-72.37369912364483,6.145798080811744],[-72.37471296845047,6.150312868392632],[-72.38615077443887,6.160975363447903],[-72.39397835637845,6.1617334695661725],[-72.39188017834545,6.1701554768833375],[-72.39199395905507,6.187666211262183],[-72.40312540847225,6.190280284859],[-72.40914631618318,6.1865285152377965],[-72.41453281678514,6.186444891548206],[-72.41662997871697,6.18946706039236],[-72.41186131495812,6.191553458644762],[-72.40920480473767,6.195077882819646],[-72.39747203629264,6.219948650657102],[-72.39829633399984,6.236156734030658],[-72.39141395655531,6.249788854801864],[-72.38841556118837,6.2615792767060725],[-72.39690780187362,6.27311296953269],[-72.39075781022837,6.282795096614791],[-72.37968701320875,6.2930610273202205],[-72.37479600387098,6.301539162916299],[-72.36493083561783,6.305174187856494],[-72.36547338224102,6.302978350978833],[-72.36106337958307,6.295916121563494],[-72.36135266195163,6.291053141398152],[-72.35904855784463,6.28541677040181],[-72.36229138108814,6.279917370465512]],[[-72.3351409408242,6.129115359902869],[-72.33498032895602,6.126093958276783],[-72.33124669591871,6.1285707070293824],[-72.3351409408242,6.129115359902869]]]}}]}