{"type":"FeatureCollection","features":[{"type":"Feature","properties":{"code":"852010"},"geometry":{"type":"Polygon","coordinates":[[[-71.76459644688441,6.160349046067779],[-71.75519902560166,6.1616708672415825],[-71.75462627465015,6.159342469265425],[-71.7561655877625,6.156311205904046],[-71.75694148285095,6.157136969141845],[-71.76893166737307,6.147547843088262],[-71.76971416609098,6.151027126864051],[-71.77236397909377,6.1536507917157905],[-71.7708836574443,6.158545569266948],[-71.76907107584185,6.1615503337783935],[-71.76477219228423,6.161861056088128],[-71.76459644688441,6.160349046067779]]]}}]}