{"type":"FeatureCollection","features":[{"type":"Feature","properties":{"code":"852058"},"geometry":{"type":"Polygon","coordinates":[[[-71.66004139733752,5.555904625648054],[-71.66255248681426,5.5526476921731955],[-71.66812188974751,5.5526230486335635],[-71.67206651496667,5.556615641440203],[-71.68419007614216,5.560048653530259],[-71.68470804915984,5.562128822506338],[-71.68867562818758,5.564116838918949],[-71.6881573970308,5.5668331469011605],[-71.692024765648,5.567410142235019],[-71.69600807059027,5.564960841584821],[-71.69950214748326,5.567268764298831],[-71.70595659513799,5.5653059848372095],[-71.71114538177949,5.569475155053681],[-71.71238880375171,5.5728276976872735],[-71.72024678336675,5.56718967192694],[-71.7253057805624,5.5606921078480696],[-71.73104356833238,5.560070117125633],[-71.73145529809568,5.556585241707808],[-71.73347688492896,5.555329481510739],[-71.73971083553613,5.559216868761496],[-71.74672205523098,5.556976776973784],[-71.74665335629913,5.554959344019835],[-71.73890229768205,5.55245407141399],[-71.73847420436988,5.548683498778246],[-71.74435672279861,5.54420828772237],[-71.74842330587387,5.5374184083979685],[-71.75755655421216,5.5409984867396815],[-71.76207341719004,5.5403916336626935],[-71.7620659897782,5.538538200266487],[-71.7569685206048,5.532830363827998],[-71.75912840107515,5.529897772327217],[-71.76248539789327,5.5312899667372335],[-71.76400337596561,5.534274238503087],[-71.77183169941219,5.540404947879551],[-71.78216991214316,5.537382123917439],[-71.78862405743575,5.54331875487776],[-71.79260700859385,5.538240300578082],[-71.80414253719039,5.535462222281296],[-71.80470779696662,5.546212476393578],[-71.80333362909704,5.5485700276298076],[-71.80542439617324,5.552469123698643],[-71.80727820186564,5.550264747662709],[-71.80587460819868,5.544718168954262],[-71.8079422147494,5.542598172513237],[-71.81108554852051,5.542456640310718],[-71.81412278713293,5.5503192983107965],[-71.81625086404682,5.550670826134365],[-71.82109572408348,5.547466961321959],[-71.82030989012645,5.5415759551571],[-71.8235675465964,5.541610990079903],[-71.82530779577962,5.54731363905438],[-71.82753510916905,5.5479569041387435],[-71.83154125581967,5.544147705258922],[-71.83846842193589,5.544436055858512],[-71.8351417549161,5.539983376949806],[-71.83625641177116,5.538248185646864],[-71.84535041988516,5.540863518057336],[-71.85189618500794,5.5340524332765995],[-71.85628353416257,5.546391898475406],[-71.86262440782463,5.550360011264786],[-71.8641273058443,5.547898785823577],[-71.85975478580235,5.546009627419608],[-71.85961027008807,5.5421540540097],[-71.86797180704201,5.53721211208466],[-71.86534737702908,5.546604415837464],[-71.87260346888763,5.547921481493063],[-71.87369491173814,5.550288545822639],[-71.87098579051224,5.554267878919916],[-71.87173352992988,5.556297046403017],[-71.8766704911078,5.558013195064234],[-71.88021792051336,5.562641694449098],[-71.88546723922462,5.5652750081485465],[-71.8983759010776,5.559976861043367],[-71.90219891296891,5.554118486331163],[-71.90197745124226,5.546894197000654],[-71.8942414634219,5.5442021870013605],[-71.89975026023751,5.537876754375247],[-71.9104313145665,5.537960074674345],[-71.91842742635316,5.549104183190536],[-71.92680488668265,5.543797590515396],[-71.94074414255607,5.5426723201335335],[-71.9440546805119,5.547509854574059],[-71.95189036143626,5.547379986966575],[-71.95845934673429,5.549642455606602],[-71.9643349293467,5.553847549320267],[-71.96511315385749,5.559119881489778],[-71.97252903071643,5.566139777125727],[-71.97150608933674,5.5697180731766025],[-71.97632866508081,5.573671993459243],[-71.98083001914551,5.5750865287261036],[-71.9799289060382,5.577698337692482],[-71.98175234696515,5.583934614636632],[-71.98802476235096,5.587971643359197],[-71.99083140563874,5.594220474501128],[-72.00127713689278,5.600735996214837],[-72.00404650530987,5.607051348047321],[-72.00648776662496,5.608919379156589],[-72.00722759629122,5.613016879270845],[-72.01817627193242,5.619667360410915],[-72.01986210725039,5.6276349411452316],[-72.02657655751517,5.628031429390376],[-72.03313768551232,5.632935692266869],[-72.04291946250385,5.647175299635705],[-72.06375602880718,5.657229731137079],[-72.07114070477695,5.662565921359487],[-72.0764056702127,5.6635918349380745],[-72.08086132337723,5.667146501493619],[-72.0879157685111,5.665676921926263],[-72.08769208226329,5.671595624048109],[-72.08628084726843,5.671338113354295],[-72.08642932865712,5.6689140537688445],[-72.06465594480744,5.667545298592245],[-72.05812108837443,5.673648714132696],[-72.0562001665233,5.678426871444401],[-72.04578015147439,5.69211383699826],[-72.04222875125225,5.7014943856530635],[-72.03718533907454,5.7077749133933935],[-72.0345854425579,5.7064165084623255],[-72.02788562908705,5.710147992054772],[-72.01699920609997,5.719433741963542],[-72.00206909419654,5.728952292177723],[-72.00029435207966,5.725698653832694],[-71.99343515984327,5.722228961311828],[-71.9937810610578,5.720273695651201],[-71.99022958781626,5.717633411168379],[-71.98901209493687,5.720802739852616],[-71.98536781401401,5.7173816237572055],[-71.98378250381,5.719541009546674],[-71.98807486704203,5.72223380630453],[-71.98604579623253,5.724917940491025],[-71.98776696780698,5.725963208329347],[-71.9844419534943,5.731427604196142],[-71.98962984950458,5.733709408583934],[-71.99148041663148,5.732076903152745],[-71.99409695540498,5.733991884719899],[-71.96984370867881,5.763904570408101],[-71.96175935755247,5.771641615467388],[-71.94834893607816,5.761946237931909],[-71.92108867460826,5.7514120338817065],[-71.91978362836039,5.747597103491728],[-71.91524377557846,5.7447989386840845],[-71.91516772739641,5.740458911255075],[-71.9104376734266,5.737885930107552],[-71.9075617357388,5.731408365121922],[-71.90481476165752,5.731385488446506],[-71.90701913049435,5.727585051896938],[-71.90267054539515,5.726157719719822],[-71.90527248748401,5.721586192965162],[-71.90086991223791,5.722216687878813],[-71.89854271651103,5.725403294397324],[-71.89607074590236,5.725427745618219],[-71.89472042144416,5.7214116230751415],[-71.89182892959172,5.723821176478907],[-71.89266079252207,5.722431643678078],[-71.89088294245192,5.720824296007777],[-71.89325608076297,5.7183133710818765],[-71.88960171081897,5.7170320890552375],[-71.88665575573606,5.71243719402969],[-71.88760947162137,5.711026655290425],[-71.8908370235219,5.710963314544131],[-71.88873176260529,5.707987995370445],[-71.88648899172478,5.710921844656468],[-71.88310066649063,5.70997703714022],[-71.88324633611745,5.713764902008506],[-71.87904941235115,5.7098880974312465],[-71.87553198467072,5.7132134716987935],[-71.871724689438,5.709793316168714],[-71.86779557416048,5.714316597656364],[-71.8644230838558,5.7130803377578445],[-71.86613279549528,5.709501837046901],[-71.86114283456061,5.710148979359644],[-71.86075386011652,5.707209623792323],[-71.8586019850427,5.706430984819235],[-71.8579229527844,5.712334562665433],[-71.85474112852359,5.7102089241886915],[-71.85317720889554,5.706686706023049],[-71.8462194373584,5.7102921683830346],[-71.84061898883078,5.707588920592343],[-71.83610244364166,5.708590090872349],[-71.83542366952241,5.705394368239354],[-71.83099788232869,5.7030808209731845],[-71.82748846004483,5.706933300827984],[-71.82563465435248,5.706947484078739],[-71.82280404835399,5.703298310854791],[-71.82436844312252,5.700876065441946],[-71.82355893853253,5.698545018197876],[-71.81573927662879,5.68934068391269],[-71.81615906423917,5.686660961744565],[-71.82084316636883,5.683123724204393],[-71.82017178469437,5.681512723506273],[-71.81769178400657,5.6813697154886995],[-71.81695946814136,5.675450636956839],[-71.81296228333883,5.676924739614435],[-71.80979558232525,5.670464130560617],[-71.80301291546823,5.669223277637798],[-71.8002056931673,5.667153197682865],[-71.7900195603454,5.6758289793622225],[-71.78247396191784,5.670242109361197],[-71.77779660020047,5.672090469450438],[-71.77592043411084,5.669830879420999],[-71.77836905393212,5.6667662646971735],[-71.77703445230316,5.663275489104649],[-71.78079538329024,5.660501828996871],[-71.77778185644854,5.656754763471781],[-71.77579764938702,5.656727681494942],[-71.76964920760463,5.646909801028812],[-71.76758067956945,5.648532468378903],[-71.76030265823107,5.642716212501625],[-71.75060497698433,5.644903500965086],[-71.74964384191469,5.641667213473852],[-71.74580557822082,5.642664891163065],[-71.73365221278112,5.635389920185162],[-71.72759467606141,5.634032769953933],[-71.72701438045556,5.632277554875202],[-71.73088305108092,5.629309300073146],[-71.72823479616858,5.627367312633908],[-71.72668632477564,5.622476363974272],[-71.72757923502547,5.620218884308883],[-71.72455062196042,5.615600949085604],[-71.72514504013895,5.613001179067339],[-71.7230697038143,5.606811559474977],[-71.71405887921651,5.607433600591094],[-71.7101154089383,5.610543795887395],[-71.70607898391148,5.607923018902227],[-71.70385138461506,5.600140355218116],[-71.70610936513197,5.588126008467498],[-71.70231042805153,5.586468486172009],[-71.70318741595429,5.583958000391021],[-71.70177608634276,5.578094136881134],[-71.69758712169312,5.576738838874917],[-71.69926560673241,5.572817615865233],[-71.69598525459298,5.571174630604787],[-71.68554027307351,5.572057166954949],[-71.681412254956,5.568488472443448],[-71.67974170640758,5.569330940673069],[-71.67972624788808,5.572300005887769],[-71.6758196040796,5.571682082655514],[-71.67446167840274,5.567441402773795],[-71.67043384395623,5.564216394211655],[-71.66862493080828,5.560291225068056],[-71.66448287650724,5.557450865320732],[-71.6608734762408,5.559435029187682],[-71.66004139733752,5.555904625648054]]]}}]}