{"type":"FeatureCollection","features":[{"type":"Feature","properties":{"code":"852018"},"geometry":{"type":"Polygon","coordinates":[[[-71.10540130415069,6.268341734667558],[-71.09415534588658,6.279002691172877],[-71.09179766403815,6.279185636698742],[-71.08233003612685,6.267846762766851],[-71.07768329628544,6.265514065900959],[-71.07138870973586,6.265114401825315],[-71.06659027565144,6.259555760514559],[-71.06046335094345,6.255525745769944],[-71.04882870825605,6.257124701349312],[-71.04195376645089,6.253942447199506],[-71.03812405014281,6.2541606940148995],[-71.0356980941093,6.258389624969254],[-71.03719235732558,6.265051191691214],[-71.03375924239134,6.265918442300233],[-71.02235309083517,6.254619866859969],[-71.00930684908428,6.254230996288584],[-70.99507801773615,6.23798657701235],[-70.9916825160301,6.231886265311402],[-70.9846939508671,6.2284568548271295],[-70.97405057250131,6.232579423227719],[-70.95803572113567,6.235630317499954],[-70.95022284695261,6.231673051693747],[-70.94490537438406,6.226649366072024],[-70.94006084961973,6.225369992834715],[-70.93526931021393,6.226420382316746],[-70.92055181234616,6.234586084274781],[-70.91399024417558,6.234368328026505],[-70.90678015557933,6.230972883913239],[-70.89690688731292,6.235510246835872],[-70.89398468925219,6.234405602897141],[-70.88852993606247,6.227621238081554],[-70.88006879959278,6.231418425781214],[-70.87646716303891,6.230599631269911],[-70.87247744884286,6.223292688071069],[-70.8671826791429,6.221057473157771],[-70.8642061865163,6.2253719355626345],[-70.86278037129188,6.2383643918266785],[-70.85805760795108,6.239401880525804],[-70.85137303908374,6.236859009089926],[-70.8456416821648,6.236803418686463],[-70.84619346625874,6.231148622113949],[-70.85155576349445,6.225656385279763],[-70.8499099675006,6.216332456499401],[-70.84198611717062,6.206320580920988],[-70.83266890926211,6.203473953844934],[-70.83225451377581,6.195872527443726],[-70.82617081862071,6.189799340914192],[-70.8227479233197,6.180506080289717],[-70.80480256707557,6.184213696816698],[-70.78122750311417,6.1804418602250735],[-70.77223578080776,6.184599775166646],[-70.76773373871504,6.183197873287668],[-70.76551279858387,6.186342721954588],[-70.75987084828688,6.18470403249853],[-70.74484556431281,6.1893595521536895],[-70.73357985583857,6.181150584647355],[-70.72676426442274,6.181464151629143],[-70.72407741206268,6.175974196908896],[-70.72082938284314,6.174176640851613],[-70.70980411703073,6.175263134836769],[-70.70162995201923,6.169684389531653],[-70.69444693203008,6.16773143375292],[-70.68994271478141,6.170891106390343],[-70.68136819149555,6.168535930856308],[-70.67382746994241,6.17164218824621],[-70.66877290122028,6.167826593482289],[-70.66634271828804,6.161893608350738],[-70.66070192498887,6.163544531130526],[-70.65326340696794,6.15936213822863],[-70.6402349788699,6.159007832581835],[-70.63377541985585,6.151861267794629],[-70.63725880711735,6.142953518848287],[-70.62834752752781,6.1404855776774525],[-70.62047837594167,6.1347264517821145],[-70.61981144022428,6.131845644418945],[-70.62198173367511,6.125877336400663],[-70.6182185288016,6.121942283924454],[-70.61970841085275,6.116167167804804],[-70.61018806703481,6.108583949978367],[-70.61070833656464,6.099227175829299],[-70.61975428041751,6.099258033218632],[-70.62142522491627,6.0953298733641645],[-70.62729286281024,6.09577938707713],[-70.62871139666163,6.092005257058759],[-70.63252616969993,6.093018109417301],[-70.63877497718767,6.090802565524086],[-70.64041532552153,6.091824035202535],[-70.64043834926417,6.095107617679901],[-70.64684734593021,6.093408652236235],[-70.64541318900854,6.097705226940434],[-70.64721308785784,6.099523187297223],[-70.64936552548966,6.096254588198917],[-70.653713392736,6.096064524822339],[-70.65540746690704,6.094142460371586],[-70.66483075454755,6.0949391577668734],[-70.67223910834946,6.090839384794663],[-70.67521472165771,6.091967395975871],[-70.68182098388326,6.0904621366522065],[-70.68414844803362,6.088369008271911],[-70.68575102887286,6.090940542400801],[-70.68953502576875,6.090984694466613],[-70.68652865071635,6.096882988175139],[-70.69344134253254,6.098115871696848],[-70.69808761648943,6.102321300682718],[-70.69667581276587,6.106332876481417],[-70.70679281368172,6.1123827009106435],[-70.70987489238797,6.11976492095971],[-70.71454521647314,6.118022673512655],[-70.71642119950002,6.115494377164168],[-70.71817702753049,6.116851588073473],[-70.7172529441595,6.120755758477742],[-70.7186113861145,6.122921808574745],[-70.7225177275609,6.121126173648122],[-70.72691253806596,6.121984212497523],[-70.72618005764997,6.117963573034899],[-70.73277171496335,6.121061678989349],[-70.73332946916605,6.114599243421594],[-70.73979074979286,6.116551096709941],[-70.74106502709748,6.120851625775572],[-70.7424313633773,6.1181439680233325],[-70.74630671065148,6.118428751984311],[-70.74679563736714,6.114490115385934],[-70.75109066940746,6.1119980860344185],[-70.75090756035922,6.105517366815548],[-70.7554702887881,6.107489959675718],[-70.75486009430136,6.103339089565395],[-70.76036797683162,6.101775238843004],[-70.76182564703458,6.106900711477749],[-70.76535780921097,6.107080512026414],[-70.76675380988678,6.106119771878696],[-70.7657549865126,6.101899902531329],[-70.76802825071377,6.100910684810287],[-70.77428528574171,6.104031081227902],[-70.77683258050888,6.102481524828079],[-70.77619976131513,6.099229881661529],[-70.77938896773634,6.101287510262921],[-70.7793434303585,6.099334952491461],[-70.78424906106352,6.093567972380583],[-70.7899559410505,6.091167595769434],[-70.79131454652787,6.08670930670678],[-70.79940139779796,6.089290955567833],[-70.79847796851635,6.081515556801662],[-70.80115646786629,6.084886916848006],[-70.80591698121822,6.083848276293281],[-70.806016069598,6.079031238712162],[-70.8079166200597,6.0768319976896805],[-70.80421635072611,6.071095882167299],[-70.80716115292495,6.069956996234907],[-70.8053677404626,6.06693863571337],[-70.80729033867505,6.064622141959376],[-70.80893078265404,6.067400335441732],[-70.81178455020648,6.065838792544355],[-70.81314295925137,6.06267020331029],[-70.8105870204248,6.0593414176988745],[-70.81604944990949,6.056651251697019],[-70.81830834265492,6.052577327599067],[-70.81983416877205,6.052675659045178],[-70.8208945423741,6.056506632110029],[-70.82181045888308,6.053232637802239],[-70.82444995146517,6.052044353718827],[-70.82748629430415,6.0551784849863],[-70.83845734576926,6.054500546990823],[-70.84189899060578,6.0526477152334905],[-70.84821602291333,6.055428974503002],[-70.85262649762643,6.052559370992697],[-70.85872259476992,6.055923820933799],[-70.86294106852074,6.055206289958221],[-70.8642989520315,6.05740492831336],[-70.87722391675527,6.054867713311296],[-70.88312209116447,6.05226727069163],[-70.88365540340232,6.049387973082162],[-70.88736413167561,6.048504678769859],[-70.88734845924006,6.045607458492611],[-70.89105633596296,6.042944304533478],[-70.8897369007758,6.038776486718916],[-70.89919771319853,6.0386389932101565],[-70.89766442470244,6.034591813759903],[-70.89867133060636,6.033216285260892],[-70.90562861980396,6.039575004457504],[-70.90981787653129,6.039417778222116],[-70.91075672113777,6.041791132506091],[-70.91292353022538,6.042387282581842],[-70.9179968217436,6.038337949572963],[-70.92702209595876,6.037131968050687],[-70.94084005732157,6.041221022594925],[-70.94593662969305,6.041335113894206],[-70.94840094251873,6.0394328490187945],[-70.95265791395832,6.0438016625539035],[-70.95998293923361,6.0404905065041135],[-70.96250790137145,6.043543436064056],[-70.96584200300225,6.042337953336414],[-70.97462400942402,6.046874857573641],[-70.97909498123983,6.045024525960116],[-70.98204696710968,6.046968098229286],[-70.98291729379025,6.043228011715144],[-70.98717496457078,6.043587527451734],[-70.98898313724015,6.040075105201083],[-70.99278228926505,6.041562915968996],[-70.99856533056271,6.03976386044252],[-71.00399023526523,6.04188051341697],[-71.00550887565453,6.0446962717907695],[-71.00851482904551,6.044904060374108],[-71.0093308539611,6.047154861333809],[-71.01421382396364,6.047224249322085],[-71.01606038325002,6.045688298188338],[-71.0190280364132,6.04769842405824],[-71.02272819261816,6.046777923780951],[-71.02529191058386,6.0488421786374715],[-71.02748213936451,6.0461432410493785],[-71.0337992230942,6.0460534477330725],[-71.03518728008004,6.049671042629427],[-71.04164208049053,6.0497693391084795],[-71.05112555567257,6.047450837834731],[-71.05546689230891,6.04884540897541],[-71.06151727723932,6.046659920286345],[-71.06234947749886,6.044215074849092],[-71.06614912831833,6.042441403340945],[-71.06865931173724,6.04526266079688],[-71.07213785400603,6.044871075137223],[-71.07836385166712,6.049473836719585],[-71.08009605431613,6.04576174646769],[-71.08378889623782,6.05048252697128],[-71.08617677727239,6.047283117371876],[-71.08854172198187,6.048042308496974],[-71.09193657988288,6.046066398909659],[-71.09585092569745,6.048876143980067],[-71.09643814066453,6.052621426185851],[-71.10055873239867,6.051557038572639],[-71.10547157557107,6.056962919145462],[-71.10935549697058,6.053413721847164],[-71.11153019935449,6.056397874313689],[-71.11657264171095,6.056689646541599],[-71.11818280731376,6.058781171579938],[-71.12211190510772,6.056662357847756],[-71.12423331360037,6.059100974008686],[-71.13184782590423,6.0596516124176105],[-71.13648623536119,6.05711658594123],[-71.13981999349215,6.057683326674692],[-71.14230036339086,6.054659004271855],[-71.14759515057432,6.055650617235585],[-71.15099727956397,6.053377403428101],[-71.15256165787741,6.0562577356507745],[-71.15951226117016,6.055525350879918],[-71.16177045560312,6.0531205715063265],[-71.165288107484,6.056418941958668],[-71.17612258898168,6.0533783002299515],[-71.18378217483581,6.056321730486502],[-71.18719225574301,6.0508534162536876],[-71.18953525554605,6.055378206466514],[-71.21030250996586,6.056269850703643],[-71.21260662949948,6.053046513360528],[-71.20963168982104,6.048980128774701],[-71.21186729245716,6.046334440854878],[-71.22400616611333,6.044651982942128],[-71.2268057954231,6.046695446804733],[-71.23012462879626,6.046295184175506],[-71.2316508004701,6.048600631428428],[-71.24290474150507,6.044724033568116],[-71.2489466664673,6.040948688959077],[-71.25455445601756,6.039977618106263],[-71.25736991408615,6.036828847988033],[-71.26853986119215,6.036070482702257],[-71.2708971203507,6.034061780196794],[-71.27629191945533,6.0341505985496156],[-71.28157124914776,6.031917528967426],[-71.28788891806124,6.037668457147447],[-71.289932888946,6.036928160568266],[-71.2915840503245,6.033600566921734],[-71.29339172008548,6.034506615524776],[-71.29739146056761,6.040197380845882],[-71.30073571703986,6.052922033763423],[-71.30985683387019,6.061756812656142],[-71.31721614639059,6.064362789325003],[-71.32568682886375,6.060964220803385],[-71.32871136621105,6.064730326913207],[-71.32828010323902,6.070418584891513],[-71.33063880118868,6.072052224694801],[-71.3352839798543,6.070244392439861],[-71.33870314807956,6.072159914967813],[-71.34129219966991,6.08293384177],[-71.34500136194595,6.0838760565825964],[-71.35456581463507,6.081706446017563],[-71.3591832438646,6.083656446052487],[-71.37072452145486,6.081853258243996],[-71.37560985584679,6.083844318846502],[-71.3795777773459,6.090482096664573],[-71.38290031311209,6.092657295786239],[-71.39092524288657,6.092885628537374],[-71.39632652426445,6.09682700593504],[-71.40090003694155,6.09641726620805],[-71.40306722243912,6.092297556877668],[-71.40709780077026,6.091854983094777],[-71.40997000212639,6.093798173811763],[-71.41378953993888,6.106692582479866],[-71.41378914501695,6.1205657856041285],[-71.41769509154142,6.128161429073089],[-71.42190817213964,6.131470650622475],[-71.43630023274216,6.134404513278241],[-71.4436265867651,6.1375022099125545],[-71.45251641510055,6.143052002503907],[-71.45575466177479,6.148700267437903],[-71.45292344282461,6.151537200414737],[-71.44897899346915,6.149498590800874],[-71.4555629528902,6.168786444027262],[-71.46405666836205,6.174710123810939],[-71.47019620177531,6.183774681444959],[-71.47946583804668,6.190768900984949],[-71.48377623296136,6.196012501555799],[-71.48671416002202,6.202909684458859],[-71.47926101034932,6.205430641841588],[-71.47627113151486,6.209300206183514],[-71.47189855799394,6.211654462289914],[-71.46475759616158,6.210462962266718],[-71.4614691614924,6.211466398205573],[-71.45942371582106,6.220286528991551],[-71.45617390122538,6.222835505262196],[-71.44315785866058,6.214407025956234],[-71.43973280054496,6.214763653826253],[-71.43755781636781,6.219200480322002],[-71.43784888925478,6.22401231192714],[-71.44217394050384,6.233833662358336],[-71.44951321690706,6.242359313027237],[-71.44855193374167,6.24570248140725],[-71.44384430187569,6.245482406021097],[-71.4343988955219,6.239158050174353],[-71.4306755438244,6.233734246933807],[-71.4191094458024,6.224676748529248],[-71.41690425009779,6.226801965344521],[-71.4184606538679,6.237657202869116],[-71.41607246121526,6.243134926322455],[-71.40369006059825,6.24178135095741],[-71.39625121244723,6.236663686258339],[-71.38672184713153,6.241448677570588],[-71.38222793796223,6.241856944567871],[-71.379786518267,6.236091766288325],[-71.38088493498628,6.227159450935574],[-71.37726071383474,6.22520558498519],[-71.37586440256928,6.226214610509203],[-71.37488041242153,6.232834923316432],[-71.37285812316196,6.234675222473186],[-71.36533591048885,6.228962861916045],[-71.34806251287534,6.2295554319833855],[-71.34436199671558,6.233627448320476],[-71.34311794327971,6.242920437436112],[-71.33306977396478,6.244602317364183],[-71.33154441578893,6.254959029719146],[-71.3248300313445,6.255790935844061],[-71.31761276524793,6.253788418391935],[-71.3140872725213,6.255003879068909],[-71.30295515153114,6.268559801505489],[-71.29492202301293,6.2723073699389715],[-71.28415646567595,6.274515864887178],[-71.27832686987074,6.272987606503477],[-71.2759614767603,6.268866551970234],[-71.27584715303306,6.26175890447638],[-71.27280319663407,6.261105843476969],[-71.27117773500572,6.264411868627008],[-71.27017147290678,6.280601346446986],[-71.2674238735325,6.283960475226479],[-71.26074885581079,6.282526789331428],[-71.25584282607002,6.275678041957235],[-71.25039557331161,6.271492697425288],[-71.23370135030166,6.263933096752851],[-71.2321836879612,6.2656279525401715],[-71.23463932073201,6.274641646492569],[-71.23267192047808,6.278575597506801],[-71.22758997770143,6.282518435292843],[-71.2195488242462,6.284005266983456],[-71.21725931888079,6.286151889801317],[-71.21874790406588,6.2899684770122235],[-71.22575943126503,6.292973719749455],[-71.22562163128043,6.29548604849947],[-71.22051009095651,6.298241979286615],[-71.21234557787801,6.294992061846642],[-71.20805008098165,6.288261435209506],[-71.20425050523846,6.285729799508147],[-71.1963774034046,6.284139753326315],[-71.18836650672824,6.27770255573796],[-71.18678687455542,6.277502939158865],[-71.18272750600443,6.281814306980209],[-71.17180195695016,6.274911525236064],[-71.1594046326037,6.271834961038621],[-71.15710003690123,6.269160192878132],[-71.15800812284886,6.262898849704527],[-71.14503729267409,6.265047939755959],[-71.13918547325449,6.264051109503384],[-71.13115894528033,6.2600188794936],[-71.12775663939863,6.262018166607788],[-71.12630707332266,6.270208705452603],[-71.12220183520691,6.2745992726038935],[-71.11809713393814,6.272904337626471],[-71.11620575821212,6.2656430202515025],[-71.11378719976568,6.264639406392064],[-71.10540130415069,6.268341734667558]]]}}]}