{"type":"FeatureCollection","features":[{"type":"Feature","properties":{"code":"853017"},"geometry":{"type":"Polygon","coordinates":[[[-71.66004139733752,5.555904625648054],[-71.65847739954785,5.554954070166559],[-71.65390004049567,5.556601054011537],[-71.65141299909038,5.561124035193984],[-71.64780376234631,5.56031747092112],[-71.64880396589035,5.5621341909762805],[-71.64778135978293,5.562747728929651],[-71.64349319465327,5.559023505112918],[-71.64170021310832,5.559489287758083],[-71.6437985721472,5.562051403410408],[-71.64289071245696,5.5654548776028605],[-71.64481295791359,5.566990837992591],[-71.64217302618658,5.569749047808386],[-71.6353520765852,5.570668264589415],[-71.6357332883452,5.572520829980078],[-71.63286548358082,5.5687787184626245],[-71.63123283828145,5.569719423521633],[-71.62879829783827,5.563162561503987],[-71.62512819478064,5.562103774788795],[-71.62417479565562,5.55989197134096],[-71.6195053858558,5.561711034188193],[-71.61559125498582,5.558091000854574],[-71.61163190349822,5.5580315393934825],[-71.60640605795896,5.555452862731272],[-71.6042618416966,5.5509751782711305],[-71.60016449893408,5.547278699776655],[-71.59457213190785,5.546945767222269],[-71.5907731002107,5.542823633852834],[-71.57755067700037,5.541123554605974],[-71.57107286930227,5.536190497395864],[-71.56720456994464,5.535722380186144],[-71.56384792588233,5.539251784079681],[-71.56072745335996,5.539707157858118],[-71.5565771776894,5.53291948351449],[-71.5543030074304,5.53924724350594],[-71.53909706724346,5.533439860002318],[-71.53672475374333,5.534216767078249],[-71.53611430934501,5.532807100458228],[-71.53803617736327,5.530888834045697],[-71.53495405546244,5.530042219135851],[-71.53393947223509,5.531947414043998],[-71.52901876867651,5.527786429201512],[-71.52930083857768,5.525607057688546],[-71.52643997991407,5.526525239856369],[-71.52695064481924,5.521496659876675],[-71.52535593670746,5.521503336525484],[-71.52524200070303,5.523894588794633],[-71.52189209705296,5.521648775781159],[-71.52079323398965,5.5232373821434635],[-71.51885608948623,5.522682479811806],[-71.51466759277793,5.514454842988471],[-71.50927347450221,5.515089870248289],[-71.5073806373594,5.517074767394718],[-71.50503847368009,5.515326728787841],[-71.501452586695,5.5158272275386935],[-71.49847689728199,5.512571189837274],[-71.49440269036239,5.512642672762979],[-71.4903132635219,5.508435494396338],[-71.48581931938554,5.507599478615077],[-71.48105166452882,5.499490173359504],[-71.47941092744372,5.501294260026725],[-71.47816739439975,5.500647435502799],[-71.47703834140628,5.497773196802029],[-71.47874662248228,5.496244931219223],[-71.47713749149267,5.49492804554103],[-71.47682453849109,5.496924221616609],[-71.47426035464088,5.495747698801836],[-71.47295667005085,5.497270923987855],[-71.47420792258436,5.5010580895151975],[-71.46596771510809,5.498558082535055],[-71.46827143971979,5.501830422078797],[-71.4661280595812,5.504671099614825],[-71.46254167380147,5.503005592491661],[-71.46168671925125,5.499319547546577],[-71.4601312513638,5.5006914579848285],[-71.45894869673367,5.499764831275456],[-71.45754447365988,5.502876326523051],[-71.45304306097398,5.504815608130002],[-71.451913472162,5.499789155997917],[-71.43973689374621,5.50684229500979],[-71.43962260395756,5.505422433439094],[-71.4426899234852,5.5036406454625535],[-71.43991184313154,5.498102173966458],[-71.4354941724061,5.5002257370462075],[-71.43463207429414,5.498964022166945],[-71.43594451298685,5.497767286342878],[-71.43382355392362,5.4973050795923655],[-71.43339602934014,5.4989359590559275],[-71.43090183614555,5.498024927648885],[-71.43287805632247,5.496301575776272],[-71.42977227407306,5.496344227344423],[-71.43053595434975,5.4941265648595845],[-71.42849111340269,5.4937843773509485],[-71.42772029779178,5.495830374267484],[-71.42497370217734,5.4926339204118335],[-71.41969357955577,5.490548562943275],[-71.41730590626656,5.491545113459495],[-71.41812205973747,5.49400690660093],[-71.415970080791,5.498753271669102],[-71.41123958664775,5.494461685939598],[-71.41215612433604,5.492342991506803],[-71.40634462706231,5.49224444408776],[-71.42598090015895,5.469026346353985],[-71.43156858262955,5.467035829797624],[-71.42722162555486,5.463640010302811],[-71.42744853185621,5.451218035217664],[-71.44235620931454,5.424489140172398],[-71.44528568566295,5.42320217805775],[-71.4496268052979,5.423935354729338],[-71.45028333831925,5.418577174349025],[-71.45353550084923,5.414175231595038],[-71.45154745666866,5.411649635936556],[-71.45631052158643,5.411942873695068],[-71.46100817241779,5.408663089255924],[-71.46590654951774,5.4111656704276925],[-71.47805426983643,5.408896211463855],[-71.47593290659529,5.395277086092278],[-71.48287596831909,5.386975842609445],[-71.48858292955299,5.388158872380018],[-71.49218376289326,5.391886529137878],[-71.49672342644175,5.393797066804893],[-71.50780152231795,5.395456568852239],[-71.50703815057403,5.389286634678115],[-71.51372141126251,5.383516063245963],[-71.51596466551098,5.375706155091109],[-71.51912043932276,5.347407310659264],[-71.51456013184759,5.34296287780262],[-71.5088154956789,5.332894380292885],[-71.5010679296526,5.328071658509941],[-71.49806006541542,5.319498235657591],[-71.49668044474356,5.313051253467165],[-71.49765390055461,5.312149679617505],[-71.4995468333426,5.312078559732015],[-71.50584078225779,5.317010256312699],[-71.51086831939682,5.314125719817014],[-71.51334116932384,5.314671281833682],[-71.5143021922932,5.316832144466673],[-71.51253157114553,5.321354127031384],[-71.51381330157312,5.322523737684037],[-71.51907052900737,5.319686395387066],[-71.5238315329263,5.323236220035255],[-71.52992029624619,5.321740378159745],[-71.53852653361395,5.326669059346955],[-71.54475170543577,5.326270166603194],[-71.54429372764088,5.330796630091982],[-71.54967300960482,5.338048413804813],[-71.55100771407808,5.348293009470126],[-71.55316714614747,5.3486700755783545],[-71.55718036745418,5.343731356792148],[-71.56018681861138,5.342516198477256],[-71.56192576578638,5.344603485303992],[-71.56197165797687,5.351557783790781],[-71.5692274824404,5.352139818492901],[-71.56903641221862,5.35450715227438],[-71.56320731520805,5.357139258582322],[-71.56282684495511,5.364467858723742],[-71.56568775606928,5.364431083676152],[-71.57031915771893,5.3579567305164915],[-71.57227923957583,5.357782972067639],[-71.57630798727928,5.365609674688869],[-71.58450991303965,5.366897927498883],[-71.58459320042857,5.372181116936019],[-71.58593596994808,5.373363343493054],[-71.60008165891765,5.374681366628636],[-71.6040869355059,5.382578035222821],[-71.6065290329447,5.381656276131935],[-71.60819922873736,5.378517898425287],[-71.61111451874967,5.377888263289606],[-71.61348694949226,5.386691930767711],[-71.61731689822835,5.389222458836514],[-71.6287001823651,5.390025145881054],[-71.63351434853473,5.38796204596548],[-71.63783295556294,5.392319469499682],[-71.63852690332311,5.388140294594336],[-71.64127405018274,5.387027620576475],[-71.64820887613888,5.395152859491986],[-71.65654084125663,5.394584230538101],[-71.66117149420012,5.398459466740519],[-71.66647434745829,5.398511079128298],[-71.66565793379141,5.401495007394317],[-71.66073375409712,5.403333965462082],[-71.6585174440142,5.401090434562548],[-71.65958833549786,5.4041762125765445],[-71.65687674498145,5.405434703288506],[-71.65989568348772,5.411020390580575],[-71.65759947781925,5.412754637773276],[-71.6611709378127,5.416650562125426],[-71.66461841700368,5.4164533263907515],[-71.66419075975108,5.419274216692713],[-71.66689384299099,5.420838749272491],[-71.66723711036423,5.418999115518034],[-71.67062233278733,5.419900760330165],[-71.66723636062966,5.418160359965896],[-71.66826227215131,5.414421251500585],[-71.67613409768808,5.4187132804888165],[-71.68167228327712,5.415164189120162],[-71.6841598584441,5.415611117328638],[-71.6848844630473,5.4170415255773605],[-71.68310688037218,5.420577357236596],[-71.69194218582749,5.416519425419835],[-71.69906091376106,5.419133800350323],[-71.70218891756798,5.416056090467862],[-71.70472140276286,5.4217536908179795],[-71.71148983494697,5.420602284626398],[-71.71449549420345,5.424917100815492],[-71.71995803578835,5.425454623496989],[-71.72043160785717,5.431759704274043],[-71.72278914160984,5.433521768779997],[-71.72651141755648,5.4326915091915],[-71.73017227594431,5.424742254274463],[-71.73279217361107,5.423654653685162],[-71.73632347395261,5.425859452410975],[-71.73699520838278,5.433426927867799],[-71.74036780873081,5.4329690549740235],[-71.74719608392826,5.435948985683979],[-71.754917035919,5.435703234201924],[-71.76047183394007,5.438419509274013],[-71.76760544446529,5.435588290323835],[-71.77178572906007,5.435844889817588],[-71.77315970769621,5.437285680193497],[-71.7723354017615,5.440360271838244],[-71.76271428703183,5.445557166720562],[-71.76117378606835,5.448747546594689],[-71.76177620758654,5.451824213636371],[-71.76480464993011,5.451808799339915],[-71.76631519956214,5.4464384535130534],[-71.77035122761015,5.445231884750058],[-71.77165586145259,5.448010835166144],[-71.77029118816432,5.453265426702217],[-71.77131260642062,5.45730939946867],[-71.77548670493366,5.4568634873614315],[-71.77776774210338,5.450703155755093],[-71.78074315795072,5.44981776753383],[-71.78632795049782,5.459250902511485],[-71.79114978679178,5.461579074230315],[-71.79274490730893,5.461204531920089],[-71.7933478039676,5.458851891496863],[-71.78968514477691,5.451339406861507],[-71.79028792110779,5.44782454720206],[-71.79359184000754,5.447098451357192],[-71.79995432330378,5.451225969651716],[-71.80426578779873,5.452020532000347],[-71.80820177821448,5.4504643236342645],[-71.8122615108341,5.443866530632874],[-71.81741157558633,5.444042911610154],[-71.8185023808025,5.447411738602625],[-71.8169988019539,5.452533963415874],[-71.8033350678881,5.466572542153983],[-71.81242111482857,5.470948706996182],[-71.81780004197987,5.469979626179679],[-71.82896277661843,5.47157587592676],[-71.82575800780506,5.475867175749215],[-71.82265207951679,5.487430467151569],[-71.8327851344203,5.487774782507756],[-71.83865975852427,5.480888846652078],[-71.84154400397074,5.480935788882391],[-71.84544253953845,5.486165316245831],[-71.84586226749917,5.499050032871651],[-71.8476317162224,5.500327359508333],[-71.85341503314265,5.500129877975894],[-71.85851171761436,5.503618776660858],[-71.85568062927638,5.511055090729485],[-71.85790922616206,5.516183509851999],[-71.86235666721308,5.516361655636672],[-71.86175393407677,5.5095992470403985],[-71.86513415312697,5.5075696753793295],[-71.86907064336583,5.508736425933307],[-71.86671339346327,5.512739718655951],[-71.86759904907956,5.515575856646706],[-71.87129168428436,5.512286862504823],[-71.87742530518159,5.512828073181197],[-71.87577789041916,5.519976407917966],[-71.87688358542613,5.5215426456554155],[-71.87944793382712,5.52098400390679],[-71.88267519159314,5.51550981212506],[-71.88542880941304,5.515277148602479],[-71.88631441360724,5.51845780969478],[-71.88271998849234,5.523233729115589],[-71.88368917318155,5.526980605407289],[-71.88880852041268,5.528103102079683],[-71.89427929879372,5.5253322084822685],[-71.89414939621918,5.530314139337804],[-71.90238919951753,5.530212318386248],[-71.90514361849421,5.537186107915602],[-71.89933026488171,5.538049144995568],[-71.89424929604013,5.543602427092367],[-71.89507233493367,5.545419509159274],[-71.90132151163226,5.546232130958572],[-71.90274814549696,5.549152753445355],[-71.90232055200784,5.553843317279302],[-71.8983759010776,5.559976861043367],[-71.8860693254706,5.565253544553173],[-71.88107218703556,5.563321475413545],[-71.8766704911078,5.558013195064234],[-71.87173352992988,5.556297046403017],[-71.87098579051224,5.554267878919916],[-71.87369491173814,5.550288545822639],[-71.87260346888763,5.547921481493063],[-71.86534737702908,5.546604415837464],[-71.86797180704201,5.53721211208466],[-71.85961027008807,5.5421540540097],[-71.85975478580235,5.546009627419608],[-71.8641273058443,5.547898785823577],[-71.86262440782463,5.550360011264786],[-71.85628353416257,5.546391898475406],[-71.85189618500794,5.5340524332765995],[-71.84535041988516,5.540863518057336],[-71.83625641177116,5.538248185646864],[-71.8351417549161,5.539983376949806],[-71.83846842193589,5.544436055858512],[-71.83154125581967,5.544147705258922],[-71.82753510916905,5.5479569041387435],[-71.82530779577962,5.54731363905438],[-71.8235675465964,5.541610990079903],[-71.82030989012645,5.5415759551571],[-71.82109572408348,5.547466961321959],[-71.81625086404682,5.550670826134365],[-71.81412278713293,5.5503192983107965],[-71.81108554852051,5.542456640310718],[-71.8079422147494,5.542598172513237],[-71.80587460819868,5.544718168954262],[-71.80727820186564,5.550264747662709],[-71.80542439617324,5.552469123698643],[-71.80333362909704,5.5485700276298076],[-71.80470779696662,5.546212476393578],[-71.80414253719039,5.535462222281296],[-71.79260700859385,5.538240300578082],[-71.78862405743575,5.54331875487776],[-71.78216991214316,5.537382123917439],[-71.77183169941219,5.540404947879551],[-71.76400337596561,5.534274238503087],[-71.76248539789327,5.5312899667372335],[-71.75912840107515,5.529897772327217],[-71.7569685206048,5.532830363827998],[-71.7620659897782,5.538538200266487],[-71.76207341719004,5.5403916336626935],[-71.75755655421216,5.5409984867396815],[-71.74842330587387,5.5374184083979685],[-71.74435672279861,5.54420828772237],[-71.73847420436988,5.548683498778246],[-71.73890229768205,5.55245407141399],[-71.74665335629913,5.554959344019835],[-71.74672205523098,5.556976776973784],[-71.73971083553613,5.559216868761496],[-71.73347688492896,5.555329481510739],[-71.73145529809568,5.556585241707808],[-71.73104356833238,5.560070117125633],[-71.7253057805624,5.5606921078480696],[-71.72024678336675,5.56718967192694],[-71.71238880375171,5.5728276976872735],[-71.71114538177949,5.569475155053681],[-71.70595659513799,5.5653059848372095],[-71.69950214748326,5.567268764298831],[-71.69600807059027,5.564960841584821],[-71.692024765648,5.567410142235019],[-71.6881573970308,5.5668331469011605],[-71.68867562818758,5.564116838918949],[-71.68470804915984,5.562128822506338],[-71.68419007614216,5.560048653530259],[-71.67206651496667,5.556615641440203],[-71.66812188974751,5.5526230486335635],[-71.66255248681426,5.5526476921731955],[-71.66004139733752,5.555904625648054]]]}}]}