{"type":"FeatureCollection","features":[{"type":"Feature","properties":{"code":"853050"},"geometry":{"type":"Polygon","coordinates":[[[-71.32465400106611,4.797276668465031],[-71.32491678458473,4.792436511496078],[-71.32704336614324,4.790226510907985],[-71.33450260111027,4.788617544469162],[-71.34610073923051,4.780193551229502],[-71.34900420626764,4.7796843117457115],[-71.34907482633008,4.781890011387134],[-71.34508782002314,4.783739693025041],[-71.34617009739395,4.785226826049325],[-71.34371876454134,4.78660682518796],[-71.34433677210592,4.78806708912299],[-71.35199664489551,4.784632475747969],[-71.34306731099758,4.797296643904076],[-71.34183927966774,4.795344247598109],[-71.33732290520004,4.79444909020134],[-71.33749514772461,4.796936233422514],[-71.33542620522707,4.79716422781604],[-71.33173598891909,4.793636807788118],[-71.32709233029152,4.796810051752971],[-71.32683606092786,4.798587064670926],[-71.32465400106611,4.797276668465031]]]}}]}