{"type":"FeatureCollection","features":[{"type":"Feature","properties":{"code":"853039"},"geometry":{"type":"Polygon","coordinates":[[[-71.86998072346353,5.4037185320015055],[-71.86923838028372,5.401554845265423],[-71.86344844225056,5.399741461477788],[-71.85827845759519,5.395720216262532],[-71.849948127701,5.385060518570924],[-71.83860698708179,5.387026922263999],[-71.83384244943431,5.384658548727145],[-71.82865131897228,5.378997467342458],[-71.81619903260076,5.378002447148674],[-71.81093009120627,5.376127268363916],[-71.80786314397477,5.372090734322171],[-71.81014889758188,5.366318751866913],[-71.80801724991557,5.361400260488153],[-71.80350296421466,5.364357343319114],[-71.79701992174415,5.359387836049223],[-71.79018942922465,5.361731720312832],[-71.78332040713468,5.3595761325615285],[-71.78264078660726,5.347872800198331],[-71.77691156576344,5.338046686021357],[-71.76222261026089,5.330754485545981],[-71.7504315928885,5.330130130434213],[-71.74848224899995,5.325381572726599],[-71.74083711893383,5.324599418536934],[-71.73110508565009,5.313523954445145],[-71.72542488449051,5.313060244111625],[-71.72008217291409,5.3235532220149935],[-71.71716082537534,5.319991329622326],[-71.7106694730893,5.322707728107503],[-71.70341786729699,5.318879995665043],[-71.6940377228201,5.306500323505986],[-71.69358739663755,5.293597551543314],[-71.67889316933866,5.288806054303677],[-71.67656187938218,5.283420573916715],[-71.6781987978602,5.278862476564484],[-71.67271809603727,5.276281500304833],[-71.6663783793731,5.2687276301140855],[-71.65683669948669,5.26668743978405],[-71.65410853253371,5.263957774390349],[-71.65410003451319,5.254736594216695],[-71.64864325529174,5.248594156481772],[-71.62479416076434,5.248273979699945],[-71.62070224509296,5.244179224498794],[-71.60536978179363,5.24282625385797],[-71.59504406052548,5.2404890256743215],[-71.59318223092458,5.238769676499999],[-71.57816909182822,5.205406428350216],[-71.57026321764499,5.194121594958858],[-71.57253967413175,5.191547717009485],[-71.57412687564153,5.192666398160156],[-71.58354895794747,5.18477152934031],[-71.58658633437119,5.184914545585457],[-71.5878070421619,5.1821231972948],[-71.59329239254498,5.183066325364393],[-71.59930467470855,5.179461482126783],[-71.6040654976216,5.18162585174872],[-71.61098570118196,5.1820651293733135],[-71.61515125436614,5.1794489361564615],[-71.6180958128241,5.179724663652621],[-71.62191109596989,5.182039978811531],[-71.62320051194837,5.184753141816543],[-71.62284178091346,5.19564194050588],[-71.62568061650893,5.202287882100677],[-71.6350873873626,5.210284138897748],[-71.64002431254505,5.206635189874248],[-71.65050694843046,5.211187571143],[-71.65265043244176,5.201287962406752],[-71.65058323006895,5.190144502837825],[-71.65264342669133,5.1754481404922785],[-71.64794309985251,5.169163274781397],[-71.65435273312448,5.160540312881324],[-71.65511535307695,5.156977830162646],[-71.65075137219321,5.149038672494214],[-71.6500723831295,5.143941523166461],[-71.64495246819814,5.139612334493165],[-71.64350294017459,5.134547280799552],[-71.63305094570558,5.126384974758707],[-71.63377532610832,5.115400333454204],[-71.62740494951572,5.106783903192593],[-71.62695465110113,5.10199037169366],[-71.63169275263363,5.105917143150691],[-71.64045936018556,5.108174260804333],[-71.6479668301352,5.114012232245386],[-71.65674047737616,5.118055895450652],[-71.66588826069261,5.113692698240129],[-71.67219785633233,5.1188799946684185],[-71.67842467366216,5.121531489174686],[-71.6891360937849,5.116219451924849],[-71.70731718448098,5.115847848903343],[-71.70376189468925,5.111732599928132],[-71.69328665330556,5.090698122203378],[-71.69564439480371,5.085723964316401],[-71.7027321110815,5.079061841207022],[-71.7024878940357,5.076857473398604],[-71.6967888980891,5.070370602036633],[-71.70135126553464,5.066457099544948],[-71.70505976549373,5.059480837639796],[-71.70177119095638,5.071735231101854],[-71.71111025223996,5.079848267546879],[-71.7053040247057,5.083225281970215],[-71.7186250981793,5.083578093290043],[-71.72644526916207,5.088865315250359],[-71.72969574093258,5.094188907051887],[-71.73207617810021,5.095318004268336],[-71.74214668621505,5.093894360086097],[-71.76278514877822,5.09495739632581],[-71.77448140237163,5.090320116098724],[-71.78092082962337,5.090384955285742],[-71.78452221626566,5.085233890887423],[-71.80079612098888,5.091116461766717],[-71.80463349610841,5.095060665324411],[-71.8098216893386,5.097033032955665],[-71.82012974504954,5.107980346938973],[-71.8249968883502,5.10968948162224],[-71.83123036484534,5.10433268141179],[-71.82986492536742,5.099532007379537],[-71.83086427530418,5.0949564902679185],[-71.83660157970616,5.092933267182559],[-71.84118012043876,5.095032066394879],[-71.83931776736063,5.107445684356151],[-71.84820638624768,5.115388993846977],[-71.85523286391572,5.114604711809761],[-71.87764160515519,5.1182029966694245],[-71.89815773859459,5.128603111355574],[-71.91784929356191,5.130887457024869],[-71.92788995421802,5.1283821237408915],[-71.94344713837836,5.128023195244964],[-71.94730729452812,5.129928173151768],[-71.95143534144205,5.127160891444532],[-71.95452534738325,5.128940137111158],[-71.95659308146082,5.128133709621181],[-71.95765352294006,5.121908607733474],[-71.95666957907224,5.117942709180795],[-71.95994969981211,5.115371321090777],[-71.96146050758318,5.100958063259554],[-71.96452764507649,5.099388990106036],[-71.96554272915535,5.0876726623430955],[-71.95976716772014,5.0714246496887085],[-71.9656036736306,5.071064247434663],[-71.97537734443813,5.066892887664096],[-71.97832253230297,5.068483949947108],[-71.98392208505709,5.086717264954245],[-71.99287906554679,5.099013000777177],[-71.9999065181783,5.104311191076931],[-72.00955800590094,5.107496367031899],[-72.01035098341964,5.1156063448888744],[-72.00774179492481,5.1306005966384305],[-72.01382220009236,5.135883311963653],[-72.01657696359729,5.141805914967961],[-72.01515785176116,5.147588463641682],[-72.01635527664172,5.151848842311381],[-72.02642671652552,5.156430560931369],[-72.02417640613288,5.170840958663973],[-72.03706172645445,5.175760531964215],[-72.04840708780176,5.182775000508968],[-72.05313734848852,5.188038604286874],[-72.05208511809434,5.1922115920819465],[-72.04511910976106,5.192631982359671],[-72.04438693067874,5.197123410925656],[-72.03996121341908,5.205413197558869],[-72.03552864261843,5.210204352327139],[-72.03523818165479,5.216041451648891],[-72.03893859805567,5.218844872826253],[-72.04668280621712,5.215501378429963],[-72.0505745262962,5.21735982856876],[-72.05119162985983,5.221689567458782],[-72.04914748619672,5.229041569809738],[-72.05568598845849,5.236939909623061],[-72.0627812360209,5.238205466763532],[-72.07167041438066,5.229977277666535],[-72.07573626314792,5.231009275511042],[-72.07624717899301,5.235112798184673],[-72.07171616670297,5.238586704234592],[-72.07131087190453,5.2423427038398245],[-72.07538563212626,5.246248667847794],[-72.08061148692144,5.2563614130684755],[-72.09011780278342,5.260393202904879],[-72.0927043912539,5.263503594633676],[-72.09264406692955,5.266882305987167],[-72.08932488799968,5.271222117443244],[-72.08146657105544,5.271245468230632],[-72.08401469474728,5.280728314005842],[-72.08706605490397,5.2840424700224276],[-72.09442929401786,5.283478665492339],[-72.09799225907614,5.288608706468779],[-72.09786270205825,5.292479763080792],[-72.09558091412549,5.2937761066480675],[-72.08882874058918,5.289652517004015],[-72.08541010201179,5.290156651299185],[-72.08293807998098,5.300142985507648],[-72.08523478238715,5.301937569366032],[-72.09338338031762,5.301840693166071],[-72.09623745845971,5.303808745452557],[-72.09667214306,5.307796823396529],[-72.09176630460956,5.3112763036048705],[-72.09240713022831,5.31562992807244],[-72.10429366934181,5.316099699017684],[-72.11119864681069,5.318366528254046],[-72.11807243367491,5.3244515943230795],[-72.11896574913106,5.327433471874713],[-72.11590646996706,5.329683118921878],[-72.10562113563662,5.330979808045868],[-72.09815221582636,5.33758931809291],[-72.09896017672418,5.34254337404235],[-72.09641993810112,5.3508700231407715],[-72.10047104517332,5.357775397588455],[-72.09944133767033,5.36391419669377],[-72.09489437732213,5.367785555667922],[-72.09162121913812,5.374368888767492],[-72.08036708064225,5.378398919967196],[-72.07485891426188,5.3773098733877305],[-72.0687392349314,5.38053296904684],[-72.06777768642786,5.382961985725217],[-72.06255148504755,5.3821652266233855],[-72.05955379724907,5.385427907034966],[-72.05420467333357,5.384660014257747],[-72.04123476567173,5.391742517360456],[-72.03654272807961,5.390990237369067],[-72.03267383531062,5.387461754959986],[-72.02206917060664,5.386994438907038],[-72.01622499560034,5.389348000814721],[-72.01099833244928,5.387746487498873],[-72.0044754090348,5.3908273248749765],[-72.00190372783862,5.388723081088017],[-71.9945864241098,5.388431438443888],[-71.99101613551238,5.385687772862184],[-71.98487450921857,5.386040540987381],[-71.97598624617268,5.392265617164071],[-71.96947012179169,5.3940074604331585],[-71.9581558132378,5.386707000535921],[-71.95041954979479,5.3873701351298],[-71.94122545159797,5.380464364731722],[-71.92833885600766,5.378199352753313],[-71.91974763801443,5.389954817896296],[-71.91420881376257,5.3929510329650725],[-71.91121807000798,5.398208614183545],[-71.9058465610126,5.398512450042176],[-71.88969426961722,5.4058562485071775],[-71.88311030813924,5.406084309749474],[-71.8760071066024,5.40124331151452],[-71.872558473499,5.4040161869206145],[-71.86998072346353,5.4037185320015055]]]}}]}