{"type":"FeatureCollection","features":[{"type":"Feature","properties":{"code":"853037"},"geometry":{"type":"Polygon","coordinates":[[[-71.03562000961108,5.2038191630769575],[-71.02878346367896,5.201232740185731],[-71.02667063753915,5.195290767494953],[-71.0234132556634,5.196018835892573],[-71.02070464248806,5.199213653496145],[-71.01658450738245,5.19953675414007],[-71.00913056375214,5.1961570616524],[-71.0047892517984,5.191960610969716],[-70.99973822606074,5.193886433349405],[-70.99833371913684,5.18913319314305],[-70.98939989197356,5.188464147061609],[-70.98375380116704,5.192599223380114],[-70.97858910579151,5.18807699090388],[-70.97916092188882,5.193162466380613],[-70.97765747262395,5.195091950015694],[-70.97490332001394,5.194693497445371],[-70.97205718761876,5.1903305069517955],[-70.9689451400975,5.201145178589684],[-70.96535880676834,5.199415184006796],[-70.95563074532959,5.188156709597251],[-70.95283141735348,5.182099775544884],[-70.94852050410373,5.186020956388404],[-70.93807588459606,5.178852692492512],[-70.93495434249348,5.183797718716676],[-70.93131555242519,5.184078676871479],[-70.92257363160746,5.167807037807108],[-70.92557381749282,5.1634754713746815],[-70.93207130443852,5.1635405172787046],[-70.93301694910696,5.161944750899579],[-70.92418952460667,5.155439242102261],[-70.92051982778383,5.156542877138861],[-70.91652908720215,5.161770136786572],[-70.91121168251078,5.16030116194338],[-70.91304291183297,5.151980821311383],[-70.91604074669874,5.1478750154953445],[-70.91418717446282,5.140504686298698],[-70.93284149887012,5.128978549439239],[-70.94195212044457,5.120386702039184],[-70.9489557666887,5.116073309214528],[-70.95274737097395,5.109528464547736],[-70.95605169508008,5.095958374287079],[-70.97488156434088,5.078907760977302],[-70.98131322890845,5.076852820724639],[-70.98428157935564,5.071900650938744],[-70.98768382044551,5.070843536471045],[-70.99243701951423,5.053875312719924],[-70.99840378898256,5.053196014095022],[-71.00001298887781,5.047576849970483],[-70.99911365086223,5.043522596892615],[-71.00118054161692,5.044655529171223],[-71.00082203375399,5.040480835189953],[-71.00336299948589,5.04133944379646],[-71.0041034637012,5.03898949172202],[-71.00667395807471,5.03788080703265],[-71.00622401138742,5.0347057386107394],[-71.00921494643234,5.033466943601468],[-71.0078489824487,5.03072098664984],[-71.01069507987683,5.031316877558083],[-71.01024436699987,5.029737861422291],[-71.01284685107794,5.028996118852945],[-71.0146552818864,5.025959776013963],[-71.01748516488976,5.0254521779244214],[-71.02015579665442,5.020964308798],[-71.02954021636685,5.020658389314804],[-71.0298604908507,5.0195604569919965],[-71.02626658407087,5.01856440732729],[-71.02764804976852,5.015345403840968],[-71.03740605431125,5.006558177045008],[-71.04167952813953,5.013210864194264],[-71.04385369470492,5.012588288288043],[-71.04532584949237,5.009695246572733],[-71.05498481604894,5.015040388358784],[-71.05673256874877,5.013646514502113],[-71.05704525641215,5.010031237715111],[-71.06129424816629,5.009832472686412],[-71.06245393640546,5.012949982265866],[-71.06566605344068,5.0110808219267255],[-71.06510215737921,5.008370734993264],[-71.0692750834678,5.007579482172616],[-71.06800107252974,5.011221969491771],[-71.0695648728585,5.016799920839219],[-71.07834642162334,5.022119988168242],[-71.08378696585123,5.0201018147356535],[-71.08979163959702,5.022231304729587],[-71.09513212870911,5.019201123289747],[-71.10251743511418,5.023214128623522],[-71.10260922463738,5.021100208220844],[-71.10437184347387,5.0213921532271115],[-71.10440960068405,5.019520106049754],[-71.10719496960985,5.0179332315847205],[-71.11029204095115,5.022582462313835],[-71.11580863438951,5.024418861616596],[-71.11951671885782,5.023914754060968],[-71.12385768628326,5.020866744570014],[-71.12934350049392,5.02080750628096],[-71.12811547842006,5.026276474603151],[-71.12906836949446,5.029649947070425],[-71.13275383336952,5.028435030439539],[-71.13679730836981,5.029464823303272],[-71.13697254983282,5.0257927631195685],[-71.1397802102502,5.028523831308803],[-71.14206148807551,5.027653030516262],[-71.14200861790249,5.029898180184318],[-71.1458994915734,5.032078714865747],[-71.14751759366715,5.0314888115498775],[-71.14811218359557,5.027930938310533],[-71.15552033170894,5.02750592929749],[-71.1578855777521,5.028753847620351],[-71.16091510407409,5.024681330431804],[-71.16462326567557,5.02368360749108],[-71.16485168995808,5.019909503183726],[-71.16848317397069,5.02248106302369],[-71.17070311239883,5.018935425165012],[-71.17074965867874,5.01478907917334],[-71.17814966255582,5.019253106945257],[-71.17814221046137,5.022970075100034],[-71.18320097420053,5.024588365398756],[-71.18276571161556,5.0211860626023395],[-71.18439820059166,5.019628604678644],[-71.18552736774222,5.023442104505079],[-71.18841221482757,5.020749964922004],[-71.18881681954105,5.015796244244825],[-71.19136429839944,5.0160745315344],[-71.20113850913935,5.0095844812565815],[-71.20167987511053,5.0144910427021046],[-71.20505177920296,5.015210952465168],[-71.20613513849531,5.012554192333198],[-71.20360987708068,5.011311374056788],[-71.20862302630883,5.011024659709221],[-71.2079062440394,5.006573962609195],[-71.21167442863162,5.005738145317366],[-71.21440577347192,5.008264338500908],[-71.21584768382178,5.014762815836775],[-71.21874736001979,5.01613200398765],[-71.21895332003237,5.020272293481355],[-71.21515341004533,5.026533815603955],[-71.21789301842131,5.027182604453117],[-71.21845775060655,5.029082327018614],[-71.22273754935634,5.029720378927891],[-71.22988670993243,5.027083954189834],[-71.23170207758568,5.028509907225555],[-71.23650161416049,5.027957374425512],[-71.23539522084104,5.030738874350561],[-71.23753180297456,5.0307922525742015],[-71.24002658855204,5.035990882439023],[-71.23921749328218,5.037713578165324],[-71.24135342749696,5.0384420846794455],[-71.24149120485583,5.0427475430701065],[-71.24607595840973,5.046831988135011],[-71.24734301399099,5.0583736771022245],[-71.24999828390975,5.060087834698777],[-71.24847213794698,5.062545769123915],[-71.25152408431586,5.064696334990401],[-71.26389141516466,5.067732091617131],[-71.26535659916868,5.066086719341627],[-71.26841604288359,5.068093898723646],[-71.27212424767964,5.067711488828138],[-71.27299345438627,5.069539781946958],[-71.27534344965534,5.069757728457091],[-71.27489334973012,5.072038661754107],[-71.2772206832683,5.0735978166080145],[-71.27863951022579,5.071741073683768],[-71.28703958909159,5.073967825543605],[-71.29250263872711,5.07215337320423],[-71.29834720351317,5.074847673545037],[-71.30026975955946,5.080757516663027],[-71.30243630947956,5.082293348497444],[-71.30828824716997,5.081194011322168],[-71.30700644886525,5.0878646375942935],[-71.30886857774289,5.098691294701325],[-71.30666276188742,5.103131377246086],[-71.30502237755809,5.103080256453779],[-71.3057245456593,5.109990852304179],[-71.30886013320139,5.113746127885861],[-71.31128607380822,5.113643731006505],[-71.3136673902942,5.117632842535215],[-71.30969221107625,5.123167219801644],[-71.30687698543562,5.124490696767907],[-71.3068838009242,5.126823347353877],[-71.30467959663815,5.128501702809444],[-71.3056104142508,5.13198662862095],[-71.30409165044841,5.133476026275616],[-71.30477829215295,5.140036550577065],[-71.31223260499411,5.143508131318413],[-71.31117927313795,5.146470715288444],[-71.31382675877529,5.148684592076336],[-71.31060471726983,5.156564989681442],[-71.31121603892956,5.159148203832046],[-71.31483665436167,5.162618529873498],[-71.31819950610304,5.162938131755936],[-71.32039878929163,5.167509974242478],[-71.32525285286033,5.168232802725413],[-71.32877563975472,5.173443696767322],[-71.33450240982,5.17682772208326],[-71.3399888441815,5.18329984249425],[-71.35102770086183,5.186245929217819],[-71.35524407864682,5.193352599691252],[-71.35987722967718,5.195095052826787],[-71.36862626320334,5.203361421823843],[-71.35792712165579,5.203849406486086],[-71.35563480041475,5.202659353481522],[-71.35237789367943,5.204142698752037],[-71.34876956093632,5.200652049657947],[-71.33997858443894,5.201163748147792],[-71.33922050506015,5.206691433338733],[-71.3246373176716,5.2386987921278205],[-71.31999421131763,5.25469021557285],[-71.31550538471129,5.254039585811597],[-71.3143379954945,5.255436691034674],[-71.31448276934788,5.261415714395582],[-71.31185822929154,5.260959194932184],[-71.3094932732692,5.256826480946131],[-71.30634205648619,5.261362541860478],[-71.30308393413179,5.256226642875504],[-71.29719365199048,5.25314177194781],[-71.28570327407738,5.257962143739633],[-71.2808438780342,5.253320314711289],[-71.27678492086022,5.255314009155029],[-71.27468633042179,5.251874586782833],[-71.2683994026836,5.248904038553974],[-71.264584984458,5.250119725488275],[-71.263661293952,5.257919293682107],[-71.25252947532397,5.251675124470069],[-71.24490781225927,5.2520266245256835],[-71.24077245928964,5.2567123032577],[-71.23453206446169,5.255959022591753],[-71.23040437955956,5.265122135872332],[-71.22593252945381,5.263794271570248],[-71.227153935557,5.2582396720386555],[-71.2210953991912,5.255905393428179],[-71.22109559768057,5.248707057872991],[-71.21522079976984,5.2471052164839875],[-71.21701389341501,5.242620165290077],[-71.21335252697656,5.234512065369074],[-71.20813323775837,5.234406831016827],[-71.20708821983158,5.231682380855148],[-71.20275396505048,5.230138363646688],[-71.1996643128935,5.224375537415199],[-71.19724631597666,5.225890757204638],[-71.19623902852055,5.230918976201053],[-71.18989144529951,5.234247168401112],[-71.17861466872688,5.229532469078094],[-71.17594419225708,5.226214591128041],[-71.16006711207967,5.221137429580665],[-71.15727422832435,5.218021050259495],[-71.14607399461465,5.216629891491095],[-71.14159538867,5.219339720285461],[-71.13960412340748,5.212658657378654],[-71.13262255268205,5.21050023318287],[-71.12867119013595,5.214372937359826],[-71.12202611140441,5.203857798577076],[-71.11650139224167,5.202518924797857],[-71.11166426197906,5.20415328451088],[-71.10164682355503,5.195647438559547],[-71.08613539068853,5.195641630944635],[-71.07727804365317,5.197886487506594],[-71.07244791914098,5.2011505727707],[-71.06048522077361,5.201727680204726],[-71.05719610321859,5.203657955740596],[-71.04744594774922,5.199781031864006],[-71.03562000961108,5.2038191630769575]]]}}]}