{"type":"FeatureCollection","features":[{"type":"Feature","properties":{"code":"853058"},"geometry":{"type":"Polygon","coordinates":[[[-71.63218074655185,5.1061335912201],[-71.62292118284654,5.098456844774091],[-71.61844942427217,5.096869584643059],[-71.61243194950237,5.0872554921189135],[-71.60578799280165,5.0823430284417555],[-71.60472466551266,5.07356280533935],[-71.59506791113597,5.072707914552552],[-71.59029909722449,5.068429785993374],[-71.57829161327078,5.070209284656926],[-71.57046401693299,5.067599590168356],[-71.56497377424887,5.051124776113795],[-71.5506126234863,5.03099436518329],[-71.54696107147481,5.0312585782369865],[-71.53574917934071,5.037282743025401],[-71.5318360018369,5.036500758528746],[-71.53104822412354,5.028915709046146],[-71.53391054420393,5.0189739454795586],[-71.52633864541582,5.0077315569394045],[-71.52267676989834,4.992562811404639],[-71.5197226510387,4.9867711219338275],[-71.51614851503786,4.9810579715328345],[-71.50832099994705,4.976616387461945],[-71.50571044156675,4.9729560566651685],[-71.50387967504372,4.965110018296173],[-71.50048642459836,4.960927013470894],[-71.48838178779363,4.953628102408061],[-71.47950917250063,4.945786250828576],[-71.47455319542053,4.945004519328791],[-71.46438589852335,4.952857852440559],[-71.45969159115862,4.953645305166106],[-71.45969380128156,4.9473592361774195],[-71.45495283450822,4.941060742574734],[-71.44454222250931,4.934526425045533],[-71.43455905693219,4.933407204991056],[-71.43141952634153,4.931607690779231],[-71.42939109419478,4.926047452297269],[-71.43236739244577,4.918388685083357],[-71.42874202355239,4.913336559940603],[-71.42120041651026,4.908190902064575],[-71.41192779981247,4.906206209578215],[-71.40766609342347,4.914190633115652],[-71.40533960937887,4.914820243568727],[-71.39845060053693,4.911811704673198],[-71.39047362292337,4.9178002616963],[-71.38431047235605,4.914803401794018],[-71.38304255288313,4.9171673273169745],[-71.38587272179348,4.920238972473896],[-71.37962057289599,4.927485045245419],[-71.37267372238995,4.929290100705487],[-71.37395950590945,4.932664810389156],[-71.3709778474161,4.934904472287883],[-71.36888198646403,4.935541485470196],[-71.36576044950368,4.93219078786251],[-71.35828091410974,4.930630153079846],[-71.34923492500542,4.934288668675606],[-71.33859160526089,4.930426695267954],[-71.32020908175622,4.918875177475513],[-71.30741398052612,4.917641529821026],[-71.30539884511273,4.914563497007691],[-71.30336779043762,4.903242622876746],[-71.30083230424742,4.899616527902936],[-71.29083624714337,4.894593356502412],[-71.28418318049881,4.887407021843046],[-71.27348465910205,4.890590058637542],[-71.26833910921249,4.880316026890455],[-71.25713952547846,4.877346439226926],[-71.25295995976501,4.869467090633179],[-71.24741016820212,4.8690708440719845],[-71.24230032686523,4.871846413997503],[-71.24029791842798,4.868415191397446],[-71.24130749005496,4.863763004924522],[-71.23784671310227,4.860366816218914],[-71.22074820625284,4.866157697333904],[-71.20761653486721,4.860673222155356],[-71.19139466933547,4.859033149444144],[-71.18577701702145,4.861543653737101],[-71.18126897499502,4.867374861111671],[-71.17343137191159,4.8631363656418785],[-71.1715610607452,4.869626451915224],[-71.16597088224461,4.871936173375218],[-71.15816635387256,4.8696217992412585],[-71.14910365257725,4.861712648440175],[-71.16787410871382,4.84380589170064],[-71.17847168024974,4.838454615254989],[-71.19582117335364,4.82528564020231],[-71.21383512774224,4.815633670140187],[-71.23819607502588,4.815252828619521],[-71.26283285264986,4.806214878850312],[-71.28221960605106,4.805868650591094],[-71.29235850250814,4.80300296750363],[-71.30380354050436,4.795824277257509],[-71.32045181578792,4.773426013790356],[-71.33104858411025,4.7665540709236325],[-71.35895102360075,4.754708529642642],[-71.3763312095432,4.751439352559657],[-71.38543312843706,4.756634653356059],[-71.38975891296559,4.756811361378084],[-71.39638129602764,4.752205472301966],[-71.40487402830843,4.741811888225868],[-71.43652131908726,4.71810016893636],[-71.46358385734067,4.712454034935206],[-71.47422735397731,4.708357182739746],[-71.48495425730226,4.706940061968396],[-71.49329396042151,4.701571723661289],[-71.50771362133588,4.698349791170699],[-71.51367205939135,4.694072155235517],[-71.51708321090717,4.686140935086485],[-71.52362587321898,4.682347092910334],[-71.53871872689501,4.694958092645095],[-71.54427156573303,4.697024264518461],[-71.55382761707523,4.696765992777216],[-71.56286712390636,4.693279325812512],[-71.57681379176506,4.698315623224914],[-71.5863698420788,4.6985738949661595],[-71.59515107819709,4.707096858314799],[-71.594117991232,4.710196118181727],[-71.59644243587508,4.713811920502849],[-71.60212441212644,4.719752168495461],[-71.61490885766358,4.727758589389964],[-71.61990520728318,4.733845387356155],[-71.61787898114568,4.73731463867523],[-71.6198160186911,4.744029701891748],[-71.62407749985113,4.747258097115093],[-71.62717675868964,4.756943282785244],[-71.63156737726302,4.761850443812762],[-71.6407360204791,4.778638099797149],[-71.635957994808,4.790518594753962],[-71.63905725467498,4.797104520557184],[-71.64654713208688,4.804336126227781],[-71.65222910730978,4.803690447388817],[-71.65636145414186,4.805110942480098],[-71.65958985039373,4.810663781318112],[-71.66307651735838,4.8116968682832635],[-71.66514268923174,4.816216621184651],[-71.66423873762307,4.819703288149299],[-71.66553009632946,4.822415140918565],[-71.67405305864963,4.831454647749695],[-71.67702318418861,4.8439808205171175],[-71.68154293708994,4.845917860119414],[-71.69084071463396,4.839848474713449],[-71.69368170275965,4.840623290965766],[-71.70441072056235,4.856500502783774],[-71.70853232222703,4.855215637663434],[-71.71214812557656,4.848629710831801],[-71.71666787847795,4.849662796768484],[-71.72118763240775,4.862834650431751],[-71.72389948414855,4.863609464627132],[-71.72725701472837,4.861801564495067],[-71.73022713923888,4.863351193914298],[-71.73100195446273,4.867096131591836],[-71.72570738633755,4.872907244228031],[-71.72686960660218,4.876393911192679],[-71.73694220142693,4.874456873647318],[-71.7413328189719,4.878718355835815],[-71.7415910907132,4.890727986149102],[-71.75243849870486,4.89460206123988],[-71.7540573731589,4.897952776331124],[-71.75166368450948,4.901446258784347],[-71.74443207883883,4.902479345749498],[-71.74184936348291,4.910098357489403],[-71.75463380799158,4.910356630259116],[-71.77322936513644,4.928306508565015],[-71.7802026990658,4.930243545081964],[-71.78459331661077,4.933471940305367],[-71.78691776125385,4.938120829591583],[-71.79298714357446,4.943157127003985],[-71.81545677683863,4.954133671380532],[-71.82991998715141,4.957749473701654],[-71.83237356817943,4.959686511247014],[-71.83314838340328,4.963302312539668],[-71.83185702469683,4.975570214594256],[-71.83340665411612,4.977507253168085],[-71.8372807292069,4.97763638955297],[-71.84335011152751,4.967563795756632],[-71.8512273970656,4.97130873549105],[-71.85303529822613,4.973762314462135],[-71.85381011344998,4.982285278839186],[-71.86181653434448,4.992487007991883],[-71.86165368869916,4.994182249445146],[-71.86711110246966,4.996102810312948],[-71.87021036130818,5.0003642925015015],[-71.87770023872008,5.000880835984049],[-71.88738542439023,5.005400587856968],[-71.88945159934894,5.020380343709235],[-71.89293826528518,5.021800837772048],[-71.90365653792048,5.019088985002838],[-71.90662666140258,5.021671702415631],[-71.9070140685003,5.03019466576427],[-71.90908024243055,5.032906517505069],[-71.91269604475161,5.035747504602284],[-71.92107722598615,5.035822135590536],[-71.92651357622543,5.040138123175666],[-71.93348691015478,5.052922568712802],[-71.94175160279053,5.05408479103437],[-71.95156592484557,5.060154174383399],[-71.95977327358338,5.0714263785005755],[-71.96555006195052,5.0878398654993475],[-71.96452764507649,5.099388990106036],[-71.96142277608402,5.1011239911470625],[-71.95994969981211,5.115371321090777],[-71.95666957907224,5.117942709180795],[-71.95679830099476,5.127739023207312],[-71.95474603160739,5.1289792734627895],[-71.95143534144205,5.127160891444532],[-71.94730729452812,5.129928173151768],[-71.94344713837836,5.128023195244964],[-71.92788995421802,5.1283821237408915],[-71.91784929356191,5.130887457024869],[-71.89815773859459,5.128603111355574],[-71.87764160515519,5.1182029966694245],[-71.85523286391572,5.114604711809761],[-71.84820638624768,5.115388993846977],[-71.83931776736063,5.107445684356151],[-71.84118012043876,5.095032066394879],[-71.83660157970616,5.092933267182559],[-71.83086427530418,5.0949564902679185],[-71.82986492536742,5.099532007379537],[-71.83123036484534,5.10433268141179],[-71.8249968883502,5.10968948162224],[-71.82012974504954,5.107980346938973],[-71.8098216893386,5.097033032955665],[-71.80463349610841,5.095060665324411],[-71.80079612098888,5.091116461766717],[-71.78452221626566,5.085233890887423],[-71.78092082962337,5.090384955285742],[-71.77448140237163,5.090320116098724],[-71.76278514877822,5.09495739632581],[-71.74214668621505,5.093894360086097],[-71.73207617810021,5.095318004268336],[-71.72969574093258,5.094188907051887],[-71.72644526916207,5.088865315250359],[-71.7186250981793,5.083578093290043],[-71.7053040247057,5.083225281970215],[-71.71111025223996,5.079848267546879],[-71.70177119095638,5.071735231101854],[-71.70505976549373,5.059480837639796],[-71.70135126553464,5.066457099544948],[-71.6967888980891,5.070370602036633],[-71.7024878940357,5.076857473398604],[-71.7027321110815,5.079061841207022],[-71.69564439480371,5.085723964316401],[-71.69328665330556,5.090698122203378],[-71.70376189468925,5.111732599928132],[-71.70731718448098,5.115847848903343],[-71.6891360937849,5.116219451924849],[-71.67842467366216,5.121531489174686],[-71.67219785633233,5.1188799946684185],[-71.66588826069261,5.113692698240129],[-71.65674047737616,5.118055895450652],[-71.6479668301352,5.114012232245386],[-71.64045936018556,5.108174260804333],[-71.63218074655185,5.1061335912201]],[[-71.32465400106611,4.797276668465031],[-71.32683606092786,4.798587064670926],[-71.32709233029152,4.796810051752971],[-71.33173598891909,4.793636807788118],[-71.33542620522707,4.79716422781604],[-71.33749514772461,4.796936233422514],[-71.33732290520004,4.79444909020134],[-71.34183927966774,4.795344247598109],[-71.34306731099758,4.797296643904076],[-71.35199664489551,4.784632475747969],[-71.34433677210592,4.78806708912299],[-71.34371876454134,4.78660682518796],[-71.34617009739395,4.785226826049325],[-71.34508782002314,4.783739693025041],[-71.34907482633008,4.781890011387134],[-71.34900420626764,4.7796843117457115],[-71.34610073923051,4.780193551229502],[-71.33450260111027,4.788617544469162],[-71.32704336614324,4.790226510907985],[-71.32491678458473,4.792436511496078],[-71.32465400106611,4.797276668465031]]]}}]}