{"type":"FeatureCollection","features":[{"type":"Feature","properties":{"code":"853019"},"geometry":{"type":"Polygon","coordinates":[[[-70.58728647248614,5.439214492255644],[-70.58975179215702,5.434392966551343],[-70.58885836357217,5.423172655586768],[-70.5942150341989,5.41848396968885],[-70.61273159050324,5.40846278362028],[-70.62032294125316,5.406123213673084],[-70.62596890350437,5.401987388648365],[-70.638283698424,5.400147163539486],[-70.6480418932286,5.390280875312442],[-70.6585252603366,5.386566767256284],[-70.66514030237596,5.385846832810557],[-70.67142669326711,5.387535192954942],[-70.68224514854506,5.385522912498004],[-70.68584700827091,5.38326255525044],[-70.68911973553747,5.377414253104291],[-70.6885475317174,5.368928870073773],[-70.67819489405167,5.340762998117384],[-70.67403657081843,5.3156118758209345],[-70.69233232977001,5.292515012948115],[-70.70067920113371,5.279111074775415],[-70.70801874390355,5.270590795661803],[-70.73667589359508,5.247650693139917],[-70.75139363314685,5.231865292442421],[-70.79214386817677,5.209649164088489],[-70.80325190612848,5.1984037796952975],[-70.82854408034484,5.189363080899284],[-70.83036800463981,5.186447248897707],[-70.833389655149,5.170969784459203],[-70.83763129148224,5.165194040989604],[-70.85800234150702,5.147822765473165],[-70.87713822589615,5.140902845762923],[-70.91418717446282,5.140504686298698],[-70.91604074669874,5.1478750154953445],[-70.91304291183297,5.151980821311383],[-70.91144001114816,5.160569779816399],[-70.91652908720215,5.161770136786572],[-70.92051982778383,5.156542877138861],[-70.92418952460667,5.155439242102261],[-70.9330938591238,5.162099752613813],[-70.93207130443852,5.1635405172787046],[-70.92557381749282,5.1634754713746815],[-70.92268050118338,5.166913661672822],[-70.93042294248056,5.1833699267381235],[-70.9345049141412,5.184078771488146],[-70.93807588459606,5.178852692492512],[-70.94852050410373,5.186020956388404],[-70.95283141735348,5.182099775544884],[-70.95499083193937,5.1873329816472165],[-70.96638095624729,5.200122296859661],[-70.96968453061879,5.200750405786664],[-70.97237811824891,5.190090538401989],[-70.97490332001394,5.194693497445371],[-70.97861941810629,5.194535720993201],[-70.97829860883235,5.188084590065614],[-70.98375380116704,5.192599223380114],[-70.98939989197356,5.188464147061609],[-70.99833371913684,5.18913319314305],[-70.99973822606074,5.193886433349405],[-71.0047892517984,5.191960610969716],[-71.00913056375214,5.1961570616524],[-71.01658450738245,5.19953675414007],[-71.02070464248806,5.199213653496145],[-71.0234132556634,5.196018835892573],[-71.02667063753915,5.195290767494953],[-71.02878346367896,5.201232740185731],[-71.03336112200788,5.202057855504734],[-71.03150809381805,5.207494660315604],[-71.03981834542896,5.2183172129085165],[-71.04941322459001,5.220454960267432],[-71.06541549913203,5.218486786624794],[-71.07270251522868,5.21916031774407],[-71.08532466225194,5.228294387807921],[-71.08911565152857,5.23946934857122],[-71.09208213123878,5.241030171558805],[-71.1085113832329,5.238667979989941],[-71.11229436916983,5.239726553817604],[-71.11651315351031,5.2473127726393045],[-71.11634614781502,5.257268523024209],[-71.11996520001446,5.262224051703356],[-71.13161325770614,5.2686781496876165],[-71.1430172094237,5.269894442374607],[-71.14190070240056,5.276679910708992],[-71.14663877719357,5.299559112978727],[-71.1492475933922,5.303759248570998],[-71.14851889558776,5.307539988389465],[-71.15614479377876,5.307691317535443],[-71.16800824435774,5.310856712427039],[-71.1775832241845,5.315680323812728],[-71.17790483667204,5.329438471987089],[-71.18070173341005,5.331680434511725],[-71.18747580351607,5.3332364947820565],[-71.19314171138154,5.341563294033108],[-71.18941079240398,5.34281056752252],[-71.17116931464852,5.341151504620143],[-71.1664023323932,5.34530751694308],[-71.15686709261382,5.345101047851415],[-71.14878330713088,5.34884182136517],[-71.14733310342058,5.356113763579856],[-71.1440166478065,5.357984012011173],[-71.13945622514575,5.357984497436064],[-71.1280198990861,5.368293455091134],[-71.12345966463033,5.369982065147042],[-71.11914242543065,5.369828810756644],[-71.11352615842873,5.363173004341206],[-71.1069115113113,5.360480097540005],[-71.09654688406272,5.36089604494606],[-71.08145764947591,5.36907812382276],[-71.06980593361425,5.372946655608359],[-71.07104964252187,5.37967006052213],[-71.06877760628106,5.384014197607428],[-71.05070037593805,5.388955506011882],[-71.04144488075133,5.389495025928795],[-71.04780747717626,5.406963691866395],[-71.05082887160324,5.424165656947878],[-71.04925702576867,5.4264285667897525],[-71.04055759505366,5.430629589927946],[-71.04099012198151,5.427285466124829],[-71.03612213638644,5.4243577093322415],[-71.03439800906813,5.4283324833438655],[-71.03140730850811,5.429060110539638],[-71.03005631864761,5.427593781879068],[-71.03034678886723,5.423812723243373],[-71.02658530766337,5.419918642888717],[-71.02390774933832,5.41998185405123],[-71.02281598458529,5.418039367817357],[-71.01946677821923,5.418847543659638],[-71.01560620143647,5.416315360826843],[-71.01115042588731,5.416343554550053],[-71.00607730714745,5.420404984099832],[-71.00236174281673,5.428155224076647],[-70.99323592291876,5.423835213224379],[-70.99294675162196,5.4264298214896485],[-70.98957452151325,5.427340377756195],[-70.98775062395777,5.425433634013643],[-70.98686521928147,5.434282857381561],[-70.97864047752375,5.431744978005611],[-70.97866399183351,5.436607639353781],[-70.97455072466704,5.44231806129676],[-70.9700196506704,5.442963979762851],[-70.96741759750978,5.437992113245855],[-70.96477011907155,5.443811566550892],[-70.96000115397902,5.444728198855898],[-70.95418747949253,5.443158463385373],[-70.95494305255681,5.438180330568116],[-70.95242561450442,5.434954994961231],[-70.94813780213053,5.437152856842204],[-70.94808398373357,5.434495641110232],[-70.95046427280545,5.433746151283401],[-70.94894610652813,5.432651331027614],[-70.94168257080264,5.4403077883596325],[-70.94185770119384,5.442367406997278],[-70.93763093716785,5.441479658500441],[-70.93616672709885,5.439111956536522],[-70.9330690520618,5.439850847234766],[-70.93238984805362,5.432720867111641],[-70.92920823976573,5.432717780755638],[-70.92987241720033,5.430828483511959],[-70.92723271790129,5.43057428028925],[-70.92469878568772,5.432285620981759],[-70.92537780149098,5.4290634550346795],[-70.92298265451007,5.431374839486239],[-70.92747635799083,5.436988626913319],[-70.92427935186157,5.438208903786574],[-70.92657657980186,5.448626096789212],[-70.92375343618232,5.448549203227401],[-70.92400459932895,5.451992950200463],[-70.92045755558934,5.453794823659393],[-70.91708535119164,5.448884341790972],[-70.91184297755268,5.450108401275827],[-70.90855468892238,5.446179174926556],[-70.90639608474913,5.449531147802986],[-70.90303141780674,5.449213147205512],[-70.90161968196037,5.446755420525733],[-70.9030692182115,5.441169532687354],[-70.89814038172943,5.4384799189591035],[-70.88445304799319,5.440282068040688],[-70.88038685366922,5.435290047135595],[-70.8713832405104,5.432481611272522],[-70.86733187324222,5.434064884131885],[-70.86300647746492,5.445662958488697],[-70.8564831581001,5.443422763856688],[-70.85373616653527,5.440727653103181],[-70.85126453222733,5.442776320884946],[-70.84385521271793,5.443453172845125],[-70.83640889396048,5.440541976034012],[-70.83679886805066,5.4392225233632985],[-70.84011777341482,5.4391986377858075],[-70.8392931291225,5.437992267512243],[-70.83582218807237,5.438439689373126],[-70.83293072295942,5.436253871582437],[-70.82060819826586,5.432976594486149],[-70.81744207420849,5.433715589057044],[-70.81741905972183,5.430671768412537],[-70.81214671829633,5.428356797781873],[-70.81117102973661,5.42468827235507],[-70.80410587851611,5.4280333001592],[-70.80048862917636,5.42162053939353],[-70.79766592470179,5.420308531618218],[-70.79484364188863,5.421618075245249],[-70.79240917137957,5.425553515444278],[-70.79589611293835,5.426060027498522],[-70.79506445672496,5.428874545570636],[-70.79003651437961,5.42721191500118],[-70.78770982567494,5.424348592189347],[-70.78977746719266,5.429918935119076],[-70.7926836318345,5.431208885887656],[-70.78805262613525,5.432551369500118],[-70.787877460777,5.4293522283242055],[-70.78550417539867,5.429263641370937],[-70.78899920051572,5.434708605844776],[-70.78843461951152,5.436231288013175],[-70.78300996574905,5.434630730120375],[-70.78159839445345,5.4285403644870485],[-70.77963700441768,5.430153553710852],[-70.78026248258868,5.433364173333757],[-70.7743652121805,5.435427489222263],[-70.77083219845372,5.431201061497006],[-70.76927642820414,5.432974405960465],[-70.77127559396212,5.4419557893342585],[-70.7673158125856,5.445329647467474],[-70.76246336264319,5.440232590699509],[-70.763485702384,5.435740088439616],[-70.76208096200367,5.434400746719007],[-70.7539935502324,5.436055632087857],[-70.75062222515305,5.441158014131133],[-70.75175817179672,5.44508460355388],[-70.7495006139697,5.44484190346077],[-70.74888176925293,5.4392390164959465],[-70.74665430056865,5.441716068639096],[-70.74299236642997,5.441512977981176],[-70.7356675489001,5.447391042225377],[-70.73405769285847,5.445084552131732],[-70.73083854333333,5.445654559198658],[-70.73032655070892,5.449241297734147],[-70.72419234359944,5.447938698151006],[-70.72180441011432,5.445842269498712],[-70.71874466609427,5.446103891905693],[-70.71874574287358,5.442875453487773],[-70.71687572995558,5.44221050060753],[-70.70384485930651,5.441920857255639],[-70.69684110199063,5.447552902622704],[-70.69567366135175,5.444701625958089],[-70.69075268525586,5.445969310946168],[-70.6895996500113,5.441756134702757],[-70.67540930915294,5.449476536476766],[-70.67380726001846,5.448038925016647],[-70.67607255481857,5.44567650513352],[-70.67011400466288,5.4454531664993056],[-70.66844301491261,5.450840708913518],[-70.66350652681825,5.454054465286106],[-70.66480388031613,5.456795890919977],[-70.66143120180647,5.457850903251199],[-70.65840956672389,5.455184279327],[-70.6534963965068,5.459238643476681],[-70.65123824423995,5.457556901359908],[-70.64967469382276,5.461633727722642],[-70.64569960099402,5.456963299764709],[-70.64739331212479,5.4535563545787795],[-70.64163282971379,5.453174729384955],[-70.6436084976171,5.451068133549882],[-70.63980105531704,5.451767344878874],[-70.63455959596348,5.456132170113904],[-70.63321692208916,5.459961928588143],[-70.62962323848132,5.459310521324312],[-70.62977609589291,5.456803119842448],[-70.6266713030052,5.45513339816182],[-70.6304473973488,5.451251079075803],[-70.62586997659008,5.449568388735031],[-70.62857852188819,5.448663242076066],[-70.6318891112661,5.442686269429544],[-70.62878393065557,5.440695014451421],[-70.63191250524807,5.4387823736194605],[-70.63395769072343,5.432759743267297],[-70.62934864021508,5.4273568708889],[-70.6268847161407,5.426847437029437],[-70.6292880556947,5.423561948848089],[-70.62883071142045,5.422021413946027],[-70.62644186364992,5.42316091077322],[-70.62557278549855,5.430449434566583],[-70.62025428551595,5.426272372082224],[-70.62368775320601,5.4332594490889505],[-70.62255898406266,5.4392770822389025],[-70.6209638728015,5.438241155743981],[-70.62090339215382,5.435036370475473],[-70.61808060951762,5.434670374522568],[-70.61682865867164,5.432106423100379],[-70.6150589682644,5.432662661378856],[-70.61658487151476,5.437717264039634],[-70.61119802535615,5.435657549756797],[-70.61314382934557,5.429513813098993],[-70.60875725563665,5.426991634955016],[-70.60510954691483,5.428349422820588],[-70.60066883599171,5.434865693240397],[-70.60008138859655,5.442254893328823],[-70.59150549131152,5.4436313700518895],[-70.58728647248614,5.439214492255644]]]}}]}