{"type":"FeatureCollection","features":[{"type":"Feature","properties":{"code":"854039"},"geometry":{"type":"Polygon","coordinates":[[[-72.7083768740095,4.7619209558887405],[-72.7039366814214,4.759489135676006],[-72.6966820756623,4.758341726012077],[-72.68771452586878,4.751438910329341],[-72.68329220041255,4.740781333286179],[-72.67187949150696,4.723457521420414],[-72.66786319618552,4.7206823289333215],[-72.65615954911885,4.717892817441054],[-72.6512080714748,4.714183061753658],[-72.6510200094474,4.699978659000692],[-72.64846150774207,4.695349549749437],[-72.64430802950153,4.692681733860411],[-72.63417471954426,4.690169487385845],[-72.62627760357759,4.68134776148554],[-72.62290378349672,4.6652107126367355],[-72.6158409133617,4.656988927651298],[-72.61218230006386,4.648343272138675],[-72.61119483583735,4.639780323973355],[-72.6150258263857,4.631257809025726],[-72.61521303583424,4.627195359260952],[-72.6053580409345,4.610910842039402],[-72.60790231208068,4.598796143981531],[-72.60666677826265,4.591669620453672],[-72.59779448692905,4.579963242872168],[-72.58706854828318,4.577066067846317],[-72.58195131347304,4.5738178864173165],[-72.58153505959115,4.571136010690623],[-72.58455992192631,4.565794474623999],[-72.58301264455508,4.563307355057077],[-72.57778844041013,4.560804414958852],[-72.57259899659385,4.561481870614784],[-72.56088555052685,4.57255154766051],[-72.55232742678544,4.56920491137231],[-72.5428174033882,4.559502619617717],[-72.53317896351581,4.557328696793206],[-72.52824864196282,4.551133880480791],[-72.52118749755431,4.550855751571362],[-72.51737803950698,4.544671094214152],[-72.51162113196216,4.5455268663761785],[-72.50537991540858,4.543055626990167],[-72.49967402272648,4.547135955199678],[-72.49626273751312,4.5451230545918975],[-72.49403426815428,4.5462232350900535],[-72.49478192221119,4.543647461721093],[-72.49173869497798,4.544032843815501],[-72.49205075837676,4.540868520560991],[-72.48883140213468,4.537367575728865],[-72.48951817856516,4.53379507186628],[-72.48465812123345,4.53296341565283],[-72.48621437176564,4.531343686563048],[-72.48526880628731,4.529694686970743],[-72.48735112162291,4.531037707430187],[-72.48650409430758,4.528614358498544],[-72.4876641065062,4.52745475047783],[-72.48089624305078,4.525823965630991],[-72.4803859905511,4.522329036159135],[-72.47404531640689,4.52358730369906],[-72.47376309223938,4.5177894775117124],[-72.46642273905684,4.514940956044597],[-72.46434830776155,4.510079286115058],[-72.46114328903661,4.507848405058496],[-72.46295184120129,4.506162044206349],[-72.46234892705911,4.503873709208563],[-72.46128104068447,4.5051278146415825],[-72.4606936889345,4.503434991056679],[-72.45956426364484,4.504011012455464],[-72.46040405381018,4.502042805902647],[-72.45505557575655,4.502256288972205],[-72.45310927297248,4.49955873875308],[-72.45214077014066,4.50118593947775],[-72.45082116217515,4.499698239781651],[-72.44956954660142,4.496496589205947],[-72.45143882726836,4.496355580480667],[-72.45129344971923,4.49438747677209],[-72.44938662678658,4.493701854254084],[-72.45037026109321,4.491337400111661],[-72.45242245231901,4.492984917718331],[-72.45385726333012,4.4922751504553275],[-72.4527429684868,4.48908906227183],[-72.44583110456682,4.489152108883559],[-72.4467920349764,4.487889319281862],[-72.4445410612384,4.487044729375327],[-72.44435842527372,4.489682136275974],[-72.4427867419331,4.490176335816386],[-72.44142820536132,4.4894947612481815],[-72.44161992144501,4.486832514375351],[-72.44026904265627,4.488779730416411],[-72.43968111395003,4.485860942671081],[-72.43829330584731,4.485691136526782],[-72.43713356001535,4.4872489646897975],[-72.43685850409219,4.485896950500546],[-72.43406594841002,4.48558499920199],[-72.43360827400568,4.486847788803686],[-72.42581082543188,4.4872465005415165],[-72.4264979042245,4.483610278494211],[-72.42442261212284,4.483266600772424],[-72.42687847732168,4.481593112935286],[-72.42632154998671,4.478426376954701],[-72.42068377516637,4.474746433759037],[-72.41953933975816,4.470515110647398],[-72.41124561521855,4.468932433256214],[-72.41123063081102,4.467095154635103],[-72.40659198069852,4.469212201503012],[-72.40456235555848,4.4681222745767855],[-72.4035628420994,4.470015968412213],[-72.40058011094044,4.46921480449106],[-72.3988930085813,4.471970154208179],[-72.39784876712855,4.471250830657311],[-72.39745167724453,4.474066205422048],[-72.39386510120295,4.470010047668666],[-72.39132445737357,4.471844241990652],[-72.39168329125278,4.46951747615276],[-72.38940186738864,4.472204204071261],[-72.38834135597534,4.469267951315089],[-72.38635770015901,4.471705644963038],[-72.38844878708085,4.471996917367846],[-72.38729703738943,4.472999282698083],[-72.38486260801807,4.4707395044636655],[-72.38299313811768,4.471991049074859],[-72.37965981090412,4.469477194116166],[-72.38143738638013,4.468520348680272],[-72.37880454576424,4.465423975651447],[-72.38109336310163,4.464411814406276],[-72.38097978088138,4.462892413997963],[-72.3793690897445,4.462755902651793],[-72.37949858711266,4.459321332471347],[-72.37621888906267,4.459443082582027],[-72.36749770781677,4.455457417364187],[-72.36573526278715,4.454266935499106],[-72.36633072380636,4.451382019508117],[-72.36465177288261,4.451571314638102],[-72.36268301611301,4.449054411375812],[-72.35921222007329,4.449091478501089],[-72.3588612527509,4.4475269119826635],[-72.3545812637393,4.446021479880642],[-72.34830172433215,4.445593748580222],[-72.34778311368012,4.440619365464386],[-72.35179609433129,4.438323276009953],[-72.35305485243833,4.433889216024568],[-72.35489381976203,4.433609903377771],[-72.35436733535408,4.432001988007244],[-72.35809018825694,4.432942263177267],[-72.36024221862556,4.430676788399751],[-72.35885307457602,4.424343376088132],[-72.36089106712438,4.423181508579262],[-72.35822047649742,4.4233515564075105],[-72.35694570245505,4.420631782573992],[-72.35828927313128,4.415986009468611],[-72.35721313144853,4.414507313786714],[-72.35418383755456,4.4150092688121845],[-72.35369596293566,4.413253993055321],[-72.35036915810451,4.416321768183025],[-72.34443294880566,4.416488073508958],[-72.34130550549992,4.419021833972579],[-72.33501854588002,4.417543286386433],[-72.3339198473675,4.4103360764007675],[-72.33149422352096,4.4112048768726595],[-72.33114221541479,4.409135823303359],[-72.32701546330998,4.411542859079816],[-72.32543592986758,4.410193446850087],[-72.32460405048215,4.412107739360749],[-72.32264341738005,4.4091134629060775],[-72.32087353671096,4.412114133187913],[-72.31953090500275,4.411031367306862],[-72.31702012714413,4.412681779979209],[-72.31721049905343,4.417389222611803],[-72.31406017701539,4.416245072082177],[-72.31488353575457,4.420795841781455],[-72.31352563476031,4.423298625556413],[-72.3089785797954,4.422993980313549],[-72.30764290138711,4.425617117574234],[-72.30248616821359,4.427013645841043],[-72.29141536193794,4.424533474431769],[-72.2903855793586,4.426781620981274],[-72.28767691167587,4.426434971060587],[-72.28344200649889,4.429741319141556],[-72.271554820495,4.432058933897906],[-72.27011307469598,4.437500623810763],[-72.26864823522016,4.438099789279988],[-72.26413872149254,4.438106750807378],[-72.2607363240794,4.435129190657449],[-72.25975948880625,4.425375261832414],[-72.25394570427636,4.42068459412576],[-72.25702813573844,4.417759181153713],[-72.27503435418237,4.41299644636598],[-72.27990927662228,4.408452242243754],[-72.30237908163633,4.395866818846002],[-72.3057743190326,4.392418134320394],[-72.31373152689571,4.377075517208084],[-72.32292573616428,4.3693124474108345],[-72.33845933813768,4.372697146356643],[-72.34132816723081,4.37189765571145],[-72.34297685623346,4.369610096159249],[-72.34148144527535,4.361070981120918],[-72.34565433845376,4.352620693691335],[-72.35336053126593,4.344098794780734],[-72.36014303357217,4.340280643308745],[-72.37541054044203,4.338830666884235],[-72.38461181613923,4.335536295016368],[-72.38830402042657,4.333411328112675],[-72.39827610247863,4.322037928336954],[-72.40502812894766,4.3181196960381385],[-72.41178855676367,4.318571330399607],[-72.41710621239503,4.321508401796052],[-72.41793784289735,4.3246853049594165],[-72.41526770169975,4.343793133436634],[-72.41906666449125,4.348951710607594],[-72.42342284772377,4.35102908016313],[-72.43166329791245,4.349160231442056],[-72.44486990059153,4.338509495598487],[-72.44948633737408,4.337374858162207],[-72.46766011070167,4.317610495635165],[-72.48598693993017,4.3286675320939025],[-72.5080288511499,4.335512211977914],[-72.51713828281635,4.340195692928262],[-72.53277096494202,4.339503649843664],[-72.5357778737561,4.342179410451138],[-72.54067599991612,4.352035590116714],[-72.54813793145945,4.35447127830173],[-72.55228824929611,4.35290678788806],[-72.55236470371295,4.342908762345019],[-72.55518677158165,4.3362158785199085],[-72.5694167218752,4.331127309488068],[-72.57289577116615,4.326827262761981],[-72.57412378604096,4.320053625630294],[-72.56976002935772,4.311828668928115],[-72.56935588127266,4.307860977800146],[-72.5718661675358,4.303261774628879],[-72.57613081938416,4.301206273875096],[-72.58105202893648,4.3007080592950615],[-72.58553102260396,4.303017014565398],[-72.5939454317878,4.3110967582692865],[-72.60055283044233,4.313015462798319],[-72.60665688773094,4.310381967064586],[-72.6093116228596,4.312525123002672],[-72.61707129776806,4.311200482867946],[-72.61923012717017,4.31191657402394],[-72.62065692455724,4.3163383040119925],[-72.62660890913588,4.315544042996976],[-72.62718062238895,4.316801163823527],[-72.62390737781573,4.321356260180494],[-72.62924778979465,4.321923069819604],[-72.62589136170527,4.327592191567874],[-72.63191864678828,4.325726221457444],[-72.63290290021729,4.3326235833094415],[-72.63435213513475,4.332406007038628],[-72.63465720306749,4.326483499679455],[-72.6369918426613,4.330100696568593],[-72.64079149553771,4.332324529708558],[-72.64224907112401,4.3306627517179095],[-72.6401508067018,4.328824146406021],[-72.64344712643981,4.32515043248668],[-72.64609407214482,4.328539938372842],[-72.6475741017166,4.32630922186712],[-72.6513593985639,4.325987542530754],[-72.65161073448883,4.322828414967887],[-72.65385370385872,4.320749976860611],[-72.65567783384222,4.321104837866358],[-72.65654718658772,4.327569798260527],[-72.65988936252069,4.328850787181011],[-72.6618576647187,4.333998464918125],[-72.65791234221552,4.333780854708721],[-72.65676081466768,4.338524307227658],[-72.66142251423395,4.339151796003819],[-72.66510709159155,4.348217214444276],[-72.67027230530209,4.342671015231076],[-72.67361488644144,4.344996134532494],[-72.6686853711874,4.348501938755533],[-72.66335258408128,4.356926591226909],[-72.66999785307468,4.358864735376471],[-72.6716154543169,4.368598088151998],[-72.66776956575018,4.369281298972226],[-72.66970791558822,4.376647242889987],[-72.66823563224551,4.375895229265211],[-72.66328356736074,4.379286192454401],[-72.66889172715031,4.383227120422703],[-72.66471088102588,4.3865697879512595],[-72.66783851459354,4.389508203522041],[-72.66599989179804,4.396754550887749],[-72.66115499782285,4.395776871263308],[-72.65685159014663,4.400161688392416],[-72.65794339603735,4.402082038429512],[-72.66331447308687,4.401663456153756],[-72.65830198000504,4.413025509123145],[-72.65997197010915,4.414620956685042],[-72.66346648614712,4.408787002340489],[-72.6672661894172,4.408229220369833],[-72.66719792243123,4.41039144363225],[-72.66413864121029,4.411743365261714],[-72.66566377107188,4.415530807440064],[-72.66358865894767,4.421513829385503],[-72.66634346564717,4.424010304694036],[-72.66902872906354,4.420425815362307],[-72.67259147094978,4.420182873585247],[-72.67046269572342,4.422422534455563],[-72.67359842107675,4.427706981677943],[-72.66935662122114,4.425641072057374],[-72.66899764130312,4.428512968994539],[-72.67053922830183,4.430167483095602],[-72.6758495501096,4.431039266050789],[-72.6766200376473,4.426674776088021],[-72.6789245562166,4.424974457214034],[-72.68075569914964,4.425936221690506],[-72.67770395024172,4.427432839011715],[-72.67907710098166,4.431258417895549],[-72.68872107490319,4.428521015528759],[-72.69098718834351,4.429294295287946],[-72.69075014776962,4.43142288950844],[-72.68704229675774,4.433355639476986],[-72.68592114323133,4.4380206557703445],[-72.68064867325052,4.4397159075080594],[-72.68172390887537,4.442115370862268],[-72.68865161800926,4.4421465882064695],[-72.6866372436433,4.4458007689170245],[-72.68756110487078,4.449074607930015],[-72.68974285414282,4.448634614509444],[-72.69276474736444,4.444484538356733],[-72.69425921832612,4.446097685414372],[-72.69149026334287,4.449254942240316],[-72.69451929909775,4.453320405341685],[-72.70872607138227,4.449885110109221],[-72.71061810736842,4.453896444223915],[-72.7169193109172,4.4555298053193155],[-72.72025378381574,4.459522896920589],[-72.71926205052426,4.463061003494715],[-72.72047519309183,4.465251654965243],[-72.72894356568304,4.467748415152357],[-72.73047743319228,4.471279352453678],[-72.73549776711985,4.473986656421687],[-72.73626848708562,4.477390760020967],[-72.73954879705889,4.476618721591933],[-72.73966349205392,4.480412609019538],[-72.74455371669,4.481658460172923],[-72.74192975050465,4.486184715916352],[-72.74639330519301,4.487412825407887],[-72.74450029424338,4.491836459042986],[-72.74777376301705,4.493631388458027],[-72.74823894196646,4.501603304077548],[-72.75181780468915,4.500819908557787],[-72.75342742727429,4.508605209168536],[-72.75161094890314,4.514878924505638],[-72.74885693513284,4.518404830666157],[-72.74527829558218,4.519629470192626],[-72.74434015648723,4.53012677783903],[-72.74570555379904,4.534711789531968],[-72.73997631341484,4.537597560158645],[-72.7395560702044,4.539548429227523],[-72.7412193209247,4.542584092265997],[-72.74349298313308,4.538885036494605],[-72.74686571306489,4.540068848909925],[-72.74519484467089,4.544826775728893],[-72.74586671691236,4.5474944620341375],[-72.74257800559212,4.550183594451312],[-72.74453074539792,4.551984072313758],[-72.74804074566646,4.5532647413886025],[-72.75047423401293,4.551466762641496],[-72.7570590151596,4.554961278679457],[-72.75502223000274,4.559667163221661],[-72.7534805483873,4.557215984635377],[-72.7491239599484,4.558833542683033],[-72.74794150919092,4.564942279385036],[-72.74958196962501,4.568166064100637],[-72.75428109010073,4.566485855391647],[-72.75087858984335,4.570382305277917],[-72.75147372278946,4.572535086409573],[-72.7587680973923,4.574841006745999],[-72.75500625417669,4.582433281037311],[-72.7579441884364,4.585624462068154],[-72.75705893699796,4.589943138002013],[-72.76109501749659,4.5918666854669254],[-72.76184292249349,4.594253120511269],[-72.75312186877443,4.597209036060008],[-72.7509775414403,4.6021016909057835],[-72.75217576850599,4.603332333451192],[-72.75786757049718,4.600298498983534],[-72.76329965270003,4.602521289282777],[-72.7628727482674,4.606225487266784],[-72.76513115044571,4.610320037807867],[-72.7627274725341,4.612945296745465],[-72.76658078131356,4.615112045155001],[-72.76587041138322,4.618019587909828],[-72.76128582135175,4.616647608565927],[-72.75959952220614,4.618049167973538],[-72.76503887549762,4.623107966679811],[-72.76558799695385,4.625809903206289],[-72.76419946482758,4.626352008627634],[-72.75922501383451,4.623234439398516],[-72.7583018498911,4.627898275039854],[-72.75481476949255,4.631044675626583],[-72.75905792175007,4.641029596755061],[-72.75594402303227,4.64272283377386],[-72.75747052997838,4.649140074435081],[-72.76088815245458,4.648261061529013],[-72.75952266155451,4.6490958976867205],[-72.7603624517198,4.6523526851227075],[-72.7588361761733,4.651231022517209],[-72.7574016592967,4.652242583151974],[-72.7604080065812,4.654493721440815],[-72.75951476928662,4.655753211798924],[-72.75790574114126,4.654916748645121],[-72.75956097103835,4.658751986661116],[-72.75827147689819,4.6580935479358345],[-72.75656955468236,4.659345293093281],[-72.75771430890774,4.659116913033813],[-72.75775277265791,4.668040702598091],[-72.74623234056907,4.6701541488887415],[-72.74151643591148,4.675526579368579],[-72.73798419660187,4.673829215209992],[-72.73676330677688,4.675580743322314],[-72.73768665995368,4.677469185930249],[-72.73422249942513,4.67727719319555],[-72.73414619207557,4.680662753976208],[-72.73046114780499,4.683464443256355],[-72.72991186282638,4.687381332409188],[-72.71852822696229,4.690820048241449],[-72.71344664619738,4.695827025786059],[-72.71154754378273,4.695885447491776],[-72.7104939959537,4.700139756293709],[-72.71327169578365,4.70294155767408],[-72.70652694246007,4.7065099950750096],[-72.70891465174475,4.708300201882025],[-72.70709169315728,4.713156435464441],[-72.70395552865898,4.712786907839927],[-72.70462727131672,4.719427901597783],[-72.69946900370695,4.722604384128147],[-72.69925584871055,4.72614952216378],[-72.69547137050347,4.7255198705730095],[-72.69341113891409,4.72727241581498],[-72.69323550767143,4.729490362149932],[-72.6959594261283,4.733275841031514],[-72.69116821273877,4.736460317645594],[-72.69106198902477,4.738324137282746],[-72.69847029140459,4.740568027108736],[-72.70275802458838,4.744213125643398],[-72.70294827719835,4.745963403169583],[-72.69804265369243,4.751680132550575],[-72.71048597410203,4.758610804627324],[-72.71138687226494,4.761009448312848],[-72.7083768740095,4.7619209558887405]]]}}]}