{"type":"FeatureCollection","features":[{"type":"Feature","properties":{"code":"854018"},"geometry":{"type":"Polygon","coordinates":[[[-72.4085968676822,4.851547618230313],[-72.40828377892626,4.842370349466876],[-72.400593001439,4.839044069141437],[-72.39287992526101,4.840659266913519],[-72.38339576102243,4.848281465796731],[-72.37747486523267,4.849389100446274],[-72.37719621695976,4.851114228439144],[-72.37581595042604,4.850424094143875],[-72.37159937620856,4.843537022887688],[-72.37230213874955,4.838196028810273],[-72.37651871296703,4.8359471901189295],[-72.38481130930523,4.838758239254446],[-72.38776291053756,4.838055475684996],[-72.38776291053756,4.8310278533604105],[-72.38621683335873,4.8294817761816375],[-72.36991274693293,4.830184537694208],[-72.36344733299563,4.828919565737465],[-72.35121926766203,4.816550948307054],[-72.34278611922707,4.8213297319402955],[-72.32620092655071,4.82357857166005],[-72.32015716993232,4.820908073592932],[-72.31495672898018,4.810507190660246],[-72.31003739222172,4.807696142553141],[-72.30497750336639,4.811912716770678],[-72.30300976886872,4.820908073592932],[-72.29724711747241,4.820345865205638],[-72.2853793196669,4.81121728085418],[-72.2765920352781,4.807284851934867],[-72.27686700789747,4.800106308755971],[-72.28614347097027,4.794484209456471],[-72.28572181262291,4.791251503002059],[-72.28361352705684,4.789424319572731],[-72.28094303001814,4.7887215590886285],[-72.27335319622097,4.792657027055611],[-72.26744999272785,4.801371280712715],[-72.26182789445681,4.803198463113574],[-72.25648689935099,4.792235369736716],[-72.25676800457308,4.783240011885994],[-72.25212977200823,4.775650178088824],[-72.24861596033168,4.774666310325699],[-72.24158833697868,4.780569514847286],[-72.23432919784494,4.781460642806223],[-72.23413905527832,4.763281558601534],[-72.2313280061428,4.759064986440876],[-72.2287980612009,4.7586433291219805],[-72.22542480264968,4.752318467281498],[-72.22117638888028,4.750615765506211],[-72.21544557600743,4.759346089606083],[-72.21277507896878,4.759627195856638],[-72.20982347773639,4.755832278958053],[-72.20940182144597,4.748382998286104],[-72.21333729044136,4.743042003180278],[-72.21319673731608,4.738825428962798],[-72.2063096660599,4.735171065189434],[-72.19197331310335,4.734608854745261],[-72.19028668382771,4.72954896588999],[-72.19337883818531,4.7195697413046105],[-72.19239497042224,4.712542116923146],[-72.18592955648495,4.714088194101976],[-72.18002635299183,4.713385430532526],[-72.18086966660121,4.707622780164684],[-72.1852536404075,4.704813966863185],[-72.18649176692912,4.701438471449478],[-72.18578900541661,4.695113609608995],[-72.17918303835404,4.6804961534872405],[-72.17384204427663,4.677825655420122],[-72.16723607824252,4.677263444975949],[-72.16164941907226,4.673928764332004],[-72.16428447598173,4.659694384536522],[-72.15936513922327,4.658851070927142],[-72.14798038852751,4.661521567965849],[-72.14249884235329,4.657445545845178],[-72.14179607878384,4.649715159951143],[-72.13982834634305,4.64802853067556],[-72.12886525193773,4.64802853067556],[-72.12310260054142,4.652666762211936],[-72.11832381587976,4.6529478684624905],[-72.10300359618856,4.637627647742818],[-72.09977088973415,4.631162233805583],[-72.08810503278784,4.627367316906941],[-72.0854345367776,4.626945659588046],[-72.07601752057951,4.633832730844233],[-72.06927100347701,4.632848863081165],[-72.06421111359327,4.627367316906941],[-72.06393000837119,4.619918035206581],[-72.05858901532224,4.618934168471981],[-72.04959365644305,4.611625439896898],[-72.04832868448636,4.606846655235188],[-72.04622039686342,4.606846655235188],[-72.03975498292613,4.615279803670205],[-72.03497619826442,4.614998698448119],[-72.03104073029749,4.6097982574959815],[-72.02808912700823,4.597429639037159],[-72.02598084144216,4.594759141998452],[-72.01740713885346,4.588996490602142],[-72.0060223881577,4.587731518645398],[-72.00321133902219,4.582249972471232],[-71.9971675834322,4.576206215852835],[-71.99252935086736,4.576627873171731],[-71.99154548516117,4.5780333982536945],[-71.99084272159178,4.584920469509882],[-71.99309156131153,4.588996490602142],[-71.99042106427288,4.592229198085022],[-71.98718835679,4.590683120906192],[-71.98269067735043,4.576627873171731],[-71.97791189371719,4.571427431191182],[-71.97285200486186,4.574941243896092],[-71.97285200486186,4.58000113275142],[-71.96919764006009,4.585201573703557],[-71.96413775120482,4.584779916384662],[-71.96160780626292,4.580141684848229],[-71.96160780626292,4.572692404176337],[-71.95964007073678,4.5676325142925975],[-71.95626681321397,4.565102570379111],[-71.9526124484122,4.565664779794872],[-71.94474151042135,4.572973508369955],[-71.94024382995337,4.570303011331248],[-71.94684979701589,4.550204008006858],[-71.94333598533939,4.548657930828028],[-71.93026460433953,4.551328427866736],[-71.92481136090345,4.550032581037158],[-71.92829686984186,4.541770859571841],[-71.93152957629627,4.539381465698341],[-71.93026460433953,4.533899920552585],[-71.92632913534413,4.5326349485958985],[-71.92197200800138,4.541068097030859],[-71.91916095886586,4.54345748884748],[-71.91634990973034,4.543035831528584],[-71.90665178831017,4.522655722982108],[-71.90285687141159,4.522234064634745],[-71.90145134735809,4.524764008548175],[-71.90608957889447,4.536570417591292],[-71.90327852975895,4.539662571948895],[-71.89821863987521,4.54092754493405],[-71.88964494037185,4.538397599992152],[-71.87952516060432,4.540084229267791],[-71.87348140501439,4.535305445634549],[-71.86411418291772,4.536856874828231],[-71.84948304953895,4.530768378903417],[-71.86690178356383,4.506151851312552],[-71.87468403484252,4.498919273763761],[-71.88181079182675,4.495913071489667],[-71.889737464203,4.496019450498466],[-71.89819111052583,4.4896339701990655],[-71.90132746631446,4.48447837448299],[-71.90265467344176,4.472995664637267],[-71.90485220827804,4.467460485185711],[-71.91864695769323,4.452590199840472],[-71.93199112278671,4.447368824940895],[-71.93985672007551,4.434227896544201],[-71.95542105705363,4.423090829773969],[-71.9567720798243,4.417793413891388],[-71.95513896966895,4.41347809890766],[-71.95685607375327,4.4112158812076245],[-71.96474445412923,4.407573919422589],[-71.97470886708538,4.393251445297835],[-71.9864359657268,4.386742773011349],[-72.00989738370453,4.384842162899929],[-72.0282772137183,4.385979153412734],[-72.0347853419587,4.384458418086069],[-72.05098311930982,4.376454785299245],[-72.05508026563979,4.3762682032005955],[-72.06273997182171,4.38052134163496],[-72.06629587970741,4.384509177894984],[-72.07017066750888,4.395511051782364],[-72.07036171304804,4.406518233461554],[-72.08461396306075,4.418768294095287],[-72.10828877771888,4.42595865099338],[-72.11494149057927,4.429560441813578],[-72.1226862592419,4.430534529088334],[-72.14287364897325,4.44002683550633],[-72.15856042614695,4.4416801093057074],[-72.1634741311542,4.438927265902976],[-72.18162072171754,4.4349815001410775],[-72.18400263778551,4.442500541097502],[-72.1882654404942,4.448292239824298],[-72.1892661993972,4.457919143656909],[-72.19708586438628,4.463587629827714],[-72.20217776557189,4.47051205103088],[-72.20990665508202,4.473645527180452],[-72.23150445396885,4.477357285245432],[-72.24147861861701,4.484024653411666],[-72.24874044712794,4.492557524775464],[-72.25080992441559,4.500602469069804],[-72.25244176650136,4.526092471403786],[-72.25157262047281,4.5329938853193426],[-72.24871103572877,4.539000264222807],[-72.24871169187509,4.543946305519739],[-72.25141060889439,4.547946352477766],[-72.2571960917146,4.551911659676023],[-72.25991050427729,4.562034746914662],[-72.26804622199364,4.566470197354306],[-72.2707869194902,4.570454810475496],[-72.27515845325581,4.597415695413474],[-72.28319141310948,4.619504126173638],[-72.28451809984483,4.6371202676831444],[-72.2916224347253,4.653656492097355],[-72.29531342442209,4.667638680303753],[-72.3033263152484,4.674221032269202],[-72.32057639395623,4.675117289071011],[-72.33681541905145,4.681823851181605],[-72.34136696728172,4.689117649856655],[-72.3425536325966,4.70156585742518],[-72.34591088858224,4.7121455402319725],[-72.34575384438119,4.7164813664732606],[-72.34226624256229,4.721000798500597],[-72.34153883236792,4.725534802529921],[-72.34688204788114,4.732671810000795],[-72.3647085758198,4.736431716659126],[-72.3808631411016,4.747250552460798],[-72.39365586868632,4.7535217080044845],[-72.40102394148005,4.755426406174877],[-72.41109845846387,4.755583978995389],[-72.41449607464773,4.758301104589464],[-72.41203058528384,4.761980299078971],[-72.4140683598024,4.765036312938037],[-72.4236243319545,4.769962315032444],[-72.43422446225543,4.771277125313645],[-72.4388381448689,4.776842152223992],[-72.4403597584855,4.783670255671495],[-72.44307460916474,4.787091228813381],[-72.45868468818071,4.795563698719661],[-72.46163428806392,4.7952861282544745],[-72.46102037987123,4.80440449502953],[-72.47217020549931,4.8101939579223085],[-72.4731810986749,4.812967488446304],[-72.47120567451248,4.817843354996398],[-72.47223013181645,4.819897908554651],[-72.47918181703079,4.820298953828626],[-72.48334438567474,4.8285837926248405],[-72.48948480149164,4.829713559357401],[-72.48864096029126,4.833414060090547],[-72.49390186337911,4.836479166409902],[-72.49686431365154,4.84785485241332],[-72.49199609562845,4.849488696876676],[-72.49323263217798,4.856380328246985],[-72.48930279287691,4.861947905694819],[-72.4838554434449,4.857976250949378],[-72.47885834614755,4.86132935305568],[-72.46305731518066,4.8575226964857166],[-72.45794514647838,4.853872030991738],[-72.446737597457,4.854999181366509],[-72.43555184627485,4.851320100005694],[-72.4262062872914,4.8580445107361925],[-72.42199443876729,4.864054304068873],[-72.41087728470114,4.857279605584495],[-72.4085968676822,4.851547618230313]]]}}]}