{"type":"FeatureCollection","features":[{"type":"Feature","properties":{"code":"855038"},"geometry":{"type":"Polygon","coordinates":[[[-72.91223183854959,4.576060620273893],[-72.9015521458785,4.577157050042217],[-72.89225160079565,4.572761404441792],[-72.88494816252887,4.5758106460068575],[-72.87891022586672,4.570035143192854],[-72.8659164819926,4.563387142656097],[-72.85190753371188,4.564530626754959],[-72.84496528137237,4.561103051012083],[-72.83950594852809,4.562817242547226],[-72.83405024711436,4.557020207232199],[-72.82868549910012,4.557424727613409],[-72.81871533200803,4.562051644225221],[-72.80923118833834,4.55404948931033],[-72.77757075817783,4.539207388432317],[-72.76518932326832,4.542198004660065],[-72.75437863787363,4.536378000109778],[-72.75037570921967,4.527872806191056],[-72.74468798603152,4.526497027780465],[-72.74527829558218,4.519629470192626],[-72.74885693513284,4.518404830666157],[-72.75161094890314,4.514878924505638],[-72.75342742727429,4.508605209168536],[-72.75181780468915,4.500819908557787],[-72.74823894196646,4.501603304077548],[-72.74777376301705,4.493631388458027],[-72.74450029424338,4.491836459042986],[-72.74639330519301,4.487412825407887],[-72.74195253359176,4.485427611501109],[-72.74455641120943,4.481674198428834],[-72.75079146739228,4.479888413924641],[-72.75567680281267,4.480550219770748],[-72.74402544690588,4.473296019218026],[-72.75632163112965,4.4625173153003175],[-72.77225945112218,4.452166709837002],[-72.7922430940493,4.447270442072693],[-72.7979368140858,4.444479960759111],[-72.79265860950949,4.441020935244012],[-72.79131922150901,4.438484056542677],[-72.79205479753699,4.4314086198685345],[-72.78655200682567,4.428674355279895],[-72.78403178272248,4.421411637166159],[-72.77557941783903,4.4098076677768745],[-72.77112397139149,4.406646380484744],[-72.76158919955344,4.405962806624245],[-72.75783278548585,4.4035879847527895],[-72.76535508969039,4.391500738911077],[-72.78851429572023,4.379747900410337],[-72.79399955971417,4.373837416572599],[-72.79726764253434,4.374339004444096],[-72.80055621604328,4.378366139549655],[-72.80032706053811,4.382690682748091],[-72.7897679969754,4.388903894811847],[-72.78738020130157,4.3959708365507595],[-72.78936315880543,4.398440179488773],[-72.7929872236337,4.399224530431695],[-72.80100666872426,4.395484160067383],[-72.80473752702369,4.3957092398548525],[-72.80655350660021,4.397097306096612],[-72.80683496354965,4.405054919166048],[-72.80888706941471,4.408623951006689],[-72.82380334156716,4.415999114911642],[-72.82384160785637,4.42068748096392],[-72.81568559074157,4.421143147848454],[-72.81248903404168,4.423113680738254],[-72.81309130129353,4.4298078305761805],[-72.81724233389775,4.432015282683665],[-72.8251617238725,4.4284016688882275],[-72.83608772132771,4.4346748514921615],[-72.84210645799652,4.432412856964106],[-72.84602097658939,4.438133359700657],[-72.84442639908985,4.447704015955026],[-72.85561941313307,4.455535353766663],[-72.86936002430559,4.4501493087647646],[-72.87341840349484,4.459673461933789],[-72.88298667273415,4.467074647491302],[-72.88211629463143,4.4725860709491485],[-72.88950178101396,4.481809964154138],[-72.90054951212477,4.488925254004357],[-72.90254815954768,4.4960405438545195],[-72.90732445023627,4.4999325909783465],[-72.90969707226918,4.505619963467609],[-72.92335462025318,4.519832715116934],[-72.93640164567734,4.520863817188058],[-72.93856816063038,4.525292414086721],[-72.93747748499794,4.53139527426822],[-72.94220020514416,4.53596916952597],[-72.94714332669275,4.547280901831357],[-72.9520418241205,4.549741635677094],[-72.94996709971912,4.5585582111372105],[-72.95066853556926,4.561569530941313],[-72.95611607629161,4.565887422173546],[-72.96102508337344,4.566755752647168],[-72.96278956986151,4.572732357111306],[-72.94240266536684,4.578674628050351],[-72.93057491614144,4.585001938612493],[-72.91223183854959,4.576060620273893]]]}}]}