{"type":"FeatureCollection","features":[{"type":"Feature","properties":{"code":"855058"},"geometry":{"type":"Polygon","coordinates":[[[-72.86003516169939,4.718885976153842],[-72.86264417741586,4.712312087241912],[-72.86994671168168,4.705193712064158],[-72.87868251635177,4.702306685709118],[-72.88460323216407,4.702798325456058],[-72.88987458217099,4.707596897351834],[-72.89516177019271,4.709743034744804],[-72.95024063149049,4.685766841177156],[-72.98548971411805,4.661849644214669],[-72.9929589434895,4.6676116260948675],[-72.9960491396925,4.665831863121639],[-73.00068815901591,4.658874813551165],[-73.0101034340608,4.662744855090409],[-73.01928890568172,4.6622191553840935],[-73.02175315680086,4.665436012510838],[-73.02680386372134,4.666263575523033],[-73.02815429410919,4.670135399353171],[-73.04094946013112,4.677664659942877],[-73.04560363561188,4.6847330672124485],[-73.04623696594155,4.689906362424267],[-73.05034876757742,4.692818764570006],[-73.05334731001165,4.704414548585305],[-73.05313379300344,4.717102438796587],[-73.04805263492841,4.727426624599957],[-73.05117539984917,4.7350053100802825],[-73.04615179958813,4.74512154583482],[-73.04490148602264,4.751049275625178],[-73.04582308056274,4.7577945472837655],[-73.0535785511982,4.768286522455639],[-73.05495873339964,4.774276962556996],[-73.06020446696033,4.77864793170761],[-73.06079710901861,4.783937601361117],[-73.0637861044209,4.789980153673298],[-73.07214407473623,4.795674091739613],[-73.07018429421299,4.8021721299304545],[-73.07769608979186,4.808813597800338],[-73.07490658447023,4.819463944892561],[-73.05020409245458,4.8261782748295445],[-73.04228906307605,4.837828156978219],[-73.03865244096465,4.833311671438707],[-73.03963164885465,4.828833129257532],[-73.03826787133983,4.824530853896533],[-73.0286493318302,4.816455547922146],[-73.02596345854744,4.816171005645174],[-73.02363174692948,4.819909652339788],[-73.02027344913154,4.8215764388454545],[-73.01659393993862,4.830091102662891],[-72.99553646932446,4.838311819096589],[-72.98915458651703,4.8427242663623815],[-72.98598453380924,4.842111895691289],[-72.98142164082958,4.838528630206156],[-72.98108636445471,4.836129290265035],[-72.97811894474796,4.837389124122922],[-72.97489855389273,4.836221494250651],[-72.96728461751667,4.829275992032763],[-72.96683484566461,4.821139190337931],[-72.9638669014522,4.813093749305892],[-72.96469816068685,4.809056463472643],[-72.95969306930579,4.808080791368013],[-72.96140929510022,4.803013704443515],[-72.95847213731463,4.798938598665131],[-72.96186026508781,4.790367887815705],[-72.95889256050253,4.785007744138625],[-72.95963236548613,4.782457612926976],[-72.95835024939265,4.782506925717314],[-72.95886164449195,4.781160606014282],[-72.95269659233446,4.771795548789157],[-72.94758525872749,4.767774486636654],[-72.94661612648883,4.7659013451964825],[-72.94853120267271,4.765932184073847],[-72.94815736895936,4.7644482330507],[-72.94257300630119,4.758338962587004],[-72.94009310023006,4.759281935361798],[-72.93630805432281,4.757873689020869],[-72.93099106100846,4.752318019909012],[-72.93077724266658,4.75014945424158],[-72.92217900246783,4.745181594536632],[-72.9206757496355,4.746154388030675],[-72.91361024668765,4.742866711323643],[-72.91122195119078,4.739599945938323],[-72.90316602415879,4.7365393915055165],[-72.89976280810538,4.732631188578182],[-72.89222441391769,4.728714205837036],[-72.89027876625153,4.729517788655016],[-72.88782199396638,4.727522259469822],[-72.88531987353684,4.73029355930197],[-72.87720981854665,4.728080824085225],[-72.86844286646647,4.724716951100447],[-72.86003516169939,4.718885976153842]]]}}]}