{"type":"FeatureCollection","features":[{"type":"Feature","properties":{"code":"855030"},"geometry":{"type":"Polygon","coordinates":[[[-72.92049311778459,4.624141769440939],[-72.91886620502385,4.622827373622101],[-72.92018363886189,4.618079097707721],[-72.91905850526285,4.613005300195823],[-72.92264413822267,4.60884728755218],[-72.9234446933059,4.603827752724442],[-72.92014923745961,4.598712822653965],[-72.92260618972216,4.597545947658489],[-72.92836837009179,4.598528480503148],[-72.93062967556335,4.602780032050703],[-72.93377115196728,4.603190545166456],[-72.93665110366624,4.605807830589242],[-72.93366722887919,4.6114251064933],[-72.9340939625904,4.617367533755669],[-72.92049311778459,4.624141769440939]]]}}]}