{"type":"FeatureCollection","features":[{"type":"Feature","properties":{"code":"855017"},"geometry":{"type":"Polygon","coordinates":[[[-72.85566975950815,4.995450690338487],[-72.84113174748563,4.984686598532107],[-72.83716518147378,4.975915588217731],[-72.84842205665524,4.946105710785957],[-72.85488433898502,4.9373503626227375],[-72.86405660848936,4.930679621164984],[-72.87489656541504,4.915461990671929],[-72.88881726921386,4.904994661096566],[-72.8938664859212,4.89232285572632],[-72.89468150193466,4.8849980752203805],[-72.89727734124557,4.883356699472472],[-72.90216573114026,4.8729588689571415],[-72.91094289154086,4.863816157919246],[-72.91306834078415,4.858988674447403],[-72.91179410358876,4.853549168946472],[-72.91241948817151,4.840416146187408],[-72.91450409384862,4.8331200222037864],[-72.91096026193497,4.8172770112417425],[-72.91075180177864,4.790177122012949],[-72.90574874465693,4.768497211246938],[-72.90241337392808,4.761201088291784],[-72.89130116358513,4.748521479099679],[-72.88594498044017,4.739312716341033],[-72.87927423898242,4.734518120404061],[-72.86301430565084,4.727430456576826],[-72.85806873229524,4.718907947799778],[-72.8595925838028,4.718825299073671],[-72.86844286646647,4.724716951100447],[-72.87720981854665,4.728080824085225],[-72.88531987353684,4.73029355930197],[-72.88782199396638,4.727522259469822],[-72.89027876625153,4.729517788655016],[-72.89222441391769,4.728714205837036],[-72.89976280810538,4.732631188578182],[-72.90316602415879,4.7365393915055165],[-72.91122195119078,4.739599945938323],[-72.91361024668765,4.742866711323643],[-72.9206757496355,4.746154388030675],[-72.92217900246783,4.745181594536632],[-72.93077724266658,4.75014945424158],[-72.93099106100846,4.752318019909012],[-72.93630805432281,4.757873689020869],[-72.94009310023006,4.759281935361798],[-72.94257300630119,4.758338962587004],[-72.94815736895936,4.7644482330507],[-72.94853120267271,4.765932184073847],[-72.94661612648883,4.7659013451964825],[-72.94758525872749,4.767774486636654],[-72.95269659233446,4.771795548789157],[-72.95886164449195,4.781160606014282],[-72.95835024939265,4.782506925717314],[-72.95963236548613,4.782457612926976],[-72.95889256050253,4.785007744138625],[-72.96186026508781,4.790367887815705],[-72.95847213731463,4.798938598665131],[-72.96140929510022,4.803013704443515],[-72.95969306930579,4.808080791368013],[-72.96469816068685,4.809056463472643],[-72.9638669014522,4.813093749305892],[-72.96683484566461,4.821139190337931],[-72.96728461751667,4.829275992032763],[-72.97412863508373,4.835780594772189],[-72.97811894474796,4.837389124122922],[-72.98108636445471,4.836129290265035],[-72.98142164082958,4.838528630206156],[-72.98975402863726,4.843759568592702],[-72.98002601656373,4.862653822468985],[-72.97618853037238,4.874328393408746],[-72.96035625635022,4.901116979257836],[-72.96683382133585,4.905341062134141],[-72.96755866659464,4.91533632219523],[-72.96582694834211,4.914557572150329],[-72.96077562024232,4.918540824642037],[-72.95741877049147,4.9246516028024985],[-72.95447385824929,4.925654727123288],[-72.95237522153087,4.929961019580787],[-72.94998003546914,4.930375663950144],[-72.94134351046915,4.945908997500055],[-72.9408162146201,4.956390832228749],[-72.94345632735298,4.963043510122077],[-72.95477116246946,4.971052572056919],[-72.9620800124008,4.973806224843884],[-72.96498671080428,4.976890854087571],[-72.97427734787192,4.974599857480541],[-72.97059069203192,4.979640397218304],[-72.96879054224263,4.98796891499677],[-72.96173140535399,4.994012889644921],[-72.95711163538925,5.003552552755593],[-72.9481565410631,5.014909865633399],[-72.92490857118793,5.030890068770589],[-72.93027113581871,5.040925086362563],[-72.92949715877552,5.045888455887507],[-72.91085632650561,5.062955250711809],[-72.90332611872032,5.067607911296761],[-72.90285869056714,5.065582990252835],[-72.90612385261056,5.064874679264449],[-72.90811532253315,5.0617444272821785],[-72.90311854713832,5.049648567205907],[-72.90401871305016,5.03919418572184],[-72.90005062494339,5.034808844087024],[-72.89727363885248,5.034251167017487],[-72.89798393987718,5.0297172339506915],[-72.89128433620863,5.0190546586768505],[-72.88930143835438,5.011934044579732],[-72.8828007457534,5.010999982230999],[-72.88175538432682,5.0089146782414105],[-72.87292077512706,5.008667874662649],[-72.87125644557062,5.00614686688624],[-72.86551195646916,5.005262083389198],[-72.86292534228761,5.003019069796267],[-72.86101749502626,5.003619011739602],[-72.8575928760556,5.001169874611719],[-72.85566975950815,4.995450690338487]]]}}]}