{"type":"FeatureCollection","features":[{"type":"Feature","properties":{"code":"855057"},"geometry":{"type":"Polygon","coordinates":[[[-72.97401642274895,4.974295417926157],[-72.96498671080428,4.976890854087571],[-72.9620800124008,4.973806224843884],[-72.95477116246946,4.971052572056919],[-72.94345632735298,4.963043510122077],[-72.9408162146201,4.956390832228749],[-72.94134351046915,4.945908997500055],[-72.94998003546914,4.930375663950144],[-72.95237522153087,4.929961019580787],[-72.95447385824929,4.925654727123288],[-72.95741877049147,4.9246516028024985],[-72.96077562024232,4.918540824642037],[-72.96582694834211,4.914557572150329],[-72.96755866659464,4.91533632219523],[-72.96683382133585,4.905341062134141],[-72.96035625635022,4.901116979257836],[-72.97618853037238,4.874328393408746],[-72.98002601656373,4.862653822468985],[-72.98941793259365,4.84537686952973],[-72.98915458651703,4.8427242663623815],[-72.99553646932446,4.838311819096589],[-73.01659393993862,4.830091102662891],[-73.02027344913154,4.8215764388454545],[-73.02363174692948,4.819909652339788],[-73.02596345854744,4.816171005645174],[-73.0286493318302,4.816455547922146],[-73.03826787133983,4.824530853896533],[-73.03963164885465,4.828833129257532],[-73.03865244096465,4.833311671438707],[-73.04228906307605,4.837828156978219],[-73.05020409245458,4.8261782748295445],[-73.05817688327869,4.824939848002657],[-73.07231773136931,4.819515074940853],[-73.07390592326925,4.8207586532362825],[-73.07174480249722,4.825788396384496],[-73.06918821883721,4.827398525991782],[-73.06808735751008,4.838838488624162],[-73.06603520845044,4.843643299052246],[-73.06098835304715,4.849110398694393],[-73.06157867802449,4.855175949038141],[-73.05190588200134,4.860986295484736],[-73.05061660383416,4.8641409596070275],[-73.05188747699401,4.870134088057114],[-73.04572504222278,4.8724906838702395],[-73.04150199293116,4.878334040236325],[-73.04191819539096,4.889756977002833],[-73.0481251164718,4.904054498026767],[-73.04905581889886,4.922382620007511],[-73.04279387305792,4.93696138406483],[-73.03920610093769,4.938304635923885],[-73.04108085291887,4.943582189496055],[-73.03906638393619,4.946225930574201],[-73.03864361589939,4.954264865678908],[-73.03551859149042,4.958665976422822],[-73.03564915741038,4.963057520594475],[-73.0335183232421,4.963683095439137],[-73.02928993119161,4.970231446066464],[-73.03087912376611,4.981454461834858],[-73.02354636254626,4.988378646496187],[-73.0214117879325,4.9947912612230425],[-73.01891377921618,4.996606800626182],[-73.01846664326229,4.999937852924859],[-73.0198442924098,5.001724070403384],[-73.01631649905727,5.00267392037324],[-73.01078575733516,4.99757852659684],[-73.00429543966226,4.996998299896632],[-73.00015442717353,4.99116768696183],[-72.99779445395512,4.991963394995423],[-72.98896165481426,4.989161757137424],[-72.98858400249384,4.986511443283177],[-72.97945214975203,4.980660003358878],[-72.97401642274895,4.974295417926157]],[[-73.0369898515329,4.8542855553871505],[-73.038120735154,4.858385474398233],[-73.04181949576241,4.855870964321639],[-73.04089559236883,4.854960703218126],[-73.04277392950064,4.850892934348622],[-73.041290523552,4.8476322686559],[-73.03992820951089,4.8514989225054705],[-73.03694074237416,4.850427400586568],[-73.03530817215108,4.854269793477158],[-73.0369898515329,4.8542855553871505]]]}}]}