{"type":"FeatureCollection","features":[{"type":"Feature","properties":{"code":"855018"},"geometry":{"type":"Polygon","coordinates":[[[-72.73432817292235,4.854903676080426],[-72.7324521364165,4.842535303419368],[-72.73460369370156,4.840936580268021],[-72.73297105662971,4.8325137543105825],[-72.72937711488282,4.826937621249499],[-72.72946059150519,4.818339673128378],[-72.72728645887838,4.813737100779463],[-72.72901108601974,4.809223649145395],[-72.7230293054044,4.805221491823318],[-72.72265512510597,4.799052284758034],[-72.7179561085029,4.795272475680065],[-72.72140461202258,4.788849263881502],[-72.71522442016283,4.789006464405816],[-72.71488126694669,4.787094271974809],[-72.71805534497844,4.782708619750338],[-72.7117376410979,4.777264939801228],[-72.71187515209022,4.772117228125467],[-72.70827407500911,4.770892383938929],[-72.70857872025198,4.768931225302708],[-72.71031878842933,4.770215618367956],[-72.71160014656067,4.7693485755043525],[-72.70860237237304,4.762691648086559],[-72.71148615090658,4.76036325422416],[-72.70770160379391,4.756267151763325],[-72.69834784195297,4.7522864498090485],[-72.69831758106028,4.749947190451451],[-72.70294827719835,4.745963403169583],[-72.70275802458838,4.744213125643398],[-72.69847029140459,4.740568027108736],[-72.69200054052516,4.739314817449099],[-72.6908404151979,4.737030910924716],[-72.6959594261283,4.733275841031514],[-72.69323550767143,4.729490362149932],[-72.69405196453283,4.726180369268661],[-72.69917915363811,4.726201919253185],[-72.69946900370695,4.722604384128147],[-72.70471883046883,4.719262534211396],[-72.70395552865898,4.712786907839927],[-72.70709169315728,4.713156435464441],[-72.70891465174475,4.708300201882025],[-72.70652694246007,4.7065099950750096],[-72.71324907004822,4.702993488879088],[-72.7104939959537,4.700139756293709],[-72.71154754378273,4.695885447491776],[-72.71344664619738,4.695827025786059],[-72.71852822696229,4.690820048241449],[-72.72991186282638,4.687381332409188],[-72.73046114780499,4.683464443256355],[-72.73414619207557,4.680662753976208],[-72.73422249942513,4.67727719319555],[-72.73768665995368,4.677469185930249],[-72.73676330677688,4.675580743322314],[-72.73798419660187,4.673829215209992],[-72.74151643591148,4.675526579368579],[-72.74623234056907,4.6701541488887415],[-72.75775277265791,4.668040702598091],[-72.75771430890774,4.659116913033813],[-72.75656955468236,4.659345293093281],[-72.75827147689819,4.6580935479358345],[-72.75956097103835,4.658751986661116],[-72.75790574114126,4.654916748645121],[-72.75951476928662,4.655753211798924],[-72.7604080065812,4.654493721440815],[-72.7574016592967,4.652242583151974],[-72.7588361761733,4.651231022517209],[-72.7603624517198,4.6523526851227075],[-72.75952266155451,4.6490958976867205],[-72.76088815245458,4.648261061529013],[-72.75747052997838,4.649140074435081],[-72.75682233659745,4.641605695286955],[-72.76374245376866,4.639596370573827],[-72.76801411856655,4.64155713325971],[-72.77220289192587,4.6408569130285855],[-72.77271464286633,4.642465423867407],[-72.76902876350044,4.642851831318978],[-72.76838867013277,4.6448774661020025],[-72.77318761946691,4.646157749510962],[-72.77372135953681,4.648659628256496],[-72.76850987722582,4.652410872343523],[-72.76774748250227,4.655381022565166],[-72.77244770546838,4.653449427537566],[-72.78235834116526,4.653221986446113],[-72.78517355035075,4.655359110568838],[-72.7795122612207,4.655646996312441],[-72.77527009832488,4.658987595643055],[-72.7764299038065,4.659754826103324],[-72.77858883810978,4.658016792185322],[-72.78129743482998,4.659940709889497],[-72.78403645596529,4.6594106660419925],[-72.78360209840969,4.66287361197999],[-72.78727954249007,4.663466357910977],[-72.78431094315977,4.668792682284277],[-72.78263289726539,4.668700295235908],[-72.78393020654022,4.665129885282283],[-72.78170197989385,4.664120548140261],[-72.77824549668867,4.668307925903093],[-72.77952712427197,4.672641956483744],[-72.77840645308504,4.683598956338699],[-72.78161791705924,4.684671744270361],[-72.783975253351,4.682890575416195],[-72.78556968481172,4.684983635919252],[-72.7919405612273,4.686679853364467],[-72.79681592281219,4.685166012716422],[-72.79764016806877,4.6877690223286095],[-72.80093640244604,4.688099412573081],[-72.80772616864175,4.693026665253626],[-72.81016043346233,4.699146101871634],[-72.81964399400516,4.699460560513046],[-72.82252018160449,4.702930683951365],[-72.83063067676807,4.703928508707861],[-72.84408942475636,4.712540915702277],[-72.85490803430065,4.71674438756213],[-72.85806873229524,4.718907947799778],[-72.86301430565084,4.727430456576826],[-72.87927423898242,4.734518120404061],[-72.88594498044017,4.739312716341033],[-72.89130116358513,4.748521479099679],[-72.90241337392808,4.761201088291784],[-72.90574874465693,4.768497211246938],[-72.91075180177864,4.790177122012949],[-72.91096026193497,4.8172770112417425],[-72.91450409384862,4.8331200222037864],[-72.91241948817151,4.840416146187408],[-72.91179410358876,4.853549168946472],[-72.91306834078415,4.858988674447403],[-72.91094289154086,4.863816157919246],[-72.90216573114026,4.8729588689571415],[-72.90262348679153,4.864818578785332],[-72.90109329596436,4.867108836970715],[-72.89725567710394,4.866074433599124],[-72.89682201991769,4.871062225548542],[-72.89533959716016,4.870790967663595],[-72.89552609595495,4.872931857942831],[-72.89174008639702,4.875274854660518],[-72.88805584328321,4.874686331514511],[-72.88900027233257,4.870814681491197],[-72.88459624595407,4.8719442908720225],[-72.88796796184153,4.87517896165167],[-72.88559600315403,4.876668341822835],[-72.88497534323619,4.880534112240298],[-72.88635900465869,4.882177256909358],[-72.8842914248475,4.884772021497838],[-72.89147928571555,4.883443920654031],[-72.89009547105519,4.886546436569972],[-72.89131675991592,4.887099824005816],[-72.89161286702898,4.891795488914681],[-72.89273478983046,4.889641599121944],[-72.8938664859212,4.89232285572632],[-72.88881726921386,4.904994661096566],[-72.87489656541504,4.915461990671929],[-72.86405660848936,4.930679621164984],[-72.85488433898502,4.9373503626227375],[-72.84842205665524,4.946105710785957],[-72.83716518147378,4.975915588217731],[-72.84113174748563,4.984686598532107],[-72.85318437698061,4.9939618686116205],[-72.85200747981276,4.9959936421680595],[-72.85540225955214,5.001737039063528],[-72.83837280850406,5.005206032243507],[-72.83645838640967,5.003326412643901],[-72.82581518287913,4.984817576857552],[-72.82478538178788,4.9567980306742925],[-72.8228773607197,4.952803445774464],[-72.8239612136644,4.946310793537066],[-72.82119872141396,4.944313730944032],[-72.81224993349741,4.942458547138699],[-72.80891582261063,4.938308082234755],[-72.8054975193055,4.937554509491122],[-72.79550239808412,4.920924535342181],[-72.79098623136184,4.917521001500063],[-72.78716351257663,4.917967879314858],[-72.78475295335613,4.915307481581692],[-72.78341732636989,4.905054986449386],[-72.78216624352939,4.904121922718275],[-72.77783988307306,4.902862473497862],[-72.77217189878212,4.904379848902863],[-72.76523629840881,4.90017360127672],[-72.76209295641019,4.901264725310057],[-72.75636330876273,4.8992073733597294],[-72.75435601933731,4.8938242409070085],[-72.75648494060255,4.888916565658235],[-72.75205235540375,4.887922361019378],[-72.75012215597263,4.884613633122456],[-72.75367773681359,4.8800992507478895],[-72.75385299678857,4.876913912299017],[-72.74995376290843,4.873448727441655],[-72.75114408125114,4.8714282441271735],[-72.74947347099618,4.867319371495569],[-72.74674978702416,4.866499192700644],[-72.74514783353487,4.857873559935456],[-72.73847940401595,4.8573246544521],[-72.7361982372625,4.854380231748564],[-72.73432817292235,4.854903676080426]]]}}]}