{"type":"FeatureCollection","features":[{"type":"Feature","properties":{"code":"855010"},"geometry":{"type":"Polygon","coordinates":[[[-72.90216573114026,4.8729588689571415],[-72.89817562922133,4.881808194140888],[-72.89468150193466,4.8849980752203805],[-72.89161286702898,4.891795488914681],[-72.89131675991592,4.887099824005816],[-72.89009547105519,4.886546436569972],[-72.89147928571555,4.883443920654031],[-72.8842914248475,4.884772021497838],[-72.88635900465869,4.882177256909358],[-72.88497534323619,4.880534112240298],[-72.88559600315403,4.876668341822835],[-72.88796796184153,4.87517896165167],[-72.88459624595407,4.8719442908720225],[-72.88900027233257,4.870814681491197],[-72.88805584328321,4.874686331514511],[-72.89174008639702,4.875274854660518],[-72.89552609595495,4.872931857942831],[-72.89533959716016,4.870790967663595],[-72.89682201991769,4.871062225548542],[-72.89725567710394,4.866074433599124],[-72.90109329596436,4.867108836970715],[-72.90262348679153,4.864818578785332],[-72.90216573114026,4.8729588689571415]]]}}]}