{"type":"FeatureCollection","features":[{"type":"Feature","properties":{"code":"856019"},"geometry":{"type":"Polygon","coordinates":[[[-72.60529009276576,5.106515658644241],[-72.59305299050777,5.103828691098613],[-72.59189082166523,5.0962018230862896],[-72.58969677633439,5.092488645770686],[-72.57093180591028,5.081961449527796],[-72.5639383669581,5.0746160065832555],[-72.56282766446452,5.068641403468291],[-72.55816146340538,5.065880231737992],[-72.55319090506725,5.056057362297224],[-72.53654010187199,5.0436723700050266],[-72.52061597250628,5.038891985086821],[-72.51073302145352,5.040802369515916],[-72.50234754441459,5.0385544430530445],[-72.49273616389337,5.03545918074218],[-72.4833008352478,5.0266031130893225],[-72.47441847443349,5.016539585013788],[-72.47942211571058,5.007621471423761],[-72.48101620264305,4.997516961970803],[-72.48455621389274,4.989186073632311],[-72.48247367538511,4.9879522079480125],[-72.48127560155734,4.980667965560883],[-72.47601188567927,4.975499255145792],[-72.47521841862186,4.970506389889408],[-72.47070166568733,4.9616768128589115],[-72.46732128414322,4.960933545109356],[-72.46546025775592,4.956686110417195],[-72.45960794982614,4.954619822329789],[-72.45689938704453,4.951905873594683],[-72.4575102356207,4.949968989287186],[-72.45429804865142,4.944979820253252],[-72.45645650781427,4.937171134916525],[-72.45300827066114,4.933827148924706],[-72.45248983278748,4.924668973196617],[-72.44431826253646,4.914750822670271],[-72.44374629320123,4.90862977448279],[-72.44143480384855,4.905782363733579],[-72.43230878546115,4.903022662676165],[-72.42712835594352,4.898258582685628],[-72.42331445193918,4.898983576040109],[-72.4096488923879,4.8925859549767665],[-72.40588007838886,4.888328103190361],[-72.40454457995799,4.884043592116939],[-72.40707771924235,4.867348881625219],[-72.40063866017306,4.86382507143054],[-72.39866316401964,4.8646217935084906],[-72.39616831673561,4.860906687863121],[-72.39318474328223,4.8616731860723235],[-72.38800385610773,4.8595874151698695],[-72.38505199056567,4.856234381969159],[-72.37855092772537,4.855088111819555],[-72.37694906885275,4.8524350571659625],[-72.37747486523267,4.849389100446274],[-72.38339576102243,4.848281465796731],[-72.39287992526101,4.840659266913519],[-72.40175277401045,4.839206826340671],[-72.40853505417311,4.8427912992173106],[-72.4085968676822,4.851547618230313],[-72.41030563212621,4.8565832985771635],[-72.42109379977194,4.86383853785685],[-72.42342145212729,4.863678174871836],[-72.4262062872914,4.8580445107361925],[-72.43555184627485,4.851320100005694],[-72.45229111095335,4.857306378000146],[-72.45431375708245,4.860318558610572],[-72.45552663225499,4.8674993437941225],[-72.46527722686932,4.868538079994039],[-72.47188453090712,4.866928509859463],[-72.4726849862314,4.876594755732185],[-72.46903802827268,4.885286503981604],[-72.47048750384567,4.889205770893625],[-72.47694246777854,4.89063707491573],[-72.47600369207771,4.9002381648411415],[-72.4788727361153,4.900827541594424],[-72.48464909973569,4.897275827697342],[-72.49391865167479,4.897615973747577],[-72.49585635565091,4.899030759954428],[-72.50597390986883,4.897612847282289],[-72.50908575787219,4.910966629341772],[-72.51261131230541,4.9122048885325285],[-72.51218330435393,4.916013537195624],[-72.51658662933465,4.9152718882145905],[-72.52322378083124,4.922375141173518],[-72.5212855070979,4.926941859959413],[-72.5220568564705,4.928552162345056],[-72.5330732735635,4.930842385563324],[-72.53346991813191,4.935677877517037],[-72.53618666628756,4.938896683542396],[-72.53473658701881,4.9433126141430535],[-72.53819325122987,4.951531014524164],[-72.53661359745973,4.956894689872854],[-72.54077957024839,4.959040069303683],[-72.54158834053044,4.962527330708156],[-72.54772261654557,4.968115776283071],[-72.5512935684884,4.974269430212132],[-72.55583243190864,4.975537073034047],[-72.55983043637985,4.974370571363181],[-72.56311122766425,4.976918919255468],[-72.57010018157854,4.975484097959907],[-72.5752725727894,4.979619837623886],[-72.58011757886487,4.980093081619543],[-72.58158985398012,4.98323442535434],[-72.586328816319,4.98677757335372],[-72.61220070095743,4.990632758012339],[-72.6221039462664,4.997238854658633],[-72.63606558619125,5.0010135369507225],[-72.64167383339844,5.004031724693903],[-72.66192280523939,5.00186731187739],[-72.67284053093141,5.002392607405795],[-72.67760862596157,5.0042662826076025],[-72.68779521541194,5.013274143234014],[-72.69928470475071,5.028718589525511],[-72.70702837092296,5.033662557482273],[-72.71951077420522,5.047814484984201],[-72.72347835426137,5.050130376070854],[-72.72426405657774,5.0559710348322255],[-72.73119921163544,5.069019629659579],[-72.73271764530779,5.077493740960108],[-72.73123718379014,5.081109085624291],[-72.73307582406909,5.09113431450038],[-72.73883631573614,5.105056302823925],[-72.7388946068296,5.112057919950985],[-72.73368996880356,5.114175656903797],[-72.72111543352673,5.112626727853922],[-72.71949099211338,5.113944241910474],[-72.71779365263734,5.121249054176474],[-72.71542095758502,5.124898693284877],[-72.7129052000077,5.125784405465481],[-72.69701411141477,5.118758061494987],[-72.68567658062881,5.115959782530183],[-72.6793357686733,5.110283984133048],[-72.66847197450693,5.109091480350003],[-72.66298136364037,5.1108421075466595],[-72.65061562276367,5.109040581701265],[-72.63814896493642,5.1118090450889895],[-72.6254648614505,5.1123198364925315],[-72.61654368310178,5.106609137898545],[-72.60529009276576,5.106515658644241]]]}}]}