{"type":"FeatureCollection","features":[{"type":"Feature","properties":{"code":"940009"},"geometry":{"type":"Polygon","coordinates":[[[-68.26444207976249,3.1533801410897695],[-68.24996347263675,3.1548718157162057],[-68.24961475040442,3.1501453582098975],[-68.24466340645785,3.1444906809367694],[-68.24587919623644,3.1421152029189443],[-68.24518776198977,3.1324860169723934],[-68.24202570130888,3.121741535507965],[-68.23983224938934,3.1210786158586075],[-68.23929182238618,3.118780734857296],[-68.23566282720446,3.1161527320350615],[-68.22973738569874,3.1176228793027008],[-68.22313679019146,3.116339204090309],[-68.20962616550565,3.124743185895454],[-68.20445017885976,3.1239089657748877],[-68.19903022096577,3.1125537128673955],[-68.1972651760334,3.0959744316786555],[-68.1948892856102,3.0915435382677856],[-68.18993395233514,3.089297928885969],[-68.18413531882044,3.091569355260333],[-68.18002326315923,3.0911690833751777],[-68.1737774463823,3.0881646592782204],[-68.17221028098965,3.0846546363839025],[-68.16745547137998,3.08450335968854],[-68.16548400877815,3.0784506309375956],[-68.16053200354304,3.071049134790428],[-68.16377565982498,3.0611163536407844],[-68.15777841966167,3.053393833275152],[-68.1565269768663,3.0288860357127305],[-68.15285769347736,3.020426235189859],[-68.15376485588365,3.0136208901468535],[-68.15852663524822,3.0052518054532698],[-68.1656598014863,3.0009292687461766],[-68.17507446563633,2.9868579217725255],[-68.18743473108503,2.986165870460354],[-68.20853100689231,2.988554132018635],[-68.23782092641238,2.994848458372246],[-68.33866122306972,3.021401227493982],[-68.35646786607225,3.0284781574666795],[-68.3582537133114,3.0297170553202477],[-68.358619715435,3.032660330281942],[-68.36173256411297,3.0343140596813782],[-68.36516633416511,3.03155526262492],[-68.36649391975925,3.0333479335802167],[-68.36736415285156,3.030634495981019],[-68.36575312644237,3.0280602477923253],[-68.38135608966456,3.0201011527372543],[-68.37993726270707,3.0173417530134543],[-68.38363692937332,3.0135711731786046],[-68.38669718247246,3.0028113452949015],[-68.39332713898517,3.001613900873963],[-68.40741861360738,2.992504778768705],[-68.40809838737277,2.987400796468876],[-68.40571808801644,2.983355151454873],[-68.40758714448293,2.9815166818973466],[-68.41106546975033,2.9826635907098193],[-68.4156507220988,2.9883175305896543],[-68.422006639818,2.9840849424937232],[-68.42113657127652,2.9824762928151927],[-68.41546107318459,2.9805935724613732],[-68.41659736538492,2.9782939832170996],[-68.42186142579123,2.9781542147934488],[-68.42721804602428,2.9820134412311745],[-68.43339830781815,2.977781404380437],[-68.43554920072938,2.9792532485782317],[-68.43536724662209,2.985505830449995],[-68.4382500090544,2.9858728661583314],[-68.43944022249599,2.9846309097167136],[-68.4388834072613,2.9784239629248077],[-68.444561396241,2.9757089559223573],[-68.45164773543428,2.967798683090507],[-68.45645438060382,2.9698646431046996],[-68.46216858310146,2.9686210411551315],[-68.46482405150965,2.9723448854765593],[-68.46394629638877,2.9636098829916477],[-68.46779187436584,2.959699361954847],[-68.46943966862352,2.9597898957497932],[-68.47319344473601,2.9645256874003962],[-68.47446814575898,2.9549605713658593],[-68.47565816996712,2.954408072504407],[-68.4775809502139,2.9576719675066556],[-68.48154809009668,2.9476012454757097],[-68.48754359733431,2.949851349151402],[-68.48740854226276,2.9459895372091864],[-68.49152837500628,2.945389932594992],[-68.49133720913932,2.9424475451792205],[-68.497334155168,2.941525492982123],[-68.4991198985345,2.9395476447807027],[-68.49351919083944,2.9260784190200297],[-68.49704467533854,2.924604308134917],[-68.50389569557063,2.9166023116001725],[-68.50833572772171,2.9195890917372935],[-68.51830749918417,2.9145726093269673],[-68.52072683924689,2.9066172536888644],[-68.5298738820847,2.8990737306583014],[-68.53119422332975,2.894750239556572],[-68.5426315840026,2.8962164746288295],[-68.54405012710998,2.890560604362406],[-68.54711680797482,2.892766367767308],[-68.54688045748583,2.890283678730725],[-68.55453356209523,2.890326908283555],[-68.55576205211042,2.887383313476221],[-68.5590581558755,2.8859103061099063],[-68.55937055454655,2.88356584283315],[-68.56422264350562,2.8822298024130646],[-68.56416902256956,2.8785051744184216],[-68.56906826150436,2.8806174400570512],[-68.57254662996633,2.880341308382981],[-68.57405706852654,2.882271075868232],[-68.57775821615007,2.878269873969259],[-68.59149065017607,2.880196119038885],[-68.59480959770639,2.872819404242648],[-68.59178910008126,2.871175988064749],[-68.59187988378773,2.8695150102024627],[-68.5949315812735,2.8669766083777404],[-68.59757178039558,2.8599104400275337],[-68.60718567545882,2.8579211411471306],[-68.61180834768834,2.8509599058155572],[-68.62062816068556,2.843432307188948],[-68.6231001333511,2.843247182393384],[-68.6268929439994,2.84586528028575],[-68.62858668804034,2.842922255235578],[-68.63584935576034,2.8395195472327828],[-68.63700233649746,2.842092450218672],[-68.64088494766116,2.8430094784740163],[-68.64252520240672,2.83763256809857],[-68.6457763889448,2.8359768640895027],[-68.65043751875385,2.835331600741256],[-68.65812035152271,2.8371195758280123],[-68.66305639944369,2.8339462907254074],[-68.66630878308882,2.8356457580489973],[-68.67160922259234,2.8354591934339055],[-68.67572175750774,2.833205282464064],[-68.68345141217912,2.8324662364710207],[-68.68166452209925,2.826079038672617],[-68.68248295151346,2.8224022322266364],[-68.6844044492924,2.8241477274951308],[-68.68596138888108,2.8224460911862934],[-68.68590785639111,2.817805182613995],[-68.69221757338704,2.818674803782983],[-68.69120997739816,2.8150901262462753],[-68.69390308885937,2.813113490578587],[-68.69477376006819,2.8102178818707557],[-68.69847367664602,2.809572773817365],[-68.69980165921896,2.8050681791302736],[-68.70345621839635,2.8055263111915565],[-68.7056911844266,2.800194161719787],[-68.70880409995334,2.8023525519769805],[-68.71045230764486,2.800743454925964],[-68.71172649753191,2.7991798880536862],[-68.71007785172384,2.79352754225971],[-68.7127716800095,2.7940779379562173],[-68.71528932683572,2.789572483491213],[-68.7245206464242,2.789936237439406],[-68.72985276092885,2.787517836344705],[-68.73078549761522,2.789414076603805],[-68.73475953011979,2.788813841554429],[-68.73558374966535,2.7906983308293434],[-68.74184797864865,2.788856425245342],[-68.74387801002348,2.784496451173709],[-68.74804398281219,2.7818057586092664],[-68.75062177398536,2.7835497132708724],[-68.75675610862169,2.78049200145324],[-68.75982377987668,2.7768602932401336],[-68.76926933432622,2.777012349494953],[-68.77026063567183,2.772866872537236],[-68.77578476039474,2.7693485398274333],[-68.77489191905056,2.761481220925816],[-68.78140897314358,2.7543951491275607],[-68.78010239348794,2.7494136234784037],[-68.78808352909459,2.743322714827457],[-68.79801761225252,2.74366023217857],[-68.8058682868404,2.7359311194963993],[-68.81240062667456,2.7339930277973963],[-68.81139240950642,2.7356950271464484],[-68.81253587097956,2.7363366456943936],[-68.82189826659544,2.7292487226995945],[-68.82523327325566,2.7284174891760813],[-68.83053415293261,2.730893145722689],[-68.83190040179477,2.7271692170689903],[-68.83989652180901,2.7240811322584477],[-68.84015750041101,2.721721288623826],[-68.85717849560467,2.72956886759971],[-68.85717849560467,2.7380608881982766],[-68.86099990621096,2.7423068984975316],[-68.86354751156779,2.7524973230100613],[-68.86015070271128,2.7533465265097448],[-68.85972610301832,2.7563187325879426],[-68.86864272433826,2.7618385450513756],[-68.86906732505969,2.766933756793435],[-68.87586094174418,2.7677829602931183],[-68.87840854812941,2.770755167399784],[-68.87968235132206,2.780520990162472],[-68.87798394637957,2.783493197269138],[-68.8962417907693,2.7924098175606105],[-68.89496798654824,2.7966558288883334],[-68.8962417907693,2.800052636716373],[-68.90346000714675,2.8017510406303927],[-68.90728141569622,2.8076954558721354],[-68.91449963413055,2.8076954558721354],[-68.91662263876594,2.811092263700175],[-68.91534883660177,2.8149136732779994],[-68.91110282527404,2.8157628747208037],[-68.91110282630251,2.825104097790586],[-68.91407503443759,2.82765170314741],[-68.92129325081504,2.8285009056186254],[-68.92214245328631,2.83614372374592],[-68.9263884625571,2.8391159308525857],[-68.93318207924165,2.8395405315739595],[-68.93870189273355,2.8420881379591947],[-68.94124949809031,2.848457153922311],[-68.94804311477486,2.852703163193155],[-68.9624795495867,2.872234810775467],[-68.96545175669331,2.8739332146894867],[-68.96817808067726,2.8728106100306263],[-68.9734895348002,2.8791201532197874],[-68.9672260380679,2.888650353630851],[-68.96071978982042,2.89219921771371],[-68.96071979084888,2.9129009192073454],[-68.95759719562119,2.926067296414203],[-68.94889024699131,2.9223645547048136],[-68.922865250916,2.921773076843408],[-68.91399309430835,2.9247304630649182],[-68.9033465041166,2.936560006922548],[-68.87850693819678,2.9470369123262117],[-68.87067512832999,2.9435266035249015],[-68.85682547036879,2.94595965169799],[-68.81870771805677,2.958294720304991],[-68.8129404931766,2.9566310983169615],[-68.80550964630834,2.9444311979102054],[-68.80029696174807,2.943654841051],[-68.7984115232207,2.9443202906689976],[-68.79397519654799,2.9559656486990207],[-68.78887342128581,2.958405627546256],[-68.78244074575923,2.958849261653313],[-68.77855896249173,2.9620655983881647],[-68.7655827041973,2.966501925060868],[-68.76037002066545,2.9709382517335143],[-68.75293917379724,2.974154589496834],[-68.75016646911257,2.978258192388978],[-68.73940837621143,2.980698171236213],[-68.73597022190881,2.984247232780035],[-68.73419569165111,2.984247232780035],[-68.7314229879949,2.9783690996301857],[-68.72598848689523,2.9764836611028613],[-68.721552161251,2.9698291700653954],[-68.70813227193486,2.964505578263811],[-68.6988159855108,2.954745658761169],[-68.67840888240511,2.944653016506436],[-68.67253074925526,2.9422130356023217],[-68.6568926955743,2.9406603208554998],[-68.64735459363942,2.9437657503491437],[-68.64546915511204,2.9509747817064635],[-68.64757641017877,2.9555220166487857],[-68.66387991142079,2.961511058068311],[-68.66731806366653,2.963507404865311],[-68.66842714636311,2.9668346498698384],[-68.66842714636311,2.974709129816688],[-68.66498899308897,2.9854672227178867],[-68.66465626827994,2.998554387225056],[-68.65589041457639,3.0132579342700296],[-68.65589041457639,3.0174642302330312],[-68.65194701423229,3.0190415895478964],[-68.64958097320306,3.0224592058534085],[-68.64774071826929,3.0371812391526873],[-68.64274574367732,3.048485657174865],[-68.64379731586831,3.0529548456713655],[-68.63354447312241,3.062681902321799],[-68.624606095101,3.0671510908182995],[-68.62585150093878,3.071760569158755],[-68.59963121802735,3.095017796045056],[-68.59174441631069,3.0960693702928666],[-68.58648654609988,3.095017796045056],[-68.56834689958043,3.0887083536432556],[-68.56782111142803,3.07372342678201],[-68.55704247950132,3.0568982470439323],[-68.55520222662449,3.0524290575190207],[-68.55597633530834,3.0496714277447836],[-68.55020725203252,3.0458567215552534],[-68.53785125873401,3.0427019998401192],[-68.52602105461636,3.045068041897821],[-68.52155186611986,3.0482227636128982],[-68.51655689049943,3.048485657174865],[-68.51261348912686,3.0505888036137208],[-68.50420089925785,3.055846672796065],[-68.50314932500999,3.059527180606665],[-68.49920592260901,3.0634705830076996],[-68.48925176733849,3.0641193276338186],[-68.48080338149913,3.067939771504143],[-68.47423104656383,3.0684655575996658],[-68.46161216073182,3.0745121074679105],[-68.44888782868833,3.0781249170212845],[-68.442683832498,3.0747750000014094],[-68.42014265665847,3.0692619588035086],[-68.39746616246612,3.0674139854086775],[-68.39063093191197,3.0653108369129995],[-68.38064098067116,3.06452215725551],[-68.37249128436406,3.0660995175988432],[-68.34462457810884,3.066625303694366],[-68.33279437399119,3.0708315996573106],[-68.31780944815836,3.0802957637741883],[-68.30992264438481,3.088182566519322],[-68.30834528404148,3.101853024542322],[-68.31491762103366,3.116575058870012],[-68.31491762103366,3.1228845012718125],[-68.30413898910695,3.132874452512624],[-68.29625218636181,3.1431272973154023],[-68.2891540622457,3.1465449115640354],[-68.28205594018647,3.152854353965836],[-68.27548360422276,3.1638958794545147],[-68.26917416182096,3.1610040513013473],[-68.26444207976249,3.1533801410897695]]]}}]}