{"type":"FeatureCollection","features":[{"type":"Feature","properties":{"code":"940007"},"geometry":{"type":"Polygon","coordinates":[[[-67.58860828282496,3.7445194114113747],[-67.58747158644672,3.740843207632736],[-67.57988091549731,3.733766787767536],[-67.57613300459246,3.72517537951245],[-67.56630637927964,3.71387201461539],[-67.56599407419685,3.712861687083148],[-67.56832059629386,3.712862703184385],[-67.57202850078471,3.709737042169536],[-67.56603979360904,3.707716447783241],[-67.5640714996386,3.7093236051916847],[-67.562058532182,3.70697930749418],[-67.56211012605786,3.7037653341202486],[-67.56522271556827,3.7000894327036917],[-67.5624828932763,3.6922780744448573],[-67.5679700866284,3.690715947392107],[-67.5549372269715,3.6813887934159766],[-67.55041384881031,3.6843298705960024],[-67.54894995653007,3.687453584769173],[-67.54867506618609,3.6837779414917122],[-67.55169669098422,3.677529505271707],[-67.54360840812211,3.6677882951953507],[-67.5446627663639,3.6630100936606027],[-67.5507039477622,3.655153050956642],[-67.55537375454082,3.642610280155452],[-67.55706694939346,3.641736523619045],[-67.56461207268057,3.6470674482157506],[-67.56635283814194,3.6464242705489482],[-67.56557417448619,3.6440347532623605],[-67.56722245211188,3.64164554245167],[-67.55858568542789,3.637005299281668],[-67.55260424111327,3.6210159892859792],[-67.55397772918235,3.6177993028807123],[-67.5608372875443,3.614308465581587],[-67.56166079335077,3.611552141929394],[-67.55956199516692,3.6085180328675506],[-67.56070642234755,3.6051187886591833],[-67.56843543835612,3.60305134460242],[-67.57360227083518,3.608198315799541],[-67.57469995221805,3.6077379016243185],[-67.57900421247314,3.602821475358155],[-67.57877374570381,3.598457484190021],[-67.58234418342539,3.5976756148789377],[-67.57959814831213,3.5963429014703934],[-67.57873539508228,3.5879810282157223],[-67.58961564741423,3.585132006925562],[-67.59167460167805,3.5875211313471027],[-67.59355266215874,3.583890965797764],[-67.5984434915191,3.58182385804173],[-67.60077802929709,3.585407244883072],[-67.60238018950332,3.574931321641998],[-67.60750680679456,3.5703362394398823],[-67.60453817352567,3.5683613192143184],[-67.60563631153701,3.5659250211628546],[-67.61409854329798,3.5595848972354247],[-67.62109663903783,3.5589407970556977],[-67.62333757517689,3.555494764883349],[-67.62616897307606,3.5585728203224676],[-67.62658052389031,3.562065123152138],[-67.62945648728919,3.5650053806635356],[-67.63037244699274,3.5643148648160263],[-67.63279972354644,3.5585263861427734],[-67.62787131798183,3.5517267684961666],[-67.63230366252509,3.546626337408327],[-67.63564402120011,3.5456613395085697],[-67.6381558418995,3.5474532103355614],[-67.64383096975212,3.5449724002634753],[-67.64360303912201,3.53932005241262],[-67.64561688692538,3.5371605781770654],[-67.64818067379679,3.5384012418664383],[-67.6551312770896,3.5373900000488447],[-67.65860225207831,3.533712891240725],[-67.65545118956169,3.5294402545646903],[-67.66217368944604,3.5250296996330803],[-67.66505709568338,3.5206181738516875],[-67.66821545705659,3.52433872612869],[-67.67068783287158,3.520846544655228],[-67.6741604358848,3.522775849341315],[-67.67904949118173,3.52194757876066],[-67.67896574613587,3.514595646343821],[-67.68380971656973,3.5134928371465435],[-67.68500126904348,3.5097686225857956],[-67.69556055577823,3.5107856699614217],[-67.70175618044647,3.507404720717034],[-67.70058074263858,3.51074330430032],[-67.70535717113842,3.508580433119107],[-67.70937011579406,3.5044260220811907],[-67.70945426398941,3.5025746116314735],[-67.70694429448656,3.50240964225236],[-67.70771421432403,3.499340099231972],[-67.71333675585379,3.498360797753662],[-67.71828921771737,3.4890132507908334],[-67.72492678264786,3.487728348646556],[-67.72909252506543,3.4887414519451454],[-67.73266277869584,3.48704121740343],[-67.73399187507204,3.484926867111824],[-67.73357919605633,3.4799610313817197],[-67.73522809280433,3.4789959069835277],[-67.74538945970198,3.4776194210045333],[-67.75171460127882,3.4814389948124926],[-67.75642225782747,3.47118541158801],[-67.76402126224656,3.4696249279863878],[-67.7635633626133,3.463509117656713],[-67.76718097499321,3.4551893015303676],[-67.76589734194698,3.4508201424386016],[-67.76717968326943,3.4479698397090033],[-67.78378876872239,3.4402499120469656],[-67.79102220913444,3.4318833079567526],[-67.79706632982146,3.4205281229264983],[-67.80873804169102,3.415473443132555],[-67.82754525847696,3.398282113175128],[-67.8349158972348,3.394006770666806],[-67.83844000156404,3.386604767497488],[-67.84333897310376,3.3851796917232377],[-67.84534675618158,3.382468218449219],[-67.85092986825362,3.3712967461630114],[-67.8548593023483,3.3431586185004676],[-67.85471407083804,3.3348351750573784],[-67.84771976388043,3.324440981114833],[-67.86378497807618,3.318944987380121],[-67.89002188884626,3.305006628308547],[-67.89740102048239,3.314025566289331],[-67.89904082682705,3.3304236359062998],[-67.91625879858788,3.3320634432793668],[-67.92773744814247,3.3468217055232117],[-67.95725397263021,3.3583003540493905],[-67.96873262218486,3.3583003540493905],[-67.98034227063374,3.3362348339032337],[-67.98420638525874,3.3386321940924972],[-67.9880752584873,3.3447118526107715],[-67.9883516061343,3.35548942935543],[-67.99277317568527,3.361569088902172],[-67.99222048039132,3.36903048771228],[-67.97895576865301,3.3867167690015094],[-67.97591594042234,3.4041267005869145],[-67.96983628293248,3.408548271166353],[-67.96983628293248,3.4110354041030746],[-67.97508689748133,3.4262345514271715],[-67.97785037806506,3.43037977333114],[-67.98171925232202,3.4312088173005577],[-67.99139143539344,3.4444735280104055],[-67.99332587303616,3.448618750942842],[-67.99194413274432,3.4511058838795634],[-67.98818350926149,3.455676732890595],[-67.96873089028765,3.464094245913941],[-67.96790184528976,3.466305030175249],[-67.96099314280207,3.4693448604627974],[-67.94772843209228,3.4560801497529496],[-67.941925121221,3.453593015787817],[-67.91898822846821,3.4552511037266527],[-67.90793430201961,3.4596726753345024],[-67.8908007170528,3.4743191273646516],[-67.88527375382853,3.485373050727901],[-67.88499740720994,3.4942161918867214],[-67.8825102732448,3.5019539404007674],[-67.87256174046956,3.5229563985961363],[-67.86620573430429,3.531523190051132],[-67.85957337843513,3.546722337375229],[-67.85929702975972,3.5613687883769103],[-67.86206051240032,3.5713173221806187],[-67.86620573430429,3.576291588054005],[-67.876983311049,3.5981230891903806],[-67.87808870266537,3.613874933865361],[-67.88085218530597,3.6221653776733547],[-67.88444471088752,3.626310598548912],[-67.89605133160165,3.630179473834346],[-67.91705378876861,3.6296267764834624],[-67.921751706995,3.631284865450766],[-67.9303184994784,3.639575310287171],[-67.9474520834168,3.6509055843827696],[-67.9643093186798,3.666933774647873],[-67.96430931765133,3.6826856193228537],[-67.96237488309396,3.6920814547472105],[-67.95905870515935,3.7006482472306175],[-67.94164877254553,3.7238614907157626],[-67.94041328500742,3.7402614156429763],[-67.9488338237087,3.7470747321439717],[-67.96790184528976,3.7495618671375723],[-67.9728761111632,3.7528780430152437],[-67.97452540591848,3.762158549924038],[-67.97066532484502,3.764484665786256],[-67.9654147123531,3.771117019598478],[-67.96265122971249,3.776920331498218],[-67.96154583912454,3.7843817323652047],[-67.95380808958208,3.8004099226303083],[-67.95657157222269,3.8169908112747066],[-67.96734914896734,3.8379932694700756],[-67.96790184528976,3.8507052818006287],[-67.96652010499793,3.854021459735179],[-67.96126949044907,3.85871937796162],[-67.9488338237087,3.857890333992202],[-67.93255098490528,3.8635011379074626],[-67.92839005971246,3.857539455115841],[-67.91843779883305,3.855622157496157],[-67.91284225803321,3.8613460191259605],[-67.91300099402218,3.86408040095705],[-67.91672132724091,3.868359174349621],[-67.91532950718391,3.8751955567594223],[-67.9348360875083,3.8802828957739735],[-67.93612181034973,3.8830380140915963],[-67.93474006902943,3.891328457899533],[-67.92727867021927,3.9032114283175474],[-67.91628379591174,3.909438708446487],[-67.9119954456624,3.9074296449577446],[-67.87667029839776,3.917091050979991],[-67.8509048020241,3.9410369846833646],[-67.8341126414615,3.963188297504473],[-67.79781783539562,3.991133302173921],[-67.75831950904558,4.01719336299692],[-67.72253672131518,4.03024672259852],[-67.70980884217346,4.0395294828248325],[-67.70442388217839,4.0274470665492],[-67.69957930804884,4.008470760443458],[-67.70196685381109,3.9993740290136657],[-67.70251646480597,3.9877952461816903],[-67.69986946047976,3.974241251046408],[-67.6998315562023,3.9643632714847854],[-67.69403248662792,3.944468117808924],[-67.6949012552181,3.932981788873974],[-67.69298754789122,3.927698245652607],[-67.68786865831703,3.9213127129025906],[-67.68586119508484,3.9104233886791917],[-67.66893948367505,3.891495006966352],[-67.66501855377152,3.8771602799774314],[-67.65231476692429,3.8542344717781134],[-67.65039104770949,3.8487672764908325],[-67.6490722244456,3.83305282290047],[-67.6510479262875,3.8139855016887054],[-67.64168625469517,3.785683187291852],[-67.64013768868546,3.7821916352252174],[-67.63181423701485,3.773967598979084],[-67.62519150222545,3.7622973948062963],[-67.62057634996762,3.7498010756683016],[-67.61715156541771,3.746906820390791],[-67.60832264350518,3.743598885423012],[-67.59671029230935,3.742955784889432],[-67.58860828282496,3.7445194114113747]]]}}]}