{"type":"FeatureCollection","features":[{"type":"Feature","properties":{"code":"940001"},"geometry":{"type":"Polygon","coordinates":[[[-67.93255098490528,3.8635011379074626],[-67.93094283299297,3.8681216092700197],[-67.93422613676239,3.8752967647592413],[-67.93473112569325,3.8808651485059613],[-67.91532950718391,3.8751955567594223],[-67.91672132724091,3.868359174349621],[-67.91300099402218,3.86408040095705],[-67.91284225803321,3.8613460191259605],[-67.91843779883305,3.855622157496157],[-67.92839005971246,3.857539455115841],[-67.93255098490528,3.8635011379074626]]]}}]}