{"type":"FeatureCollection","features":[{"type":"Feature","properties":{"code":"940017"},"geometry":{"type":"Polygon","coordinates":[[[-68.96817808067726,2.8728106100306263],[-68.96545175669331,2.8739332146894867],[-68.9624795495867,2.872234810775467],[-68.94804311477486,2.852703163193155],[-68.94124949809031,2.848457153922311],[-68.93870189273355,2.8420881379591947],[-68.93318207924165,2.8395405315739595],[-68.9263884625571,2.8391159308525857],[-68.92214245328631,2.83614372374592],[-68.92129325081504,2.8285009056186254],[-68.91407503443759,2.82765170314741],[-68.91110282630251,2.825104097790586],[-68.91110282527404,2.8157628747208037],[-68.91534883660177,2.8149136732779994],[-68.91662263876594,2.811092263700175],[-68.91449963413055,2.8076954558721354],[-68.90728141569622,2.8076954558721354],[-68.90346000714675,2.8017510406303927],[-68.8962417907693,2.800052636716373],[-68.89496798654824,2.7966558288883334],[-68.8962417907693,2.7924098175606105],[-68.87798394637957,2.783493197269138],[-68.87968235132206,2.780520990162472],[-68.87840854812941,2.770755167399784],[-68.87586094174418,2.7677829602931183],[-68.86906732505969,2.766933756793435],[-68.86864272433826,2.7618385450513756],[-68.85972610301832,2.7563187325879426],[-68.86015070271128,2.7533465265097448],[-68.86354751156779,2.7524973230100613],[-68.86099990621096,2.7423068984975316],[-68.85717849560467,2.7380608881982766],[-68.85717849560467,2.72956886759971],[-68.84015750041101,2.721721288623826],[-68.84007176430043,2.7185192678088015],[-68.84299418861849,2.715254597360911],[-68.84834169170858,2.717085845195072],[-68.84915849206982,2.7106970635952052],[-68.8517146016178,2.7106018236473233],[-68.85687175850967,2.706736032660956],[-68.86629493507843,2.707368526866901],[-68.88158323294226,2.6951706483781095],[-68.89971980956079,2.6881645040471085],[-68.90035334557899,2.6855429762989047],[-68.90396231595645,2.683242043908649],[-68.92118222633138,2.678625763449361],[-68.92752293544265,2.6691054515131896],[-68.93313775645441,2.665284361780948],[-68.94047755736335,2.6542462558636544],[-68.94431507749323,2.651897424791514],[-68.94543700852228,2.639121086466787],[-68.94996789020013,2.6448133255460107],[-68.97750565425793,2.6307641157976036],[-68.99263302143646,2.6287681978610635],[-68.99915639222343,2.624806211503767],[-69.01496545532638,2.6232247116793133],[-69.03049117120258,2.612267541102881],[-69.03508470559865,2.598382923295162],[-69.0384565654681,2.5954395094937013],[-69.04005935508115,2.595023694756719],[-69.04760467685765,2.600710790594974],[-69.06451970133418,2.6033546694844176],[-69.09700661772757,2.6023461160155534],[-69.10911526545806,2.603111709195332],[-69.11250275456842,2.6050824662855803],[-69.12053669349939,2.6007053799588675],[-69.1275558311732,2.591230306123748],[-69.13374491700387,2.574266357608167],[-69.13304932373569,2.569395036773983],[-69.12792208423673,2.5620501687287742],[-69.12915058145109,2.5588323201833987],[-69.13681761220062,2.5516076349024956],[-69.14046472751107,2.544019765430562],[-69.1403966127346,2.5328073899284504],[-69.13710020763591,2.527435028354205],[-69.14621736804787,2.515337659552813],[-69.14890414738852,2.5060063280431564],[-69.15400733675921,2.4963489987670755],[-69.16277432586332,2.4921096455762495],[-69.16559872726805,2.4890270001981776],[-69.16500180277512,2.484524197057965],[-69.16289573144576,2.482642759171995],[-69.16716727488745,2.4670132035116126],[-69.16674186889554,2.4590652331192473],[-69.16874037233652,2.449365889909359],[-69.17019826571158,2.4478474469810294],[-69.17673622495568,2.4485738174200264],[-69.17777417028327,2.441220178817048],[-69.17250817949031,2.437137741271954],[-69.17131902328765,2.4315791338997883],[-69.18234459249067,2.4153434676978804],[-69.18636480103584,2.4118456956108503],[-69.1770802050396,2.4057925534260676],[-69.17139567619392,2.393484797167048],[-69.16819943728274,2.3923869604893753],[-69.16814604054719,2.3900886125751413],[-69.17133474920223,2.383558710149714],[-69.17635616813664,2.379923659498445],[-69.17816341109398,2.365032176924501],[-69.18636528440379,2.3522919410459053],[-69.36102679527522,2.762811784889493],[-69.35641802450317,2.766806055085908],[-69.35199238540514,2.773732544486961],[-69.34399700175578,2.7744952590561525],[-69.33985666289686,2.7774526452776627],[-69.33098450423239,2.7792270768048297],[-69.31501462151584,2.773312304361866],[-69.3061424618229,2.773312304361866],[-69.28653183808268,2.7852587831622486],[-69.27156830282587,2.787305782810222],[-69.26592201352986,2.782184461997929],[-69.26237315150388,2.7744952590561525],[-69.2682879239469,2.767397532947257],[-69.27479417322286,2.7644401467257467],[-69.30022769349364,2.763848669892866],[-69.30141064613105,2.75734241958844],[-69.29608735052096,2.750244694508069],[-69.2913555338007,2.7496532176751316],[-69.28603223921908,2.7514276502307666],[-69.26473905986404,2.750244694508069],[-69.24581178989757,2.7549765122567464],[-69.2286589524868,2.7543850343953977],[-69.21969420725611,2.7592882811706545],[-69.21682940965769,2.7644401467257467],[-69.20914020363057,2.7691719655029488],[-69.20914020363057,2.7756782137504388],[-69.21564645393494,2.7827759398592775],[-69.20440838793871,2.8093924117390543],[-69.19494475346971,2.8170816157092986],[-69.18784702736087,2.8188560472365225],[-69.1825237327792,2.818264570403585],[-69.17660896136465,2.8135327516264397],[-69.17534943912483,2.805612351721095],[-69.18311520858367,2.799928777270054],[-69.18666407060971,2.79519695952132],[-69.18311520858367,2.785141848219439],[-69.1842981653349,2.7792270768048297],[-69.19080441255392,2.7756782137504388],[-69.18488964113936,2.7709463960017047],[-69.1760174835033,2.766806055085908],[-69.16477941750708,2.766806055085908],[-69.14703510326336,2.7727208265004606],[-69.1239674923811,2.7774526452776627],[-69.11509533371657,2.7810015083320536],[-69.1156868105495,2.799928777270054],[-69.13993737612606,2.821221956625095],[-69.13993737612606,2.8371918403700533],[-69.13757146570902,2.8436980896459545],[-69.12668265056465,2.85215082374026],[-69.10208283619318,2.84783842953334],[-69.08907033661285,2.834825932009892],[-69.08315556622671,2.826545252235178],[-69.08197261153242,2.819447525097871],[-69.0766493169508,2.8129412758219132],[-69.05949647851156,2.8123497989890325],[-69.04944136823809,2.8206304787637464],[-69.04825841251534,2.839557748730158],[-69.05949647851156,2.856119110336465],[-69.06777716034316,2.862625358583955],[-69.0766493169508,2.8649912679725276],[-69.0872959061141,2.8714975172484856],[-69.09084476916848,2.8785952433573243],[-69.09176465238028,2.886310268433874],[-69.07960670317232,2.8927906945466475],[-69.0736919307293,2.8927906945466475],[-69.0476669356824,2.888650353630851],[-69.03465443713054,2.882735584273121],[-69.02637375735583,2.867357176332689],[-69.02637375735583,2.856119110336465],[-69.01750159766289,2.8484299063662206],[-69.00738657958425,2.850437395309484],[-69.00271466964068,2.8584850186966264],[-69.00271466964068,2.865582744805465],[-69.01868455338558,2.8685401310269754],[-69.01572716716413,2.8827355832447097],[-69.01099535147227,2.8868759231320382],[-69.00212319177933,2.8868759231320382],[-68.99443398780909,2.8785952433573243],[-68.99088512578311,2.869131607859913],[-68.98378740070268,2.8632168374737716],[-68.97018342531788,2.8667656994997515],[-68.96817808067726,2.8728106100306263]]]}}]}