{"type":"FeatureCollection","features":[{"type":"Feature","properties":{"code":"941017"},"geometry":{"type":"Polygon","coordinates":[[[-67.47646383451206,3.205094258311931],[-67.48066996489575,3.2129056443387185],[-67.49819557672413,3.233479188524825],[-67.52181705121103,3.254814715028999],[-67.54162861205054,3.2776742071977765],[-67.54696249341947,3.2746262758685134],[-67.55229637478845,3.276912224879709],[-67.55534430714619,3.284532056288242],[-67.56144017186165,3.2868180042710264],[-67.57286991794604,3.2837700719132954],[-67.57667983262189,3.287579987617562],[-67.57515586695723,3.2959618023726875],[-67.58429966403048,3.3066295651105406],[-67.58658561407009,3.315011379865666],[-67.58582362969514,3.3485386368292325],[-67.58887156308128,3.359968382913621],[-67.59420544445021,3.367588214322211],[-67.59191949543902,3.375208043673922],[-67.5987773424726,3.3805419250428486],[-67.60258725920534,3.388923739797974],[-67.59649139448987,3.3995915035642383],[-67.60258725920534,3.406449350597825],[-67.61858890434058,3.4087353006374883],[-67.63230459840776,3.421689014443416],[-67.64297236217408,3.429308844823538],[-67.65516409057659,3.4544542870319788],[-67.67421366806957,3.4712179144853508],[-67.67649961708076,3.487981542967134],[-67.67421366806957,3.4994112890515225],[-67.67421366806957,3.513888967493699],[-67.6783473940431,3.5159558325373723],[-67.67932510554925,3.5197431934687415],[-67.67904949118173,3.52194757876066],[-67.6741604358848,3.522775849341315],[-67.67068783287158,3.520846544655228],[-67.66821545705659,3.52433872612869],[-67.66505709568338,3.5206181738516875],[-67.66217368944604,3.5250296996330803],[-67.65545118956169,3.5294402545646903],[-67.65860225207831,3.533712891240725],[-67.6551312770896,3.5373900000488447],[-67.64818067379679,3.5384012418664383],[-67.64561688692538,3.5371605781770654],[-67.64360303912201,3.53932005241262],[-67.64383096975212,3.5449724002634753],[-67.64140489236246,3.5467627438533214],[-67.6381558418995,3.5474532103355614],[-67.63564402120011,3.5456613395085697],[-67.63230366252509,3.546626337408327],[-67.62787131798183,3.5517267684961666],[-67.63279972354644,3.5585263861427734],[-67.62945648728919,3.5650053806635356],[-67.62333757517689,3.555494764883349],[-67.62109663903783,3.5589407970556977],[-67.61574717059409,3.5586648361031052],[-67.60820176448527,3.563076225101554],[-67.60453817352567,3.5683613192143184],[-67.60750680679456,3.5703362394398823],[-67.60238018950332,3.574931321641998],[-67.60077802929709,3.585407244883072],[-67.5984434915191,3.58182385804173],[-67.59355266215874,3.583890965797764],[-67.59167460167805,3.5875211313471027],[-67.58961564741423,3.585132006925562],[-67.57873539508228,3.5879810282157223],[-67.57959814831213,3.5963429014703934],[-67.58234418342539,3.5976756148789377],[-67.57877374570381,3.598457484190021],[-67.57900421247314,3.602821475358155],[-67.57469995221805,3.6077379016243185],[-67.57360227083518,3.608198315799541],[-67.56843543835612,3.60305134460242],[-67.56070642234755,3.6051187886591833],[-67.55956199516692,3.6085180328675506],[-67.56166079335077,3.611552141929394],[-67.5608372875443,3.614308465581587],[-67.55397772918235,3.6177993028807123],[-67.55260424111327,3.6210159892859792],[-67.55858568542789,3.637005299281668],[-67.56722245211188,3.64164554245167],[-67.56557417448619,3.6440347532623605],[-67.56635283814194,3.6464242705489482],[-67.56461207268057,3.6470674482157506],[-67.55706694939346,3.641736523619045],[-67.55537375454082,3.642610280155452],[-67.5507039477622,3.655153050956642],[-67.5446627663639,3.6630100936606027],[-67.54360840812211,3.6677882951953507],[-67.55169669098422,3.677529505271707],[-67.54867506618609,3.6837779414917122],[-67.54894995653007,3.687453584769173],[-67.55041384881031,3.6843298705960024],[-67.5549372269715,3.6813887934159766],[-67.5679700866284,3.690715947392107],[-67.5624828932763,3.6922780744448573],[-67.56522271556827,3.7000894327036917],[-67.56211012605786,3.7037653341202486],[-67.562058532182,3.70697930749418],[-67.5640714996386,3.7093236051916847],[-67.56603979360904,3.707716447783241],[-67.57202850078471,3.709737042169536],[-67.56832059629386,3.712862703184385],[-67.56599407419685,3.712861687083148],[-67.56630637927964,3.71387201461539],[-67.57613300459246,3.72517537951245],[-67.57988091549731,3.733766787767536],[-67.58747158644672,3.740843207632736],[-67.58860828282496,3.7445194114113747],[-67.56203249201747,3.7508126023644763],[-67.55274873008807,3.7494338147311055],[-67.54639295943616,3.75062810491886],[-67.544058102841,3.7515931953784047],[-67.53028622290213,3.7676408921127518],[-67.52433563494839,3.770562222167996],[-67.51972791010246,3.7701947791964585],[-67.50334672134096,3.7625039595430394],[-67.49522852211447,3.746774556512264],[-67.48843948714136,3.73848115901734],[-67.48698965778414,3.731775153294109],[-67.48736326215482,3.719343033651967],[-67.48360953643595,3.7061757832973967],[-67.47160819125565,3.6881278964763737],[-67.4678559382665,3.677885289818846],[-67.45354176058754,3.6760466659949316],[-67.44881156160733,3.670801709936825],[-67.44929947222175,3.6622699441487043],[-67.45319094033243,3.6527641610199453],[-67.45234238680843,3.6470362740661244],[-67.44313434807327,3.6353272369322553],[-67.44131877370307,3.6294761158251276],[-67.44241798849373,3.620091110928911],[-67.44837687597862,3.600957269026594],[-67.44547877741144,3.582670584023333],[-67.44487443270572,3.580476039897917],[-67.43226303187834,3.571691509678203],[-67.42911901727825,3.553648498703126],[-67.41057187406494,3.5321825327774263],[-67.40658912139628,3.509752338226974],[-67.41024386980712,3.5055441345031113],[-67.41224350864866,3.4982268050632115],[-67.41078552065693,3.4854470708212943],[-67.40754350062701,3.4740003348665027],[-67.39725084378591,3.464661481328278],[-67.37811464057955,3.4620735671953753],[-67.36704612670235,3.4582964186981826],[-67.34270628305916,3.445638808920023],[-67.33771742461488,3.438646968167575],[-67.33008857376541,3.416946848506086],[-67.31802637152748,3.39547256556574],[-67.31309726045129,3.374141387316513],[-67.3154308314933,3.367202471244525],[-67.32504540635699,3.3588914935531875],[-67.32637995553546,3.3487325383532607],[-67.33183549239834,3.33913083650458],[-67.33233880805324,3.332191675663239],[-67.34228000803336,3.3158343632233027],[-67.34548361367825,3.3141825549544706],[-67.35657117842476,3.30196289405319],[-67.37194421892372,3.294756923340742],[-67.38000840126381,3.2869034493323284],[-67.3808403577824,3.264886207363361],[-67.38286273548806,3.258085007972113],[-67.37934447271232,3.2420410671098807],[-67.43045608408403,3.243591304338622],[-67.47646383451206,3.205094258311931]],[[-67.41089428462391,3.5251963628570024],[-67.41094648219553,3.526204319829162],[-67.41462652000786,3.5270920014772287],[-67.41477739663912,3.5264699737308547],[-67.41089428462391,3.5251963628570024]]]}}]}