{"type":"FeatureCollection","features":[{"type":"Feature","properties":{"code":"942057"},"geometry":{"type":"Polygon","coordinates":[[[-67.14300807440594,1.584123009488053],[-67.12883251020963,1.6062844648092778],[-67.121339774756,1.609178842471465],[-67.11023772748194,1.6163495962266552],[-67.10475375624031,1.622969609757149],[-67.09813086409923,1.626829206434195],[-67.08570217636975,1.638781901141158],[-67.0776160902609,1.6383207557433366],[-67.07383034706953,1.6419974850560948],[-67.06537687146817,1.6442948929738463],[-67.06144671437835,1.6471912082216704],[-67.03208075181846,1.6511849127747382],[-67.02385617461158,1.65794080104547],[-67.00997828590323,1.6557322875852378],[-66.99838152178222,1.6597758582307165],[-66.98569332098134,1.6477315920303113],[-66.97228018750411,1.6225876153524155],[-66.97078524448733,1.6162894950743407],[-66.97097618512538,1.6011650404450393],[-66.97607222373517,1.5788685197678092],[-66.97064159780695,1.5730302829886114],[-66.96597973677524,1.5725268017544636],[-66.95483967209509,1.5671962648806357],[-66.93008831054783,1.5182832250152956],[-66.92738776241873,1.5058170968359263],[-66.91985746001677,1.4849305903923096],[-66.91887355111601,1.4700282855176852],[-66.9201168342484,1.4371536606929567],[-66.91730948442063,1.4175300652072451],[-66.91099290051403,1.407102714277869],[-66.90797148243286,1.4046679414066716],[-66.88136570635527,1.3987117864936067],[-66.86620649139724,1.3798590045619221],[-66.85917215334302,1.367705709056338],[-66.85529509988271,1.354911922175802],[-66.85347308026326,1.3399859404975132],[-66.85492994211046,1.3268988356400087],[-66.85908846074773,1.3114707282148856],[-66.86374233592329,1.301093601275909],[-66.868167811499,1.2965023263679996],[-66.87533189786137,1.2841038378246594],[-66.87715489038743,1.2781355082090613],[-66.87829228610656,1.2590337876519015],[-66.87363791110795,1.2371740064031655],[-66.86925100212676,1.2282188771100095],[-66.85651728246,1.2123293116404739],[-66.84733864175422,1.1875769936416418],[-66.86143710361489,1.1841805519391642],[-66.89143090359295,1.1719230032154542],[-66.89868591970065,1.167515776323853],[-66.92479312844245,1.1593906145414508],[-66.9845339968108,1.1353320478702926],[-67.01319869527049,1.1279852854339651],[-67.03278344751067,1.118296866340586],[-67.05797668452834,1.1121903531312682],[-67.0842223010643,1.1032356218453288],[-67.08902177593257,1.1235798593452273],[-67.10505774636533,1.1627075607225947],[-67.1114599522254,1.2117088964919276],[-67.11289389214573,1.298965137667608],[-67.10876771596872,1.3628876111509385],[-67.1123666641738,1.411998058500842],[-67.10998701993543,1.4335498273858889],[-67.10267128458145,1.4531268591081243],[-67.10212093207952,1.4616306708001616],[-67.1088132903705,1.4870065540669088],[-67.11121532791634,1.503695758277388],[-67.11773806209743,1.5161095140499015],[-67.12430881425968,1.5225946699698056],[-67.1272677390312,1.5278371896475846],[-67.13349388170275,1.5534511049068556],[-67.140513243577,1.56720193571266],[-67.14300807440594,1.584123009488053]]]}}]}