{"type":"FeatureCollection","features":[{"type":"Feature","properties":{"code":"943017"},"geometry":{"type":"Polygon","coordinates":[[[-68.28769634370593,2.1778599826585037],[-68.26799655399935,2.1653125920934713],[-68.25222004521584,2.148949551228725],[-68.25043436149906,2.144674361958323],[-68.24632215362834,2.1428356095790946],[-68.24339978176084,2.137641299172799],[-68.24481176031964,2.1284455729514775],[-68.2422021923295,2.1256433149426357],[-68.2412410222928,2.1214596848243445],[-68.23886789118086,2.1199887199448995],[-68.23812793398776,2.1155287678906802],[-68.23410749095768,2.112495768518329],[-68.23287180801543,2.1057832229291193],[-68.22912506953509,2.0998078957906046],[-68.23076572845855,2.0938771341517395],[-68.23852477293178,2.0810505780072504],[-68.24031041448245,2.073327110446087],[-68.23943300491828,2.066936967188269],[-68.2469785426677,2.0627990482545897],[-68.2492506539848,2.058300762033923],[-68.24823020040759,2.0527652637651954],[-68.25706512019696,2.0475218215744917],[-68.26181797165208,2.0391655420186794],[-68.25917038934114,2.0306697326378753],[-68.26094861067901,2.026980243438743],[-68.26058900135416,2.018781230227603],[-68.25444865855661,2.006068705732673],[-68.25591278429334,2.0016959872013445],[-68.24766589811134,1.9960890759409722],[-68.24617026295277,1.9831495669831156],[-68.24089125207752,1.978092196783507],[-68.2326425650927,1.9768573242540128],[-68.22461651225899,1.9809978883418466],[-68.2067472967567,1.9798049772954869],[-68.21030295575929,1.969528061795586],[-68.21227286849825,1.9559540161449718],[-68.21550690781419,1.95349659902638],[-68.22016040349445,1.9526314083877878],[-68.22901145234783,1.9392897146416317],[-68.23271206620967,1.9304997912693693],[-68.23672491624865,1.9284063430434912],[-68.23713631999561,1.9238050120246726],[-68.2392806483582,1.9206637114843943],[-68.24516444205568,1.9185721093128336],[-68.24671897920263,1.915656414094201],[-68.24713868762296,1.9016261338587128],[-68.25092335712031,1.8965711784421728],[-68.25047318726104,1.893838066737601],[-68.24651359614631,1.8890986313151643],[-68.24761240573059,1.8840423831463795],[-68.24980153202091,1.878121623111042],[-68.25208359351933,1.877166141389921],[-68.2559605019693,1.8715191620090081],[-68.25883545749451,1.8707461074787375],[-68.265907810898,1.8565835458812217],[-68.26973815558443,1.8555368999299162],[-68.26978397784086,1.8541712095120033],[-68.26632063595252,1.85271066172686],[-68.26696055654185,1.8504782050963513],[-68.27065376150381,1.8503442360600957],[-68.27958819339125,1.8439257437843253],[-68.27964144305957,1.842331193024279],[-68.27184351934534,1.844012677001956],[-68.26747193827146,1.8424164879330078],[-68.27102735456157,1.8372252114321554],[-68.2794658899785,1.8340859698338363],[-68.27983200523073,1.8259330462741445],[-68.27956504932081,1.824838474901469],[-68.27486479961522,1.8249738487901936],[-68.2760464502444,1.8311226351008258],[-68.27163197591835,1.83103000842533],[-68.26816620382033,1.8254715368076404],[-68.27027254254472,1.817272705630785],[-68.2673572700159,1.8156758449888457],[-68.25431897298347,1.821227049631716],[-68.24506366394485,1.8227256148230708],[-68.2298433759563,1.8195742406883255],[-68.22450835712993,1.825356981680784],[-68.21999313966006,1.8268124119359754],[-68.22141231217427,1.8206632039639317],[-68.22643225837908,1.8165650682722116],[-68.22598216668138,1.8123286543701056],[-68.2304919909987,1.8083681736526387],[-68.23209349608703,1.7982565484059023],[-68.23894506139368,1.7821797200087417],[-68.23499317331346,1.7741131002598536],[-68.23422285649718,1.767827286324973],[-68.23112522465476,1.7652748544874157],[-68.22893482515263,1.7656378504735244],[-68.2286136199283,1.7714686176747136],[-68.22290774884345,1.7763403447436872],[-68.22158751969869,1.7764761063552328],[-68.22072594814927,1.77009850084022],[-68.21909183629083,1.7687764883760337],[-68.2059237919787,1.766810391158856],[-68.1985302240949,1.7788786704635982],[-68.19051264768439,1.7752748021895286],[-68.18585904093237,1.7761374248071888],[-68.18221895811183,1.7699862864485567],[-68.17243095904308,1.7648319670295791],[-68.17005794928735,1.7611874382520796],[-68.17589381756346,1.7595504395555395],[-68.17617690356582,1.7537656581330907],[-68.18169264545378,1.7523096766327058],[-68.18087749779966,1.7464330614640176],[-68.18530189762447,1.7351841772809848],[-68.17889301511553,1.724540414277726],[-68.9047951661916,1.7248911563712],[-68.90013718958727,1.7342071085514021],[-68.89422055154955,1.755507003636069],[-68.89540387956845,1.7631986316453094],[-68.90546216258713,1.7720735876734466],[-68.92557872862443,1.7850901897110134],[-68.9309037026527,1.8034317657767929],[-68.96522019977488,1.8063900847956802],[-68.96522019977488,1.8294649708802808],[-68.94924527974695,1.8371565988895213],[-68.94924527871854,1.8460315549177153],[-68.95279526174681,1.8519481929554331],[-68.95042860673743,1.8620064759740558],[-68.93504534866207,1.866739785992877],[-68.94392030571868,1.875614742021071],[-68.94628696072806,1.8862646890491988],[-68.95871189772771,1.8862646890491988],[-68.96462853576543,1.8945479820963556],[-68.96462853576543,1.9034229381244927],[-68.95989522677507,1.9069729201244172],[-68.95930356276563,1.9140728851526205],[-68.95338692472785,1.9117062301431815],[-68.95161193475639,1.9188061951714417],[-68.94392030571868,1.9294561432279806],[-68.94392030571868,1.9359644442467356],[-68.93682034069047,1.9418810812560423],[-68.94037032371881,1.947797718265349],[-68.94155365070924,1.9637726393217463],[-68.93563701267152,1.9655476303216801],[-68.93563701369999,1.9726475963783514],[-68.93031203864325,1.976197578378219],[-68.91907042760567,1.978564233387658],[-68.91788710061519,1.9856641984158614],[-68.9137454535774,1.9909891714157197],[-68.91611210961526,1.998089136443923],[-68.91611210961526,2.004597437462678],[-68.90664549060602,2.026488995528382],[-68.89599554357795,2.035363951556576],[-68.87469564849329,2.044238906556302],[-68.86404570146516,2.044238906556302],[-68.85043743644661,2.055480517593878],[-68.84215414237099,2.0602138286411105],[-68.83801249636167,2.0732304306786205],[-68.82913754033348,2.0732304306786205],[-68.82322090332417,2.0773720777164613],[-68.8107959642677,2.0773720777164613],[-68.80964540551275,2.0819743096508887],[-68.8006435695026,2.088362479327486],[-68.79255747413777,2.090438781359694],[-68.78816750451159,2.0890185228101927],[-68.78380479992506,2.1053833223116953],[-68.77544321154897,2.105576349659543],[-68.77252074403629,2.1079221313996186],[-68.76594352914123,2.1088477594913115],[-68.76499080364607,2.1139500098939266],[-68.76206801731621,2.1137699429786494],[-68.76064974983143,2.1094052205879166],[-68.75794821028376,2.107017027935285],[-68.75402666022939,2.1083985975056976],[-68.75228680802496,2.106149958332196],[-68.74534470069585,2.1084996964905827],[-68.73885959722651,2.108413633335317],[-68.73739571420225,2.1098863568514616],[-68.73511259032267,2.10850982047873],[-68.72812521403921,2.1100792618146897],[-68.72922967697201,2.117154589473955],[-68.72337814243105,2.11440430689305],[-68.72240981957663,2.110038567372669],[-68.7196778206469,2.1123396715128138],[-68.71647475904803,2.111101171666519],[-68.71396329007604,2.1120687530138866],[-68.71419224812018,2.11055130047572],[-68.70995008625283,2.114462114618618],[-68.70679138137984,2.114971021915494],[-68.70633450916063,2.1102374619851503],[-68.69997815126806,2.1050500627125643],[-68.69837607847944,2.1054192540364056],[-68.69704888677876,2.101974170088056],[-68.69302788530439,2.100506108501861],[-68.69174595638742,2.093982047629936],[-68.68826766505867,2.0918249336699546],[-68.6921506567461,2.0891564986584967],[-68.68940441388747,2.083919415327898],[-68.6771503474701,2.0762546780051707],[-68.67583060066482,2.0771763229390103],[-68.67674600089566,2.080668220562302],[-68.67473983041572,2.0831056396161216],[-68.67039051409387,2.077273432595348],[-68.66728618709067,2.0763567663518074],[-68.66669853400703,2.0839859175064817],[-68.66102926519142,2.078844116289872],[-68.66107501751372,2.08311785751323],[-68.65806076150625,2.0833515885591396],[-68.65742034726452,2.0809152041185257],[-68.65524604391629,2.080857577398831],[-68.6526213619349,2.0780744638474857],[-68.65015708613316,2.078427138384427],[-68.64860859828514,2.0739772074741154],[-68.6455108965086,2.07508392783825],[-68.64560960950683,2.078261106624211],[-68.64140638447327,2.0798067600846935],[-68.63926989798483,2.0765774947989257],[-68.6391324816093,2.0726175673835314],[-68.6366681543854,2.0716963687937664],[-68.62041658434839,2.0793582460178754],[-68.6201577274233,2.07203508325199],[-68.6171804932896,2.0716533552138685],[-68.60559290287586,2.064213791266866],[-68.60618844205675,2.061458958856349],[-68.60400573736155,2.0586972934736423],[-68.60233497181179,2.0599405334115204],[-68.60149605273733,2.06419334480114],[-68.5960714401125,2.066825530299184],[-68.57791215856844,2.066941525245511],[-68.57226637115247,2.0640485534642607],[-68.57272450115687,2.061904965580311],[-68.56830746806583,2.058154444488366],[-68.56589568397021,2.0596065065943208],[-68.56223345569697,2.0572010042256466],[-68.55873952587126,2.0569125579808656],[-68.55670273248683,2.0589239930580447],[-68.55130813084315,2.0571965490126445],[-68.5508051350339,2.060671522585892],[-68.54880640019331,2.061705837511397],[-68.54449379926945,2.0588710796905048],[-68.53888674094179,2.0581408752177595],[-68.5350119099457,2.0548598833871097],[-68.53604107340266,2.0586411220002105],[-68.53478983629577,2.0605230103439567],[-68.52799179936528,2.062388136103152],[-68.51856212509671,2.055349455964631],[-68.51753248649936,2.0616812474507356],[-68.51418253862624,2.0609099762398273],[-68.51005515814308,2.063087614827168],[-68.50910852308448,2.0606878511677564],[-68.50486719836931,2.0615667252341154],[-68.49984645923536,2.0735955483416433],[-68.49792369544372,2.072768528347069],[-68.49627634958694,2.068355829112818],[-68.49207190379207,2.067345768975713],[-68.4782699861326,2.0697401641651823],[-68.47617176490502,2.0717644475747647],[-68.46639104823771,2.071673766712536],[-68.46616201203193,2.068456581512635],[-68.46780269769488,2.0661578808426384],[-68.46592624775514,2.065238249599304],[-68.45624284540435,2.0727809272501077],[-68.44554697738931,2.0729208077739827],[-68.43814617955462,2.0750371995239902],[-68.43554378186576,2.078301372205715],[-68.43499443620902,2.0730611356702866],[-68.42877671031107,2.0720510323386065],[-68.42521407229754,2.0696156825111416],[-68.42009276074123,2.0747194848335653],[-68.4206511957729,2.086442482046209],[-68.41690534483848,2.0926939850817803],[-68.41320468778201,2.0888805891280526],[-68.41233454313578,2.0830431607046194],[-68.41018358851807,2.088559099025133],[-68.40730611742248,2.0880997791127243],[-68.40392004653432,2.084193679350335],[-68.39761774152362,2.0850233444990636],[-68.39628955223372,2.081896452438457],[-68.39751811835373,2.0769768523987295],[-68.39290293215726,2.0722435680909825],[-68.39390991622287,2.0757826403726085],[-68.39066715674278,2.077439557943876],[-68.38293838961732,2.070498752622939],[-68.38431165348595,2.076015439649609],[-68.37626933994756,2.076384314213101],[-68.37553753213297,2.073764759017706],[-68.37695629841238,2.0712812595684227],[-68.36822864620615,2.0741784808741386],[-68.36795366021704,2.0785012314972278],[-68.36320104838904,2.0769394993664037],[-68.35927100237103,2.077629240796682],[-68.35346496304174,2.073998577481177],[-68.34268484398717,2.0809421565115827],[-68.33545866849306,2.0836098849830478],[-68.33135296757814,2.0877489496016324],[-68.33121624848661,2.0896796046328063],[-68.33468877539508,2.0914717860494534],[-68.32930144792533,2.103930700732974],[-68.33400911372996,2.109722625717154],[-68.33296392508169,2.1121127230453],[-68.32692877447033,2.113722122458455],[-68.32405330986609,2.1167570943835585],[-68.32602114617958,2.1239283819004413],[-68.32470101370836,2.129583553854445],[-68.32621178651237,2.1366626373857684],[-68.31812495169737,2.145445194024319],[-68.31762801238614,2.153306112928078],[-68.31168523853864,2.1573530928604896],[-68.31127406824811,2.159652078409067],[-68.31566725998465,2.168017578980482],[-68.3155758736109,2.1714661164387508],[-68.31420989934287,2.1722931292342196],[-68.31022790360788,2.168708003296558],[-68.29683745140193,2.1715146805229324],[-68.2892538448242,2.175469972747919],[-68.28769634370593,2.1778599826585037]]]}}]}