{"type":"FeatureCollection","features":[{"type":"Feature","properties":{"code":"943018"},"geometry":{"type":"Polygon","coordinates":[[[-68.75569041385808,2.4033483003717038],[-68.74691529902964,2.404233293671041],[-68.75141659447308,2.385017914788989],[-68.75008956732324,2.38267610489396],[-68.74113226801637,2.3791913765434174],[-68.74622879719328,2.3618151717020055],[-68.74625942009772,2.3494063699370713],[-68.75300410554411,2.3332702004065595],[-68.75153075159267,2.325779756322845],[-68.75440043532149,2.3187453750740588],[-68.76311276681952,2.3082122992253176],[-68.76585181469432,2.3022351980234816],[-68.76914067205337,2.29974994096591],[-68.77256577439198,2.299746502882556],[-68.79478381462059,2.2730226893717713],[-68.80377912104916,2.2693829747336736],[-68.81474277081344,2.2682228236953392],[-68.81706160941638,2.2598097422308],[-68.83248106661154,2.242835633731545],[-68.8326574568448,2.2354371642907154],[-68.8270260573396,2.2286875587753343],[-68.83747867195945,2.2170044641039794],[-68.83924887967322,2.2119451655747184],[-68.83572370679224,2.204091605177098],[-68.83442698372966,2.19030633491667],[-68.82957486905951,2.1813952034228805],[-68.83222219425983,2.178543038183932],[-68.83633411725191,2.178309282455416],[-68.83354077583971,2.171970304212948],[-68.8332530207083,2.1636065869608387],[-68.8422321188828,2.1438818770635635],[-68.84462772249219,2.126461994268368],[-68.840744136365,2.123066517244922],[-68.84082075430416,2.1126332537995154],[-68.83648006352973,2.1080875594640816],[-68.81933594422622,2.098178499341145],[-68.81150847438687,2.0861001742098324],[-68.81374210447024,2.0829722393085603],[-68.80964540551275,2.0819743096508887],[-68.8107959642677,2.0773720777164613],[-68.82322090332417,2.0773720777164613],[-68.82913754033348,2.0732304306786205],[-68.83801249636167,2.0732304306786205],[-68.84215414237099,2.0602138286411105],[-68.85043743644661,2.055480517593878],[-68.86404570146516,2.044238906556302],[-68.87469564849329,2.044238906556302],[-68.89599554357795,2.035363951556576],[-68.90664549060602,2.026488995528382],[-68.91611210961526,2.004597437462678],[-68.91611210961526,1.998089136443923],[-68.9137454535774,1.9909891714157197],[-68.91788710061519,1.9856641984158614],[-68.91907042760567,1.978564233387658],[-68.93031203864325,1.976197578378219],[-68.93563701369999,1.9726475963783514],[-68.93563701267152,1.9655476303216801],[-68.94155365070924,1.9637726393217463],[-68.94037032371881,1.947797718265349],[-68.93682034069047,1.9418810812560423],[-68.94392030571868,1.9359644442467356],[-68.94392030571868,1.9294561432279806],[-68.95161193475639,1.9188061951714417],[-68.95338692472785,1.9117062301431815],[-68.95930356276563,1.9140728851526205],[-68.95989522677507,1.9069729201244172],[-68.96462853576543,1.9034229381244927],[-68.96462853576543,1.8945479820963556],[-68.95871189772771,1.8862646890491988],[-68.94628696072806,1.8862646890491988],[-68.94392030571868,1.875614742021071],[-68.93504534866207,1.866739785992877],[-68.95042860673743,1.8620064759740558],[-68.95279526174681,1.8519481929554331],[-68.94924527871854,1.8460315549177153],[-68.94924527974695,1.8371565988895213],[-68.96522019977488,1.8294649708802808],[-68.96522019977488,1.8063900847956802],[-68.9309037026527,1.8034317657767929],[-68.92557872862443,1.7850901897110134],[-68.90546216258713,1.7720735876734466],[-68.89540387956845,1.7631986316453094],[-68.89422055154955,1.755507003636069],[-68.90013718958727,1.7342071085514021],[-68.9047951661916,1.7248911563712],[-69.39969084494032,1.7254727879238771],[-69.40028614140874,1.7274397192079505],[-69.41199690426919,1.7295396466217312],[-69.41191287640163,1.7354865990311623],[-69.41382777980715,1.738093442677041],[-69.41496526191548,1.7367667867949308],[-69.42393579624911,1.739599685191763],[-69.42895009013381,1.735801110123134],[-69.42808797556677,1.742159759385629],[-69.4298659901877,1.7453612125003701],[-69.43213939322862,1.7379046987921924],[-69.43377905250594,1.7390929489370137],[-69.43492297883512,1.7442617889358871],[-69.43774721774594,1.7432085681515446],[-69.4381056731583,1.739503120609868],[-69.44002115352004,1.73872368870758],[-69.44093570117207,1.7429331337615395],[-69.44344741079965,1.7451274886535657],[-69.4427215401837,1.7493368195504218],[-69.44750486027687,1.7493803000431853],[-69.4466731958359,1.7442572133951444],[-69.4529603282341,1.7438430102275788],[-69.45369315317839,1.7472740651915046],[-69.46244366354802,1.749191580841],[-69.4624048727531,1.7535841431707695],[-69.47187410503471,1.751064023968695],[-69.47306450770975,1.7533047605899128],[-69.46915079850112,1.7556398331579999],[-69.47215680434272,1.7558664730927376],[-69.47347640305225,1.759297407728866],[-69.4782069393616,1.7517473551167768],[-69.47683353665326,1.7474019088241448],[-69.48234222753928,1.745341669007189],[-69.48267024208155,1.7508767096190354],[-69.48444788543475,1.7506467447296359],[-69.48544704716653,1.7477646199316155],[-69.48918626258984,1.7513311701404746],[-69.48910181306087,1.7602050792141881],[-69.49060524587065,1.7599304706635053],[-69.49051388520792,1.7551745945589232],[-69.49465567211388,1.7534794364095205],[-69.49857767879672,1.7564965885110837],[-69.49702876003124,1.7597909439238606],[-69.5014011597454,1.75951445846556],[-69.50423116204814,1.7612517004828874],[-69.50736765359113,1.7594666883389891],[-69.51083812052929,1.7639927538205598],[-69.51283746009403,1.7638106526459865],[-69.51283745083805,1.7596926299612505],[-69.51533903647743,1.7592801916011354],[-69.51875792496634,1.761564865343587],[-69.51648498780992,1.763259083496564],[-69.52081722581528,1.7670999748610257],[-69.52023075338366,1.7706227463287973],[-69.52396130932095,1.7700263196020387],[-69.52404629261162,1.7650396414558713],[-69.52637257610996,1.7662747998924146],[-69.52647213860178,1.7695226511913233],[-69.53220942757713,1.7694269998664254],[-69.53439093413675,1.7680542358208982],[-69.53502393742167,1.7638001666460354],[-69.53994511406387,1.7645306745093308],[-69.53754213549314,1.771300664783837],[-69.5390915016311,1.7761027446970274],[-69.54741522995278,1.7769260561278202],[-69.54686597891276,1.802740847808309],[-69.56883601537015,1.8219646290657465],[-69.57707477891313,1.8313018926318136],[-69.58146878517618,1.8334988978202205],[-69.59959406435365,1.8549196832376538],[-69.60508657372515,1.8571166853407135],[-69.6160715904112,1.8659046999237034],[-69.61936709459422,1.8763404665981511],[-69.61881784355421,1.8840299791011716],[-69.61167758311967,1.887874734324214],[-69.60014331539367,1.9010567561986704],[-69.59849556330215,1.919731286416095],[-69.59080604977072,1.9274207978906475],[-69.58641204350766,1.9356595624620923],[-69.58970754871916,1.9504893353995953],[-69.58421504037614,1.9532355885426682],[-69.58421504037614,1.9592773499825853],[-69.59080605079913,1.9620236041540693],[-69.59025679975917,1.9675161124970941],[-69.58586279246765,1.9735578729085432],[-69.58586279143924,1.979050381251568],[-69.58915829767915,1.985092140634606],[-69.62815510917721,1.999372663560564],[-69.63584462168018,2.007611427103541],[-69.64518188833159,2.010906932315038],[-69.64957589253771,2.016948691698076],[-69.6577322737212,2.019729277337717],[-69.66012687562761,2.0250275365431207],[-69.65920318717849,2.031015909475002],[-69.66216356616775,2.0332151165588357],[-69.65874484120116,2.035587133867523],[-69.66005028442788,2.0428129843738247],[-69.65767729935476,2.0466040106744003],[-69.64851389502496,2.052248669888968],[-69.64984173053062,2.056170565499997],[-69.6477286205407,2.0595328166309628],[-69.6398482640733,2.062190207198171],[-69.63771066583854,2.06789371800744],[-69.63169070429467,2.071857903174873],[-69.62703809821721,2.0715860683336587],[-69.62297752021783,2.0767046740576802],[-69.62152033235435,2.075839499874121],[-69.61522474615862,2.0778479041312607],[-69.6119375703031,2.086354067871298],[-69.6061013132757,2.08992169485947],[-69.60564314727583,2.0918914697871287],[-69.60358978465405,2.0915220902583656],[-69.60371930773329,2.0948121272409708],[-69.60089812638205,2.098931538323086],[-69.60088973531958,2.106168371567037],[-69.59851732000362,2.109234725387182],[-69.59622856128743,2.1174786044032317],[-69.59244421060731,2.1187567846471893],[-69.5920338425019,2.117336181569442],[-69.58833993305689,2.1175609178570767],[-69.58410555238561,2.1203044713385566],[-69.58546247841633,2.1236504309115958],[-69.5792683089943,2.125429712573691],[-69.57702521004063,2.1306036269079414],[-69.57547567215278,2.131105615872002],[-69.57679621085873,2.1350008264849976],[-69.57601779608609,2.139169306616566],[-69.57460633380543,2.1399455236075937],[-69.57446834972961,2.13733458676046],[-69.57214181014905,2.137698452808934],[-69.56825115039419,2.1431440292060415],[-69.56395376630581,2.1448081078225414],[-69.56481682909686,2.1503286196269187],[-69.56068999985888,2.1518877765376487],[-69.56089587348225,2.157648027549101],[-69.55612670064437,2.1589905214460146],[-69.55560024091903,2.1646386711944956],[-69.54488090281728,2.1696880431966292],[-69.538975653752,2.1889938437733463],[-69.53615252658756,2.193178869488179],[-69.53502394667765,2.204437360352813],[-69.5317814545927,2.201364526316354],[-69.52736294568666,2.2100085897999975],[-69.52311391999393,2.2090032347873603],[-69.51622358857492,2.2145738533396866],[-69.51520173323053,2.231024223372458],[-69.51895584667221,2.236302277796142],[-69.51877959733554,2.2382325800714966],[-69.51272176648132,2.248303786498866],[-69.50522230912736,2.2457875620086156],[-69.50349076262472,2.248593508012391],[-69.50361196251868,2.264582362408021],[-69.49946149041563,2.2696426071044016],[-69.50171350699435,2.2776338677277295],[-69.4954722061085,2.284949370653692],[-69.49969869451189,2.2993236556556553],[-69.50049157535705,2.3119583918438025],[-69.49712678911527,2.319864408980493],[-69.4921909828783,2.3202866000610243],[-69.49242639439927,2.3229973246288864],[-69.48575879071967,2.324110137486514],[-69.48607151952075,2.320939256882525],[-69.48392777737041,2.3208505341748946],[-69.48160806047753,2.3256323198318114],[-69.47972351875205,2.3192028941836043],[-69.47793811168629,2.319848890811329],[-69.47725952062984,2.3228821997448676],[-69.47177986473298,2.3252343403449913],[-69.4697286135036,2.3256506723885764],[-69.46945276362283,2.323675676058201],[-69.46739421456539,2.3228976150697918],[-69.46616500875416,2.325425404396128],[-69.45963553930301,2.326492856768027],[-69.45704099068746,2.3303563502137763],[-69.45256288250897,2.3299499693800385],[-69.44827452917434,2.3331728418671105],[-69.44416268434384,2.3324437059461616],[-69.43860030258764,2.34090599529992],[-69.43312207005528,2.3435337605519635],[-69.43252709960308,2.3415583405032976],[-69.43038344487036,2.3411489473614324],[-69.43024546902205,2.344595063866052],[-69.42641615894871,2.3468519573191884],[-69.42448515013336,2.3414328345205604],[-69.42229543865932,2.3400576752324014],[-69.41667311207402,2.3405717525097884],[-69.41749707450896,2.3379977984556604],[-69.41488726483487,2.3342805875884665],[-69.41629118554653,2.3314291474014226],[-69.41167541313786,2.3300571845126115],[-69.4140478551933,2.3262862519219993],[-69.402856228519,2.324924465471895],[-69.3997507126362,2.3281909644906023],[-69.39490657559469,2.3258076322573515],[-69.39426476781335,2.323787665220948],[-69.39713324415067,2.318683405241643],[-69.39274591967865,2.3153350000322916],[-69.39273889850159,2.312026582724968],[-69.38912276913578,2.308495480872864],[-69.39103707912994,2.3036663117837293],[-69.38719185390869,2.2979296696987603],[-69.37526690349551,2.2980393582355987],[-69.37251984302509,2.294551244252318],[-69.36768349643563,2.2956600934924722],[-69.36256391677654,2.2947023430271543],[-69.35428512419384,2.2886030505127337],[-69.35346768516979,2.2909486862139374],[-69.35707809433836,2.293423972521282],[-69.35292704322217,2.2959573462905496],[-69.34666404528451,2.2953686493377177],[-69.3438878346393,2.298726111011888],[-69.3342419138761,2.2963516881761166],[-69.3216461258346,2.3048237148236694],[-69.31310826858146,2.306765149989303],[-69.30876689800652,2.3066327575554055],[-69.30488344146306,2.3042038519487846],[-69.30031198361405,2.3045775684196883],[-69.29730715122537,2.306650249305733],[-69.29676555282617,2.311199433146669],[-69.28872369694471,2.313232392497355],[-69.2826590937965,2.318387239507331],[-69.28101846881162,2.3213768807715383],[-69.28459049136313,2.32444973126303],[-69.27691349192025,2.3239091664485727],[-69.26796415481539,2.329711120804177],[-69.2636307114754,2.329947367420459],[-69.2635851463296,2.3324743535332004],[-69.26706413494242,2.334537617999615],[-69.25967075629205,2.3391883996200704],[-69.25600851876277,2.337999149829102],[-69.25417598023324,2.3345549801662173],[-69.25184980883517,2.3379126321022454],[-69.25043122356163,2.3358931319787644],[-69.24660215517235,2.3370006185326133],[-69.24755508841287,2.3334163112352257],[-69.24563228965417,2.331809600170857],[-69.24189408107605,2.3393964196030197],[-69.23394350049654,2.338764433447693],[-69.23060912118632,2.335414218179551],[-69.22933567074944,2.341987254512617],[-69.22120185976553,2.3399764221027226],[-69.21869251144199,2.342874763382383],[-69.21570123186882,2.3565263649117583],[-69.20980960658159,2.360852699657073],[-69.20321956083762,2.352270400317366],[-69.19573434741255,2.355082308202384],[-69.19372820264368,2.3581641030584706],[-69.19121018557814,2.351687916185824],[-69.18786862053997,2.3495333003127143],[-69.18704406469374,2.347098681707905],[-69.18037644558751,2.349910583422229],[-69.1766759613094,2.349547758157655],[-69.17767513024029,2.345273095449784],[-69.17278461969715,2.3448649837473],[-69.17538589021302,2.3399906218086244],[-69.1671536613938,2.334947392693664],[-69.16514682653997,2.3398671655117482],[-69.16299570017236,2.3348150259708405],[-69.15728886235155,2.337349217351857],[-69.1556786977772,2.331609197861667],[-69.14873590961912,2.3328578751750797],[-69.14123617150034,2.3281805720789635],[-69.14184023749812,2.331855904766826],[-69.13992402282838,2.3336048895407657],[-69.13420888033426,2.331543359028501],[-69.12928013126981,2.3328829486036966],[-69.12881495129199,2.329207614887423],[-69.12493134870965,2.3300852229410225],[-69.12561120783573,2.3261786058720304],[-69.1222841623491,2.3289411845116206],[-69.12118539493093,2.3281140349333214],[-69.1219564080028,2.324390199867878],[-69.11191611758602,2.3297810425541456],[-69.10221793754465,2.3251517687520504],[-69.09765575110498,2.3254784370630546],[-69.09572532747336,2.321115620376304],[-69.08645618896821,2.321587113962778],[-69.06698484719828,2.3151770508018217],[-69.05944693637855,2.317208597072522],[-69.05575401526676,2.321257162863276],[-69.05127570962736,2.3226407831480174],[-69.04928409160902,2.331788567492879],[-69.05212203245952,2.339918913654003],[-69.04975717311072,2.343505884617514],[-69.03307120129512,2.3373686209768607],[-69.03101898435824,2.3383824812091234],[-69.03110895765201,2.3404502080875886],[-69.0344058965124,2.344765352349839],[-69.03185032072605,2.3475261034471373],[-69.02188628006604,2.3450108354084023],[-69.00658871902044,2.3473735648527168],[-69.00624518836588,2.3679610711744203],[-69.00931976869776,2.37360916950081],[-69.00726799193427,2.37632366948111],[-69.0025602788213,2.3755467274381203],[-68.99628919321174,2.369168441094132],[-68.99208508988818,2.368759355456575],[-68.99016993451426,2.370553217348288],[-68.99081993795403,2.3782724292143484],[-68.98954389481361,2.3794685181480304],[-68.9829677834374,2.383015535148161],[-68.97529171473502,2.381921696026552],[-68.97346841984682,2.3839916535968086],[-68.97356759461582,2.389552459779054],[-68.97233214410159,2.39006011751826],[-68.96935590344339,2.385788987510523],[-68.96963117328261,2.3833979872097757],[-68.9636875982784,2.382119195042492],[-68.95849116825212,2.3936599614968372],[-68.9518239800633,2.392243771465928],[-68.94743632031907,2.393396994915406],[-68.94200495185532,2.3988724372832735],[-68.93786137443095,2.4068734917647134],[-68.93278744322146,2.4050860000459693],[-68.91638397325283,2.4074496098370446],[-68.91330936515305,2.397342559102583],[-68.90888379187533,2.3976240345639894],[-68.9041313199155,2.4014893874337986],[-68.89754498684908,2.3969013253803837],[-68.88448421012009,2.3993517110374114],[-68.88152420137015,2.403675702990654],[-68.87914397914705,2.4015168992996223],[-68.87841108735398,2.4023454804699327],[-68.88559822008477,2.4145618842937893],[-68.88427873244706,2.4165848646667314],[-68.87696901142493,2.414525736596147],[-68.87274971800542,2.40772900784458],[-68.86489948359093,2.4083353168754797],[-68.86306762486191,2.4103129151653775],[-68.85539251261105,2.406415784450189],[-68.85095974640637,2.4086720063303915],[-68.84899962855394,2.4134537590771856],[-68.84484940636247,2.41469898905126],[-68.8327786392552,2.4087387831031037],[-68.8278418930218,2.4079164157825517],[-68.823676324411,2.402130041302655],[-68.82092202576212,2.3916551958693617],[-68.81718343048959,2.3982770194586465],[-68.81011099789606,2.404304931891602],[-68.80715038647878,2.415751245156514],[-68.79774318470771,2.4189319309314783],[-68.7917997577992,2.417192008792995],[-68.79048040694431,2.4197672658837632],[-68.7826284396042,2.4236353862924034],[-68.77815032525507,2.4289704030618964],[-68.77527447498494,2.424929995905643],[-68.77540430762537,2.420058451899422],[-68.76377618834886,2.4011363262024474],[-68.75974795486667,2.399349436122577],[-68.75569041385808,2.4033483003717038]]]}}]}