{"type":"FeatureCollection","features":[{"type":"Feature","properties":{"code":"943019"},"geometry":{"type":"Polygon","coordinates":[[[-69.54722947575033,1.7766474253384672],[-69.54883454130669,1.773803241841847],[-69.54869667550173,1.7683369001618416],[-69.55026242370059,1.7682849771844076],[-69.55071814200727,1.7729120202946547],[-69.5521221923027,1.7730349428297814],[-69.55304573471295,1.7699703558739088],[-69.55605965750505,1.7703248805789826],[-69.55712618942084,1.7674020613389416],[-69.55891275965513,1.7677304368645537],[-69.55819565342631,1.7641867972696446],[-69.56104117389822,1.7614756602964121],[-69.5619880331572,1.7635746034906106],[-69.56540526482524,1.7634105627951158],[-69.56595437908237,1.7618663398981766],[-69.56309374256239,1.759711422691396],[-69.56631377243434,1.7586616924410237],[-69.56773979540412,1.7561898760987447],[-69.56899858025065,1.7594413032923057],[-69.57183719061726,1.7558764335585124],[-69.57475149743851,1.7571620329868551],[-69.57553050665098,1.7545562064706246],[-69.58016845947947,1.7595468729168715],[-69.5802239655506,1.7536947963866965],[-69.5819538130662,1.7520057471858195],[-69.58281646448029,1.7556191450082679],[-69.58663933650342,1.7572709615046733],[-69.58637164011486,1.752606429607738],[-69.59238443032899,1.7517464593433374],[-69.59362027782203,1.7463541161594094],[-69.59653470599955,1.748095554222175],[-69.59940361222584,1.7468655997047904],[-69.59822820938496,1.7419260787333997],[-69.60469054210847,1.7418435513635018],[-69.60834519487412,1.737963635747633],[-69.60998538997006,1.7381940840050447],[-69.60975634450824,1.7355873781704076],[-69.61294538020798,1.734906389814455],[-69.61560029737097,1.7275043948726534],[-69.61663819744712,1.7343184436247157],[-69.6184546675907,1.7353263666582848],[-69.62197204282057,1.7307596468439783],[-69.61773687847608,1.7276447063139244],[-69.61833266654003,1.7262283507037637],[-69.6230242217926,1.7262360804777472],[-69.62484830035396,1.7230374288404278],[-69.62899217294137,1.7235464832045864],[-69.63259207554114,1.7219974266278086],[-69.63563664694874,1.7256595592559165],[-69.63445313792391,1.7293607325905214],[-69.63717686406204,1.7303702507384173],[-69.64086998160639,1.7287306696227347],[-69.64123615650828,1.7263534885041167],[-69.63678101345124,1.724335745988924],[-69.63714649106913,1.7227356632366195],[-69.64219769884113,1.7227430381979048],[-69.65245901801029,1.7170428256038122],[-69.65481730149759,1.722578264222875],[-69.66040925611838,1.7275701905112442],[-69.66241630591674,1.727115618917935],[-69.6631946774948,1.7218134464887385],[-69.67070993583962,1.7219155348353752],[-69.66942770558899,1.72424560917284],[-69.6721514163005,1.7316112856955215],[-69.67475290073241,1.7293739172235973],[-69.68007818329346,1.7306166223713149],[-69.6819475842882,1.726732510709951],[-69.68444906502646,1.728518599633162],[-69.6887838710528,1.7270167187431298],[-69.70111318449545,1.7336182933277087],[-69.70507348317858,1.7333040568298657],[-69.70749244477452,1.7301069314012807],[-69.71249646143309,1.731852125336104],[-69.71473378568203,1.7311692076219742],[-69.7185534633627,1.734557870185256],[-69.71969190192254,1.7334164337154334],[-69.71769119247239,1.7295726997357974],[-69.72165232625082,1.7318643864278442],[-69.73600362350561,1.7308786849517332],[-69.73350158123776,1.729732759330318],[-69.73578297219166,1.7249801999528813],[-69.7431526041043,1.7283742566971796],[-69.74575443306446,1.7235772624322863],[-69.74898979084372,1.722942190949425],[-69.7498597040904,1.7186918272529965],[-69.7470821081331,1.7190072783414507],[-69.74535793556333,1.7141575136624283],[-69.75000416015502,1.713250015983931],[-69.7530106719903,1.7172319767518616],[-69.75406353076283,1.7133009825098497],[-69.7567871972513,1.7165513072130238],[-69.76038755853642,1.716008313217344],[-69.75947977597934,1.7132169474431862],[-69.76184509092815,1.7124434260000498],[-69.76234920054065,1.7104324640063737],[-69.7672236046455,1.711215712458852],[-69.76823152048001,1.7068296899951179],[-69.77228273142492,1.7065598729581097],[-69.7724271432665,1.7045942951043571],[-69.76828449452569,1.7041768687979584],[-69.76910081254738,1.7028068722912622],[-69.77743989448743,1.7026357466552327],[-69.77616610980675,1.698153220287736],[-69.77817269372059,1.6975140833715727],[-69.77676895401481,1.6935351379971735],[-69.78336833184613,1.6949161480948192],[-69.7813616965102,1.699119680632748],[-69.7861456460102,1.69729749851939],[-69.78745816183607,1.7010018003761047],[-69.7930200766794,1.6974442366979474],[-69.80020852170281,1.703534645525849],[-69.80175545043204,1.7030798754431657],[-69.79894066393638,1.6993727134878327],[-69.80422018389066,1.6979162414203302],[-69.80422832504166,1.6937103722610232],[-69.80650197799406,1.693393017525466],[-69.8106438523177,1.6952735514104802],[-69.81023225933728,1.6970109137555482],[-69.81291815113201,1.699253461464025],[-69.81679356936877,1.6980248768320507],[-69.81733519347904,1.6993061506311165],[-69.81410068930711,1.702502725842976],[-69.81919743342849,1.702188859584453],[-69.81883064763173,1.70442912517899],[-69.82361439041478,1.7053501170518075],[-69.82301217458507,1.7096928667681368],[-69.83116742345334,1.708835180674555],[-69.8334416461629,1.7113530691847814],[-69.8342116750153,1.7162468090374432],[-69.84181726146653,1.7127369805187982],[-69.84268844998195,1.7088507338107775],[-69.8459697421178,1.7104098290149636],[-69.84647336836235,1.707072873456184],[-69.84952458248017,1.7078084906219146],[-69.85120179327919,1.711331250776766],[-69.85398006183789,1.7083172426239344],[-69.85711585609687,1.7159570021631794],[-69.85881027376769,1.7121649412494548],[-69.86057993949225,1.7139044653807218],[-69.86066407946004,1.7184315829589423],[-69.8701861634027,1.717255525000212],[-69.87004840249892,1.7187642141796573],[-69.86576029907576,1.7200387496233702],[-69.86617232297363,1.721685621368124],[-69.87040730631219,1.7221482837186954],[-69.87139911570841,1.7260822419320334],[-69.87540411050344,1.7287394144694304],[-69.87696049061935,1.7245805667305376],[-69.88151570627565,1.726186552742945],[-69.88379061701329,1.7289791259086087],[-69.88296548421079,1.7317675904463954],[-69.88792421751685,1.7312713545898077],[-69.88819940405222,1.7345177598986083],[-69.8895648856963,1.7320963259268751],[-69.89489068453548,1.7379104467574393],[-69.8975679168442,1.7386453131600774],[-69.89852233207046,1.741252915796565],[-69.90066563507582,1.7402503694604547],[-69.90021609462337,1.7378259530054265],[-69.90654821418269,1.7385199347041862],[-69.91059242760468,1.7407663596409861],[-69.91008887849335,1.7425026194956672],[-69.911911735265,1.7445631339067518],[-69.91568844873103,1.7436538426244965],[-69.91947316965047,1.745213093123482],[-69.92134175200499,1.7417864409219987],[-69.92643852389432,1.7433474747403466],[-69.9289034548139,1.741842172222107],[-69.93103926047337,1.743262447226698],[-69.93541109145883,1.7418047585117051],[-69.94146884517988,1.744099099613834],[-69.94753445517335,1.7402661200576404],[-69.95645328250248,1.741877862262811],[-69.9699433496508,1.7385577515640875],[-69.9740405556305,1.741352307566899],[-69.97426181886772,1.743181642497973],[-69.99151897840227,1.7483251056776794],[-69.99114587591157,1.7508855501109224],[-69.99956896000805,1.7586239506574657],[-69.99956847046946,1.756795030188698],[-70.00321570507924,1.7558390033930777],[-70.00484835860613,1.7578987176758574],[-70.01432488871586,1.756905313165305],[-70.01737577578899,1.75814333992804],[-70.01968809920857,1.7630393639515205],[-70.02319722118716,1.7643240933174411],[-70.02862266787889,1.7619533924151938],[-70.03298631349031,1.764519825469165],[-70.03909043968457,1.7644362449741493],[-70.04122609930516,1.767639981231241],[-70.04568981648742,1.7675077173526574],[-70.04645979494614,1.769521091044055],[-70.05083201468284,1.7702585779182414],[-70.05260177399572,1.7768450467390835],[-70.05410491267094,1.774606050242653],[-70.05560845758089,1.7773517737377915],[-70.05838543647269,1.777858554215527],[-70.05728699609921,1.7815604608296098],[-70.0609720825359,1.7834404866640057],[-70.06287899185776,1.7892960794391684],[-70.06214678809278,1.7915356703753673],[-70.0662824753062,1.7979882555206927],[-70.07430110072801,1.7984097410896993],[-70.07667340497215,1.796949581027377],[-70.08094661963293,1.8030828913349524],[-70.08986507466591,1.8072091261331593],[-70.09822745699961,1.82116719222023],[-70.10413975398149,1.8270732157027396],[-70.10805405660142,1.8303247035744334],[-70.12161906635606,1.8361949454848627],[-70.12403051312248,1.8394442695134785],[-70.12389312348643,1.842279097268488],[-70.1324461440961,1.847183083493917],[-70.13272088120209,1.8501553265960524],[-70.13858777861742,1.8559245651666743],[-70.13762665074688,1.8567005497296805],[-70.14190681047995,1.8628339124878721],[-70.15145913988869,1.8690644064996604],[-70.15665509580299,1.8686599755929478],[-70.15897441674542,1.8715433232090959],[-70.16608533674338,1.8689000140768144],[-70.16703823604536,1.866294686355218],[-70.17195989502704,1.8678096562331348],[-70.17527046589299,1.879611132865989],[-70.17453107640011,1.8854644671813503],[-70.16796218263352,1.8932302510384034],[-70.16553518273088,1.9018241501813122],[-70.1580960239902,1.9170880112224609],[-70.15703614301214,1.9232601647755132],[-70.1603091119627,1.9320441951721818],[-70.15506027559098,1.9406803396483951],[-70.15454835084375,1.9463496084640042],[-70.15153452575373,1.9525193503193918],[-70.12069659249761,1.9542642511481176],[-70.11462309743536,1.9612523956781729],[-70.10810799841153,1.9649024317653812],[-70.10426969049462,1.9703389342141122],[-70.09734160392236,1.9746740343750275],[-70.09518977924222,1.9834970005770174],[-70.0904904962726,1.9880177675226491],[-70.08994055617609,1.9920411477845619],[-70.08615616435827,1.9936365963749267],[-70.0846454943985,1.9963325689632825],[-70.06902859578014,1.996128995965762],[-70.06483347178829,1.9979533501497713],[-70.05777441306122,1.9967084914433713],[-70.0531740302664,1.9937759760472886],[-70.04342269517343,1.9954094842099153],[-70.03659470485462,1.9927934030933443],[-70.02817185318611,1.993423707745137],[-70.02671388987699,1.991088783272744],[-70.00711425607352,1.998059177913376],[-70.00197144801172,1.9975479185684435],[-69.98492720178962,2.0050241526619175],[-69.94173574144014,2.0086222657716917],[-69.93229773473024,2.011764624579257],[-69.92765962866383,2.0103856662244084],[-69.91729093803889,1.9996713849745902],[-69.89817059033084,1.990362284278433],[-69.8945240869437,1.9917757427659808],[-69.8900235432917,1.9888425218583734],[-69.87526681445559,1.9868086060561154],[-69.87043662000929,1.9866642970587804],[-69.86277727583916,1.9891225225331937],[-69.85394991304543,1.9869605841493012],[-69.84711312645777,1.9885510705045135],[-69.83573008400504,1.9842371593448433],[-69.83035057886906,1.9869265231615714],[-69.82462014137775,1.9823003758247637],[-69.81096449806927,1.9769756393666853],[-69.80965219821627,1.9735903614077301],[-69.80304520168278,1.9700594930120587],[-69.78446771118763,1.9701696289213828],[-69.77516662205869,1.9731280692964788],[-69.76810908851189,1.9711054149398137],[-69.75845721306649,1.9720050285779962],[-69.74730262883486,1.9683304096292318],[-69.73304259865449,1.971189788364029],[-69.7241463806057,1.9793145778502321],[-69.70893316830171,1.9783769653178638],[-69.7004564889802,1.9820671620854],[-69.69799281481738,1.9851269235890072],[-69.68054339618146,1.9882546013796514],[-69.66403357188665,2.0041395748533546],[-69.66333906465377,2.0091221597983235],[-69.65909679891371,2.014922837856716],[-69.6577322737212,2.019729277337717],[-69.64957589253771,2.016948691698076],[-69.64518188833159,2.010906932315038],[-69.63584462168018,2.007611427103541],[-69.62815510917721,1.999372663560564],[-69.58915829767915,1.985092140634606],[-69.58586279143924,1.979050381251568],[-69.58586279246765,1.9735578729085432],[-69.59025679975917,1.9675161124970941],[-69.59080605079913,1.9620236041540693],[-69.58421504037614,1.9592773499825853],[-69.58421504037614,1.9532355885426682],[-69.58970754871916,1.9504893353995953],[-69.58641204350766,1.9356595624620923],[-69.59080604977072,1.9274207978906475],[-69.59849556330215,1.919731286416095],[-69.60014331539367,1.9010567561986704],[-69.61167758311967,1.887874734324214],[-69.61881784355421,1.8840299791011716],[-69.61936709459422,1.8763404665981511],[-69.6160715904112,1.8659046999237034],[-69.60508657372515,1.8571166853407135],[-69.59959406435365,1.8549196832376538],[-69.58146878517618,1.8334988978202205],[-69.57707477891313,1.8313018926318136],[-69.56883601537015,1.8219646290657465],[-69.54686597891276,1.802740847808309],[-69.54722947575033,1.7766474253384672]]]}}]}