{"type":"FeatureCollection","features":[{"type":"Feature","properties":{"code":"660005"},"geometry":{"type":"Polygon","coordinates":[[[-75.71865408933678,4.806773104079753],[-75.7156577703953,4.804791514404428],[-75.71551251831619,4.797998651568264],[-75.716990284286,4.799604679746835],[-75.71966252144944,4.799114655683013],[-75.71950320644731,4.79418407290558],[-75.72365468333868,4.7967843921121585],[-75.72591274715944,4.79405249396973],[-75.73226616164953,4.797594471601542],[-75.73440511639996,4.800643436515543],[-75.74140058138386,4.802198953768254],[-75.734427650604,4.809947183139911],[-75.73227968052646,4.807324056163679],[-75.72872691658955,4.808434935549371],[-75.71865408933678,4.806773104079753]]]}}]}