{"type":"FeatureCollection","features":[{"type":"Feature","properties":{"code":"660017"},"geometry":{"type":"Polygon","coordinates":[[[-75.65834165375423,4.801538944611195],[-75.65098074097727,4.797476748871759],[-75.64568446255214,4.791612935755552],[-75.64913707675657,4.787297104493689],[-75.6432802272247,4.778667543077972],[-75.63656108109137,4.777218074704081],[-75.63213993731563,4.772723329411008],[-75.62836928034761,4.773005477473816],[-75.62529374973485,4.766682621096265],[-75.62248660559561,4.766949327094608],[-75.61908311494807,4.763329200172734],[-75.61196424097568,4.762433212822884],[-75.60549625696052,4.7594265724322895],[-75.60354940087439,4.755090843893015],[-75.6031390749352,4.744419930007268],[-75.5934596619129,4.742043507879259],[-75.58812351488507,4.735343180187158],[-75.5844675601112,4.735468774615981],[-75.58285456012078,4.733266138704778],[-75.57932987780686,4.7342280759596065],[-75.57873346239296,4.731514740176237],[-75.566149079779,4.724946105577089],[-75.56305107872572,4.719726050169243],[-75.55750371634406,4.716973776523673],[-75.55053055519306,4.71062174528879],[-75.53744201360138,4.706154658928767],[-75.53494872749303,4.70035268811813],[-75.52744543713385,4.69794893410176],[-75.52143183650696,4.700265523500889],[-75.51364087432017,4.708646654341749],[-75.50083956541107,4.704708749994438],[-75.48820163282363,4.711972925411203],[-75.48566899439078,4.716141139176102],[-75.46871694495513,4.720141736350911],[-75.46674624751455,4.7325333219881145],[-75.46100914982952,4.7360072887161095],[-75.4550429048669,4.7341342418926615],[-75.44911659638416,4.739382698769077],[-75.44563316181433,4.751685250080527],[-75.4367252174639,4.761938419871171],[-75.41987623750902,4.773188560810979],[-75.40866930966695,4.792947753357453],[-75.40541114411798,4.793363749100308],[-75.39849502450284,4.786650858982853],[-75.39498862584003,4.786563245964658],[-75.38648451178591,4.795981295747481],[-75.38023462854727,4.797798549564277],[-75.37425226171973,4.803205540855004],[-75.37677654302865,4.7839309483664465],[-75.37999013382199,4.776886090373694],[-75.37789328350823,4.769157400381403],[-75.38039226718809,4.7631078166077145],[-75.37974268746666,4.760914968383986],[-75.38289488641226,4.759002537354263],[-75.38850341746956,4.747298297904706],[-75.38454546363539,4.740290188220058],[-75.38363905919124,4.735075396381035],[-75.37771199274636,4.729725369492996],[-75.3832615189711,4.7250380452529726],[-75.3884796265088,4.716039498202008],[-75.39471916978636,4.715987592708075],[-75.40649890822965,4.707977194826356],[-75.41100814633467,4.699585086390073],[-75.41433505401005,4.696736023962217],[-75.41924890608459,4.6971238352377895],[-75.42339892155917,4.693590001842381],[-75.43091396598794,4.697470287697513],[-75.43864270843079,4.695325089272558],[-75.43829164649168,4.690854109229235],[-75.44080241612284,4.6813385630956645],[-75.44879065209665,4.678387067792869],[-75.45471091950805,4.680345157556644],[-75.46472118865927,4.678482304655461],[-75.47230556965422,4.672743545007279],[-75.47383904018466,4.666482830212033],[-75.47756188485994,4.666185009713729],[-75.47823366968385,4.663322385214315],[-75.49153260798914,4.666448036973179],[-75.50048870093298,4.675160645122276],[-75.50597449766008,4.685044656499201],[-75.50972062524562,4.685375462234447],[-75.51343615358087,4.688379949066416],[-75.5141075434828,4.693399310087443],[-75.51812882983575,4.693056537395023],[-75.52176792226612,4.695007365326148],[-75.52799430662162,4.6932079025364715],[-75.53671449850583,4.69751716924975],[-75.53925560719125,4.697340074533372],[-75.54589995367172,4.7015688028845375],[-75.55220331900665,4.701342499250529],[-75.56318929728644,4.7062279426573355],[-75.57049584659183,4.706511890494539],[-75.57400064808343,4.7104436714951134],[-75.5793576704375,4.710583207490686],[-75.58496217925614,4.714306571529505],[-75.59146645803622,4.714832419331515],[-75.59274338460875,4.714195270394782],[-75.59046058777386,4.711971797209742],[-75.59790028850375,4.7122754746882265],[-75.60914202398288,4.726243676076365],[-75.62163065654141,4.72485114639403],[-75.6236367159496,4.7283606530101565],[-75.62782725617319,4.729824597740958],[-75.63201884643655,4.734999416076164],[-75.63934665159195,4.740090867832407],[-75.64106676387064,4.74415899768519],[-75.6452603606254,4.7456655281638405],[-75.647518489238,4.750019761469332],[-75.65883214781621,4.754109276755855],[-75.66388487562631,4.758425049396465],[-75.6662741347738,4.761107927854653],[-75.6682134678029,4.767502205451365],[-75.67558127731542,4.775550279296283],[-75.68333801704892,4.7795083112921475],[-75.68830622231059,4.785174320973397],[-75.69562808923888,4.789023462503792],[-75.69550323837399,4.791015271812398],[-75.69387906538407,4.79151345965289],[-75.69225528320231,4.789770412077587],[-75.69175516291835,4.793131451703289],[-75.68725796170452,4.786782190064059],[-75.68402180688236,4.794214614563089],[-75.68326013001166,4.801347467126163],[-75.67539015875684,4.806949540592939],[-75.67164217894634,4.804086549968019],[-75.66989320137145,4.7993555786274555],[-75.67367542009026,4.791745602783578],[-75.66854811682788,4.7895270229279845],[-75.66714520296142,4.7892726448700955],[-75.66364711617103,4.792882481196102],[-75.66627004260101,4.796617663067877],[-75.6620229041003,4.800725297454733],[-75.65715117908826,4.798733152873808],[-75.65834165375423,4.801538944611195]]]}}]}