{"type":"FeatureCollection","features":[{"type":"Feature","properties":{"code":"660008"},"geometry":{"type":"Polygon","coordinates":[[[-75.77047398495739,4.812971681406452],[-75.77059993522732,4.80764931345152],[-75.76657961458187,4.8035922095309616],[-75.76296362714112,4.804563254672701],[-75.75934017629305,4.799729448336279],[-75.75080735635134,4.799403515361689],[-75.74822216964805,4.793504394785373],[-75.73760282392703,4.788027562991658],[-75.73277052734426,4.789536495912046],[-75.72050447134404,4.781919196528918],[-75.72044343122366,4.775218213718972],[-75.71829995235458,4.770746723568152],[-75.71949997508091,4.764346057286502],[-75.71366146370752,4.751900698503789],[-75.71582111277831,4.748107812779153],[-75.71546598026379,4.742024424099895],[-75.71361548409942,4.7385975795796185],[-75.71584293324327,4.731469744787603],[-75.71220966076913,4.735369065056943],[-75.71006526555777,4.731418778261684],[-75.71311609812341,4.727255382749945],[-75.70747606998549,4.727244252945013],[-75.70651381185661,4.725976628635067],[-75.71500299189694,4.724498455401999],[-75.71993872100069,4.721896864012024],[-75.72093816041195,4.714287841534372],[-75.74390549197796,4.710316377050788],[-75.74701118783821,4.712523733513137],[-75.74990294605726,4.711160749955923],[-75.75081015062966,4.712095942563053],[-75.75416780256569,4.709758571425937],[-75.75824156314127,4.711731559208033],[-75.76091916466089,4.711022991109019],[-75.76465061945697,4.714741294182147],[-75.77057929747127,4.714475062295776],[-75.77166254363493,4.718267440998261],[-75.77364540035143,4.719859527610026],[-75.77466017384063,4.718710441584733],[-75.77685003958106,4.72165168434401],[-75.78164940440598,4.719357566413919],[-75.78526635961117,4.72174712792355],[-75.78660090056206,4.718236714221121],[-75.79177422971247,4.716538755622707],[-75.79343693947203,4.718903761010324],[-75.796893059637,4.718740083354987],[-75.79691609160722,4.720300235798106],[-75.80018947399168,4.720904684376535],[-75.7995031007107,4.723560850068736],[-75.80130332146246,4.723443260008025],[-75.80082322598275,4.725426838691192],[-75.80267704093114,4.728031770462451],[-75.80631643469513,4.728078592364966],[-75.80701031149277,4.726848613164975],[-75.80910046870258,4.728969727523008],[-75.81193131638503,4.72704130421215],[-75.81176344062737,4.729537960526557],[-75.81254930132388,4.727896792524064],[-75.81317489982268,4.729516823975928],[-75.81487642711664,4.728552567583222],[-75.81936275357924,4.73429494837751],[-75.82297185251201,4.733684478268117],[-75.83036500696193,4.737907589266285],[-75.83803961938969,4.73343541828649],[-75.84014566397951,4.729250393600125],[-75.84354928523925,4.727629112590591],[-75.85101872132765,4.7340140755834454],[-75.85169689997866,4.731435760933039],[-75.8560840773834,4.728431196967847],[-75.85641271927557,4.731793905755751],[-75.84908744511722,4.738128816508038],[-75.84676877106511,4.747878231498817],[-75.84686006282215,4.75670579072505],[-75.8447996512553,4.759265779558234],[-75.8479054335047,4.776289878591456],[-75.8521242013901,4.778856648974568],[-75.86388935857536,4.773295931238408],[-75.86954325628909,4.772732360164753],[-75.86998588560783,4.776007698646936],[-75.87161100887863,4.7762761879646405],[-75.87405212415484,4.771800648835551],[-75.87286152196197,4.766570545544312],[-75.87730992769201,4.769282235819674],[-75.87877431876689,4.76803596300482],[-75.87904953821243,4.7626592583178535],[-75.88215510448896,4.759537585603084],[-75.88561105496092,4.758339436699032],[-75.888754611904,4.7547318290079374],[-75.8930766035366,4.756543609453672],[-75.8928361629317,4.755400864804926],[-75.89578892938943,4.755110085024114],[-75.89549167453447,4.753711632541297],[-75.89578172926332,4.752932746741976],[-75.89583648457148,4.752917647148934],[-75.89702414644717,4.754800920804769],[-75.89650011076083,4.758254832903674],[-75.89814341689538,4.758413090666863],[-75.89582333696228,4.760906392201832],[-75.88169394366446,4.770636384027171],[-75.86830857813521,4.789032262886394],[-75.85923762358868,4.794518023618082],[-75.8473102172548,4.79712796184748],[-75.8382390467354,4.802613370851816],[-75.82536073524955,4.803546684494449],[-75.80435905867051,4.813076040554165],[-75.78767124491429,4.810891777768575],[-75.78432838918081,4.813277478504972],[-75.77047398495739,4.812971681406452]]]}}]}