{"type":"FeatureCollection","features":[{"type":"Feature","properties":{"code":"661027"},"geometry":{"type":"Polygon","coordinates":[[[-75.58634448416291,4.9404922360054115],[-75.5760129480808,4.9379832836322635],[-75.5687814730224,4.9428009146247405],[-75.56818640898194,4.9369155268413465],[-75.56346871997658,4.937527254735926],[-75.55642997093236,4.924444047675593],[-75.5504537130534,4.924708859282816],[-75.54337642621113,4.928532130341637],[-75.54192292222876,4.92029187761392],[-75.5377553800368,4.916634606433604],[-75.53293977096234,4.908463522635884],[-75.5326260517711,4.901898042269977],[-75.53708314166977,4.896006604159254],[-75.53907513815494,4.887875888787335],[-75.54250687394779,4.885102231764904],[-75.56013263653705,4.885459133200584],[-75.57003486471638,4.88190787696044],[-75.57542096628259,4.88404423077975],[-75.58177534236648,4.883672204039897],[-75.59218861288934,4.876163752956131],[-75.59912560988761,4.873475400098414],[-75.60991996772884,4.864310973496686],[-75.60762956350464,4.868216624858178],[-75.61011018537181,4.865050396928154],[-75.6132759556449,4.8702714530105595],[-75.6161004866334,4.869872319611261],[-75.61780720961895,4.872649262507537],[-75.6169943811027,4.876694097108839],[-75.62155303381388,4.880113848461008],[-75.62207732249709,4.8882499765259695],[-75.6241470311843,4.889230259138401],[-75.62339286400089,4.891007825358429],[-75.62744469509664,4.8985855194201235],[-75.62776391131314,4.910904547409132],[-75.62424108945169,4.90978379806063],[-75.62453431795421,4.911749747182114],[-75.63036613622364,4.9131369166220225],[-75.63139930649265,4.89851386474453],[-75.62963942228487,4.887586136420509],[-75.63466155598684,4.881932756013384],[-75.63182162715697,4.877104258497241],[-75.63386748523374,4.876591121216336],[-75.63269825201951,4.868628717661636],[-75.63540472089221,4.866315169366999],[-75.6365318794945,4.860236359313831],[-75.62972497430422,4.8655870670308445],[-75.6269715549737,4.865626323710217],[-75.6240173702937,4.862110094165303],[-75.62375921168109,4.860352654565418],[-75.6279159326009,4.858976645783741],[-75.63097671740479,4.8549648498983515],[-75.62956945631186,4.841552896044675],[-75.63371512764525,4.844981105308136],[-75.63776217751172,4.857979112076464],[-75.63938814616222,4.858016870315112],[-75.63974205174492,4.861037565401148],[-75.64456707518224,4.8679512969727625],[-75.64374204625238,4.871314196022524],[-75.64530630218115,4.8774179951720384],[-75.6489233448039,4.878696432526624],[-75.65061722768462,4.883198700876733],[-75.65241781764729,4.882542605971935],[-75.65747622863069,4.884707776750588],[-75.65965771976374,4.882938249865788],[-75.65976435794005,4.884191683725874],[-75.6641978224572,4.883011145871478],[-75.66798052454396,4.877790166922239],[-75.6718956992832,4.879382409857271],[-75.67834271129846,4.878045516858322],[-75.68355693440878,4.880650965936184],[-75.68422671171288,4.882555928416309],[-75.68636982445645,4.881881797715039],[-75.68915725335262,4.8894391491837155],[-75.6877943654406,4.8958165644368705],[-75.68556089887954,4.898201405395355],[-75.68589804496293,4.900781442686991],[-75.6945672003871,4.909201426029313],[-75.69995746714557,4.910177658635121],[-75.70463168491415,4.919139637355443],[-75.71201237052696,4.924250289105032],[-75.71339840456636,4.930213639001977],[-75.71790152549528,4.937037742836537],[-75.7179351545372,4.943948623565461],[-75.71496465258826,4.956526341871893],[-75.70680851411726,4.953569574772814],[-75.69839388278979,4.943892047914062],[-75.69283180236727,4.945291461990621],[-75.68254608957,4.942854862605486],[-75.67714417158629,4.945767876674552],[-75.666966588207,4.943562966876925],[-75.66525812509673,4.941698691639715],[-75.66352598518273,4.94385029211935],[-75.65749921740633,4.94344262881782],[-75.65787974833734,4.945703313110073],[-75.65544586301206,4.9457978105224925],[-75.65458310978221,4.950194810581706],[-75.65289768789808,4.950689216839066],[-75.65430981969479,4.958014739880468],[-75.64668777713484,4.961522155672981],[-75.64576459570787,4.966356028858172],[-75.63922503517875,4.968855743760628],[-75.64221642582373,4.971031737868373],[-75.64085820704071,4.972227630369559],[-75.64153707474821,4.9741582432345695],[-75.6399500532159,4.974843935686579],[-75.63679985150566,4.971262642754255],[-75.62338670260175,4.970850101549786],[-75.62534747351515,4.967113798675712],[-75.62416431621767,4.964150962737278],[-75.61981525906339,4.962432824039752],[-75.61970027199067,4.95632222688522],[-75.6173514316626,4.955224830380928],[-75.61662628404173,4.952243391974264],[-75.61626799215173,4.941003254694806],[-75.61831243817693,4.934217553932342],[-75.61719186263514,4.933422950446015],[-75.61485714385128,4.932058828402944],[-75.60936263518755,4.933824090336657],[-75.60451108101859,4.931006908598363],[-75.59827720548776,4.929942615601931],[-75.59498886646372,4.9261126864062135],[-75.59167018735695,4.929527145393195],[-75.58634448416291,4.9404922360054115]],[[-75.63493421666743,4.868761789896041],[-75.63414891750051,4.869325102830601],[-75.63563288600716,4.86920682268493],[-75.63493421666743,4.868761789896041]]]}}]}