{"type":"FeatureCollection","features":[{"type":"Feature","properties":{"code":"661001"},"geometry":{"type":"MultiPolygon","coordinates":[[[[-75.65998568082694,4.818986255968355],[-75.66115633637719,4.818478199193464],[-75.66238093065215,4.820451564413929],[-75.66083281921402,4.820912686157612],[-75.65998568082694,4.818986255968355]]],[[[-75.65377351057549,4.859614947604541],[-75.65012420468247,4.858327887787823],[-75.65204537541666,4.854348378826899],[-75.65485399742784,4.852629375209233],[-75.65348182370832,4.850025654943238],[-75.64719452058864,4.846295086664611],[-75.64469217698706,4.8421600854223925],[-75.64961939470061,4.840140992562169],[-75.65699591306429,4.84140761002692],[-75.66104675376988,4.839692865189704],[-75.66035512309077,4.837546453202606],[-75.65377542245011,4.834118785928297],[-75.65850319739127,4.831551689528908],[-75.66414414598523,4.831694541223214],[-75.66816820604765,4.829677962904952],[-75.66843713142504,4.827653483062818],[-75.66297189120695,4.825711969735551],[-75.66166101368992,4.82281803430368],[-75.66280128287752,4.821238334253621],[-75.66944579802254,4.8279917676320565],[-75.67220767320748,4.826969332246108],[-75.67006723647137,4.825460124731592],[-75.67181241806492,4.825345123260718],[-75.67308387538014,4.822828253937018],[-75.67060107732863,4.818435711147686],[-75.6721239950104,4.815758417132372],[-75.67446083135741,4.816083053240959],[-75.66686834417851,4.81054760947967],[-75.6653435958691,4.812468336955135],[-75.6669946533749,4.813752663171613],[-75.66590907881738,4.815205336172426],[-75.65878300574735,4.812946208942151],[-75.6645997840734,4.808811680783435],[-75.67134950580282,4.8111219421758165],[-75.6739908804347,4.813695458113443],[-75.67531287850062,4.812078317613441],[-75.68328679958307,4.815052829459773],[-75.68262919492463,4.81663260047236],[-75.68511166798828,4.819437678470649],[-75.68088308773281,4.828233993613196],[-75.66428778340963,4.841230319906458],[-75.65377351057549,4.859614947604541]]]]}}]}