{"type":"FeatureCollection","features":[{"type":"Feature","properties":{"code":"661008"},"geometry":{"type":"Polygon","coordinates":[[[-75.6419673349888,4.861039563664974],[-75.6375168147809,4.857438271639353],[-75.63371512764525,4.844981105308136],[-75.62844563911926,4.840109673402139],[-75.6300706852569,4.838238453092629],[-75.63040584130397,4.831094599279879],[-75.63342726144202,4.82679227661049],[-75.63332007099206,4.825228210943635],[-75.627742550562,4.823905043538559],[-75.62686284757098,4.816456580478416],[-75.63126214928457,4.811081253904433],[-75.63099869110766,4.8058017349786155],[-75.63376491454756,4.804464317473958],[-75.63160091516488,4.801403632429015],[-75.63421414441041,4.797304712035668],[-75.63888071982262,4.795684595223008],[-75.63920535490274,4.7939867312413185],[-75.64156357051286,4.794780214753814],[-75.64602017910045,4.792072807941565],[-75.65098074097727,4.797476748871759],[-75.67531287850062,4.812078317613441],[-75.6739908804347,4.813695458113443],[-75.67134950580282,4.8111219421758165],[-75.66423256221702,4.808806399731111],[-75.65878300574735,4.812946208942151],[-75.66590907881738,4.815205336172426],[-75.6669946533749,4.813752663171613],[-75.6653435958691,4.812468336955135],[-75.66686834417851,4.81054760947967],[-75.6736945779175,4.815098326728389],[-75.67444826481824,4.816165510676797],[-75.6721239950104,4.815758417132372],[-75.67060107732863,4.818435711147686],[-75.67308387538014,4.822828253937018],[-75.67181241806492,4.825345123260718],[-75.67006723647137,4.825460124731592],[-75.67220767320748,4.826969332246108],[-75.66944579802254,4.8279917676320565],[-75.66268813568848,4.821308181955715],[-75.66166101368992,4.82281803430368],[-75.66297189120695,4.825711969735551],[-75.66843713142504,4.827653483062818],[-75.66816820604765,4.829677962904952],[-75.66414414598523,4.831694541223214],[-75.65850319739127,4.831551689528908],[-75.65370642218465,4.8342564964384565],[-75.66009978241061,4.837356075122614],[-75.66104675376988,4.839692865189704],[-75.65699591306429,4.84140761002692],[-75.64961939470061,4.840140992562169],[-75.64469217698706,4.8421600854223925],[-75.64719452058864,4.846295086664611],[-75.65348182370832,4.850025654943238],[-75.65504030801765,4.8530286176234085],[-75.65204537541666,4.854348378826899],[-75.65103293546355,4.857678536380604],[-75.64858762208496,4.857332800745326],[-75.64605228090522,4.861425731489419],[-75.64460395307407,4.859912753704691],[-75.6419673349888,4.861039563664974]],[[-75.65998568082694,4.818986255968355],[-75.66083281921402,4.820912686157612],[-75.66238093065215,4.820451564413929],[-75.66115633637719,4.818478199193464],[-75.65998568082694,4.818986255968355]]]}}]}