{"type":"FeatureCollection","features":[{"type":"Feature","properties":{"code":"662037"},"geometry":{"type":"Polygon","coordinates":[[[-75.98732208864732,5.029140327062919],[-75.9876330968641,5.0254607170826375],[-75.98453074344206,5.02327597812814],[-75.98604920282543,5.02101367301043],[-75.98130282130222,5.016682787406978],[-75.97119492621647,5.021379037499685],[-75.96686113731977,5.021029768135861],[-75.96221457951276,5.016411893590714],[-75.96255846292303,5.012348420525598],[-75.96112353055571,5.011871851575336],[-75.95811415862175,5.003539566611892],[-75.95868126239543,5.000718051016861],[-75.9568802404869,4.996188666751323],[-75.95820784562142,4.994161154032213],[-75.95439231359256,4.989395523150392],[-75.95651861644313,4.988073571364339],[-75.9607084316147,4.988894361054122],[-75.96327196857459,4.985688507233874],[-75.96511873046416,4.972444304696296],[-75.96868886068143,4.96638843508191],[-75.9735498847491,4.963899757424542],[-75.98580345237184,4.964699592597981],[-75.98607246722366,4.962156579237046],[-75.98377719743792,4.959991882570364],[-75.98494426680907,4.955443723058181],[-75.98746801332788,4.953662244642828],[-75.99374609851725,4.953501366408034],[-75.99192813713199,4.94679982309691],[-75.98846694983075,4.943731919413892],[-75.98580465873488,4.943440455718758],[-75.98514417752273,4.9359892528877936],[-75.99168210179982,4.9235590307220605],[-75.99219202622635,4.919721224685134],[-75.9893789716279,4.917274311049994],[-75.98929771849828,4.91319763792518],[-75.99403562154134,4.912701887493483],[-76.00190152941985,4.921309116279815],[-76.01187343046604,4.925869114193858],[-76.01383479376233,4.931090333798636],[-76.01668820033143,4.9316537927720105],[-76.02111341879646,4.936567566684914],[-76.02678132595418,4.937403901283346],[-76.02796436292385,4.938932106188076],[-76.02727042544814,4.9416502417126935],[-76.03120679433073,4.948748376113201],[-76.03081018575779,4.952010875518965],[-76.03442660822975,4.957108817775918],[-76.03396113103202,4.967159670297349],[-76.03821847991003,4.970529084530483],[-76.04325403684379,4.98406812508307],[-76.04644318670063,4.9867594254570236],[-76.04516135445726,4.994445644887094],[-76.04914400325322,4.999641229533609],[-76.04920504543048,5.0074662197980615],[-76.05443131983026,5.01040703781058],[-76.05697237709353,5.013860531333364],[-76.06518911551154,5.016636570228627],[-76.06615805645993,5.0224683617586265],[-76.07268138405232,5.030004887266273],[-76.07338317162976,5.046156247921147],[-76.06001650010018,5.030475950963762],[-76.03808592395382,5.028962333487755],[-76.02378476738556,5.024265298693479],[-76.01097073869937,5.03888215626165],[-76.00073894714342,5.0364040417373985],[-75.99396955850773,5.036713727377105],[-75.98732208864732,5.029140327062919]],[[-76.00072634049502,5.006260648624334],[-76.00173816852481,5.008064694153859],[-76.0061556839554,5.0045303095132],[-76.00446792750677,5.003685126195364],[-76.00423004155311,4.998804223362242],[-76.00304515338689,4.998295375715031],[-76.00072634049502,5.006260648624334]]]}}]}