{"type":"FeatureCollection","features":[{"type":"Feature","properties":{"code":"662017"},"geometry":{"type":"Polygon","coordinates":[[[-75.88179068822376,4.914104989564862],[-75.8864640205033,4.912941616416163],[-75.88643840200018,4.904060383803312],[-75.88956638112444,4.9046287875282815],[-75.89011757900613,4.898790343003725],[-75.88665993160402,4.892819995583864],[-75.90340138583667,4.876604890004785],[-75.90511693080214,4.877254962350207],[-75.90741476963728,4.883720248760596],[-75.91122515842517,4.884481517339623],[-75.91456117501588,4.882491846162964],[-75.91624890575343,4.878087779675241],[-75.91433612916705,4.874562547144535],[-75.91908960180149,4.8713617326926055],[-75.91899064094855,4.869281503038451],[-75.92101224423692,4.870424757794638],[-75.92600972822868,4.866817433953656],[-75.92921392008577,4.860944997346905],[-75.93377705372103,4.858269779757052],[-75.93944537534111,4.857648789709174],[-75.95500963415753,4.86304042738152],[-75.96255536216887,4.862264699929142],[-75.96807136939498,4.859748475438948],[-75.97341994926438,4.860387931172227],[-75.98119542516378,4.866609277187877],[-75.98872499737155,4.87589183172571],[-75.98990819683519,4.882792355010054],[-75.98765680966324,4.8863459118761625],[-75.98917594164806,4.887582543042356],[-75.98909161244688,4.892338756476079],[-75.98578057466801,4.903770154239169],[-75.98745077148908,4.911197007665066],[-75.99028308367366,4.91356598489773],[-75.9893789716279,4.917274311049994],[-75.99219202622635,4.919721224685134],[-75.99100536193987,4.926031887848183],[-75.98938392563554,4.926676825180095],[-75.98514417752273,4.9359892528877936],[-75.98580465873488,4.943440455718758],[-75.98846694983075,4.943731919413892],[-75.99192813713199,4.94679982309691],[-75.99418286879899,4.95240016878023],[-75.9933962264862,4.953831938686847],[-75.98746801332788,4.953662244642828],[-75.98494426680907,4.955443723058181],[-75.98377719743792,4.959991882570364],[-75.98607246722366,4.962156579237046],[-75.98580345237184,4.964699592597981],[-75.9735498847491,4.963899757424542],[-75.96868886068143,4.96638843508191],[-75.96511873046416,4.972444304696296],[-75.9634856408776,4.985282015328323],[-75.9607084316147,4.988894361054122],[-75.95409399327116,4.987226802188104],[-75.94533431330802,4.989937647083707],[-75.93809398027418,4.98855246665164],[-75.935568657153,4.984075480503975],[-75.93567597512981,4.9747420108623714],[-75.92022568728487,4.962990286164825],[-75.9170067701877,4.956913017746956],[-75.91773420917849,4.9531453854283995],[-75.91447678410816,4.951251839688666],[-75.91179237429907,4.951873881833251],[-75.9097872199203,4.946933705744016],[-75.90487989125666,4.944996648658162],[-75.904804694625,4.943042289055427],[-75.90036406083505,4.943454449736123],[-75.89693238572033,4.939385816974948],[-75.89783345563308,4.938305110035856],[-75.89551640240637,4.934008956993182],[-75.89271578064955,4.934353298060387],[-75.88921896398568,4.928000317573037],[-75.88151519315562,4.925803912995036],[-75.88178492380342,4.920551769152155],[-75.88005154153092,4.9193882221966305],[-75.88179068822376,4.914104989564862]],[[-75.95506533049058,4.949434163181991],[-75.95974461539544,4.953769512225961],[-75.95983857904616,4.950174612999092],[-75.95768762545686,4.9460356964761445],[-75.96063776835769,4.947343215099863],[-75.9614374914309,4.946198012473587],[-75.95786659810932,4.945482230878724],[-75.95707896334943,4.946129605619433],[-75.95798673665058,4.948415769575092],[-75.95506533049058,4.949434163181991]]]}}]}