{"type":"FeatureCollection","features":[{"type":"Feature","properties":{"code":"663017"},"geometry":{"type":"Polygon","coordinates":[[[-76.1473589998352,5.4079572362451245],[-76.13025824686736,5.397389884464133],[-76.10915816170899,5.409307449631569],[-76.08015694760121,5.368422486574843],[-76.04588119325786,5.361905787294461],[-75.99500183197483,5.361136339512143],[-75.96140164712381,5.346383170115587],[-75.95730323375261,5.344148637059675],[-75.95491617032985,5.340716925949437],[-75.9520243534896,5.334370840140707],[-75.95186401724402,5.328887428371786],[-75.9529015645644,5.322376827755534],[-75.95898984451628,5.313872643767354],[-75.96011967501227,5.288135504639229],[-75.9522918873842,5.281269869210462],[-75.95064324877524,5.273452316642363],[-75.95256654632857,5.270447002942603],[-75.94566112045874,5.261158434072911],[-75.94625614027615,5.253764547371929],[-75.94050344728879,5.254755608061998],[-75.93684230505079,5.252075376814844],[-75.92607632502393,5.248757508120775],[-75.92451158469873,5.2455331968426435],[-75.92777774021766,5.237517922086511],[-75.92848767820209,5.225980713014849],[-75.95883820272377,5.221203139858517],[-75.97003862566692,5.222452920690785],[-75.9746776645307,5.21982919618938],[-75.97754607093395,5.213770711245672],[-75.98405442440327,5.208862615363955],[-75.9854728883206,5.198280468408882],[-75.97955218999175,5.191863280198163],[-75.98036871575886,5.179279906486329],[-75.97608108644772,5.167944376021069],[-75.97837000662935,5.166346833521743],[-75.98088135733053,5.160044129475352],[-75.97869673973224,5.168062015446992],[-75.97996858374188,5.172613033000914],[-75.9876417244684,5.175542188475276],[-75.98986047298854,5.170647257686198],[-75.99160470532962,5.171116799288768],[-75.9928565523029,5.187448071564177],[-76.0079552105085,5.205706096959716],[-76.0158382872064,5.211654218708304],[-76.0227495834261,5.220085771000527],[-76.02794402547306,5.221498788286226],[-76.02899219043394,5.227583425494743],[-76.03113155039074,5.2262479064950185],[-76.03238258592285,5.237174772984133],[-76.03565933542814,5.236195258618238],[-76.03615603099854,5.232912833138698],[-76.03828348364789,5.233737181239576],[-76.04105597338804,5.240636611289517],[-76.04793404062997,5.240483807357009],[-76.0497278593271,5.24508332523169],[-76.05201967663129,5.245579572401141],[-76.05283525828816,5.247550880736583],[-76.05135390922459,5.252145027055974],[-76.05478378456496,5.257732214845703],[-76.05789500110461,5.257901466659462],[-76.06477966169155,5.253808590422807],[-76.0690448545007,5.249218899316361],[-76.07182957653617,5.248730888943044],[-76.07510060378729,5.251362782363344],[-76.07557876785194,5.259571775580753],[-76.07360781947136,5.263180227623138],[-76.06361206678628,5.266939803123023],[-76.06295381935126,5.268908702846147],[-76.06474779025791,5.273508212493255],[-76.07162309921699,5.2753251814314694],[-76.07276419321545,5.2786103106864175],[-76.0693157678574,5.284350464902616],[-76.07143046473414,5.293218767936139],[-76.06946067540832,5.29600634801335],[-76.0687965236848,5.301586843727648],[-76.07990259319752,5.3206479356630325],[-76.07891302683441,5.324914610457881],[-76.08512037574741,5.335102851586953],[-76.09026607887489,5.3374644775124125],[-76.10262908100913,5.338610899871583],[-76.1074028633264,5.340871814534978],[-76.11722497891884,5.349619061656483],[-76.12228212594636,5.35047197577677],[-76.14000008326519,5.341767462498808],[-76.14554021775285,5.341576616477482],[-76.15307036383155,5.344500893020552],[-76.1611341265671,5.35055454942659],[-76.16854759892743,5.359735833229649],[-76.17543654606277,5.359746031265672],[-76.1790991394331,5.357809478116678],[-76.19449210394896,5.357508218506553],[-76.19793937128077,5.355571227241057],[-76.20375024017613,5.35676630110197],[-76.20807161577159,5.350317966509579],[-76.21937178118395,5.3469706925870355],[-76.22486599365624,5.343633864555159],[-76.23142987582247,5.345153365750832],[-76.23746471275894,5.33998306844893],[-76.25016822089822,5.338382000448632],[-76.25631120576458,5.3326721822014065],[-76.25965824828762,5.324908717482231],[-76.26310444603916,5.32351074116832],[-76.27300697863745,5.323523748909281],[-76.27887909334169,5.333667586004196],[-76.27170722784007,5.351423969020857],[-76.26907487881971,5.367933785088155],[-76.23861021980423,5.364069535737144],[-76.23280384520268,5.364704494091313],[-76.22999624546338,5.369476673066686],[-76.23130073121007,5.383580451975149],[-76.22916408119931,5.389571341505871],[-76.21163140808466,5.392802657506024],[-76.19100748872717,5.416582705487997],[-76.17953248294435,5.426002873862387],[-76.15733813803143,5.430181265094518],[-76.1557587773674,5.4268486351649585],[-76.15718520348668,5.421070230086173],[-76.15348521080409,5.414283710683492],[-76.1473589998352,5.4079572362451245]]]}}]}