{"type":"FeatureCollection","features":[{"type":"Feature","properties":{"code":"663001"},"geometry":{"type":"Polygon","coordinates":[[[-75.96693119893791,5.082354868900495],[-75.96570102947607,5.076795511793762],[-75.96239867895116,5.077364373175669],[-75.96234283452236,5.075007854495766],[-75.95985729361468,5.074003947530173],[-75.95940994168791,5.070095124451996],[-75.96524167562507,5.0699244832123895],[-75.96486424750509,5.071675596862406],[-75.9668293430193,5.072706973527602],[-75.96637346119024,5.07634276671439],[-75.96926159106414,5.079207304116835],[-75.96860468677505,5.081706012174095],[-75.96693119893791,5.082354868900495]]]}}]}