{"type":"FeatureCollection","features":[{"type":"Feature","properties":{"code":"664017"},"geometry":{"type":"Polygon","coordinates":[[[-75.75484339365534,5.384302253044098],[-75.75135104043198,5.386007754239927],[-75.75730744834192,5.3741992122070315],[-75.7572382917532,5.367067207080538],[-75.75895509450385,5.362541622910101],[-75.76293095557924,5.358732837464174],[-75.76287740354883,5.3526812029761],[-75.76580721105574,5.350282712528497],[-75.76969020274322,5.340249213946095],[-75.7715297387956,5.339425924112561],[-75.77915928692909,5.3244550756010085],[-75.78753361976487,5.315534826964267],[-75.78573160849464,5.308711955203876],[-75.78731152863139,5.29933194750987],[-75.78935662154691,5.296395436614603],[-75.77725351609314,5.296194860498588],[-75.77023268148918,5.298627489067144],[-75.76794392277304,5.297178443383132],[-75.76341905542705,5.298520635946318],[-75.76049759475961,5.297150129332124],[-75.75562220746372,5.2985192064112425],[-75.75089106848702,5.295690322025564],[-75.75143251261989,5.291641610195995],[-75.74835893810484,5.287746124988814],[-75.74819102840854,5.284490778400766],[-75.75464528580142,5.282936197030779],[-75.76306047865847,5.273434860887505],[-75.76740236653995,5.2732558614955565],[-75.77300963158456,5.273773928101491],[-75.77970920851362,5.277229989645264],[-75.79162638801512,5.288268819586051],[-75.79789020459299,5.280358295814267],[-75.8027653244938,5.281458829068242],[-75.80621413037562,5.278109381018169],[-75.80783982237512,5.278646067575892],[-75.80796206510979,5.2767905053037225],[-75.81021200526305,5.2762554807090964],[-75.81372175562007,5.271537593214305],[-75.81788737668143,5.270040217930955],[-75.8209478015304,5.271369391440317],[-75.82334038666107,5.270437224511113],[-75.82433595090089,5.274560711310926],[-75.82732938711803,5.2778524472806225],[-75.827134151704,5.285598431562278],[-75.82387860662658,5.295860291692179],[-75.81898969428312,5.298500512411579],[-75.81558485946124,5.304180492455998],[-75.8137695853963,5.316278153335077],[-75.80824560876908,5.3198769524160525],[-75.80369969846066,5.3257090740760304],[-75.80680587151824,5.328607043059435],[-75.80749957862287,5.332799674106695],[-75.80464296537002,5.336332903806351],[-75.80384090567537,5.340758306362602],[-75.80012906327812,5.342200150892154],[-75.80072237896627,5.353664969951808],[-75.79741789545159,5.355073894036309],[-75.7943771210538,5.361033294713934],[-75.79587574692323,5.367354877879677],[-75.79447862215972,5.368324103706584],[-75.79174019546423,5.366035898292523],[-75.78885620095775,5.3669241383848885],[-75.78637586396917,5.371694594719031],[-75.78217171950797,5.370950439423552],[-75.78303427321998,5.373643878957978],[-75.77426071236818,5.377468071501312],[-75.77081241556544,5.382445702438645],[-75.76703536477027,5.382697968075604],[-75.76659973091756,5.384980392614295],[-75.76320539957908,5.386872162233772],[-75.76163324109802,5.385827971174763],[-75.7588711365704,5.3872377776629605],[-75.75484339365534,5.384302253044098]],[[-75.79387067687674,5.316088368666442],[-75.80117074699427,5.319933421109397],[-75.80155670604489,5.317025386759042],[-75.80416615165035,5.316202434254649],[-75.8045365164271,5.3137475162513965],[-75.79724496695582,5.315050071611552],[-75.7958006521074,5.314544172509045],[-75.79777533784807,5.31319105274406],[-75.79549837639604,5.311883318147409],[-75.79363647171886,5.3126817926913645],[-75.79534214055082,5.31437595942225],[-75.79387067687674,5.316088368666442]]]}}]}