{"type":"FeatureCollection","features":[{"type":"Feature","properties":{"code":"664018"},"geometry":{"type":"Polygon","coordinates":[[[-75.82334038666107,5.270437224511113],[-75.82456358636796,5.268743676902659],[-75.8276152920813,5.2711857393744594],[-75.83654168360516,5.271678068177891],[-75.83829682155073,5.269025917525312],[-75.83758717564399,5.267025357199316],[-75.84138702598136,5.271822300042061],[-75.84831419209758,5.271523058236141],[-75.8510766072148,5.273014091114476],[-75.84905432309745,5.27748608005993],[-75.85150390656935,5.281593935561887],[-75.8486812720289,5.286635389585058],[-75.8507026943114,5.293944145928094],[-75.84967304851494,5.300479752095725],[-75.85668533676153,5.30411430395236],[-75.85624200913031,5.3105016889273315],[-75.85802658932829,5.312170953979489],[-75.85913394732682,5.325288411261056],[-75.85437190982316,5.336989084071945],[-75.84703216136478,5.337427137849886],[-75.83928840057581,5.345810146626775],[-75.83353538671435,5.361191279939931],[-75.8279729977591,5.366190934973758],[-75.81834464587939,5.36253849644487],[-75.8144376215472,5.364783300556212],[-75.81044041206206,5.3622355131650465],[-75.79587574692323,5.367354877879677],[-75.7943771210538,5.361033294713934],[-75.79741789545159,5.355073894036309],[-75.80072237896627,5.353664969951808],[-75.80012906327812,5.342200150892154],[-75.80384090567537,5.340758306362602],[-75.80464296537002,5.336332903806351],[-75.80749957862287,5.332799674106695],[-75.80680587151824,5.328607043059435],[-75.80369969846066,5.3257090740760304],[-75.80824560876908,5.3198769524160525],[-75.8137695853963,5.316278153335077],[-75.81558485946124,5.304180492455998],[-75.81898969428312,5.298500512411579],[-75.82387860662658,5.295860291692179],[-75.827134151704,5.285598431562278],[-75.82732938711803,5.2778524472806225],[-75.82433595090089,5.274560711310926],[-75.82334038666107,5.270437224511113]]]}}]}