{"type":"FeatureCollection","features":[{"type":"Feature","properties":{"code":"520027"},"geometry":{"type":"Polygon","coordinates":[[[-77.13688742983203,0.9808772233972718],[-77.13096248917788,0.9685590305035703],[-77.13112390323118,0.9619690084138028],[-77.1295576151,0.9579652703755528],[-77.1324131454029,0.9535919933999253],[-77.13404632549236,0.942392358243751],[-77.13164896735998,0.9352462871089529],[-77.13160825749134,0.9273611195874878],[-77.12806438958222,0.9225553856180113],[-77.13220452480954,0.913632025942718],[-77.13462786859901,0.893118159190692],[-77.13781159650694,0.8897447772263263],[-77.14477649103696,0.8871199924006987],[-77.15045297849059,0.8729347762713928],[-77.14928127598591,0.8655009448629585],[-77.14393761721391,0.8630405905125826],[-77.14207412564991,0.8596608311761997],[-77.15110150920066,0.8427929484478227],[-77.14621451490251,0.833432802035702],[-77.14629535768358,0.8291474836349266],[-77.14103790090667,0.8214237867310885],[-77.14037165527418,0.8191742435565743],[-77.14287909275151,0.8164830573397239],[-77.15011988549918,0.8196304534587853],[-77.16185980573346,0.8216278245845956],[-77.1662767184967,0.8304541383669175],[-77.17126527355049,0.8336258190991543],[-77.18112973629206,0.8513240663171473],[-77.18566084319883,0.8543803465428255],[-77.1922970824669,0.8560800534934856],[-77.19902610987594,0.8641700775087884],[-77.20580064380954,0.880237392812603],[-77.21033325841302,0.8857997138906626],[-77.21282882046461,0.8959370172902368],[-77.2164345419921,0.9020338538838928],[-77.23035675348768,0.9141443857211016],[-77.23752227761275,0.9177924749666317],[-77.24879147045021,0.933342592698466],[-77.25803040874086,0.9392241217655055],[-77.2665532209084,0.9402410498418021],[-77.27086778615751,0.9381320237970954],[-77.28162690750122,0.9411074653554579],[-77.2923745791943,0.9409777592134105],[-77.29251005284198,0.9428607531329476],[-77.28998734607859,0.9490573692197586],[-77.28391472416399,0.9549841960375147],[-77.27974063387853,0.9552167320332501],[-77.27218195983278,0.9509711917322079],[-77.26899444211415,0.9540673559871493],[-77.26363923907496,0.9558239625486635],[-77.2547271819829,0.9634526149087037],[-77.24560886971528,0.9645312721618211],[-77.24086867118848,0.968613000081632],[-77.23136618730337,0.9711679186931974],[-77.22249891065547,0.977154783928313],[-77.20855964346919,1.0175594581581322],[-77.19998374515569,1.008790312410099],[-77.18752224599609,1.014865443724375],[-77.17941183002256,1.0149685625704024],[-77.17056715854125,1.0000335727640959],[-77.16003178618035,0.9918023723874398],[-77.15328062977369,0.9903959309631318],[-77.14749503588166,0.9853602043363594],[-77.13688742983203,0.9808772233972718]]]}}]}