{"type":"FeatureCollection","features":[{"type":"Feature","properties":{"code":"520002"},"geometry":{"type":"Polygon","coordinates":[[[-77.3039747526023,1.2458339665228095],[-77.30548842458575,1.2427424148324917],[-77.30250219363694,1.238358238423075],[-77.29327846909649,1.235880434488422],[-77.29093497666946,1.2322976811676654],[-77.28422897300317,1.2358946856164152],[-77.27704597049751,1.2181366735467805],[-77.2743079695772,1.2169056772171416],[-77.27492597097114,1.2155286801021816],[-77.28893397514162,1.2088996769556388],[-77.29150298238727,1.2100806765807306],[-77.292000745481,1.2124102408106978],[-77.28705897324897,1.2208386769220851],[-77.29087797729977,1.2237546847872522],[-77.29828156221373,1.22157321216622],[-77.29959547877831,1.2228374775829138],[-77.30173367865194,1.2275750165574095],[-77.29768365761504,1.228059768824835],[-77.29733913657037,1.230979169521902],[-77.30468915299883,1.2334542038607879],[-77.30710573786405,1.2357759786671636],[-77.3079690084005,1.2429474183935554],[-77.3106259845054,1.2450973116585828],[-77.30579392343594,1.2484059603655169],[-77.3039747526023,1.2458339665228095]]]}}]}