{"type":"FeatureCollection","features":[{"type":"Feature","properties":{"code":"520008"},"geometry":{"type":"Polygon","coordinates":[[[-77.24986281959082,1.2889904886230283],[-77.24739802751094,1.2861379531447028],[-77.24797796110505,1.2810505040868065],[-77.2426902814878,1.2756007758672467],[-77.24046051320607,1.26707387049845],[-77.23237119675929,1.2600862515025142],[-77.22893092077976,1.2537388821975242],[-77.22693674502489,1.2431146421186554],[-77.22360132390236,1.2424437016460388],[-77.21884083831844,1.2505026872660778],[-77.19913615219701,1.2547570670305959],[-77.20531073801664,1.2443114859291313],[-77.20493074290414,1.2373021205161763],[-77.2128831685095,1.2152119475743461],[-77.22364223020355,1.2087026366250484],[-77.22808755266294,1.202875540963646],[-77.23976347600461,1.1974709922239413],[-77.24384892482942,1.1989774044316732],[-77.24204579049996,1.2014888415219502],[-77.24315300245962,1.202215118372692],[-77.24115360941585,1.211517083734634],[-77.24909664431254,1.2110044668456226],[-77.24801411291645,1.2147749685188387],[-77.24995094065957,1.2124306955039401],[-77.24988939865926,1.217580047545539],[-77.25274168936824,1.2132099340590798],[-77.25605057050313,1.2180603127182508],[-77.25767990935981,1.2170869700358935],[-77.25783839646573,1.2134259378412935],[-77.26150230727092,1.2151164134918986],[-77.26109921642484,1.2199739706798596],[-77.26282864227898,1.2204737834595107],[-77.26361923586796,1.2248296468464446],[-77.26579496258063,1.2265586788071232],[-77.26057411321517,1.2405343919393772],[-77.26262179163518,1.243131448926249],[-77.26074400472015,1.2507257677613097],[-77.26825188193305,1.25600908266847],[-77.27516074691465,1.2660291806448072],[-77.26520531740385,1.27112918287213],[-77.26563072648105,1.2904636142602044],[-77.26401033610273,1.291708829836125],[-77.25872243434196,1.2903423207779952],[-77.25887334285494,1.2878150847536745],[-77.25635935934093,1.286816967919492],[-77.24986281959082,1.2889904886230283]]]}}]}