{"type":"FeatureCollection","features":[{"type":"Feature","properties":{"code":"520009"},"geometry":{"type":"Polygon","coordinates":[[[-77.12932727894287,1.212770433262449],[-77.12497056297707,1.2143600567544013],[-77.12272589667703,1.2135780228924773],[-77.11959662480052,1.19900506645007],[-77.10896472591014,1.1896498401069948],[-77.09177294035271,1.1837298658016948],[-77.08946849994504,1.1788968194842937],[-77.08896481405083,1.1730610365689813],[-77.09541964120086,1.165946048052433],[-77.09527488380257,1.159544333787835],[-77.09886842034314,1.1553929823664362],[-77.10002669241698,1.1461091597589643],[-77.10591883706769,1.150558680320728],[-77.12673915603614,1.1499824604325681],[-77.13486501818784,1.1565768112369028],[-77.13919858905473,1.157568137265116],[-77.14765900355775,1.1559519655580175],[-77.15245455800311,1.159821432197873],[-77.15229828307707,1.1658348425628446],[-77.16513091937372,1.1796169596185564],[-77.17324204600106,1.1765150556258845],[-77.1887434402401,1.177672330110454],[-77.19525933836377,1.1797645400915258],[-77.19857021467715,1.1774384921065462],[-77.21009821918824,1.1952205368209547],[-77.21953567465295,1.202164994141242],[-77.233674752794,1.1975329641132362],[-77.23703881604064,1.1988875134132968],[-77.22808755266294,1.202875540963646],[-77.22364223020355,1.2087026366250484],[-77.2128831685095,1.2152119475743461],[-77.20493074290414,1.2373021205161763],[-77.20531073801664,1.2443114859291313],[-77.19913615219701,1.2547570670305959],[-77.19469381222092,1.246826441321332],[-77.1945226464756,1.2422926892603527],[-77.19234142993679,1.2407779764930638],[-77.19299760300322,1.2335750314585425],[-77.18574013200327,1.230438592366113],[-77.181040573411,1.2227946018143143],[-77.16542050513283,1.2149113142857573],[-77.14229844747524,1.206531148123986],[-77.1351388183827,1.2056004025023412],[-77.12932727894287,1.212770433262449]]]}}]}