{"type":"FeatureCollection","features":[{"type":"Feature","properties":{"code":"520517"},"geometry":{"type":"Polygon","coordinates":[[[-77.0447990247427,1.3843693976079408],[-77.03564878550554,1.375550824912409],[-77.03701521640204,1.3726678043409493],[-77.03395410146811,1.3586311385059275],[-77.03000591680939,1.3569351020665863],[-77.02955971982351,1.3523051464071614],[-77.02453789465432,1.3463633207836665],[-77.02851103961291,1.340603337167238],[-77.02609624115235,1.3369930915210944],[-77.01935634619122,1.3335856979342111],[-77.01625057011245,1.3301844863153178],[-77.02247683619709,1.32478801804848],[-77.02840753098718,1.3131750991523745],[-77.03796110892512,1.3049082467873063],[-77.04373784175635,1.2964035424072335],[-77.05031403437954,1.3013419002101045],[-77.05854258754522,1.3046202746545532],[-77.0738993262018,1.3046690074032767],[-77.07956727244033,1.303035583572921],[-77.10407453418418,1.312107461660844],[-77.11613381461694,1.3116009650332217],[-77.1251737400242,1.316761652568232],[-77.13641223796628,1.3140633464438451],[-77.14844145085357,1.3282175684009871],[-77.14919210590574,1.3348725222375606],[-77.15273759669714,1.3422736676858449],[-77.145705708393,1.3432013516341499],[-77.13889091402018,1.3474740304763486],[-77.13237636418467,1.348350011533853],[-77.12603211517427,1.3522322771408994],[-77.12191319465927,1.351325553879633],[-77.11690760242669,1.3468342117028556],[-77.10368876848077,1.3666385179088252],[-77.08767540629987,1.3759907463419836],[-77.08157475726983,1.3882427209072716],[-77.07031369941268,1.3994573414993852],[-77.06784698928749,1.4042686054042406],[-77.0671663536873,1.4015199899286586],[-77.06426967848455,1.3993216786182643],[-77.05981734204715,1.3988005616518535],[-77.05642871547934,1.3953869644996644],[-77.05107139693388,1.3938887695476865],[-77.04786906655767,1.3904093921835852],[-77.04818724816101,1.3880724941299718],[-77.0447993178488,1.3867637084650823],[-77.0447990247427,1.3843693976079408]]]}}]}