{"type":"FeatureCollection","features":[{"type":"Feature","properties":{"code":"520538"},"geometry":{"type":"Polygon","coordinates":[[[-76.92179618158667,1.4528136376830503],[-76.9244233493136,1.4387433788015755],[-76.91991438580271,1.4326194077805212],[-76.91834985425135,1.4257262183197668],[-76.92538462219454,1.4056982844871868],[-76.92387407976162,1.402512248754249],[-76.92942848286077,1.3971374045198104],[-76.9318479576495,1.397219578105478],[-76.93716846309502,1.4076758601513575],[-76.93742302318725,1.4163065991336907],[-76.93979810936844,1.421143065022477],[-76.9430061990227,1.4234735497084898],[-76.95381005761595,1.4260107708811915],[-76.96175996148025,1.422368337041064],[-76.97260077304168,1.4219911598611361],[-76.98220014238274,1.4157185305592748],[-76.99343051665733,1.4164303711623916],[-77.00298842330983,1.4113070891102097],[-77.00855414750419,1.4129561144135891],[-77.01688678213804,1.403693228838904],[-77.02552195576453,1.4011455874866101],[-77.03087764114332,1.40246082559986],[-77.03514260460975,1.40169087490915],[-77.03879672772757,1.3978237849999005],[-77.03984021636035,1.386563686679608],[-77.04270355974103,1.3822449284703566],[-77.05151064061982,1.3942370310377896],[-77.05642871547934,1.3953869644996644],[-77.0588343721144,1.3982399380944912],[-77.0671663536873,1.4015199899286586],[-77.0727353874097,1.4120467758229438],[-77.07835164824098,1.4137858165862554],[-77.08533304618811,1.4120287667660136],[-77.08892206786601,1.414085214715385],[-77.09028458553871,1.417841164955405],[-77.09384694895812,1.4179699886937556],[-77.09847242266505,1.4217973786648486],[-77.10234584160958,1.4216827700590215],[-77.10203394173311,1.4304230289135944],[-77.10480499885284,1.4361734480145856],[-77.09813792173583,1.4349793048941706],[-77.09457708555362,1.4319327773889086],[-77.09345669924528,1.4335032965325922],[-77.0875771015933,1.4332082343170782],[-77.08114831357943,1.4360225641842135],[-77.07055074307192,1.435031451043585],[-77.06849573391361,1.439365895058188],[-77.06463273309186,1.4410060891256649],[-77.06588579568421,1.4451496336398577],[-77.06224263576365,1.4459349667453694],[-77.06223525668861,1.4470711581583373],[-77.05962070897982,1.445370232503251],[-77.05607952119186,1.4457599011460616],[-77.04840467119391,1.4525127709379717],[-77.0350271537095,1.4576731375989311],[-77.02590968167942,1.4577189691113404],[-77.01498529682209,1.4673839736539662],[-77.00184854287357,1.4690556144083189],[-76.99604539243933,1.4672705786102824],[-76.99088478717971,1.4618278725962455],[-76.98371364673005,1.4629015912684054],[-76.9620963393171,1.4620803264381834],[-76.95861728282705,1.4641347319006854],[-76.94904913185866,1.4618430061278787],[-76.94547206171126,1.4600190005859304],[-76.94103368432417,1.4523450288778577],[-76.93563815194005,1.4494069413802322],[-76.9323964116465,1.4490732950867482],[-76.92179618158667,1.4528136376830503]],[[-77.09849303471003,1.430232065649875],[-77.09767200950694,1.428580432216279],[-77.09982071080714,1.4260194118552363],[-77.09586519335323,1.4250613939948948],[-77.09597257097971,1.4281429224843691],[-77.09460614419697,1.4288285563152385],[-77.09849303471003,1.430232065649875]]]}}]}