{"type":"FeatureCollection","features":[{"type":"Feature","properties":{"code":"520578"},"geometry":{"type":"Polygon","coordinates":[[[-77.1036356195998,1.450271500555118],[-77.10573495977286,1.446473266929445],[-77.11040032059447,1.4429622485027949],[-77.12227235044094,1.4433125967028104],[-77.1296208190634,1.4407758815237912],[-77.13484723435982,1.4362804471742265],[-77.14103488962695,1.444104280440854],[-77.14351535517085,1.4500091602952239],[-77.14980923415197,1.4494450194644628],[-77.1563022915957,1.4466536269508197],[-77.15918229574521,1.4472167763630068],[-77.16643710513597,1.443540056306233],[-77.18379901565481,1.4480530513117742],[-77.17972596161923,1.4531644260564462],[-77.17035099637889,1.453217728175332],[-77.16814466424529,1.4565233625172027],[-77.16049606318569,1.4601599815433133],[-77.16113618329285,1.4648093840223169],[-77.15892339665402,1.4687285470616303],[-77.15989426078988,1.47608061111913],[-77.15668049618978,1.4827717352791296],[-77.15838364328067,1.4859836826212813],[-77.1586053096674,1.4965032303371117],[-77.16107704681957,1.5012719712291869],[-77.15941048040065,1.5034610790074794],[-77.15868077266566,1.5147600329145803],[-77.15419310305708,1.5217157280262654],[-77.13722454711905,1.5034987919946161],[-77.1434175554295,1.4919874719064978],[-77.14189918346369,1.4822701504929796],[-77.13776589560672,1.4738178349747386],[-77.1205222251242,1.4664840319426276],[-77.11631764151804,1.4617355040598454],[-77.1156473057697,1.4572417974937366],[-77.11121337228275,1.4559417505049055],[-77.1036356195998,1.450271500555118]]]}}]}