{"type":"FeatureCollection","features":[{"type":"Feature","properties":{"code":"520508"},"geometry":{"type":"Polygon","coordinates":[[[-77.13559108832163,1.4368363933750175],[-77.13832547838024,1.4325474610272408],[-77.14014201434418,1.4247222486192186],[-77.13666719195197,1.411681682842584],[-77.13721128123899,1.4045540383124262],[-77.15004457779577,1.3781676526782576],[-77.15296641795845,1.369945428547851],[-77.15486106824545,1.3557588754432572],[-77.15234824892843,1.339598921122672],[-77.14919210590574,1.3348725222375606],[-77.14844145085357,1.3282175684009871],[-77.14175435613134,1.3190623484167077],[-77.14276697194816,1.3158741262149647],[-77.13900841357793,1.3066274159842237],[-77.14097893824015,1.29812621242246],[-77.13782170301153,1.283797091473673],[-77.1394861384976,1.2703567639193807],[-77.13814681940278,1.2609043651848992],[-77.13571240751492,1.2559197819761039],[-77.14079159715095,1.2423796296771457],[-77.12932727894287,1.212770433262449],[-77.13588480739122,1.2055103345918496],[-77.16291010471258,1.2139393466310366],[-77.18121766709896,1.222915042717716],[-77.18574013200327,1.230438592366113],[-77.19299760300322,1.2335750314585425],[-77.19234142993679,1.2407779764930638],[-77.1945226464756,1.2422926892603527],[-77.19469381222092,1.246826441321332],[-77.19913615219701,1.2547570670305959],[-77.21884083831844,1.2505026872660778],[-77.22315661815816,1.2428914577507726],[-77.22591385403888,1.24293567049466],[-77.21684259404498,1.262963370870807],[-77.20984240953834,1.272394317322778],[-77.19887604777114,1.2962330276660623],[-77.19672951957,1.3208456605450465],[-77.19417580526465,1.3282684320826093],[-77.18380775638781,1.3379512585056546],[-77.17958288675294,1.3483258565044594],[-77.17530054363635,1.3518041478332634],[-77.16877811593116,1.3701104555197503],[-77.16293049255711,1.3806303446784796],[-77.16308032531919,1.388773406502878],[-77.16068950808125,1.397591185240799],[-77.16230899548702,1.413147742051251],[-77.17504996670198,1.4300883932584156],[-77.17436163012422,1.4408683004538716],[-77.17866188459567,1.4461394982512843],[-77.17203762359765,1.445767455056341],[-77.16643710513597,1.443540056306233],[-77.15918229574521,1.4472167763630068],[-77.1563022915957,1.4466536269508197],[-77.14980923415197,1.4494450194644628],[-77.14351535517085,1.4500091602952239],[-77.14323465721196,1.4475933858427084],[-77.14126145140006,1.4467480379740323],[-77.14114123366875,1.4442782733746071],[-77.13559108832163,1.4368363933750175]],[[-77.14951767584012,1.397470219831746],[-77.15583903583382,1.3968578512174759],[-77.1537924609326,1.3950990818414084],[-77.15680907207343,1.3933334455546174],[-77.1549238844861,1.391588056215653],[-77.15566878745926,1.3894021623202093],[-77.15909279039283,1.3905774273497968],[-77.16013245424784,1.3896147886972017],[-77.1579386187193,1.3882580261887938],[-77.15916192127048,1.385949007155034],[-77.15764299188885,1.3843474938391296],[-77.1579250052257,1.380646332845913],[-77.16164140259485,1.3745210351339665],[-77.16124964004308,1.372754893881904],[-77.16433387642172,1.369437494157637],[-77.16057299377144,1.3687282308314934],[-77.1582722866101,1.371211124528088],[-77.15510927256292,1.3855492494911346],[-77.152449049665,1.3898651599430423],[-77.1532573273231,1.3913486759350349],[-77.14992957941018,1.393178057145974],[-77.14951767584012,1.397470219831746]]]}}]}