{"type":"FeatureCollection","features":[{"type":"Feature","properties":{"code":"520509"},"geometry":{"type":"Polygon","coordinates":[[[-77.11040032059447,1.4429622485027949],[-77.10557843287842,1.4391931948766796],[-77.10256481347687,1.431932528505797],[-77.10234584160958,1.4216827700590215],[-77.09847242266505,1.4217973786648486],[-77.09384694895812,1.4179699886937556],[-77.09028458553871,1.417841164955405],[-77.08892206786601,1.414085214715385],[-77.08533304618811,1.4120287667660136],[-77.07835164824098,1.4137858165862554],[-77.0727353874097,1.4120467758229438],[-77.06784698928749,1.4042686054042406],[-77.06846053752531,1.4023439811600156],[-77.08157475726983,1.3882427209072716],[-77.08814449127397,1.375454130746789],[-77.10407609124616,1.3662216521036044],[-77.11690760242669,1.3468342117028556],[-77.12191319465927,1.351325553879633],[-77.12603211517427,1.3522322771408994],[-77.13237636418467,1.348350011533853],[-77.13889091402018,1.3474740304763486],[-77.145705708393,1.3432013516341499],[-77.15273759669714,1.3422736676858449],[-77.15486106824545,1.3557588754432572],[-77.15296641795845,1.369945428547851],[-77.13679743905476,1.4067078787398941],[-77.13677420036765,1.4123662728042632],[-77.14014282681376,1.4232938561178798],[-77.13807236119288,1.4331588917019076],[-77.13559108832163,1.4368363933750175],[-77.13330091652546,1.4367097046833806],[-77.1296208190634,1.4407758815237912],[-77.12148577497692,1.4434741300554492],[-77.11040032059447,1.4429622485027949]]]}}]}