{"type":"FeatureCollection","features":[{"type":"Feature","properties":{"code":"521007"},"geometry":{"type":"Polygon","coordinates":[[[-77.01189780130909,1.5722800351996398],[-77.00560561000214,1.5642707583202764],[-77.00574080288499,1.556931369816823],[-77.00211337710653,1.5537941367667258],[-76.99885077485652,1.553546636932424],[-76.99789549779547,1.5486484500943334],[-76.99456889145375,1.5453615663164442],[-76.99421286727954,1.5379171337225443],[-76.98797867395996,1.5379356940247249],[-76.98369356741836,1.5413197553361329],[-76.98347311356537,1.5440561919953666],[-76.97965962402333,1.5447487328461875],[-76.97703024823028,1.534861198025169],[-76.97312473365167,1.5309628702028704],[-76.96885143980086,1.5308832358417703],[-76.95290645362081,1.5254982079694628],[-76.94856546871182,1.5203339784784475],[-76.94034530352337,1.516445248081709],[-76.93723057690937,1.5126159380084232],[-76.93929107486537,1.511734573054298],[-76.94831430762213,1.514056589544623],[-76.9532148033137,1.5170233551618821],[-76.96240098250308,1.5153204343283164],[-76.97625865717373,1.5176409852880965],[-76.9834519955267,1.5158464528518039],[-76.99406410204074,1.5172479166142807],[-76.99915109447022,1.5146629160590805],[-76.99885086021726,1.5120255883484788],[-77.00231084218393,1.5106641022035774],[-77.0035754336169,1.5079245894727933],[-77.0110240972233,1.5097091449881646],[-77.01204996760731,1.504440112062241],[-77.0161178948569,1.5014753735051727],[-77.01678739550994,1.497543474233737],[-77.01861418915956,1.4962157230603452],[-77.0228360331165,1.5059488516354236],[-77.02393544639659,1.5058335735134847],[-77.03120024093573,1.4995996301054788],[-77.03264577140322,1.495781081654684],[-77.04245433829391,1.4880271361994346],[-77.04522454180636,1.4923737127504069],[-77.05557350073315,1.4995722365105166],[-77.06540324634062,1.4945093384324082],[-77.06448030762613,1.506585956349113],[-77.05931413849254,1.514360080875008],[-77.07088381446601,1.5150022784361],[-77.07239190817728,1.5178836257315425],[-77.06849258893641,1.521250128443853],[-77.0661209151275,1.5295384238353904],[-77.05747792945164,1.5383658041126864],[-77.05687192998192,1.5409370708464962],[-77.059048285073,1.546335635079231],[-77.05709811328819,1.5507066556519362],[-77.06043765229452,1.5561221614182728],[-77.05014091870726,1.5571531585882212],[-77.0474898458624,1.5590198372955797],[-77.04637279273629,1.5635703385713668],[-77.04128016752719,1.566670650535002],[-77.03182443046825,1.564886768649501],[-77.02656505564607,1.571603537023691],[-77.02055396956115,1.5753390130300318],[-77.01189780130909,1.5722800351996398]],[[-77.04443295165657,1.5176327731745687],[-77.04893112063479,1.5150072581547533],[-77.04930588611705,1.5103114667474529],[-77.04714918147721,1.5108415938988173],[-77.04443295165657,1.5176327731745687]]]}}]}