{"type":"FeatureCollection","features":[{"type":"Feature","properties":{"code":"521508"},"geometry":{"type":"Polygon","coordinates":[[[-77.12100642100427,1.5557618794919676],[-77.12295899214547,1.5523058364602207],[-77.12034389010614,1.5527235867259606],[-77.12129930909225,1.5498900630361163],[-77.11913973406934,1.5494668023753206],[-77.1182514168438,1.5510667020648725],[-77.0953064888696,1.5298686001638089],[-77.1022257709455,1.5118858960296393],[-77.09696377976553,1.5023923318264565],[-77.10209312860007,1.5050153580153278],[-77.10652326713415,1.4981621132620262],[-77.11706922525383,1.4987793649213472],[-77.12138432426462,1.5056712287196774],[-77.1216354699277,1.5099265556797263],[-77.11924512371644,1.5147635830981585],[-77.12686209194106,1.5188275549577952],[-77.13129212763084,1.5269903268830944],[-77.13518124472193,1.5287563128403576],[-77.14359102591447,1.5282028842668183],[-77.14759094226031,1.5301953888026105],[-77.14518711111072,1.5382483436357006],[-77.14138356352254,1.5411343292068977],[-77.14009606970308,1.548201503373889],[-77.13302748142769,1.5595392573318918],[-77.12318151625323,1.5646208514665432],[-77.12100642100427,1.5557618794919676]]]}}]}