{"type":"FeatureCollection","features":[{"type":"Feature","properties":{"code":"521567"},"geometry":{"type":"Polygon","coordinates":[[[-77.28223237012395,1.5684943331460204],[-77.27900922304275,1.5676341479371558],[-77.27189466852894,1.5571658896781742],[-77.26170764507577,1.55307406348129],[-77.25986122462916,1.5452974244134339],[-77.26361962050544,1.539407520738962],[-77.27341198839804,1.5316168454876333],[-77.27499521909124,1.5340696253588817],[-77.28006598475463,1.534385704825695],[-77.28388557604615,1.5314308136057662],[-77.28671987929545,1.5251589762046933],[-77.29228795450939,1.52181902273594],[-77.29903832827137,1.522156384792254],[-77.30241900292162,1.517612697976574],[-77.3094861009838,1.5194820732602352],[-77.31252738960285,1.5127603159114074],[-77.31768411352044,1.507277697071629],[-77.31881352955406,1.5022912256424092],[-77.32226145714594,1.5003805686760643],[-77.33527239760741,1.512495358265312],[-77.33814077829959,1.5111389659962242],[-77.34043009648843,1.512567427403269],[-77.3417477216168,1.5095638620557565],[-77.34483451470356,1.511211267562146],[-77.34583389035134,1.5087758138620302],[-77.34865711316098,1.508551301774844],[-77.35129307201458,1.5109304040240659],[-77.352068109382,1.5156208125632133],[-77.35459735292608,1.515434885582465],[-77.35563405589511,1.5172485223669696],[-77.35759147511436,1.5158446263379233],[-77.3612511343382,1.5188127772672715],[-77.36347489754405,1.5179766329306972],[-77.36770923604917,1.5225845284981006],[-77.37134216810887,1.5200411376987404],[-77.38756557938973,1.537154873725001],[-77.40204172853788,1.5439219895026781],[-77.3996556051116,1.5488694109694734],[-77.40162065948812,1.5530697645915552],[-77.40058595375444,1.5549655163404736],[-77.39479663278672,1.558545586454727],[-77.39123026975443,1.5554380435116855],[-77.38641347077191,1.555489546884587],[-77.3614173028813,1.570642392698062],[-77.349506015327,1.5721051104969774],[-77.34489195836045,1.5804864974199972],[-77.3365546484269,1.5729022130986436],[-77.32841265823959,1.5623286875771782],[-77.32726421601933,1.5566468265113826],[-77.32547113163014,1.5551207391698654],[-77.30209995331279,1.55309773102897],[-77.29016974550149,1.5583120189311899],[-77.28223237012395,1.5684943331460204]]]}}]}