{"type":"FeatureCollection","features":[{"type":"Feature","properties":{"code":"521569"},"geometry":{"type":"Polygon","coordinates":[[[-77.26961146648767,1.662915018582055],[-77.26512746533359,1.6569238729691733],[-77.26246887868774,1.6581185683632498],[-77.25969310821591,1.6565073444930931],[-77.26173680450654,1.6553303897324554],[-77.25908024286394,1.6535189342745866],[-77.25869445556322,1.6446534265478476],[-77.26049782026382,1.6420275052932425],[-77.26331665676605,1.6425333971966438],[-77.26305824824192,1.6403917314717091],[-77.26174776359,1.6403876043318633],[-77.26186339652457,1.6363377725284067],[-77.25813108400746,1.635163885611803],[-77.26045750428864,1.6323710213968639],[-77.2580819182844,1.631818926713322],[-77.2561426027388,1.6289867173729817],[-77.25641289285937,1.6210079255867527],[-77.25822401407345,1.617688803221256],[-77.26106532924382,1.6215005125293374],[-77.27476446332957,1.6203503795495635],[-77.2936205002818,1.6223632832426915],[-77.30183059290425,1.6311784620779122],[-77.31405441077027,1.6359143627434491],[-77.32265489297367,1.6366540319726255],[-77.32901197077604,1.6514998465565895],[-77.33821972874642,1.66201712861357],[-77.34717541134165,1.6670734384888988],[-77.34546971474174,1.669208606513962],[-77.3392765799328,1.6694731754088252],[-77.33835961132712,1.6728531178079606],[-77.32939842656441,1.681902974884622],[-77.32736147685677,1.679780112174285],[-77.32370648779039,1.6800684884850057],[-77.31961744970118,1.6778416666911085],[-77.31400172366,1.6784975970451228],[-77.301267408525,1.6722489037144328],[-77.29908509875179,1.6730085082734263],[-77.29752139406821,1.6695240822850224],[-77.29547650889805,1.6738744579026843],[-77.29391206167901,1.6701399373194477],[-77.28621432369277,1.6681885499155555],[-77.28573354018499,1.6717518780139926],[-77.2818193054423,1.673757721449249],[-77.28119360924143,1.6719096369826048],[-77.28287212924778,1.6695516548289788],[-77.2797056946008,1.66961711416684],[-77.27932397479026,1.6634460733885703],[-77.27513618359353,1.6621624979351282],[-77.27392322306031,1.6637996344429666],[-77.26961146648767,1.662915018582055]]]}}]}