{"type":"FeatureCollection","features":[{"type":"Feature","properties":{"code":"521527"},"geometry":{"type":"Polygon","coordinates":[[[-77.07943680113709,1.5943626501173753],[-77.08207299447554,1.5834918316886046],[-77.07891202188682,1.576346402301965],[-77.07883112974048,1.567035723974982],[-77.06043765229452,1.5561221614182728],[-77.07020957269293,1.5558297680111082],[-77.09073071464735,1.5488921673170921],[-77.09037134597804,1.5515660314765682],[-77.09662178149034,1.5635385967214575],[-77.09614927694486,1.5739752889942338],[-77.0997281746346,1.5823378081108217],[-77.10845255330827,1.588496881931917],[-77.11728251806159,1.5899225408330722],[-77.11670332494612,1.5767713166983413],[-77.11866444038776,1.5671251028289817],[-77.13050824977154,1.5616925547416827],[-77.13506353433348,1.5571521424869843],[-77.14009606970308,1.548201503373889],[-77.14032982748853,1.5430187824863424],[-77.14518711111072,1.5382483436357006],[-77.14759094226031,1.5301953888026105],[-77.15506871078998,1.5418973204271538],[-77.15550719651384,1.5452865496622508],[-77.15385439682643,1.5479926554947383],[-77.15918651955866,1.5658238217091025],[-77.1610634415535,1.5673810554323495],[-77.16191264196789,1.5754680105751504],[-77.16966270093883,1.5809026104053032],[-77.17397196559517,1.5896013695473812],[-77.15724946967191,1.5917397350002602],[-77.14347869633724,1.585893877461956],[-77.13241520228792,1.5874824817673812],[-77.13228090415004,1.5843036441036134],[-77.12968768119691,1.5840973868711785],[-77.13095946967064,1.588140929748647],[-77.12655780870989,1.5907213218529819],[-77.12615403497796,1.5941878477993328],[-77.13021992796826,1.5977446360318481],[-77.12488136101524,1.600517779861434],[-77.12597799750046,1.6026737265391375],[-77.1219382444337,1.6034785620001344],[-77.11945768015931,1.60628699683474],[-77.12429334386292,1.6106124203799936],[-77.11987334885742,1.6140139857831173],[-77.11816570952959,1.618587024348301],[-77.11173694619839,1.625865445750776],[-77.10609318070033,1.6208171813812555],[-77.1055732176464,1.6239569999358423],[-77.10779395723125,1.628308711500324],[-77.1022414958316,1.6355523602327935],[-77.09795806976507,1.6301075345987215],[-77.09329312340577,1.6189875626000685],[-77.08667921059634,1.6142436719646298],[-77.08224814852093,1.6073395213634853],[-77.07943680113709,1.5943626501173753]]]}}]}