{"type":"FeatureCollection","features":[{"type":"Feature","properties":{"code":"522027"},"geometry":{"type":"Polygon","coordinates":[[[-77.31006852546568,1.3531285555399677],[-77.3089607879719,1.3485514967930499],[-77.3114168855987,1.3443324635695149],[-77.30905670669182,1.3370931898314211],[-77.31142350362632,1.332416258003093],[-77.31016624498847,1.3301221328738393],[-77.31223174117514,1.3225478676395142],[-77.31535156783559,1.3185565326180608],[-77.3186930979067,1.3080538472457306],[-77.32453252562232,1.302099794469143],[-77.32919579973407,1.3006596838937412],[-77.3327203277816,1.2906893944169724],[-77.33057846459576,1.2845598410099228],[-77.33372478804927,1.2824065261165742],[-77.33470092500988,1.2774460845674867],[-77.33790153274487,1.2736893599102928],[-77.34965187932943,1.26722541767424],[-77.35190837683223,1.2627915736617865],[-77.35451617692962,1.2559012083042376],[-77.35414756359052,1.2482278454340872],[-77.35834992473241,1.2385592536840022],[-77.35780042480934,1.2251235366374544],[-77.35894787561097,1.2212370050508525],[-77.36322202101223,1.2291709845111995],[-77.36367462828031,1.2353068361002784],[-77.36807838417843,1.2426923049992524],[-77.36836106497447,1.2677034439275872],[-77.37047470872602,1.2889840341177887],[-77.36825612475673,1.2927260592460357],[-77.37405241753623,1.3059279927961143],[-77.37710222783005,1.3066404052132725],[-77.38030233574193,1.3125213562955764],[-77.38293745127265,1.3128025725894759],[-77.38321953762892,1.315456488049449],[-77.37401910731148,1.317119292425673],[-77.37182942977603,1.3198738142465913],[-77.3616685534455,1.3246390574055908],[-77.34819693244219,1.340569076661609],[-77.33932090272003,1.3461105224134826],[-77.31931157341262,1.349369522029349],[-77.31570664378586,1.350540323618361],[-77.31314873343501,1.3535730545672209],[-77.31006852546568,1.3531285555399677]],[[-77.35587281808182,1.2918434241654495],[-77.3612431443683,1.2908186644993407],[-77.36070362650827,1.2876817646646828],[-77.35671686188539,1.2867303792301072],[-77.35464777643432,1.289503522031282],[-77.35587281808182,1.2918434241654495]]]}}]}