{"type":"FeatureCollection","features":[{"type":"Feature","properties":{"code":"522067"},"geometry":{"type":"Polygon","coordinates":[[[-77.4205652206586,1.4454562822888306],[-77.41544417341203,1.4387588434917689],[-77.40969851394306,1.4176607936211099],[-77.40028452239443,1.4133499749880798],[-77.40175958458883,1.4122759621813543],[-77.39758292936773,1.4106909409697437],[-77.3979579468184,1.4074826620820318],[-77.39675915102401,1.4091751791910383],[-77.39456295316296,1.408308922057529],[-77.3882038513857,1.401904100868137],[-77.38556813215922,1.402506977986377],[-77.38493748400765,1.4002088337038003],[-77.38382853603702,1.400976029197011],[-77.37285568068376,1.3887638779829672],[-77.36068897428771,1.3797931482452555],[-77.35157872603793,1.37756078623147],[-77.35434521687284,1.375365699088377],[-77.35802485050732,1.3756753158223773],[-77.36149096610512,1.3713449824925874],[-77.36535880986276,1.3698650639925631],[-77.36673437332882,1.3648684336081374],[-77.36935617567116,1.3630105182594434],[-77.37308411319378,1.356235657281161],[-77.38155163423465,1.3490488073720712],[-77.38448616434965,1.3484813076480577],[-77.39019296514653,1.3418846274214502],[-77.39409001872849,1.3321766596926068],[-77.40670187721281,1.3333066876495536],[-77.41092902793315,1.3368226240883132],[-77.41215224409518,1.343757493238968],[-77.41033318124795,1.3554085005037564],[-77.41209724504614,1.3581341220614718],[-77.4108133764866,1.3655623978233962],[-77.41180714815113,1.3719937877968391],[-77.42427534761373,1.3845174820177704],[-77.42923792626635,1.384536689210222],[-77.43496123048033,1.3897116463851944],[-77.44039603497055,1.3889606570891715],[-77.44485528871229,1.3906251758790518],[-77.45060890421263,1.3887434695695902],[-77.45693574991867,1.3799100842164762],[-77.45895502687011,1.3740814448628953],[-77.46208344616781,1.3719189192383396],[-77.46394872825022,1.3652526689891147],[-77.46695793563339,1.3632972408345836],[-77.47542114030097,1.3656615828767826],[-77.48061937113016,1.3700246247924497],[-77.48515213177245,1.3703373165696462],[-77.48060785051706,1.380641031224684],[-77.48623911221091,1.386118091332662],[-77.48715512436507,1.3980020963638253],[-77.48475728903537,1.4030891145043256],[-77.48199244473687,1.4041661766431162],[-77.48074424153543,1.4136682707485306],[-77.48658753722339,1.4181163854293573],[-77.48921949749246,1.4285224013186735],[-77.48809371906003,1.4387649802082478],[-77.4844973121364,1.44577255613126],[-77.48590940999452,1.4482845763484988],[-77.48361452587471,1.4504388641483956],[-77.48371792548556,1.4538538322144632],[-77.46964986849952,1.4471703411548447],[-77.4626690063709,1.446158470958892],[-77.45994532959804,1.4419296572469307],[-77.45448476056589,1.4419671645455878],[-77.4514519689389,1.446346836376847],[-77.44809891825469,1.4479599135003696],[-77.4380994621481,1.4462872792705639],[-77.43290517848135,1.4426019326378992],[-77.4277815920102,1.4450443581499144],[-77.42351093611438,1.443816136558155],[-77.4205652206586,1.4454562822888306]]]}}]}