{"type":"FeatureCollection","features":[{"type":"Feature","properties":{"code":"522088"},"geometry":{"type":"Polygon","coordinates":[[[-77.39479663278672,1.558545586454727],[-77.40122235089967,1.553935361464994],[-77.3996556051116,1.5488694109694734],[-77.40204172853788,1.5439219895026781],[-77.38862716655399,1.5379466633926313],[-77.38079459666818,1.5313563070590703],[-77.38879063749232,1.5247702259610492],[-77.39410292671056,1.5137201160626432],[-77.39029614158534,1.4961711009963778],[-77.40082116061535,1.5071557854954563],[-77.40874052899284,1.5011613354967608],[-77.41969845136072,1.4994149927916283],[-77.42663181692842,1.4946318372492442],[-77.42868460259399,1.4984338565718645],[-77.44564270132855,1.5003609727323237],[-77.45265157411757,1.5047751765779935],[-77.46376200114122,1.5015529664078713],[-77.46833058243647,1.502154370796461],[-77.47180161193268,1.506392273883364],[-77.47580433386969,1.5078610574362301],[-77.47204398086728,1.5085126673031937],[-77.46793179150853,1.5175864860621004],[-77.46520673662269,1.5171269419492432],[-77.4600588264575,1.523346296900172],[-77.45468436171836,1.525775529551538],[-77.45314381858873,1.5312132558469216],[-77.44890358710796,1.531969681490068],[-77.44415808490311,1.5384711227972616],[-77.44359540240384,1.54343800033962],[-77.44052720355779,1.5473599905673723],[-77.43948096281287,1.5567348190248822],[-77.43711814595093,1.5627405448673244],[-77.44617377670392,1.5840028781458955],[-77.44633596517446,1.5879492599448781],[-77.43740071567515,1.594800737833964],[-77.42685074148739,1.5946323375706015],[-77.42179059243614,1.591561590244055],[-77.42027274291917,1.5938999353162444],[-77.42072252402716,1.59752027821105],[-77.41462258565087,1.5985082720854962],[-77.41129869439743,1.6012744605583293],[-77.40345089842015,1.6019857015794514],[-77.3961222376006,1.6056182880824394],[-77.39118502651115,1.5996196276400951],[-77.39066905278571,1.596898700922452],[-77.40106302458469,1.5847039242163419],[-77.40203269984102,1.5758115072910641],[-77.39656247990428,1.5679965073172752],[-77.39479663278672,1.558545586454727]]]}}]}