{"type":"FeatureCollection","features":[{"type":"Feature","properties":{"code":"522527"},"geometry":{"type":"Polygon","coordinates":[[[-77.46711723932265,1.3632798529569072],[-77.46155664911333,1.3516626310573088],[-77.45787112250326,1.335658672954878],[-77.45472762520978,1.3310168274714442],[-77.45639010151285,1.3260921870348739],[-77.45456543776771,1.322094855165119],[-77.45291359350335,1.3073252193754001],[-77.44975928316529,1.3044891749729004],[-77.44428898609533,1.302910253453831],[-77.44075206840074,1.298989220706062],[-77.41657748827129,1.2909584956580034],[-77.41337168484472,1.2870135701335812],[-77.41412240674566,1.2847112514028254],[-77.40348183088577,1.2771901659027094],[-77.4026002077926,1.2749059498171391],[-77.40433197849569,1.2709804104342766],[-77.40149996661631,1.2701435153346665],[-77.3992460885566,1.2645927488082975],[-77.39408322072347,1.2611179130463483],[-77.39057798522913,1.254888346689654],[-77.38207378375739,1.2473426721573446],[-77.38156538451113,1.23760968859267],[-77.3753500631118,1.230934814852958],[-77.38014053499421,1.2276441824021163],[-77.38853124783401,1.2276430984236981],[-77.42597420301405,1.2389444547724793],[-77.43546402780021,1.2497581617313358],[-77.44066232033589,1.251797789503314],[-77.44562609506721,1.2560668266305584],[-77.4480782815271,1.2531292975771748],[-77.45141660697135,1.2527041075582588],[-77.45387309334939,1.2543819220530281],[-77.46988638251088,1.2574550646222633],[-77.48126309181458,1.257817690368995],[-77.48642587428702,1.260689017548998],[-77.49108006005218,1.2584311079946247],[-77.50616464607884,1.2638810264760423],[-77.50780864949735,1.2727037191123145],[-77.51302684342426,1.282107137243429],[-77.51412710311251,1.2926199219212435],[-77.50583711593299,1.3117091900963374],[-77.50328324736125,1.3139962076593292],[-77.50465767954057,1.318408681664664],[-77.50133154011178,1.3253036390181023],[-77.50404357491533,1.329592743115768],[-77.50369211599741,1.3330667180713363],[-77.49719381041149,1.3431772161450795],[-77.49049112244387,1.3469961080957091],[-77.48747800903601,1.3505495610890534],[-77.48581674835202,1.3500932483426027],[-77.48352246792797,1.3529800679806954],[-77.48412336529435,1.3649901415527097],[-77.48023064454071,1.3663320060427395],[-77.48025585783745,1.3689610126249363],[-77.47542114030097,1.3656615828767826],[-77.46711723932265,1.3632798529569072]],[[-77.46715226910328,1.2839056168420484],[-77.4689151975009,1.292562196471124],[-77.46998123576435,1.2900292998991745],[-77.47133091024693,1.291096183542379],[-77.47289772185536,1.287808659044856],[-77.47592270554674,1.2863330209225978],[-77.4734054988939,1.284432630897868],[-77.47674850478,1.2738461572851634],[-77.47335650594914,1.2759775550399581],[-77.47000987274629,1.2826798604269811],[-77.46715226910328,1.2839056168420484]]]}}]}