{"type":"FeatureCollection","features":[{"type":"Feature","properties":{"code":"523008"},"geometry":{"type":"Polygon","coordinates":[[[-77.44608941767785,1.1545418567077377],[-77.44654118985062,1.1463989131542007],[-77.43668360121882,1.1355694915936851],[-77.4312286279424,1.134443693620824],[-77.42682657103131,1.1289152700081786],[-77.4298859859498,1.1157108651107706],[-77.42939744798542,1.1110699390549712],[-77.41515329798602,1.1149422071722483],[-77.4055222485016,1.1156903291705476],[-77.40502069971097,1.1120146005323477],[-77.39895740371315,1.1161875800999042],[-77.39264687013389,1.1166482647554972],[-77.39229657027067,1.1149012216810092],[-77.39847636823703,1.112891943247746],[-77.4028590729452,1.1084095876017273],[-77.40558740239209,1.09972385574099],[-77.42354679790503,1.0801433170298083],[-77.42735944309578,1.0718123258470769],[-77.42635656045894,1.0546972775281915],[-77.43488120942487,1.0513055738603612],[-77.44091420544913,1.051850514697776],[-77.44768645521191,1.055215277285356],[-77.45137684944041,1.063913736122231],[-77.45149028562179,1.0742770665048056],[-77.4562056565178,1.0834050595018425],[-77.46479899515947,1.0879087573870265],[-77.46875066829523,1.087597149588305],[-77.47517804322905,1.0916568832363396],[-77.47410977838757,1.1098904625532668],[-77.47768536552087,1.1137569281978585],[-77.47893573153692,1.1207838912907846],[-77.47865110389921,1.124187313032678],[-77.47538526102682,1.129078675126209],[-77.47327989726597,1.1297582935967512],[-77.4725608843047,1.1333385951105583],[-77.47260628489971,1.136496655150097],[-77.47423839643739,1.138101726877096],[-77.47320413190562,1.1453711062129628],[-77.47432706772292,1.1516752212825168],[-77.47121827008004,1.151543604294261],[-77.4689471758926,1.1555583343262015],[-77.46200220949328,1.1568539446139425],[-77.4596115177253,1.15674613401319],[-77.4537964147321,1.1519034892417608],[-77.44608941767785,1.1545418567077377]]]}}]}