{"type":"FeatureCollection","features":[{"type":"Feature","properties":{"code":"523027"},"geometry":{"type":"Polygon","coordinates":[[[-77.44763491070131,1.055146343868671],[-77.45247785783482,1.0460892743245722],[-77.45842003724255,1.045348978773859],[-77.46339774531305,1.0346792887347647],[-77.46334653813159,1.0273418049068255],[-77.4651748898716,1.0236297064273572],[-77.46868950887551,1.0212102964305245],[-77.47054028991846,1.0230423783315814],[-77.47447692722454,1.021794916637191],[-77.48599555028301,1.025981027358796],[-77.49640621061872,1.0241149091526154],[-77.5012069628126,1.0282786080549045],[-77.50514511604297,1.0266652121141533],[-77.50624338363804,1.030958623329127],[-77.51115005821225,1.0359948466935975],[-77.51516905319528,1.0440292844191958],[-77.51098808571464,1.055730628803019],[-77.51296326202242,1.0632606021034121],[-77.48889457136312,1.0699586744210592],[-77.47630565228923,1.0792989071006787],[-77.4725023083326,1.0900321394608454],[-77.4562056565178,1.0834050595018425],[-77.45149028562179,1.0742770665048056],[-77.45137684944041,1.063913736122231],[-77.44763491070131,1.055146343868671]],[[-77.49512585007659,1.0569503307769423],[-77.49836616906254,1.0570968334421877],[-77.49729589053061,1.052478662705596],[-77.494477283371,1.0545290541569443],[-77.49512585007659,1.0569503307769423]]]}}]}