{"type":"FeatureCollection","features":[{"type":"Feature","properties":{"code":"523528"},"geometry":{"type":"Polygon","coordinates":[[[-77.37007767952014,1.012480808454427],[-77.37037642973053,1.0058027619695054],[-77.36540841473072,0.9971106702202519],[-77.36579517493811,0.9947030050369676],[-77.35582094755495,0.9855924348846656],[-77.35554900164192,0.9723323573083462],[-77.34720948878447,0.9698594395041482],[-77.3483508913157,0.9677742291028721],[-77.34681431077513,0.9632653530095467],[-77.34760380598749,0.9607440099609335],[-77.3409686959493,0.9592029834633422],[-77.3384057616567,0.9560257018331413],[-77.33965476601492,0.9511798174677892],[-77.34561708232712,0.9438297876695287],[-77.34295116288604,0.9389017101781292],[-77.33596567276618,0.9378968632161104],[-77.32792334174428,0.9414614048766907],[-77.30106658352594,0.9390591328460118],[-77.29533717859096,0.9414979217852419],[-77.28162690750122,0.9411074653554579],[-77.27086778615751,0.9381320237970954],[-77.2665532209084,0.9402410498418021],[-77.25803040874086,0.9392241217655055],[-77.24848884198309,0.933079266162224],[-77.23752227761275,0.9177924749666317],[-77.23035675348768,0.9141443857211016],[-77.21664074266027,0.9022784596809856],[-77.21282882046461,0.8959370172902368],[-77.21033325841302,0.8857997138906626],[-77.20580064380954,0.880237392812603],[-77.19902610987594,0.8641700775087884],[-77.1932811795727,0.8569303821092831],[-77.18112973629206,0.8513240663171473],[-77.17126527355049,0.8336258190991543],[-77.1662767184967,0.8304541383669175],[-77.16185980573346,0.8216278245845956],[-77.14348335415343,0.8171948784024607],[-77.13858611451087,0.8073117175474636],[-77.12995752600182,0.7975202042906062],[-77.13066720687567,0.7962783167546377],[-77.13295580104102,0.7968297645478515],[-77.13734853512062,0.7924153251888697],[-77.13892745766816,0.7894721273603409],[-77.13830926601236,0.7866216343689416],[-77.14098661144982,0.7845981778270925],[-77.14151226076245,0.7818856442289075],[-77.13617973282385,0.7783013873252003],[-77.13524180970188,0.7691059284989024],[-77.1324488323583,0.7648540293378119],[-77.12642969048312,0.7567632062226721],[-77.11867520201025,0.7503540038681535],[-77.11865227391274,0.7439370552845617],[-77.1239804330275,0.7450165219219684],[-77.12942769812724,0.7497285071851252],[-77.13059522515533,0.7563026192691495],[-77.13585823449341,0.7598647142650066],[-77.13718628700047,0.7645079049512447],[-77.14691156547377,0.7716785054685147],[-77.15240529972027,0.7822512329185543],[-77.16011681677935,0.7872151547171029],[-77.17551863824218,0.8051658146393379],[-77.19886121557312,0.8247688248196141],[-77.20444591350355,0.8320551261487026],[-77.21932142230833,0.8446492326866633],[-77.22421944459563,0.8538432979732988],[-77.2288409310309,0.8712781898586286],[-77.23641675641255,0.881176788664277],[-77.2432151635823,0.8853827185017167],[-77.25026079907764,0.8875689569254064],[-77.25679070973058,0.8865521944283614],[-77.26626021660638,0.8889124936629855],[-77.2824171699317,0.9002187628817069],[-77.29013074593274,0.9079173637312579],[-77.29736129950663,0.9092491474277153],[-77.30321927826844,0.9086959245427124],[-77.31434042063472,0.9021420182689326],[-77.32134221362543,0.9021168985603936],[-77.3325991628547,0.8955848950269001],[-77.34621409423767,0.8905241062844311],[-77.35426622117456,0.8902055112471885],[-77.35986415413174,0.8866386597046585],[-77.36567902366846,0.8855380740001237],[-77.3769130869664,0.8783466228392172],[-77.3859362847561,0.8803705349810684],[-77.39263088402339,0.8837528818788769],[-77.3897638341358,0.8996615064451703],[-77.39541617170221,0.9023820598381462],[-77.4023944113024,0.910354422830153],[-77.40981206016778,0.9138633545468906],[-77.41974706069635,0.9245534601984673],[-77.42646173001935,0.9279759934876779],[-77.42964886927109,0.9372731015156432],[-77.43575689737628,0.9421247245902009],[-77.4372723465084,0.9470798963998277],[-77.42916976829531,0.9529024257764718],[-77.43300006875876,0.9633587345618366],[-77.43109078682005,0.9694483998258079],[-77.42546209828936,0.976042562425107],[-77.42560428149602,0.9871674853461059],[-77.4184047220943,0.9895783284167692],[-77.412931398318,0.9948845919902851],[-77.39908021209123,0.9921164823867912],[-77.40197426682244,0.9994793029246125],[-77.40084416687449,1.0026621700261558],[-77.39538438151556,1.0043158891411963],[-77.3833457501517,1.0038731950305646],[-77.38085692337017,1.0129552649837592],[-77.37007767952014,1.012480808454427]]]}}]}