{"type":"FeatureCollection","features":[{"type":"Feature","properties":{"code":"523520"},"geometry":{"type":"Polygon","coordinates":[[[-77.45126625176039,1.0072633364941908],[-77.44846527416246,1.0060336905095255],[-77.44933255973854,1.0040106751695816],[-77.4464045787455,1.001535407374206],[-77.44685572048297,0.9987787566772681],[-77.44405200002888,0.9980448724372195],[-77.44613269865283,0.9958199810299107],[-77.44561931043188,0.9942962148830929],[-77.44936069278361,0.9947462212200548],[-77.4497998253978,0.9995155113003875],[-77.45383359704294,1.0027841700483577],[-77.45263417801237,1.0078453434283574],[-77.45073185760106,1.0084763443357474],[-77.45126625176039,1.0072633364941908]]]}}]}