{"type":"FeatureCollection","features":[{"type":"Feature","properties":{"code":"523548"},"geometry":{"type":"Polygon","coordinates":[[[-77.11965208870555,0.7432477519707845],[-77.18940223892031,0.7032782323394713],[-77.2075453646608,0.7222643271610991],[-77.21420559954976,0.7340325789298845],[-77.21745631197581,0.7438934647483961],[-77.22379470400602,0.7468348360629875],[-77.22638120403047,0.7500983515699886],[-77.23216952020982,0.7504188595102619],[-77.23846287262836,0.755474987351306],[-77.2410959446438,0.7613128549196517],[-77.24841877213743,0.7700465728798349],[-77.257916739103,0.7783432109970931],[-77.26283638130894,0.7814453073085019],[-77.2714631011379,0.7827998545517403],[-77.28896980196521,0.7895078595672089],[-77.33814612105846,0.7987136665821026],[-77.35418669994215,0.8037210431623976],[-77.36572136464696,0.8122688084308152],[-77.37375781194919,0.8398982170014619],[-77.38146954395279,0.8468843097886634],[-77.3867102278607,0.8487906946048156],[-77.40255883766383,0.8497700248794899],[-77.40541507142143,0.8545310318837664],[-77.4116643705047,0.8572955409100018],[-77.4207617992185,0.8576026533864933],[-77.42820925440498,0.8557197098606935],[-77.43259548050037,0.8573909001572133],[-77.4401417535862,0.8688974266747209],[-77.44832613206034,0.8743248469476157],[-77.45196458274262,0.8786418712028308],[-77.45321246198466,0.8834326454473853],[-77.45240717298054,0.8931314302129749],[-77.45729207748349,0.8996775151813949],[-77.45992053487737,0.9078821704282518],[-77.44892690292835,0.9022423387228855],[-77.44506123124131,0.8941879204160159],[-77.44505585454385,0.8907312644325316],[-77.43885787782756,0.8889527150214462],[-77.43576850129318,0.8856208955045872],[-77.42750862896753,0.8854895808784704],[-77.42468775100684,0.8879673498460647],[-77.42123061371223,0.8875509735794935],[-77.41985546368005,0.8888480339712146],[-77.4114683606735,0.8879605508125792],[-77.4072050715115,0.8916742721743276],[-77.39885499449247,0.8924461707351838],[-77.39712441266892,0.8904134355849465],[-77.3924709437282,0.8892836318285049],[-77.39336024414479,0.8850170012566991],[-77.39202550573293,0.8832149365074429],[-77.37963005109498,0.8782915898515853],[-77.3769130869664,0.8783466228392172],[-77.36567902366846,0.8855380740001237],[-77.35986415413174,0.8866386597046585],[-77.35426622117456,0.8902055112471885],[-77.3469848738531,0.8903186286113964],[-77.33573431947934,0.8942051951650001],[-77.32134221362543,0.9021168985603936],[-77.31379064611747,0.90232563433932],[-77.30031367412778,0.9091797409274704],[-77.29013074593274,0.9079173637312579],[-77.2824171699317,0.9002187628817069],[-77.26626021660638,0.8889124936629855],[-77.25679070973058,0.8865521944283614],[-77.25026079907764,0.8875689569254064],[-77.24347304760079,0.8855088127535851],[-77.23641675641255,0.881176788664277],[-77.2288409310309,0.8712781898586286],[-77.22421944459563,0.8538432979732988],[-77.21932142230833,0.8446492326866633],[-77.20444591350355,0.8320551261487026],[-77.19886121557312,0.8247688248196141],[-77.17551863824218,0.8051658146393379],[-77.16011681677935,0.7872151547171029],[-77.15240529972027,0.7822512329185543],[-77.14691156547377,0.7716785054685147],[-77.13718628700047,0.7645079049512447],[-77.13585823449341,0.7598647142650066],[-77.13059522515533,0.7563026192691495],[-77.12942769812724,0.7497285071851252],[-77.11965208870555,0.7432477519707845]]]}}]}