{"type":"FeatureCollection","features":[{"type":"Feature","properties":{"code":"524067"},"geometry":{"type":"Polygon","coordinates":[[[-77.5516662341231,0.9034317777472438],[-77.53839237027483,0.8958552725650861],[-77.54340540740276,0.8922002742427253],[-77.54333736256041,0.8899607337002067],[-77.54540803695511,0.8889197832635318],[-77.54811783900999,0.8834612742017498],[-77.55803963639357,0.875923982504446],[-77.55912482322827,0.8721441909099781],[-77.55744912526814,0.8576101373627125],[-77.56311781815594,0.8506841714388997],[-77.5670473016159,0.8477802056071368],[-77.57778151819554,0.8545064767901636],[-77.59261915563303,0.858166892947736],[-77.59058179249149,0.8602870426267373],[-77.59222235679823,0.8615908753124586],[-77.58950091277404,0.8626811899615632],[-77.58848359800339,0.8656530545968053],[-77.59227982925154,0.8731902773885167],[-77.58974221829908,0.8761871043806195],[-77.58987428368829,0.8783736791049819],[-77.59184432498256,0.8785494903251561],[-77.59211992392335,0.8825166466629639],[-77.58743370320218,0.88390093029318],[-77.58463970872896,0.8877163337667753],[-77.58178087404025,0.8878566884026213],[-77.57958805152754,0.8853107110703036],[-77.57305048206314,0.8852706624901998],[-77.5709048023271,0.8893569494956637],[-77.56650345915511,0.8909542245999091],[-77.5695145465312,0.8961965643002827],[-77.56234741083671,0.8964569967992588],[-77.55969989743141,0.9009579117189901],[-77.55541185262956,0.9009441768691886],[-77.5516662341231,0.9034317777472438]]]}}]}