{"type":"FeatureCollection","features":[{"type":"Feature","properties":{"code":"524077"},"geometry":{"type":"Polygon","coordinates":[[[-77.62096428820576,0.8201695393729551],[-77.60572073273363,0.81006580639405],[-77.58753199351054,0.8128342708101854],[-77.58359044641986,0.8060376963250064],[-77.58576929651247,0.8043999540644791],[-77.5882026480761,0.807971863487353],[-77.59016131582456,0.8083361676523282],[-77.59074181814736,0.8057592753378913],[-77.59545146781761,0.8061557728390198],[-77.59713510741085,0.8031311748135863],[-77.60157678198465,0.8032920180813221],[-77.6066232074989,0.7997312929708755],[-77.61052271597322,0.7929058634738908],[-77.61290992749167,0.7915068268357572],[-77.61040396377246,0.7869126126391848],[-77.60563567950891,0.7869170853356877],[-77.60310994192537,0.7835341697091849],[-77.60883879355833,0.7774286571744256],[-77.6159998110482,0.7645135829823744],[-77.62642901625941,0.7514460761254895],[-77.62403582537615,0.7455564994957626],[-77.62665883510999,0.743680886708205],[-77.62846081244163,0.7374221022996039],[-77.63813185908401,0.7316758885000354],[-77.6398269915224,0.7277639029611009],[-77.63704931637506,0.7251647098991612],[-77.63209725868938,0.7246639190706219],[-77.62671888278334,0.7262952469351376],[-77.6240847422161,0.732140781542455],[-77.6200950794422,0.7342211952878301],[-77.61461827747331,0.7312466834414977],[-77.60848929999406,0.7309479404302124],[-77.59884710116432,0.7192567303189321],[-77.58793830235334,0.7179140903832035],[-77.58308361143469,0.7223876898696631],[-77.55966719707311,0.7326743766020059],[-77.54949438566712,0.741746862499383],[-77.54459483717113,0.7442133432818991],[-77.52887669661436,0.7473324212361945],[-77.51203748892033,0.7474495454124508],[-77.50235644684511,0.7446323976127474],[-77.48935877637746,0.7370166100402002],[-77.44694456660375,0.7015847628926508],[-77.45167202786996,0.6977168420019098],[-77.45858419209515,0.6970688337406159],[-77.46679240472469,0.6890766197510629],[-77.48472085851603,0.6845405053576883],[-77.49187270949778,0.6841166625984556],[-77.49406718985978,0.6885056243509098],[-77.49806887924052,0.6905710197502231],[-77.50103787966339,0.6882474523685573],[-77.5041359619637,0.6888928895235722],[-77.51252661206848,0.6860529720065074],[-77.52698435415238,0.6919909862220379],[-77.53008244159491,0.6901837628050771],[-77.52982427064097,0.6810185813266116],[-77.53292235191282,0.6722406753051473],[-77.54174060064895,0.671048920228202],[-77.54126014727126,0.6674938628644895],[-77.54785189097379,0.6660864392776489],[-77.58029869296666,0.6675975380979366],[-77.58027389413223,0.661892199746319],[-77.61080969771587,0.679665844142221],[-77.6147856246115,0.6844125362550812],[-77.61687727306298,0.6902227448903204],[-77.6228896590992,0.6946424581025781],[-77.62934933638411,0.6955104162800012],[-77.6373357808111,0.699012436863029],[-77.639501502835,0.7026260588859827],[-77.64642369746008,0.7031503640242249],[-77.66093191755971,0.7094478878057089],[-77.66405542501593,0.7160765793341284],[-77.66405651927874,0.7225009203625632],[-77.67288324340967,0.7285481849983739],[-77.6781799352687,0.7353137488562993],[-77.67913066250009,0.7387985882785983],[-77.67804770635718,0.7616593855410088],[-77.66752760842462,0.7858197999032086],[-77.66722848488962,0.8005160244374565],[-77.67646401080793,0.8190699995944328],[-77.68807471855263,0.8244335566722611],[-77.69137675026036,0.8339683418800519],[-77.68360142039984,0.8364975350304462],[-77.67372873628875,0.8284687959048824],[-77.66734021591327,0.8257589383140953],[-77.66732825718367,0.8236678297949425],[-77.66201904506545,0.8240874250865886],[-77.66046914002357,0.8208752905678693],[-77.65721764392435,0.8198513762815764],[-77.66183439849561,0.8170456318525794],[-77.66128741311451,0.8156903215050306],[-77.66459718796597,0.8153718365111331],[-77.6633036006246,0.8140211294722803],[-77.65827645326533,0.8148796928273327],[-77.65753525782742,0.8125769699186662],[-77.65562365160861,0.8156435746787452],[-77.651497441493,0.8140506252037198],[-77.65210166381405,0.8198758768676839],[-77.64735127342186,0.8216117130040743],[-77.64223495803935,0.8205120148454625],[-77.64065107839889,0.8168090242529615],[-77.63999544320785,0.8180039448759544],[-77.6351349518734,0.81535385007993],[-77.63560354833731,0.817767173753964],[-77.63421680467263,0.8185626185062915],[-77.62096428820576,0.8201695393729551]]]}}]}