{"type":"FeatureCollection","features":[{"type":"Feature","properties":{"code":"524009"},"geometry":{"type":"Polygon","coordinates":[[[-77.40255883766383,0.8497700248794899],[-77.3844446646371,0.8482165943366908],[-77.37522242722457,0.842081973793313],[-77.36572136464696,0.8122688084308152],[-77.35418669994215,0.8037210431623976],[-77.33814612105846,0.7987136665821026],[-77.28896980196521,0.7895078595672089],[-77.2714631011379,0.7827998545517403],[-77.26283638130894,0.7814453073085019],[-77.257916739103,0.7783432109970931],[-77.24841877213743,0.7700465728798349],[-77.2410959446438,0.7613128549196517],[-77.23846287262836,0.755474987351306],[-77.23216952020982,0.7504188595102619],[-77.22638120403047,0.7500983515699886],[-77.22379470400602,0.7468348360629875],[-77.21745631197581,0.7438934647483961],[-77.21420559954976,0.7340325789298845],[-77.2075453646608,0.7222643271610991],[-77.18940223892031,0.7032782323394713],[-77.22726852263833,0.6809752160193625],[-77.23717431025716,0.6943965348706342],[-77.2378397012539,0.7068781369961243],[-77.24040285049097,0.713659184056155],[-77.24415691353892,0.7171525976037856],[-77.25619279381903,0.7208510836180153],[-77.27388074324205,0.7226399030560628],[-77.33175187740034,0.7347632657421741],[-77.34835222726252,0.7395809923797856],[-77.3813075282606,0.7554722558079447],[-77.39693765984885,0.7613172576820375],[-77.43106048787502,0.7653835476511972],[-77.43687763746885,0.7731679535169178],[-77.4339569831003,0.7756369365000637],[-77.42941272755593,0.8051025427986929],[-77.43335393114683,0.8129213202418555],[-77.43352888670279,0.8191328312616974],[-77.43663228913624,0.826563423076152],[-77.43547164547397,0.8310406735335505],[-77.43963840193584,0.8360657557802824],[-77.4365261240435,0.8414012024387034],[-77.42887784282948,0.8476942956897915],[-77.4134762106001,0.8450722701754216],[-77.40978487740352,0.8460109080649545],[-77.40849434865021,0.8483418699483423],[-77.40255883766383,0.8497700248794899]]]}}]}