{"type":"FeatureCollection","features":[{"type":"Feature","properties":{"code":"524560"},"geometry":{"type":"Polygon","coordinates":[[[-77.73029973706906,0.8672218305304682],[-77.7280955348399,0.8647489353519973],[-77.72464728123174,0.8669673290594346],[-77.72260233949726,0.8598502600036682],[-77.72803753788094,0.8610916528587609],[-77.73349986863514,0.8591661348980324],[-77.73282684248113,0.8607652755970321],[-77.73689048832455,0.862283790516301],[-77.73655684717329,0.8648718157210169],[-77.73274058392178,0.8646526906157419],[-77.73029973706906,0.8672218305304682]]]}}]}