{"type":"FeatureCollection","features":[{"type":"Feature","properties":{"code":"524501"},"geometry":{"type":"Polygon","coordinates":[[[-77.56932989893295,0.9238845735256405],[-77.56510786882785,0.9233358161380352],[-77.56443522936826,0.9191567790440445],[-77.56306017498122,0.9192994003672084],[-77.56406259276201,0.9165665066924475],[-77.56862288172522,0.9152918745751322],[-77.56957841898225,0.9184320253166902],[-77.57315891898543,0.9167607650860532],[-77.57654316850187,0.9181331568353812],[-77.57419958454346,0.9221403134166053],[-77.57274302814375,0.9187842874482044],[-77.5700209351723,0.918672154303465],[-77.56932989893295,0.9238845735256405]]]}}]}