{"type":"FeatureCollection","features":[{"type":"Feature","properties":{"code":"525039"},"geometry":{"type":"Polygon","coordinates":[[[-78.09758918990008,1.2369157819702536],[-78.1003744600954,1.2207513354127286],[-78.1068845403197,1.2154456950753456],[-78.10630258789297,1.2033702331279983],[-78.09089591218145,1.1779133363587562],[-78.08393002417591,1.170220116320479],[-78.0832275218309,1.1664257362688772],[-78.0854605327919,1.1552717032824376],[-78.08227289268865,1.1500447089729278],[-78.07520786179589,1.1501825305548437],[-78.06286621629897,1.1476484985823845],[-78.052266569366,1.140906906691157],[-78.0391509303708,1.1410107197358457],[-78.03391821380711,1.1384922285583343],[-78.02886642085133,1.1498379889413286],[-78.02140192334389,1.1601935031607695],[-78.01635463908008,1.1625313329832352],[-78.0088865769909,1.163053707734889],[-78.00571286611313,1.1618383468168645],[-77.99779935060201,1.154260744286546],[-77.97784075744937,1.1498326688081875],[-77.97111063783439,1.139185800936957],[-77.97307008308542,1.132019349156792],[-77.99153530159612,1.1111706338619456],[-78.00243585435499,1.1028258821183385],[-78.01070720204228,1.1002271364288276],[-78.01671710747519,1.094227450629262],[-78.02096660110925,1.0971913983140666],[-78.02777534206945,1.1063604817034616],[-78.03298412780418,1.1098758843805854],[-78.0331908632624,1.0997637932493376],[-78.02501209905597,1.0866182810842702],[-78.02222641954052,1.0732658431991808],[-78.00237565035837,1.0442192871176417],[-78.00525565450789,1.0338075140070941],[-78.00380926631931,1.0316475708017379],[-78.00952755893292,1.0304930875101377],[-78.0151277050984,1.034890700521089],[-78.0249964770141,1.0362310460015465],[-78.03060228681255,1.0410378711484896],[-78.04199952691425,1.0418124189773152],[-78.04588190564994,1.0468252339616697],[-78.04659022795119,1.0504036164016952],[-78.07697408429493,1.042783066111781],[-78.08847957619929,1.0439950743072473],[-78.0978374014166,1.0499982475553793],[-78.10108691365025,1.0558209034304582],[-78.10919794257552,1.058765267512797],[-78.11161344140544,1.0618983538826114],[-78.12338283885919,1.0598491523392681],[-78.12960544780225,1.0603540991039608],[-78.13678151449153,1.0626503767633722],[-78.1416474174905,1.0691054949626277],[-78.14500098548132,1.0706706518070064],[-78.14818030445616,1.0701279714862721],[-78.15476711986213,1.0647167759225908],[-78.15813980557084,1.068115348557967],[-78.1656022359088,1.0653923515855581],[-78.16732952054565,1.063156841509283],[-78.16945869480776,1.0637009791330456],[-78.17673797187445,1.0725615061126632],[-78.18689861989077,1.079751794105107],[-78.1939247664003,1.087404591210202],[-78.19585886671388,1.0931837254547077],[-78.20077533103239,1.0929914324148058],[-78.20249419683876,1.10255618438066],[-78.20905530735246,1.1110949086108803],[-78.21290146125733,1.1135487693751998],[-78.22027251550594,1.1147548352298031],[-78.22479668145411,1.1228898978282587],[-78.23078208321556,1.127114064008424],[-78.23750925531425,1.1363275596596054],[-78.25076925472894,1.1476876081945306],[-78.13152683553784,1.1663675757875467],[-78.13122899652757,1.1766406407987233],[-78.12848650542719,1.1818589396267498],[-78.12380255756398,1.1832616364918067],[-78.11875217665977,1.201188952825703],[-78.11982579248769,1.2051649074893476],[-78.12658870296389,1.2130456187693994],[-78.12768427295424,1.2316151912856412],[-78.10846737711944,1.2390202108769017],[-78.09909964800067,1.2383420661644777],[-78.09758918990008,1.2369157819702536]]]}}]}