{"type":"FeatureCollection","features":[{"type":"Feature","properties":{"code":"525069"},"geometry":{"type":"Polygon","coordinates":[[[-77.81137225779861,1.2573248020927963],[-77.78698120697402,1.228190399536686],[-77.77702121426381,1.2125167638014318],[-77.76139177173206,1.2048417194278045],[-77.75158990000216,1.19615518538194],[-77.74978719041945,1.1819968383418882],[-77.74526401897515,1.1788484384629214],[-77.74729823713949,1.1738379343889278],[-77.74492277969057,1.1681607043997815],[-77.75177958388343,1.1638160932024562],[-77.74440232606952,1.1501411480847992],[-77.73693683611509,1.1510566429323035],[-77.73279942523203,1.1469130110004926],[-77.72982520854868,1.14610803155756],[-77.7226581417599,1.1513124577244298],[-77.71976606575208,1.1516500090141335],[-77.72124037409816,1.139592769011358],[-77.720458479076,1.1282497504561206],[-77.7263860875101,1.1193801248455202],[-77.72211053725636,1.099806470528506],[-77.72842132177567,1.0899594316601338],[-77.72627754568668,1.0789908782818998],[-77.73174718763875,1.0727145507007663],[-77.75035749059248,1.0630376439929137],[-77.75977039713422,1.0641669828933686],[-77.76372659233175,1.0664019396675712],[-77.76255620520504,1.061871652429545],[-77.75473070071934,1.0522890528721405],[-77.75503138131631,1.044759333597085],[-77.76273298110425,1.0398217018746436],[-77.768374022258,1.0383332010217714],[-77.78086657729636,1.026564647919372],[-77.79976588596759,0.994923044427594],[-77.80211933680351,1.0010486002786365],[-77.81084118859394,1.005469062196994],[-77.81103040042007,1.0093283493128524],[-77.81369404391785,1.0115419103689192],[-77.82028890585804,1.0134860338832823],[-77.82168308927595,1.019309979425259],[-77.82442526670133,1.0203327994487381],[-77.81509535341394,1.0453496102375652],[-77.81637883425066,1.0548165172106678],[-77.81465646865439,1.0618084289257013],[-77.81607113041969,1.0677377456028125],[-77.81540200926196,1.076195972608616],[-77.81955594721626,1.1026807246558974],[-77.82257738483787,1.1061916587502765],[-77.83181912769123,1.1081321724313966],[-77.84463066137585,1.1143561234919162],[-77.85415180223674,1.1258013424940145],[-77.8409382812248,1.1312627075406567],[-77.82912444476983,1.1410051034112598],[-77.81682254754782,1.1441857182236959],[-77.80076607819876,1.1552425695627448],[-77.80262096786959,1.171230437682027],[-77.81079678044597,1.1774315789159573],[-77.81461590790991,1.1867401551064063],[-77.82174782253338,1.192173796428051],[-77.82882174122642,1.2005335634324865],[-77.83509306749153,1.2290129982567919],[-77.83763306031682,1.2336274799701528],[-77.8410894468484,1.2361433877000536],[-77.83093730096641,1.2593151900939006],[-77.82470987068484,1.2678150350831174],[-77.82462582122002,1.277835944500623],[-77.81919539480964,1.2703618835062116],[-77.81832725562629,1.2659032499153113],[-77.81213562131501,1.2633065744806231],[-77.81137225779861,1.2573248020927963]]]}}]}