{"type":"FeatureCollection","features":[{"type":"Feature","properties":{"code":"525529"},"geometry":{"type":"Polygon","coordinates":[[[-77.59426129654219,1.1346627395359974],[-77.6050871874595,1.1227864251980009],[-77.6059270167056,1.1121027977058588],[-77.6132807252427,1.0913988943167396],[-77.62474864094276,1.0908265228604819],[-77.64130429674998,1.1064854858062745],[-77.64601857338312,1.1088453109289276],[-77.64825392302237,1.1120314855016318],[-77.64684303769798,1.114740867951923],[-77.65447977361623,1.1263745655006687],[-77.6514588862114,1.1497941742047146],[-77.65422825257167,1.1548335034656247],[-77.65430455272212,1.1657146783105645],[-77.65865312033776,1.1687206255309093],[-77.66162392670572,1.1679429388955214],[-77.65856334553342,1.1730112589225996],[-77.65998071621635,1.1741334624888964],[-77.65912470237032,1.1830287672807458],[-77.66040577768001,1.1860573721182277],[-77.66216442158611,1.1857364671990922],[-77.6605545151508,1.187911488400232],[-77.66213747844898,1.1896121343189066],[-77.66016329150295,1.1913113260198998],[-77.66112475361729,1.192829027441178],[-77.65833146568406,1.1944540643228265],[-77.65870074442552,1.1960034685131404],[-77.65243208079801,1.196213761354045],[-77.647129162748,1.1932603675463724],[-77.64009615549838,1.177500724191816],[-77.63644705015167,1.1732508736881755],[-77.62298764910241,1.1717362956468378],[-77.61384798122589,1.152559847427824],[-77.60486986932779,1.1473689175121535],[-77.59981870989253,1.146763890949046],[-77.59718728441356,1.1374342861943774],[-77.59426129654219,1.1346627395359974]]]}}]}