{"type":"FeatureCollection","features":[{"type":"Feature","properties":{"code":"525527"},"geometry":{"type":"Polygon","coordinates":[[[-77.58807775710198,1.138083437055343],[-77.59135319431459,1.1334051754507755],[-77.58721947965398,1.1269488663151037],[-77.58611079496461,1.1138685543204474],[-77.5818433529517,1.1116174427710916],[-77.57615495510521,1.1046268598038296],[-77.57011183303587,1.0938125234382028],[-77.56915630709176,1.0865504604424245],[-77.56535271630895,1.085185253392467],[-77.5640715638661,1.0822557472192216],[-77.56011199846245,1.0795696394515062],[-77.559288304451,1.071570270587415],[-77.57177158705161,1.0675719226164233],[-77.58104056203445,1.0549689313635326],[-77.58385570231428,1.0563326985939057],[-77.58432193233199,1.0541973917290761],[-77.5918456352183,1.0520282923000082],[-77.5942690252877,1.0536565687755228],[-77.59638288501225,1.0522758949786066],[-77.60002674427369,1.0528824786036353],[-77.60087312367017,1.055226648774294],[-77.60552330262334,1.054603582300956],[-77.60910118421185,1.0535261735770405],[-77.61112476828055,1.0485544808668124],[-77.6154587464107,1.0462319121028258],[-77.62560442544611,1.0488720505468336],[-77.62818711714789,1.0448900805229187],[-77.63209716407266,1.0452534477767585],[-77.637027525735,1.0422553023213368],[-77.64008892451903,1.0373266221625954],[-77.64370212385211,1.0370826632558305],[-77.64698343347152,1.0394722597325199],[-77.65161029557589,1.0401501370498636],[-77.66255618825164,1.0473136608541722],[-77.66442450423949,1.0501494553451494],[-77.67136459479286,1.0530219981441746],[-77.67455185025864,1.0564616076929951],[-77.66220109790322,1.0642537834419272],[-77.65599873590804,1.067882409412789],[-77.64116987108525,1.0723689755025134],[-77.6199735597026,1.0834913252602973],[-77.61964858832175,1.080069295907947],[-77.61664060375682,1.0803151728599687],[-77.61369137411293,1.0763926324154909],[-77.61114903129646,1.0773742622876057],[-77.61218144051799,1.0794789071671858],[-77.6110580275033,1.0802449117239803],[-77.61442189534591,1.0829030633386765],[-77.61350323392384,1.085558586254308],[-77.61108852493777,1.0851057115912113],[-77.6073413843364,1.0875327269204718],[-77.60704761590154,1.0904498804706577],[-77.61158903911524,1.0893259984861743],[-77.61299096259154,1.0911682650535113],[-77.6059270167056,1.1121027977058588],[-77.6050871874595,1.1227864251980009],[-77.59426129654219,1.1346627395359974],[-77.58807775710198,1.138083437055343]]]}}]}