{"type":"FeatureCollection","features":[{"type":"Feature","properties":{"code":"525501"},"geometry":{"type":"Polygon","coordinates":[[[-77.5494164533784,1.1355218551647113],[-77.54573457465392,1.1328704460191261],[-77.54622196899015,1.1289800361757898],[-77.54474829725001,1.1278871545341644],[-77.54916608316097,1.1259172644209343],[-77.55060287906616,1.128160289326729],[-77.55471728574696,1.1251668849913585],[-77.55626209382774,1.125269012418812],[-77.5514752893713,1.1299004284666125],[-77.55342310293742,1.1327392033840056],[-77.55513566747646,1.1320069492253424],[-77.55701148903785,1.1334829668429052],[-77.550427623205,1.134195712475389],[-77.5494164533784,1.1355218551647113]]]}}]}