{"type":"FeatureCollection","features":[{"type":"Feature","properties":{"code":"525577"},"geometry":{"type":"Polygon","coordinates":[[[-77.7259172925568,1.281325277188273],[-77.71923160577239,1.2726609441310757],[-77.71791831964305,1.2640373373976104],[-77.71967109834145,1.2582564486301067],[-77.71340984567081,1.2506478755818193],[-77.71074127901869,1.2356726057957985],[-77.70913942220301,1.2172532846178115],[-77.71439149199801,1.1952809855868622],[-77.70958322908842,1.1790858760156766],[-77.69786569084869,1.1660663079499045],[-77.68787320449707,1.170430204501315],[-77.68262431361785,1.1786085912693238],[-77.6783603004323,1.1947952521852585],[-77.66753012708034,1.2024951519576916],[-77.66430411681517,1.2102790168626711],[-77.65978294157782,1.2153647144829733],[-77.65926456541064,1.211529253294998],[-77.66156067337704,1.2024223443980304],[-77.6578151834259,1.1983981814913705],[-77.65833146568406,1.1944540643228265],[-77.66112475361729,1.192829027441178],[-77.66016329150295,1.1913113260198998],[-77.66213747844898,1.1896121343189066],[-77.6605545151508,1.187911488400232],[-77.66216442158611,1.1857364671990922],[-77.66040577768001,1.1860573721182277],[-77.65912470237032,1.1830287672807458],[-77.65998071621635,1.1741334624888964],[-77.65856334553342,1.1730112589225996],[-77.66168080369079,1.1688564869014044],[-77.66044422394668,1.1622989944485198],[-77.66188932349678,1.1546064686089608],[-77.66477336016942,1.1530520003676656],[-77.66518714167552,1.1493929427826401],[-77.66773559241204,1.1479127229490018],[-77.6699252771466,1.1406945610789876],[-77.68751742920591,1.124923972010663],[-77.69044673688978,1.1187312413796349],[-77.69343082147907,1.1043606258605791],[-77.69711059189638,1.0997401061612209],[-77.70258863416694,1.0942829237902743],[-77.70760181733368,1.0920477438440344],[-77.71501741651309,1.091326809752161],[-77.72271512261767,1.0986909960616345],[-77.72338809734953,1.1090315186744988],[-77.7263810121463,1.1187046767093989],[-77.720458479076,1.1282497504561206],[-77.72124037409816,1.139592769011358],[-77.71976606575208,1.1516500090141335],[-77.7226581417599,1.1513124577244298],[-77.72982520854868,1.14610803155756],[-77.73279942523203,1.1469130110004926],[-77.73693683611509,1.1510566429323035],[-77.74440232606952,1.1501411480847992],[-77.75177958388343,1.1638160932024562],[-77.74492277969057,1.1681607043997815],[-77.74729823713949,1.1738379343889278],[-77.74526401897515,1.1788484384629214],[-77.74978719041945,1.1819968383418882],[-77.75158990000216,1.19615518538194],[-77.76139177173206,1.2048417194278045],[-77.77702121426381,1.2125167638014318],[-77.78698120697402,1.228190399536686],[-77.81137225779861,1.2573248020927963],[-77.80059103111142,1.2533761525780847],[-77.79915515977603,1.257683775840178],[-77.80130897037867,1.2630683224014092],[-77.79843721125286,1.2659400897547357],[-77.78802709393477,1.2630683224014092],[-77.78808827289487,1.270423151940804],[-77.78485357023351,1.2706455464648343],[-77.77043758497274,1.2684528679341156],[-77.76720685827019,1.2666580218228773],[-77.75895056081072,1.2544530573651969],[-77.75895056081072,1.2505043841962333],[-77.7557198197099,1.245119838663527],[-77.75392498079782,1.245119838663527],[-77.74997631585643,1.2533761525780847],[-77.74602764988663,1.2501454166195458],[-77.74315588973235,1.249427480437589],[-77.74136104362111,1.2512223316910536],[-77.74136104362111,1.2533761525780847],[-77.74889941826842,1.264863175711696],[-77.74961734108058,1.2724015328755058],[-77.7461533307046,1.278972113287864],[-77.74700172584846,1.2847948956613209],[-77.75482689711879,1.2898350415056257],[-77.76480742782616,1.2921212301438914],[-77.7690026412925,1.2949671002862146],[-77.77811787440322,1.3088917769585464],[-77.77765974542729,1.3137375029437521],[-77.77344774160832,1.3164392420092668],[-77.76633818018297,1.3154608424750336],[-77.74814026622414,1.3011824947050172],[-77.73990267202032,1.3024357578436252],[-77.7369970812494,1.307808297338397],[-77.73429319993807,1.3088969417968315],[-77.73060677858302,1.3045161160531507],[-77.72930207789182,1.2993305350669289],[-77.72622630250976,1.2968376747338652],[-77.72897549288467,1.284013772999515],[-77.72834970515243,1.281869208095145],[-77.7259172925568,1.281325277188273]]]}}]}