{"type":"FeatureCollection","features":[{"type":"Feature","properties":{"code":"526057"},"geometry":{"type":"Polygon","coordinates":[[[-77.70853037134435,1.4599758378818706],[-77.7080028451241,1.448296400352092],[-77.70089994183559,1.440711745791475],[-77.69846874383063,1.4325473047039736],[-77.69257776543373,1.426832889318689],[-77.69079386709313,1.4185594333242193],[-77.71475978240619,1.4303635201441693],[-77.72348582201454,1.424261377815526],[-77.73405817408303,1.4242517711339815],[-77.74495644781331,1.4190182688402047],[-77.75419459523164,1.418351957387415],[-77.76302900388504,1.4154795863382788],[-77.76802252323085,1.4153825795261241],[-77.7742892996663,1.4175966465759302],[-77.77873814556978,1.4159495403462756],[-77.78582872194625,1.4173444632143628],[-77.79380098620777,1.4224452347166334],[-77.79442281855012,1.4292981205435353],[-77.79703770975868,1.4344810892857254],[-77.79631618019863,1.4383253487994807],[-77.80225184236605,1.4407945066178058],[-77.80348011537995,1.4461410522279152],[-77.80720936622373,1.4486119409150433],[-77.80688969440718,1.4543543258230898],[-77.81000895131046,1.4541107093876917],[-77.81386142499463,1.45111048750681],[-77.81802705531197,1.454840828499698],[-77.82288734095789,1.4535490676722134],[-77.82861984150492,1.4594030529917177],[-77.83490799823187,1.4603860198391772],[-77.83861728906322,1.463792691459389],[-77.84428563742279,1.4624379673240924],[-77.84761211212384,1.4568035647667443],[-77.85307155809676,1.4569023106751615],[-77.85367292340453,1.462611775138157],[-77.85572338581841,1.4642880387416426],[-77.86118898084919,1.4588677918553117],[-77.8682468805215,1.4814270487427734],[-77.87730402925564,1.4916396680733328],[-77.88466582340783,1.490104160198257],[-77.88638513658668,1.4957882139035519],[-77.88196540897621,1.503290926278055],[-77.87343236483406,1.507634019494219],[-77.86899306801939,1.5120558225016794],[-77.8654583223954,1.5134573767670645],[-77.85925473038299,1.5126840332444544],[-77.85682209050157,1.514585322127914],[-77.85006243298903,1.5330649810000523],[-77.85403778601375,1.5406472845411372],[-77.8500407133115,1.5448533120805905],[-77.84934078618653,1.548667768358598],[-77.84486679383502,1.5526795488173093],[-77.84332358806773,1.54785330667562],[-77.83713036584123,1.5477497353148806],[-77.83045939606927,1.541631961688438],[-77.8301563819362,1.5296840173574537],[-77.81665106709914,1.5241804357738147],[-77.81050862730729,1.5198129972663992],[-77.8038222802628,1.5194411340489182],[-77.79458353531936,1.5216035979668732],[-77.78568549795574,1.5181752035837803],[-77.78284668087224,1.5100543633168968],[-77.77157924564301,1.4995627717540287],[-77.7670922249817,1.490142769987301],[-77.73857434491913,1.4827911502169968],[-77.73431983248554,1.4778689317625435],[-77.73002290605405,1.4767529060504785],[-77.70853037134435,1.4599758378818706]]]}}]}