{"type":"FeatureCollection","features":[{"type":"Feature","properties":{"code":"526048"},"geometry":{"type":"Polygon","coordinates":[[[-77.69079386709313,1.4185594333242193],[-77.69236929190765,1.403557848779542],[-77.71903784514501,1.4032258582785175],[-77.73308678235617,1.3954251639401605],[-77.72698559853598,1.389721839278991],[-77.7258179789481,1.381122667311331],[-77.7196437736522,1.3762363127044068],[-77.7158052281651,1.368192437990274],[-77.70931291017149,1.3598190616060037],[-77.69515470299962,1.3518382324751883],[-77.6937063093481,1.333528089726542],[-77.71873748850743,1.345481715174003],[-77.72585222608399,1.353938980586065],[-77.72523339782225,1.3601906985661572],[-77.72719894276582,1.3620060322807603],[-77.7554208648395,1.3699318510497278],[-77.76181879649243,1.3759754204915566],[-77.7711858005593,1.392982365103535],[-77.77767648127235,1.3914638882366148],[-77.79471736037368,1.378085413272231],[-77.80142852784991,1.3824181994374953],[-77.81128762006466,1.3842987394930901],[-77.81735075768233,1.3909157551136673],[-77.82530036535519,1.3964340094866543],[-77.82901788784045,1.401955180522691],[-77.83610614302216,1.401536363762034],[-77.83616936138378,1.410373249933457],[-77.83221211614648,1.4145968741244133],[-77.82656153310302,1.4152472344337639],[-77.8257035096803,1.4181945923122612],[-77.82854850770337,1.4211384339458277],[-77.83776712705514,1.420859872062067],[-77.83946909657936,1.4225875660190468],[-77.84038923895866,1.4275561888283619],[-77.83734076769701,1.4324552652691978],[-77.8372934768247,1.435719885323408],[-77.84425719893022,1.4450637185802861],[-77.83682227737279,1.4536869396478664],[-77.84097110293936,1.4634117121274244],[-77.83783091825921,1.463658410805067],[-77.83490799823187,1.4603860198391772],[-77.82899482810228,1.4596262013641308],[-77.82288734095789,1.4535490676722134],[-77.81802705531197,1.454840828499698],[-77.81444184607051,1.4512075344282493],[-77.80688969440718,1.4543543258230898],[-77.80720936622373,1.4486119409150433],[-77.80348011537995,1.4461410522279152],[-77.80225184236605,1.4407945066178058],[-77.79631618019863,1.4383253487994807],[-77.79703770975868,1.4344810892857254],[-77.79442281855012,1.4292981205435353],[-77.79380098620777,1.4224452347166334],[-77.78630497105092,1.4174652764139068],[-77.77873814556978,1.4159495403462756],[-77.7742892996663,1.4175966465759302],[-77.76802252323085,1.4153825795261241],[-77.76302900388504,1.4154795863382788],[-77.75419459523164,1.418351957387415],[-77.74495644781331,1.4190182688402047],[-77.73405817408303,1.4242517711339815],[-77.72348582201454,1.424261377815526],[-77.71475978240619,1.4303635201441693],[-77.69079386709313,1.4185594333242193]]]}}]}