{"type":"FeatureCollection","features":[{"type":"Feature","properties":{"code":"526040"},"geometry":{"type":"Polygon","coordinates":[[[-77.59343043942857,1.3444358436399284],[-77.58630980579107,1.3421658128620493],[-77.58126401482582,1.3283379290858193],[-77.58535878956735,1.327319172438763],[-77.58169541560915,1.3206697289971316],[-77.58653245742573,1.3245137715095439],[-77.58620544972871,1.3264225433407546],[-77.58983632284645,1.3305704607926145],[-77.58961106308158,1.3327742290189803],[-77.59105711702631,1.3356507632034322],[-77.59402822575635,1.3322724786536355],[-77.59569316003706,1.3338146240966466],[-77.60007570430821,1.3260986837062774],[-77.60374509465521,1.3235669153358458],[-77.60359257457276,1.3352435236201927],[-77.59909490336076,1.3351975193294834],[-77.59343043942857,1.3444358436399284]]]}}]}