{"type":"FeatureCollection","features":[{"type":"Feature","properties":{"code":"527067"},"geometry":{"type":"Polygon","coordinates":[[[-77.26846858505616,2.005530738764037],[-77.259105549749,1.9937752180851476],[-77.24650903665554,1.9917199682712976],[-77.24188537197898,1.993833440273022],[-77.23771928606163,1.9928394063556425],[-77.2365754450932,1.9910823040848982],[-77.22752652698455,1.9909000126484102],[-77.22053778801472,1.9882356883217653],[-77.21509776109343,1.9777013711428708],[-77.2119999050505,1.9761689701927025],[-77.20955872189711,1.9712489402639335],[-77.21104573973582,1.9665666307096217],[-77.20885623600714,1.9653801823961317],[-77.20698717028466,1.9612051953087644],[-77.20804827510938,1.9575173845278186],[-77.20383596995674,1.9547942518010473],[-77.20529417494987,1.9531506638732594],[-77.20303524826585,1.9518873291970067],[-77.2049116714661,1.9458108022862461],[-77.21187092498889,1.9352697385244255],[-77.21769955611501,1.9370691653186327],[-77.21990493179703,1.934158330519324],[-77.2197977506031,1.931824990876862],[-77.21650151828271,1.9281370690241602],[-77.21731784453198,1.9170716651570388],[-77.21961446980492,1.9166047275709275],[-77.22315509194948,1.9211149920616322],[-77.23615542505479,1.9147035240482069],[-77.24006898822455,1.9163251835245774],[-77.2458760775936,1.9108476493046282],[-77.24353396636491,1.9014155376273152],[-77.24673028343773,1.8921608405119628],[-77.24344228688506,1.8874387744551768],[-77.24682212746842,1.883973029096694],[-77.24728704622186,1.8795845507121953],[-77.25229956604318,1.8760954545662685],[-77.25295561775346,1.872844819273439],[-77.25898323810873,1.8681960462012057],[-77.28031564946048,1.860668913459051],[-77.27901912385886,1.8545573074023878],[-77.28039201748817,1.8506573587546882],[-77.28913661842705,1.8486388665049276],[-77.28734373149888,1.8455880143988566],[-77.29440846825707,1.8320182686664452],[-77.30776381046383,1.8315180722776745],[-77.31155622413337,1.8339877412319652],[-77.31456154708911,1.8396747599369974],[-77.31810911430597,1.8423162600388991],[-77.32089323470257,1.842294641148726],[-77.32568662941867,1.8520539219885563],[-77.3376135698681,1.8583229836232817],[-77.34244769296481,1.8635828150739826],[-77.34445158030235,1.8703343592035253],[-77.34851831044489,1.8740477771747237],[-77.34922772906583,1.8772422595060334],[-77.34191629157317,1.8923842799335944],[-77.34387852493182,1.896975775956605],[-77.33884710439389,1.904556761034371],[-77.349827700834,1.917185090025555],[-77.34794301718341,1.919817301234616],[-77.33765931396289,1.9251898314734035],[-77.33526756701286,1.92839447070304],[-77.33479429936307,1.948881621603789],[-77.32811687405746,1.9637944176205337],[-77.32671401778379,1.9756138220632806],[-77.31378546688097,1.9733192526469452],[-77.31101492706779,1.973825523017183],[-77.30973211986094,1.9759201601225982],[-77.31016743386806,1.9907852322926942],[-77.30579464643102,2.0104137478473945],[-77.3064810114845,2.015982040062738],[-77.30993998352062,2.0211825190672243],[-77.33059628339083,2.034021240658319],[-77.33616138023524,2.04021061136757],[-77.34498162414985,2.0619778009079255],[-77.34578133899555,2.0688207406672063],[-77.34346895489784,2.0768579880977427],[-77.33680954687668,2.083673742007477],[-77.33409902799741,2.095956329192745],[-77.33007763880016,2.0985439677029945],[-77.32688591578011,2.1086344923946285],[-77.31841224362455,2.109248857215789],[-77.31815641032051,2.113023056139866],[-77.31395728877254,2.115799964069083],[-77.30874517705473,2.125222692236889],[-77.3081183526524,2.1053501838368334],[-77.31101726163234,2.0971263296250413],[-77.31564804518803,2.094538726081794],[-77.31543562141422,2.0876749613899506],[-77.31930286970356,2.0801256657115346],[-77.31933376000308,2.0726830442049504],[-77.32925203188569,2.0640523792704357],[-77.33132788448847,2.060391357360288],[-77.33083153138944,2.0540176208459684],[-77.3249194575796,2.0466679705430693],[-77.3057230688886,2.0359610467709786],[-77.30360117805645,2.0272383496007933],[-77.29524670650261,2.0267767383185173],[-77.27930098704309,2.020691999294172],[-77.27877444092854,2.0162385099727658],[-77.27338020232509,2.006863361669616],[-77.26846858505616,2.005530738764037]],[[-77.30144943050954,1.938293279310983],[-77.30434753627583,1.9380317762032746],[-77.30598459976426,1.9339828638273957],[-77.30114142328802,1.9328537234163718],[-77.30144943050954,1.938293279310983]]]}}]}