{"type":"FeatureCollection","features":[{"type":"Feature","properties":{"code":"527039"},"geometry":{"type":"Polygon","coordinates":[[[-77.43809629865893,1.9744896654847253],[-77.44366808140819,1.96069748614741],[-77.44483507467459,1.9515388784735137],[-77.44831432348337,1.945785745312719],[-77.45504434231094,1.9251444637885697],[-77.45529540981238,1.9172970545056955],[-77.45069217411805,1.9139846067321287],[-77.44391531487588,1.9141463293182142],[-77.439082725187,1.9096602527671394],[-77.43150403147916,1.9065549436012361],[-77.42738066603556,1.9021834828550936],[-77.42806836600744,1.8979487926226284],[-77.42351122819207,1.8910003696279887],[-77.4132296775017,1.8882630454228888],[-77.39333060443141,1.892706047715933],[-77.38718049348682,1.8921469195140048],[-77.38730806149681,1.8905699654054615],[-77.3933333524298,1.8816478429465064],[-77.4006089096199,1.8750465090175226],[-77.41132050869169,1.8704319964509182],[-77.43122937870544,1.8678244318668362],[-77.43134937120789,1.862767352716503],[-77.42896321898519,1.8590789629224105],[-77.41983898494556,1.8597520703233954],[-77.41357083965312,1.8558283944783511],[-77.41557409449854,1.851078074020279],[-77.4226814499147,1.8438207809408595],[-77.43584014157062,1.8354539433941568],[-77.43953425567571,1.8460353395861375],[-77.44111439178545,1.8468180285659628],[-77.44438864526074,1.8449071473991125],[-77.45267696739177,1.83402217348754],[-77.46323209304813,1.8270487449414645],[-77.47339707286432,1.8228819350005665],[-77.49500289360282,1.8210240463914147],[-77.51693686360954,1.826238622257506],[-77.5202138661117,1.8287560613383675],[-77.52426926487453,1.8505035891146235],[-77.53782987700896,1.854255118080232],[-77.56276687962998,1.855850696254322],[-77.56400015910202,1.871006161510934],[-77.57223661070623,1.870820976037237],[-77.57396805333616,1.8790158878196621],[-77.57560632524451,1.8801148794382812],[-77.58805215196861,1.8821995982440285],[-77.59373948949082,1.879849059957337],[-77.59493313381665,1.8763231455693017],[-77.60150912589353,1.8749761625207952],[-77.60441970152533,1.8725278532891707],[-77.60881196149302,1.8724126934381502],[-77.61449983277686,1.8752956533314205],[-77.61690161424053,1.8786838767497898],[-77.62616373054016,1.880570718072704],[-77.63424918724223,1.8851404697355747],[-77.637424624875,1.8899805721970893],[-77.6433687686079,1.8895406055160038],[-77.64629188198245,1.8910265290919028],[-77.65442205022299,1.898270912132375],[-77.6593532109851,1.905490469598874],[-77.67199150558434,1.903105983453088],[-77.67269617999995,1.904096940270449],[-77.67105665853393,1.907803172513752],[-77.66875044303447,1.908199178419352],[-77.66435134083872,1.9137904666094414],[-77.65788656350736,1.916351290537932],[-77.65359483071057,1.9205969172281243],[-77.65271262243363,1.9284519760664693],[-77.63995810868755,1.9561546426546101],[-77.63340768266323,1.9665486391362492],[-77.6262929440582,1.9728063117984789],[-77.61512995950807,1.9679270472743156],[-77.598163425488,1.9640883104968907],[-77.57819819271043,1.9555253623315707],[-77.56518294616018,1.9398534399816185],[-77.5570156511447,1.9378563599050835],[-77.545997224475,1.930711946619624],[-77.53718410355327,1.9291221246382975],[-77.52680457520103,1.9219928500267542],[-77.51847079076845,1.9204754581666634],[-77.51243585612997,1.9226063622691072],[-77.505929088519,1.9280244946775724],[-77.50000282528771,1.9377166778706396],[-77.49684967606123,1.9512040854665997],[-77.48230074300761,1.9646380428479802],[-77.47742232180627,1.9736290493584079],[-77.47028004459594,1.979695496504064],[-77.46263316000693,1.9832969952466328],[-77.45739661249485,1.9836934660082193],[-77.44622783678489,1.975892225566895],[-77.43809629865893,1.9744896654847253]]]}}]}