{"type":"FeatureCollection","features":[{"type":"Feature","properties":{"code":"527528"},"geometry":{"type":"Polygon","coordinates":[[[-78.06252120263031,2.4261861962760918],[-78.0629582835017,2.4199594221408347],[-78.06502806315143,2.4171003221139813],[-78.06349708350882,2.4133518167693637],[-78.06553733965916,2.4068814457391454],[-78.06235718867435,2.4002908754895316],[-78.06492730149569,2.3908992011435544],[-78.06136850471495,2.3867014669645528],[-78.05236771874462,2.366568705014515],[-78.03931100847728,2.342851169882522],[-78.02817961048225,2.331451187953064],[-78.01263149101425,2.3237875099261487],[-77.99706792125426,2.313061734802716],[-77.98933991209094,2.3055672232288202],[-77.97549712618263,2.2826791218460016],[-77.96571665017092,2.2696802018206768],[-77.95175503287174,2.2393219907196453],[-77.95716500767423,2.239902488928692],[-77.9635985748605,2.247248116992921],[-77.96526524823747,2.2533303713000805],[-77.96999363201661,2.2577672749289945],[-77.97587256118095,2.2563290597731225],[-77.97902127679174,2.250888566967376],[-77.98929553273933,2.2411490003421477],[-77.99821254692432,2.23703722750264],[-78.0052433142261,2.2385535765220084],[-78.01156639891792,2.237920212253755],[-78.0141541320449,2.239917096926206],[-78.01365467716323,2.245075613419033],[-78.01602121287334,2.247513734899087],[-78.02906735383687,2.250049643779107],[-78.03143664474442,2.252804634569827],[-78.04226547392204,2.2553111104534196],[-78.05204153483004,2.2608145830221247],[-78.05644129625739,2.2570771344630884],[-78.0628979632911,2.257009792046915],[-78.06701512928316,2.260572679971972],[-78.07176818745523,2.255896881487274],[-78.0762913393591,2.2561513109673115],[-78.07886424748722,2.262114155898985],[-78.08268671121868,2.2653853158191737],[-78.08588951570687,2.265681165821661],[-78.09793096706011,2.2591104650815055],[-78.11207806602437,2.2581224732639384],[-78.11541901811074,2.2643798559054176],[-78.1213213659397,2.2658654503796924],[-78.13200192867316,2.272239743281375],[-78.13833499851336,2.2685029076740193],[-78.14077049026588,2.2692828095745767],[-78.14141297476237,2.271645452629741],[-78.16442514230846,2.2635684867491364],[-78.15896657359701,2.416982036826141],[-78.13650528100169,2.4234013014622633],[-78.13387272526438,2.428745017826998],[-78.1310577197105,2.430446635623923],[-78.1238022562303,2.430124069770102],[-78.11524018635492,2.427510024969706],[-78.11183050859722,2.4279597855089037],[-78.09045770722241,2.4078265967551715],[-78.0836025104852,2.4154053552548476],[-78.07043457210261,2.414675726709959],[-78.06562030514561,2.4188827528670913],[-78.06252120263031,2.4261861962760918]]]}}]}