{"type":"FeatureCollection","features":[{"type":"Feature","properties":{"code":"527529"},"geometry":{"type":"Polygon","coordinates":[[[-77.95175503287174,2.2393219907196453],[-77.908983497944,2.178514440282811],[-77.90563198066764,2.149198507337701],[-77.90563525522862,2.13575816435673],[-77.89987968363062,2.1212624974264713],[-77.88436733853558,2.100750324519254],[-77.84508475165802,2.0691962425142947],[-77.84744227101254,2.059972672240235],[-77.85261805711218,2.055381750088145],[-77.85345178358034,2.0468561899221527],[-77.86337308525464,2.0398919525669044],[-77.86306383361767,2.031649306653435],[-77.85847875507596,2.019066350489254],[-77.86501429439483,2.0198710882481805],[-77.86818335568398,2.0334159929800535],[-77.87167556286852,2.0363933721241096],[-77.87894488975383,2.037644833431443],[-77.89216535789495,2.0369558407073782],[-77.89493937898601,2.0422050473184186],[-77.8974438679187,2.0433668952868516],[-77.90512758000585,2.040518323426056],[-77.90909401334864,2.0408055633077424],[-77.9099057815406,2.044993095336963],[-77.90485336843398,2.0490161650092773],[-77.91453131695414,2.0536213568012727],[-77.90841080252835,2.060324122930581],[-77.9098042536952,2.064423793058552],[-77.90805434743669,2.069789398793887],[-77.90993436298669,2.0711328748533333],[-77.9194535528921,2.0637230997439246],[-77.92477137204577,2.06194441149313],[-77.9264584733765,2.0589763027298886],[-77.9311452473998,2.0563771456634186],[-77.93925959305216,2.055761738001536],[-77.94593609584484,2.048878679728034],[-77.95000995206561,2.047856160009758],[-77.95043264296925,2.0423806765041945],[-77.95219208083296,2.0398361893850847],[-77.96670327313149,2.034872465047499],[-77.97100370038129,2.0374786813434866],[-77.9679703297412,2.0396515376730804],[-77.96869938852893,2.0462588684504226],[-77.96686676258179,2.049798534143406],[-77.97092545338916,2.0526507168659123],[-77.96982685772088,2.057264000443695],[-77.97561990267894,2.0596366985813575],[-77.97616882461733,2.055484709525558],[-77.97847374839301,2.056559272549066],[-77.97948631587298,2.059317052475876],[-77.98245168280846,2.0568238167612662],[-77.98409687510656,2.06010491760685],[-77.98517211073141,2.0570245461151444],[-77.98666308396008,2.0588860034199],[-77.98564044391406,2.0638123490141425],[-77.99821052089254,2.0787472236348776],[-78.01192342993738,2.0880566801720875],[-78.02010546047728,2.089362157337405],[-78.02447129358592,2.092835028774118],[-78.02699725536996,2.0898395192169232],[-78.02760692329412,2.0847136506318407],[-78.03023823872974,2.085328291075598],[-78.02808210590393,2.088027745970294],[-78.03149175795056,2.088514053242818],[-78.03559812323931,2.080815856571178],[-78.04140073168435,2.088263820836687],[-78.04035163906832,2.0850014839248843],[-78.0441298108658,2.083611763947488],[-78.04444917312117,2.0815170826190865],[-78.05254460674405,2.0821675951378893],[-78.05203781906721,2.0885652079736587],[-78.05649428058751,2.0889223449227075],[-78.05848876796051,2.092299461161872],[-78.06166647228059,2.0898311528370073],[-78.06392833825328,2.0913840876705194],[-78.07299147355133,2.0879613548634666],[-78.07413957021487,2.084954291782992],[-78.08176363880665,2.0864271016883436],[-78.08352448049442,2.0846019802862656],[-78.07849062563304,2.080802371632899],[-78.07747961007277,2.0775264901330956],[-78.08162577505857,2.071075223451089],[-78.08401390703307,2.0704574627126817],[-78.08448790076335,2.0739512629546653],[-78.08224222556117,2.0764700379823466],[-78.0828060115793,2.078191374107689],[-78.09107928862471,2.0768761174824135],[-78.09122167649144,2.0806395455280153],[-78.09475987973917,2.0826030562122924],[-78.09464644150091,2.0844144941866602],[-78.0928207791381,2.085096240504754],[-78.09540279103936,2.089295474152948],[-78.09888449371198,2.0835126663117194],[-78.10133685295023,2.0836518989167985],[-78.10293578281852,2.088276375034525],[-78.10432797722859,2.0885063491799087],[-78.10885860076735,2.084443781144273],[-78.1096514744134,2.0871155771058625],[-78.1129713588548,2.086791562176529],[-78.11273978239598,2.0833748190187293],[-78.11485761396551,2.0816393181546005],[-78.11580541219257,2.0852354659107277],[-78.12316079194875,2.085320397779242],[-78.12336583870439,2.0875039745936874],[-78.12730110715353,2.0908547668180972],[-78.1378142096201,2.0947470638535037],[-78.13177444850089,2.097711433199663],[-78.13164101322627,2.1011661485121635],[-78.13472974389873,2.101680709157563],[-78.13663559289631,2.104295756689453],[-78.13795107372204,2.1030195932212337],[-78.14034089542758,2.1047833824252393],[-78.14196175271883,2.102670996458869],[-78.14317746330732,2.103984786525075],[-78.14657580248627,2.1020610241156987],[-78.14615075850617,2.103416253216267],[-78.14956202212227,2.1037735804271733],[-78.1514745745082,2.10644173056005],[-78.15626930311419,2.108694902079719],[-78.1666287572969,2.109940968177625],[-78.18780442475287,2.1165714769639976],[-78.18807579268122,2.122440141243601],[-78.18288824634135,2.1472853769670337],[-78.1873964416057,2.15619631099986],[-78.18745758354186,2.1639441814451175],[-78.18360862918803,2.1712894187011784],[-78.17196492900734,2.1799414958089187],[-78.1681586251932,2.1871911609301833],[-78.16928202689502,2.1895889427808584],[-78.16798789653598,2.197801026468028],[-78.17022368943401,2.201542474640064],[-78.1689717817826,2.203038988088565],[-78.16846502804435,2.213741078180817],[-78.16648985893568,2.216085135222727],[-78.16442514230846,2.2635684867491364],[-78.14141297476237,2.271645452629741],[-78.14077049026588,2.2692828095745767],[-78.13833499851336,2.2685029076740193],[-78.13200192867316,2.272239743281375],[-78.1213213659397,2.2658654503796924],[-78.11541901811074,2.2643798559054176],[-78.11207806602437,2.2581224732639384],[-78.09793096706011,2.2591104650815055],[-78.08588951570687,2.265681165821661],[-78.08268671121868,2.2653853158191737],[-78.07886424748722,2.262114155898985],[-78.0762913393591,2.2561513109673115],[-78.07176818745523,2.255896881487274],[-78.06701512928316,2.260572679971972],[-78.0628979632911,2.257009792046915],[-78.05644129625739,2.2570771344630884],[-78.05204153483004,2.2608145830221247],[-78.04226547392204,2.2553111104534196],[-78.03143664474442,2.252804634569827],[-78.02906735383687,2.250049643779107],[-78.01602121287334,2.247513734899087],[-78.01365467716323,2.245075613419033],[-78.0141541320449,2.239917096926206],[-78.01156639891792,2.237920212253755],[-78.0052433142261,2.2385535765220084],[-77.99821254692432,2.23703722750264],[-77.98929553273933,2.2411490003421477],[-77.97902127679174,2.250888566967376],[-77.97587256118095,2.2563290597731225],[-77.96999363201661,2.2577672749289945],[-77.96526524823747,2.2533303713000805],[-77.9635985748605,2.247248116992921],[-77.95716500767423,2.239902488928692],[-77.95175503287174,2.2393219907196453]]]}}]}