{"type":"FeatureCollection","features":[{"type":"Feature","properties":{"code":"527567"},"geometry":{"type":"Polygon","coordinates":[[[-78.21139662256661,2.297269696537171],[-78.21210264321354,2.2954152727508585],[-78.21624619698372,2.294478995136899],[-78.21812742918121,2.289372857221508],[-78.21727108726202,2.287132955695654],[-78.21868688957005,2.2831989717712418],[-78.21529760685593,2.2784582415396812],[-78.21938570494865,2.274315334659775],[-78.2166633569235,2.269756836214981],[-78.20738962539406,2.1960300443370215],[-78.20929375894951,2.1911673387658084],[-78.2077715066701,2.18970229154462],[-78.21034150841962,2.1839975579171664],[-78.2095662468517,2.1815538591934],[-78.21118550285792,2.181751910483001],[-78.2122522260641,2.177388101349152],[-78.21411718110181,2.1759815087438596],[-78.21240619419359,2.170922753232219],[-78.21444826863029,2.1706840846337627],[-78.21290048835067,2.1653266899835444],[-78.214800312732,2.1601888184458176],[-78.21250897056825,2.1539458535399945],[-78.21452982515046,2.151764913652187],[-78.21003940548661,2.145569530667899],[-78.21067852594769,2.131623536439122],[-78.20684210727967,2.1251375104568524],[-78.20761016357932,2.106558760119583],[-78.20926281722785,2.1013075552447162],[-78.20504849632795,2.0933890610434105],[-78.21388899027573,2.086809871538719],[-78.21107506458651,2.0635565599330903],[-78.21537952435943,2.057846887724679],[-78.2128217250804,2.043929819470179],[-78.20726235871768,2.03563250977993],[-78.22344050001578,2.0345113480259442],[-78.24025821943184,2.0270301671239395],[-78.26290761827761,2.0277225804478576],[-78.26518496025335,2.025853498270351],[-78.26600343183367,2.0210072426372108],[-78.26851573590102,2.017884803732784],[-78.2745304739853,2.018045784811818],[-78.27934874364058,2.0216826383227726],[-78.28012368536287,2.0206180007980947],[-78.28644537754349,2.0225521031685503],[-78.2864681513746,2.0212516149778708],[-78.28961644840933,2.021887289128017],[-78.29417661910168,2.0243894167566623],[-78.29678458272144,2.024151635704129],[-78.29796164032638,2.0271291104933766],[-78.29838894996533,2.033794869147073],[-78.29468058061849,2.0379103495218374],[-78.29588346961413,2.044953777979515],[-78.30173509774335,2.046532581227666],[-78.31178785596882,2.041253551840498],[-78.31702871265503,2.042738976621763],[-78.32112045451959,2.0464942450043395],[-78.32237004611846,2.0509604777570303],[-78.31967464123039,2.06018154583046],[-78.32519817974111,2.062044691837798],[-78.33050669251838,2.0572184949475627],[-78.33672458296718,2.059884621105539],[-78.33615686829864,2.0645104660802645],[-78.3384074975084,2.0645739610929468],[-78.33671180354042,2.065425754210878],[-78.33775057573581,2.068594066793878],[-78.33607678553659,2.068925552329631],[-78.33693877051991,2.070467155783433],[-78.33498111167353,2.0695373244471966],[-78.3356249804537,2.0712831981825275],[-78.33329486292166,2.0740500602852308],[-78.33572451723444,2.0798356860589706],[-78.33876703792765,2.081860511457762],[-78.34703600785582,2.081296820056366],[-78.34832586400773,2.0828829715263737],[-78.3484013444895,2.08061867637241],[-78.35204545160559,2.083050932644767],[-78.35188282399008,2.087976674543256],[-78.34350767251408,2.094136215277274],[-78.34396474322267,2.096216927270973],[-78.34868628271687,2.0993430623978497],[-78.3480960965793,2.1018711777404633],[-78.34566205595917,2.1040938549110706],[-78.3435350393695,2.101898276172392],[-78.34234429010934,2.105152253903441],[-78.34647370382339,2.110514448294907],[-78.34884816985374,2.1235062247585006],[-78.36338732344745,2.136709494255342],[-78.37270077034168,2.138613187637418],[-78.37526329942784,2.141139219355523],[-78.37348869615073,2.156279597360367],[-78.37727313219165,2.157916077721893],[-78.3834733581117,2.157715736090779],[-78.38395598458845,2.1620716601557888],[-78.3800866084515,2.1690916174982817],[-78.3877777469221,2.1796331564004845],[-78.38124510472579,2.191654602489848],[-78.38425639059125,2.19369251584817],[-78.41252622985871,2.2443323127592976],[-78.42879721277677,2.281732729499879],[-78.41864070732692,2.2894229536850617],[-78.4076233759485,2.294166788784594],[-78.40348817621685,2.2989948533264624],[-78.39278412694159,2.297158551725772],[-78.38270562474304,2.2974112523938857],[-78.3720550627063,2.2906856363287034],[-78.35724942422934,2.284788460537243],[-78.3529347427662,2.2787647441497256],[-78.34651556863298,2.274792989645391],[-78.34256614470104,2.2628399792065466],[-78.33495356278377,2.255967781286074],[-78.33271773389032,2.2509206111793674],[-78.32900211299523,2.249914134135963],[-78.32386478036136,2.2450731852662784],[-78.31030406126894,2.246279339566911],[-78.30104602891447,2.241259039577926],[-78.29156447280616,2.2409544776388657],[-78.28166945915115,2.2606397097416107],[-78.28275306526967,2.2697058326651245],[-78.28978726654105,2.281827076759612],[-78.29118346982,2.295919673412641],[-78.28805520376028,2.3019328318092107],[-78.28092424867361,2.3038260803290314],[-78.28115557727779,2.3135313617660245],[-78.27272065580792,2.3097786778594127],[-78.26679942885966,2.309084995437445],[-78.26215380590685,2.310973782573626],[-78.25347894776888,2.30911331565909],[-78.24079910614881,2.3102365312128086],[-78.21139662256661,2.297269696537171]]]}}]}