{"type":"FeatureCollection","features":[{"type":"Feature","properties":{"code":"527569"},"geometry":{"type":"Polygon","coordinates":[[[-78.24148469781352,2.4731113832511937],[-78.24874761030281,2.472568795490247],[-78.2499386886646,2.4684237237389084],[-78.24622587850291,2.4563020785518006],[-78.2514892189995,2.4531676171542927],[-78.25759284331377,2.452921459437448],[-78.26249668247192,2.4493057486477596],[-78.26400807851212,2.43952974841784],[-78.26652075693255,2.4388052476873554],[-78.28150841430869,2.4419133809563505],[-78.28285116120242,2.432970307066398],[-78.29206766607638,2.4216642713041665],[-78.29343348916336,2.4166465794453984],[-78.30298780963682,2.416906676672113],[-78.3071336218668,2.4117418743385883],[-78.30968606398875,2.4133017264765044],[-78.31514400432184,2.4117368833070714],[-78.32115134893286,2.4033887356462174],[-78.32693463499987,2.4009837413281616],[-78.33755181379246,2.401633855839748],[-78.34082944878674,2.3986312088914588],[-78.33956645452497,2.3927648380386586],[-78.3502972916425,2.3912433972004123],[-78.36383174945524,2.38231914483697],[-78.36838837304936,2.382569483172688],[-78.36892932250134,2.3866930347643915],[-78.35323963792064,2.4101552847520793],[-78.3502834117823,2.420407842619454],[-78.3441960276038,2.427297621764751],[-78.34168215619007,2.4411042692314027],[-78.3369086494954,2.4525655833589326],[-78.3357833246061,2.467860352183095],[-78.33060893718829,2.4755408678709614],[-78.31614492571879,2.477329987614212],[-78.31523884214869,2.4828873382296024],[-78.32014480915444,2.492161991243563],[-78.32157601753147,2.4997794942582914],[-78.31925354441267,2.513471939353849],[-78.31920786819506,2.524870955575807],[-78.31579563989993,2.5300864539548797],[-78.30316022288287,2.5391489269359226],[-78.30111471756186,2.543848151284294],[-78.30340302890556,2.555416378182315],[-78.32144048217725,2.5961830024722303],[-78.3277276731967,2.618057803095496],[-78.32456155839537,2.642119257633226],[-78.32531669231474,2.656391635294483],[-78.31122521563566,2.658588256873827],[-78.30489227846454,2.6345315434560916],[-78.29696861428266,2.6182886904978204],[-78.28732406443328,2.599511959833535],[-78.27539435644502,2.587191054936852],[-78.26595865241796,2.5455930860516673],[-78.24955567095952,2.528722927379988],[-78.2404320478148,2.5138636021467278],[-78.23899116179365,2.5039527237373704],[-78.24144302223732,2.491387634705063],[-78.24148469781352,2.4731113832511937]]]}}]}