{"type":"FeatureCollection","features":[{"type":"Feature","properties":{"code":"527589"},"geometry":{"type":"Polygon","coordinates":[[[-78.42855959010438,2.2822179178269266],[-78.42700234506827,2.275677958262122],[-78.41252622985871,2.2443323127592976],[-78.38425639059125,2.19369251584817],[-78.38895716480255,2.1906085849169585],[-78.39108780150991,2.190719488044408],[-78.39142786014247,2.1949673701090546],[-78.3953179686522,2.1986108046237405],[-78.39838321895348,2.1996611992479984],[-78.40391308238566,2.1974753403196132],[-78.40709525014626,2.2034880893960462],[-78.4121777266846,2.2026565185433924],[-78.41378582511794,2.2040086540888524],[-78.41738381584304,2.2158863866491174],[-78.42393035641157,2.2227606301417495],[-78.42333519569752,2.225618223500362],[-78.41926292019292,2.2270130877471956],[-78.417247123491,2.2296091533154936],[-78.42140593729135,2.2421627731567924],[-78.43793836161046,2.2401843120036347],[-78.4418354851266,2.242809699496547],[-78.44885074557209,2.2425458361133224],[-78.46913260700478,2.249067079052736],[-78.47401484372784,2.2549140370244913],[-78.4825867362577,2.272462348636111],[-78.48832384319871,2.277362224176784],[-78.49824627615976,2.2764059392420677],[-78.50767930109407,2.2875238522988184],[-78.52527709827433,2.2976507108361943],[-78.53324122549867,2.304478037809588],[-78.54072837650943,2.3078373177701224],[-78.54232480726245,2.306712985327863],[-78.54257963166441,2.2985142827063214],[-78.54429739909415,2.29736350592151],[-78.54687236307882,2.2982669289107776],[-78.5527652296962,2.3028946024563197],[-78.55014645200333,2.309327920759472],[-78.55991075369957,2.3085677814103747],[-78.55870944336317,2.3163134982970064],[-78.57080312211286,2.3193511236037807],[-78.56942965152729,2.323132482544679],[-78.56094607752715,2.3279260232995966],[-78.56145202290958,2.3463378450747427],[-78.56206578403498,2.348079928999425],[-78.56661106596499,2.3482137180582185],[-78.56857678985762,2.350573139002961],[-78.56113727938958,2.359970371052327],[-78.57125280037661,2.3589446456787186],[-78.57589975516248,2.3617330310264606],[-78.57426905567633,2.3653762248856083],[-78.5682744277571,2.3694028097743853],[-78.56362806843947,2.3753366659967696],[-78.56741219286226,2.387392802480747],[-78.56653357796341,2.4037079662609244],[-78.55667749188615,2.411522091030122],[-78.55617995402133,2.404239329600216],[-78.54850730180505,2.3946950549533312],[-78.54397231047085,2.3925288948129264],[-78.53899498189566,2.3802677629954587],[-78.52076999727285,2.3702922521160303],[-78.52403169860719,2.3783291107953346],[-78.51888666910952,2.379805376267484],[-78.51881922076382,2.386977335357358],[-78.51228072775803,2.388286660954577],[-78.51047936440659,2.3903854478255653],[-78.50594219174587,2.3807196647519504],[-78.5012573851331,2.3767138770277825],[-78.48588939942914,2.378744428794505],[-78.47966863551198,2.3834014458619777],[-78.47760997332585,2.3806783830692666],[-78.48103655559328,2.3724457151051297],[-78.48006740998483,2.367025796291955],[-78.4761206250364,2.3676967470489103],[-78.4726534172326,2.372488432493583],[-78.46783084457383,2.3719932795869454],[-78.45917251453557,2.3658340586985105],[-78.45745319004385,2.35719000035715],[-78.4549225519317,2.355529091400456],[-78.44988462855173,2.3556158096736226],[-78.44242100110665,2.34917292994038],[-78.43392950912761,2.3471594688314212],[-78.43125918898102,2.343268384329747],[-78.42898266050327,2.331632414951514],[-78.43236783561798,2.325218962044005],[-78.44346624220549,2.3164658702836505],[-78.42855959010438,2.2822179178269266]]]}}]}