{"type":"FeatureCollection","features":[{"type":"Feature","properties":{"code":"527507"},"geometry":{"type":"Polygon","coordinates":[[[-77.89874115559621,2.4201361301628594],[-77.90477320853876,2.4123965736469017],[-77.90581085870332,2.4046693317017116],[-77.90469748740145,2.399972824498434],[-77.88746972692468,2.37953299635177],[-77.88092335913456,2.375433878497404],[-77.87361401555086,2.3659752607710516],[-77.87803901187226,2.360795763022338],[-77.8834029803271,2.3590664050453825],[-77.8825173339668,2.3509397026561487],[-77.88367721041095,2.346040732144843],[-77.88129687505915,2.345763598767803],[-77.88068607790507,2.343537861980735],[-77.88192994724977,2.3394901929918888],[-77.87785629877442,2.33047570713876],[-77.87688729611949,2.3166619058259244],[-77.87292717844224,2.3119147663405784],[-77.87427052491796,2.2913247454769134],[-77.87095876517247,2.2848509271073567],[-77.87329380174509,2.2816233145287583],[-77.87394268418251,2.2765885484672594],[-77.86969201915241,2.2723990675394816],[-77.86734951197337,2.274646751289879],[-77.86739585050793,2.2729829215564337],[-77.86255855569448,2.271326237441656],[-77.86078923552657,2.268860409720162],[-77.85925506051302,2.263876532023005],[-77.86060536028867,2.25613411643684],[-77.85385377296456,2.249913244533218],[-77.84633092162858,2.2317808732161097],[-77.84704784993687,2.2277137738627175],[-77.85025177439894,2.2267415645240476],[-77.85240354662847,2.2212991001940168],[-77.8510683937543,2.2175807364426987],[-77.8529076994356,2.2070455831400864],[-77.85006081627739,2.2005365580978378],[-77.84945811707968,2.18977464453269],[-77.83714439893942,2.175762366155084],[-77.82093937415385,2.1760051351538436],[-77.81363802773916,2.174264172231517],[-77.81044766534853,2.1715625195551524],[-77.80419945435744,2.1706590204611302],[-77.80246766719927,2.1694500297160744],[-77.79757681212789,2.1543992969318424],[-77.79231227760954,2.1489932528366467],[-77.78359185432583,2.1436057443610252],[-77.77868607655347,2.1446290035294737],[-77.77499284690896,2.1419317484733256],[-77.7718272309022,2.1423025071435404],[-77.7640594744924,2.1344314981901675],[-77.75181415292184,2.1311598651864188],[-77.7457480862999,2.1348435220880333],[-77.7336020351434,2.1335954309868157],[-77.73019928497445,2.139354000494734],[-77.7266060765071,2.1396731807157607],[-77.72218810341957,2.1455797667563274],[-77.71509244139486,2.1441647738325287],[-77.70964460859483,2.1451812895033413],[-77.70403736103378,2.1519719432449733],[-77.685100561519,2.1592327309720645],[-77.6747317330827,2.158255620076318],[-77.66633142076046,2.1613171134770823],[-77.65877721529745,2.1575609318375655],[-77.654726470237,2.165405107697154],[-77.64623419458468,2.1705206455771417],[-77.63954325862966,2.1668888612593378],[-77.63472915210974,2.1676608996883715],[-77.62815992409924,2.16519711445369],[-77.61218827554694,2.164989165433326],[-77.60351028991528,2.1622050872028353],[-77.59900580835688,2.15766262320534],[-77.59889021656,2.1534774946463244],[-77.60814379575834,2.145989558933877],[-77.61569376198128,2.1437255301465257],[-77.62533216071591,2.13491201430287],[-77.62496838105665,2.1271676601026],[-77.62797233412698,2.1209082123485246],[-77.62741507871885,2.116903574423077],[-77.62391170367704,2.1166986387392512],[-77.62080606849486,2.114154212298274],[-77.61296871635136,2.101597491702705],[-77.60981450063002,2.0914109876130738],[-77.6102208814637,2.0820794483580585],[-77.60454191752052,2.0812494037140823],[-77.59878359586719,2.072318720499595],[-77.59661104189968,2.053063274525414],[-77.59000246979224,2.0349783709727944],[-77.59060316249855,2.0304979302866855],[-77.59317120609353,2.027767687936773],[-77.59611857425648,2.0272956585317274],[-77.61029233559304,2.0328250036288864],[-77.61832423306561,2.0387102453734087],[-77.6274955749148,2.0424079302309224],[-77.64450015822274,2.0425576673479213],[-77.66030629129295,2.0380346265158096],[-77.67497428713693,2.0243384944537866],[-77.68888851174796,2.0177536012068913],[-77.6969146869663,2.011916524510866],[-77.71371507712593,2.0076926308679504],[-77.72256146507783,2.0029108441825656],[-77.727824490871,2.0027981752193114],[-77.73485384097899,2.0071292253735464],[-77.74107490108759,2.014619478166992],[-77.7575947732658,2.0248332442109245],[-77.79577611932098,2.0375128708865304],[-77.81262498614717,2.045252883002547],[-77.83768597985505,2.064992197811989],[-77.84968210363274,2.0718127257518972],[-77.85918727380977,2.0808160643165934],[-77.87605024572508,2.0930334575021448],[-77.889941515499,2.1068141007996815],[-77.89987968363062,2.1212624974264713],[-77.90447128661162,2.1314616585581803],[-77.90611485808432,2.138836529357036],[-77.90563198066764,2.149198507337701],[-77.90825413679414,2.1758028281690827],[-77.91044644200025,2.1817761303042857],[-77.95237334588376,2.2402542193553927],[-77.96571665017092,2.2696802018206768],[-77.97549712618263,2.2826791218460016],[-77.98933991209094,2.3055672232288202],[-77.99706792125426,2.313061734802716],[-78.01263149101425,2.3237875099261487],[-78.0271687574159,2.3307244380187626],[-78.03770193713734,2.3402849013793343],[-78.05236771874462,2.366568705014515],[-78.06136850471495,2.3867014669645528],[-78.06492730149569,2.3908992011435544],[-78.06232061108773,2.4014849579318707],[-78.06553733965916,2.4068814457391454],[-78.06349708350882,2.4133518167693637],[-78.06497594888367,2.417399073352783],[-78.0629582835017,2.4199594221408347],[-78.06240133148412,2.4266748895352634],[-78.06016486701316,2.427553859246757],[-78.06224573533012,2.4270723260044065],[-78.06188579690365,2.428176108108289],[-78.0527145239601,2.43595405946877],[-78.04845898102712,2.443986755012702],[-78.04742674149867,2.453669227651517],[-78.0485093932225,2.4593834712869125],[-78.04304546632557,2.45658701060853],[-78.0309981446224,2.46690986046508],[-78.02204243014546,2.461963983718988],[-78.01796718552731,2.4553442139293793],[-78.01251219888115,2.4518806540112337],[-78.00894170356679,2.4515562770701536],[-78.00581352081088,2.447375277707806],[-78.00544715050489,2.442857335893734],[-77.96607564448715,2.4417494832143802],[-77.96285557759126,2.4371307704885226],[-77.9586786529182,2.4354534743287672],[-77.95199318107831,2.429017643540533],[-77.94531330807945,2.4312620475877225],[-77.92777512868355,2.4318333042123186],[-77.89874115559621,2.4201361301628594]]]}}]}