{"type":"FeatureCollection","features":[{"type":"Feature","properties":{"code":"528037"},"geometry":{"type":"Polygon","coordinates":[[[-78.38425639059125,2.19369251584817],[-78.38103984302569,2.190393904740233],[-78.3877777469221,2.1796331564004845],[-78.3800866084515,2.1690916174982817],[-78.38395598458845,2.1620716601557888],[-78.3840437436454,2.1589073369013363],[-78.38231055266323,2.156983332807954],[-78.37767295464744,2.1579385841579324],[-78.37375111148691,2.1566352780347984],[-78.37526329942784,2.141139219355523],[-78.37270077034168,2.138613187637418],[-78.36338732344745,2.136709494255342],[-78.35643112131356,2.129064436180272],[-78.35034175429792,2.125718044661369],[-78.34647370382339,2.110514448294907],[-78.34249057063101,2.1059145642947215],[-78.34311577729324,2.1021910213069077],[-78.3446052160856,2.102046367781327],[-78.34566205595917,2.1040938549110706],[-78.3480960965793,2.1018711777404633],[-78.34868628271687,2.0993430623978497],[-78.34396474322267,2.096216927270973],[-78.34350767251408,2.094136215277274],[-78.35188282399008,2.087976674543256],[-78.35204545160559,2.083050932644767],[-78.3484013444895,2.08061867637241],[-78.34832586400773,2.0828829715263737],[-78.34703600785582,2.081296820056366],[-78.33876703792765,2.081860511457762],[-78.33572451723444,2.0798356860589706],[-78.33329486292166,2.0740500602852308],[-78.3356249804537,2.0712831981825275],[-78.33498111167353,2.0695373244471966],[-78.33693877051991,2.070467155783433],[-78.33607678553659,2.068925552329631],[-78.33775057573581,2.068594066793878],[-78.33671180354042,2.065425754210878],[-78.3384074975084,2.0645739610929468],[-78.33615686829864,2.0645104660802645],[-78.33672458296718,2.059884621105539],[-78.33050669251838,2.0572184949475627],[-78.32519817974111,2.062044691837798],[-78.31967464123039,2.06018154583046],[-78.32237004611846,2.0509604777570303],[-78.32112045451959,2.0464942450043395],[-78.31702871265503,2.042738976621763],[-78.31178785596882,2.041253551840498],[-78.30173509774335,2.046532581227666],[-78.29588346961413,2.044953777979515],[-78.29468058061849,2.0379103495218374],[-78.29859998534175,2.0328725330998623],[-78.29678458272144,2.024151635704129],[-78.28682075597749,2.0212751549987047],[-78.28644537754349,2.0225521031685503],[-78.28115793241119,2.020688087098847],[-78.27934874364058,2.0216826383227726],[-78.27791468956315,2.0196037353594534],[-78.27714029188695,2.021187533752993],[-78.2745304739853,2.018045784811818],[-78.27108327967295,2.017598434941874],[-78.26452944950387,2.010398840573089],[-78.26451406091849,2.0050132532280713],[-78.27504961839901,1.9942662304821965],[-78.2793588933398,1.9867730445707252],[-78.27534187296641,1.9774832271717742],[-78.26736432251033,1.972108090859649],[-78.26672890649922,1.9688137878974885],[-78.2735602906784,1.9392402990070536],[-78.276148880498,1.9391686093644012],[-78.284606710525,1.9515978565665932],[-78.2926555629009,1.9542048945881447],[-78.2913971174404,1.9604204864678536],[-78.29236577865242,1.9617596111870625],[-78.29988094238053,1.9604344455181604],[-78.30215411093656,1.967441425972936],[-78.30700661024417,1.9686516559912661],[-78.31497943295,1.9827985646936668],[-78.32157107689358,1.9869301350516935],[-78.32481357206393,1.9966956719073892],[-78.32276900159718,2.0027564739320383],[-78.33253431836619,2.0113397009269534],[-78.33753159049877,2.0212260334986354],[-78.34441309376712,2.0247075222552553],[-78.35722297063086,2.030359490610806],[-78.36797286684515,2.0298691343600694],[-78.40530586712174,2.018623283054012],[-78.42720798934897,2.008682082045425],[-78.43037404038688,2.0109014322044345],[-78.4450301217243,2.011684212715636],[-78.45159796853648,2.0078667544138966],[-78.46093035831342,2.005521663787249],[-78.47103771449531,2.009175499969558],[-78.47622330473746,2.0128714292757195],[-78.47878209234977,2.0240067240394524],[-78.48897717879225,2.0327495210902384],[-78.49707372210463,2.0440814684617408],[-78.51037714956152,2.0460413682843637],[-78.50790499383322,2.057814249072919],[-78.50042965551324,2.0730840730237787],[-78.48137707496807,2.097397801426041],[-78.47500080539987,2.1093138681527535],[-78.47492953947557,2.1163582345499776],[-78.47893417637255,2.1268991265618524],[-78.47522099082937,2.132131108817589],[-78.47312684531948,2.14011632117041],[-78.4725191931426,2.1519055439106296],[-78.47403001119812,2.1593250388303318],[-78.4698483618601,2.1655367082302632],[-78.46689815005362,2.177692875147386],[-78.46144499197823,2.186899827847242],[-78.46211264863382,2.199017478563576],[-78.45448455780343,2.210371172352154],[-78.45623294916606,2.221172996686107],[-78.44499128567793,2.229219549464574],[-78.43925284484692,2.2409767814717725],[-78.43387222796463,2.2400435449623046],[-78.42787494666368,2.2421130798427384],[-78.42140593729135,2.2421627731567924],[-78.417247123491,2.2296091533154936],[-78.41926292019292,2.2270130877471956],[-78.42333519569752,2.225618223500362],[-78.42393035641157,2.2227606301417495],[-78.41738381584304,2.2158863866491174],[-78.41378582511794,2.2040086540888524],[-78.4121777266846,2.2026565185433924],[-78.40709525014626,2.2034880893960462],[-78.40391308238566,2.1974753403196132],[-78.39838321895348,2.1996611992479984],[-78.39374759349045,2.197710148144836],[-78.3903020889091,2.190231578458395],[-78.38425639059125,2.19369251584817]]]}}]}