{"type":"FeatureCollection","features":[{"type":"Feature","properties":{"code":"528077"},"geometry":{"type":"Polygon","coordinates":[[[-78.13713183183825,1.677021298662737],[-78.14150532992903,1.6738412782901264],[-78.14035903612518,1.6717181368718457],[-78.14131445511134,1.6687942346818545],[-78.13857309941153,1.670433489781317],[-78.13654515577502,1.6693664786112663],[-78.13723142004113,1.6715288777373303],[-78.13469420092531,1.6747690342293708],[-78.12826983829956,1.6750301496142015],[-78.12839858284786,1.6764944111053524],[-78.13225560944704,1.6763979215998006],[-78.13260273862193,1.6776823084943544],[-78.12656004746998,1.6775602632206983],[-78.12568825628728,1.674528105114291],[-78.12133348819168,1.6714256509048369],[-78.10938246058998,1.6567690430048287],[-78.10710877369894,1.6451007918443565],[-78.10863972557365,1.6333523725610917],[-78.10881799374295,1.6013342552348035],[-78.10268386376669,1.554114666304372],[-78.09833057148609,1.532539397507719],[-78.07630917358085,1.4986097366976878],[-78.07234772612742,1.4602776981024022],[-78.07120523344713,1.4005691351704854],[-78.07328815556383,1.397311322377277],[-78.06819671923421,1.3696989643551092],[-78.0631346377395,1.3583903770269785],[-78.05708188327748,1.3545763352112772],[-78.05572026857732,1.3519135010977834],[-78.05652377529054,1.2699148586241336],[-78.05458462326732,1.265000051126492],[-78.04706428030266,1.2561843981793004],[-78.04700149183003,1.2488399014018228],[-78.05676145247037,1.2441065224773524],[-78.06977534764718,1.242484629544549],[-78.09377504832548,1.2347300989055157],[-78.09676326725366,1.2359937523989402],[-78.10473693019702,1.2459137942311145],[-78.10626929926553,1.260318321613795],[-78.10848879237801,1.2666656785774535],[-78.11530007564812,1.2776439373677135],[-78.12129277420922,1.281095086041546],[-78.12750535892303,1.287532940804681],[-78.12880971817134,1.2969837331119152],[-78.13400175057745,1.3044838723232601],[-78.13853626677115,1.307208639245232],[-78.15061256587069,1.3085795346107147],[-78.15840911969946,1.3122179935205054],[-78.16093499612276,1.3184099949857568],[-78.15802640332811,1.3254486165030812],[-78.15856826295169,1.3281152733374029],[-78.17157679377232,1.3356200600804868],[-78.18520465884842,1.3464501336735566],[-78.19149725639016,1.3561103672712989],[-78.20546424524457,1.357864874781626],[-78.2157030456363,1.3556413244633632],[-78.22128182076625,1.3603357470136643],[-78.22866729480745,1.3723755682855199],[-78.23993097622144,1.3751501992429667],[-78.24957210855632,1.38140973132937],[-78.25586882295352,1.3882776406445032],[-78.26007664306826,1.3894740483954138],[-78.26347664318189,1.4064262418129942],[-78.26149397672725,1.430875903576748],[-78.262412625808,1.4642189304897215],[-78.26085883839562,1.4903676533422185],[-78.2536063306593,1.521134932597306],[-78.25482003372798,1.523736383090636],[-78.26237508354228,1.5287510400155497],[-78.26711430504872,1.53782919263125],[-78.26857948905274,1.5444244690337996],[-78.26737267037828,1.55482458474836],[-78.26053887347297,1.5661897816665373],[-78.2617458135037,1.568793515302275],[-78.25583261046398,1.5736355152401984],[-78.25729303792139,1.5777902265833177],[-78.25629296396107,1.5800349967560692],[-78.25789596851865,1.581645921349434],[-78.25661990789467,1.5849135125741327],[-78.25873633564015,1.587419767342567],[-78.25652806489245,1.5884849828519805],[-78.25925147324182,1.5914968364177184],[-78.25539152278054,1.5977687437529084],[-78.25693219652237,1.600012368240698],[-78.2559118560738,1.6110972446384153],[-78.25854966818082,1.6131300240116389],[-78.25949186550991,1.6166967634539446],[-78.25544833188843,1.6246881269215123],[-78.25713844861264,1.6280510516822915],[-78.25566659618727,1.6291965289028099],[-78.25577221723393,1.632827496637276],[-78.24928386388626,1.6363648277657035],[-78.2475572117416,1.6398624630698464],[-78.2489797534335,1.642358524944484],[-78.24657237210033,1.6437415250784397],[-78.24632260455024,1.647987348201184],[-78.24303933163407,1.6482758016450703],[-78.24129934984592,1.6442591875064636],[-78.23795376976818,1.6451735274130783],[-78.23811108959183,1.6523471937175032],[-78.23570946547989,1.6523500281051042],[-78.23478868135248,1.654895894365609],[-78.24013272681879,1.6589243654179882],[-78.23944141701372,1.6610100067366602],[-78.23395854929083,1.6613714857700757],[-78.22861053815018,1.6724085591310427],[-78.22270703126651,1.6712561759190976],[-78.22005366293797,1.6725081576183243],[-78.20745461473365,1.6885893075309468],[-78.20265995194796,1.6873912429591655],[-78.19899031580326,1.6808919809216718],[-78.19668039276849,1.6801063505963043],[-78.19284023982573,1.683413844362235],[-78.189708018376,1.6920256497178343],[-78.18367790610455,1.6909058053986996],[-78.17347935792452,1.67874484799637],[-78.16912826136871,1.6762420878755506],[-78.16140758397205,1.682899657041503],[-78.15562236649004,1.6832526503956728],[-78.1501657682744,1.6760794633454452],[-78.1515439439845,1.6667362430403045],[-78.14859586722469,1.6672093286557583],[-78.14277224049988,1.674480852294323],[-78.13713183183825,1.677021298662737]]]}}]}