{"type":"FeatureCollection","features":[{"type":"Feature","properties":{"code":"528069"},"geometry":{"type":"Polygon","coordinates":[[[-77.86479158722432,1.6176920407582998],[-77.86267323423442,1.6161683126638877],[-77.86691903164609,1.610514226745181],[-77.86099340399227,1.609469622252277],[-77.8620501585051,1.6058989798706307],[-77.85740796643654,1.595131076656287],[-77.84951742530285,1.594709584916643],[-77.84640976306054,1.6015537752620048],[-77.84261735659015,1.5990786236806684],[-77.84321439524018,1.5950511687294693],[-77.84950520637733,1.5904159988664333],[-77.85135753008399,1.5870608645577136],[-77.84782503160693,1.5777175630055922],[-77.84947911581907,1.5728536181611616],[-77.85465992380352,1.5669519799575937],[-77.85453504517068,1.5608508948678832],[-77.85310635236408,1.5595983331270418],[-77.84173418363406,1.5591213476574808],[-77.8384885116048,1.557651666274296],[-77.83797639145354,1.5557980251327308],[-77.83910922705854,1.552347796914944],[-77.84363143382376,1.5535115762984901],[-77.84850238339016,1.549682947054123],[-77.8500407133115,1.5448533120805905],[-77.85642486692007,1.537600684016411],[-77.86088351799447,1.538410213289069],[-77.87002029080531,1.5351439220157772],[-77.875705758619,1.537109715842405],[-77.87674528671965,1.5391695165143915],[-77.88274775651308,1.539624787448588],[-77.89084562034566,1.5370847617131744],[-77.89327452492387,1.533895512097331],[-77.89553178038881,1.5295131858559898],[-77.89566773329068,1.522726512186921],[-77.89786543884844,1.5239363380273403],[-77.89823625819673,1.5224032469922122],[-77.89219032025176,1.5182835263489096],[-77.89547744468518,1.5154950124459106],[-77.89762563279254,1.5157129486715917],[-77.896332219258,1.512691005056297],[-77.89850249933909,1.5031370908176882],[-77.90123476463549,1.5040729200306941],[-77.90405608379797,1.50124095237436],[-77.89614890349281,1.4950307567324899],[-77.89957211041184,1.4919186670451268],[-77.89721024897301,1.4875881259699213],[-77.90111072315483,1.4830588116384433],[-77.89832341355799,1.4741539865541995],[-77.90291134705615,1.4736484741461027],[-77.90547461662095,1.4694448027684643],[-77.90859010325397,1.4675805696973612],[-77.90775071932347,1.465038625916634],[-77.90421530829718,1.4670453568977564],[-77.90307523348525,1.4632373561534564],[-77.90122248708866,1.465125980795733],[-77.89959779473531,1.4633446566467683],[-77.9028642227915,1.4562339845034558],[-77.90547907183395,1.4601964809683068],[-77.90739590768294,1.4581728876436273],[-77.90601415710665,1.4558552389486863],[-77.90682945902716,1.4530940641330972],[-77.90392647432958,1.4534561118951501],[-77.90057344112887,1.4467682612677208],[-77.90242695268671,1.4393122062449493],[-77.90615592482254,1.440233051050484],[-77.91668552864934,1.4306993693614913],[-77.920668987858,1.4235767631712406],[-77.9393324890579,1.4143734624707918],[-77.94387756427096,1.4152921454901275],[-77.95510369930548,1.4221263465732932],[-77.96567148200393,1.4260877672872425],[-77.9823041856393,1.4287375720624595],[-77.98694602392362,1.425839085772452],[-77.99069195301973,1.4256414407176408],[-78.00182658958028,1.4286933428634825],[-78.00466256404866,1.4255903620914978],[-78.01457108218239,1.4291500443612222],[-78.0184717970198,1.4253831432653215],[-78.01910038828635,1.4165453458937804],[-78.02632123027757,1.4130123825606802],[-78.03064385234535,1.4067999130324438],[-78.0361383178145,1.4032020508626601],[-78.03627253676228,1.3985838307607423],[-78.03301893852654,1.3966711662745865],[-78.03330187849008,1.3940012832160846],[-78.03879705049923,1.3933983094242421],[-78.04302603698949,1.3902234826863378],[-78.0436906710525,1.3861632173334897],[-78.04905035810117,1.3812580154889815],[-78.05010362105162,1.3782108760604501],[-78.05350850832406,1.3778212125598088],[-78.05693023222904,1.3748303217379316],[-78.05942912129217,1.3772902204883053],[-78.06448984112899,1.3767703263400222],[-78.0681702491807,1.3697199024163638],[-78.07328815556383,1.397311322377277],[-78.07120523344713,1.4005691351704854],[-78.07234772612742,1.4602776981024022],[-78.07630917358085,1.4986097366976878],[-78.09833057148609,1.532539397507719],[-78.10268386376669,1.554114666304372],[-78.10881799374295,1.6013342552348035],[-78.10863972557365,1.6333523725610917],[-78.10710877369894,1.6451007918443565],[-78.10938246058998,1.6567690430048287],[-78.12133348819168,1.6714256509048369],[-78.12568825628728,1.674528105114291],[-78.12656004746998,1.6775602632206983],[-78.12380411976818,1.6799044529316802],[-78.12553904881821,1.683826992347747],[-78.12530218307955,1.690990896675828],[-78.12733100706282,1.695141320442076],[-78.12649399266388,1.6980441549870307],[-78.12253557911589,1.6986911934270665],[-78.1162247822553,1.6923908311442801],[-78.10652107022162,1.6986996091721949],[-78.1010094143358,1.6982738349979059],[-78.08991045238935,1.6834244188082153],[-78.09058744216082,1.6885005961361799],[-78.08861864116824,1.6914396791661375],[-78.08457265162599,1.69281623302237],[-78.0796411442787,1.6906201616598082],[-78.07715488654657,1.6977637923004636],[-78.07492803801318,1.6993322905546506],[-78.07128047121648,1.6990907515731237],[-78.06899234704935,1.6957183733686634],[-78.07133993370599,1.6913434889373775],[-78.06493885913267,1.6913267140114385],[-78.0618553519198,1.689256081782844],[-78.06255623549629,1.684633648151987],[-78.067483806994,1.6777597173058894],[-78.06672523499134,1.6762804240988771],[-78.05896131055835,1.6819346138902915],[-78.05303633596554,1.681183979406967],[-78.05081462347408,1.6756827663264175],[-78.05044670227676,1.6794810904551127],[-78.04762167866431,1.6798226907230287],[-78.04311868731912,1.6746293408820634],[-78.0423986253465,1.6690470381942646],[-78.03952194615164,1.6645290809535709],[-78.03696078797935,1.6640692715025125],[-78.03053535371652,1.6701783259933336],[-78.02631382960516,1.6709152420818896],[-78.0213122246443,1.6675334094053937],[-78.02401144402563,1.6617339006861016],[-78.01614047518154,1.6631778967174],[-78.0098149294268,1.6584281912679444],[-77.9970366103218,1.658232685373548],[-77.99159120258923,1.6599076263999564],[-77.99164849095132,1.66703894144149],[-77.98553947862666,1.6678574397613488],[-77.97998418386788,1.6709497638119615],[-77.97736717818145,1.6829545758720315],[-77.96800550041843,1.6815080735262882],[-77.96028940370479,1.6851470754537559],[-77.95489143391188,1.6854484317374272],[-77.95129693577752,1.6825433305051547],[-77.94161774798414,1.668330017326241],[-77.93739146629775,1.6676587693493161],[-77.92768702304141,1.6712051363737714],[-77.92227945170913,1.6679155570480475],[-77.91613613876962,1.6571773480545176],[-77.89896366324894,1.6414490187177648],[-77.89240826676189,1.630533126738726],[-77.89263314394617,1.6200142855628883],[-77.88390273859932,1.6196757068590841],[-77.8802256020233,1.6148372961854989],[-77.87560184890066,1.6181610054046587],[-77.86479158722432,1.6176920407582998]]]}}]}