{"type":"FeatureCollection","features":[{"type":"Feature","properties":{"code":"528009"},"geometry":{"type":"Polygon","coordinates":[[[-78.13086035953427,2.091158560510621],[-78.13104123583378,2.076892042914835],[-78.1252281146493,2.06545869522472],[-78.12975642830622,2.0559734994583323],[-78.12893770167216,2.0503940095608186],[-78.13334798098117,2.033245057605882],[-78.13177364425883,2.0290731579029853],[-78.12443633526613,2.0255816613722573],[-78.10799423802496,2.0250284384872543],[-78.08861646395542,2.0158235838101177],[-78.08801729745778,2.004018559050621],[-78.08118885359579,1.9992557718123294],[-78.07064683441092,1.9857202835002],[-78.05405926603237,1.9593732779584911],[-78.03785389054792,1.948040362822553],[-78.03090748124373,1.9507057155917664],[-78.02527614653042,1.945452875493345],[-78.01540130680382,1.943732075186574],[-78.00622328110671,1.9396656340363734],[-78.00204012612886,1.9360167899140492],[-77.99839893567577,1.9287232894873227],[-77.99246273460443,1.9245641033908214],[-77.98862401633897,1.9250059397804193],[-77.98198096466763,1.9290385832240986],[-77.97156129723231,1.928555252264232],[-77.9478917564274,1.9171260862214012],[-77.96284995920979,1.912385728285983],[-77.96977768582718,1.904585185128667],[-77.97694504572212,1.9079066225182828],[-77.98479887762852,1.9085588062562238],[-77.9928360489543,1.903597842258307],[-77.99736235920517,1.9030630963716249],[-78.01773328273151,1.912808689669987],[-78.02046329676722,1.9118897783363877],[-78.02186448285022,1.9072178858763777],[-78.02624544949055,1.9059446925501788],[-78.02863412345431,1.909107042223411],[-78.03316407439166,1.9082754610863049],[-78.03737292192051,1.9123926990693576],[-78.04663510301208,1.9145389866149571],[-78.04983920436626,1.9133610404357455],[-78.05261119119803,1.9076906701582175],[-78.06132854869463,1.905300381539746],[-78.06901497587006,1.8983144584454976],[-78.08169069240722,1.9077979881350302],[-78.09231114781767,1.89827994288612],[-78.10158622660686,1.8934880486676775],[-78.10768144854575,1.8822340798648156],[-78.11919971987686,1.8812390668701369],[-78.11697364987441,1.8743334898192643],[-78.1208543738461,1.8680199603869028],[-78.12895302649412,1.8644940531979728],[-78.13209499655045,1.8654772391036545],[-78.1382355604631,1.8749499403218692],[-78.15313117120536,1.872798972334408],[-78.16063002589203,1.88465341889912],[-78.164942464322,1.8859431351828562],[-78.16699794450699,1.8839139399317446],[-78.17026772220044,1.8871612883223179],[-78.17513110654369,1.8875276072062093],[-78.18923878324932,1.8791755699757573],[-78.18940920131689,1.8749974533378122],[-78.18536407052414,1.8714930508818952],[-78.18376754104071,1.8667787793909838],[-78.18520695741745,1.864659268374794],[-78.19023505608607,1.863167724360551],[-78.19203381336416,1.857132780466145],[-78.19578063926213,1.853031465858578],[-78.20535550801708,1.8509084571094263],[-78.21284357948389,1.8542773221541893],[-78.2171410797863,1.861756232255118],[-78.22103409158922,1.8616526989467275],[-78.22383926317576,1.8594101121574909],[-78.23005478512141,1.8437958792621316],[-78.22858683563544,1.8391838791806094],[-78.22360179579817,1.836187881113176],[-78.22195760623151,1.8328063765098364],[-78.22181552175539,1.8278805009138068],[-78.22498278224168,1.8220070656893768],[-78.23884350830127,1.8183296565761111],[-78.25165256961009,1.8203402380460147],[-78.25817534081506,1.8271386914956906],[-78.2649302057855,1.8286268611900596],[-78.26461676221686,1.834623475031833],[-78.25968471082348,1.8371086734681512],[-78.25848293357421,1.8395914725480793],[-78.25962777418874,1.8423151061264207],[-78.26227534827217,1.8436448627626874],[-78.27027689743443,1.8417029030914023],[-78.27250283065399,1.84248819403075],[-78.27130398446593,1.848723937213208],[-78.27587991295451,1.8542294841504372],[-78.27564144181707,1.8568325030186088],[-78.27317524591314,1.8581965633551363],[-78.275297196395,1.882681716670163],[-78.28089146706833,1.9002827698994906],[-78.2795133098702,1.904897473756364],[-78.28301934549285,1.909055787733621],[-78.2816496153527,1.915236541123022],[-78.27874115111342,1.9163142059291545],[-78.27570726419515,1.9213135514018518],[-78.27617437250274,1.9256285393408348],[-78.28062580288224,1.9299059582746168],[-78.2813316846894,1.9346098784915853],[-78.27767011976152,1.938426669334092],[-78.2729020854095,1.9404344421275255],[-78.26685772303847,1.9649683734427867],[-78.26736432251033,1.972108090859649],[-78.27534187296641,1.9774832271717742],[-78.2793588933398,1.9867730445707252],[-78.27504961839901,1.9942662304821965],[-78.26385548541032,2.00647231902758],[-78.26452944950387,2.010398840573089],[-78.27108327967295,2.017598434941874],[-78.26804611922216,2.0180503696085452],[-78.26518496025335,2.025853498270351],[-78.26290761827761,2.0277225804478576],[-78.24025821943184,2.0270301671239395],[-78.22344050001578,2.0345113480259442],[-78.21639233352346,2.0356516470383212],[-78.19261176000731,2.0347165151093236],[-78.18701209515291,2.0379869684895198],[-78.18632407636392,2.043418352379831],[-78.1836842135425,2.0441343592036105],[-78.17980752106547,2.05281527486801],[-78.18105793850367,2.053317272059587],[-78.18299662361397,2.0615125273417902],[-78.19312017570866,2.0712745561800716],[-78.19446522939899,2.0800583541487185],[-78.18831217813721,2.093208362664427],[-78.17990866118811,2.095953770427741],[-78.17659959801887,2.1001967067123246],[-78.17803114269657,2.1023055867181597],[-78.1842464219298,2.1010003512368485],[-78.19083433982615,2.103614915400726],[-78.19112067467842,2.1110823192867088],[-78.18780442475287,2.1165714769639976],[-78.1666287572969,2.109940968177625],[-78.15626930311419,2.108694902079719],[-78.1514745745082,2.10644173056005],[-78.14956202212227,2.1037735804271733],[-78.14615075850617,2.103416253216267],[-78.14657580248627,2.1020610241156987],[-78.14317746330732,2.103984786525075],[-78.14196175271883,2.102670996458869],[-78.14034089542758,2.1047833824252393],[-78.13795107372204,2.1030195932212337],[-78.13663559289631,2.104295756689453],[-78.13472974389873,2.101680709157563],[-78.13164101322627,2.1011661485121635],[-78.13177444850089,2.097711433199663],[-78.13800591747622,2.0950037672199073],[-78.13086035953427,2.091158560510621]]]}}]}