{"type":"FeatureCollection","features":[{"type":"Feature","properties":{"code":"528539"},"geometry":{"type":"Polygon","coordinates":[[[-78.56653357796341,2.4037079662609244],[-78.56741219286226,2.387392802480747],[-78.56362806843947,2.3753366659967696],[-78.5682744277571,2.3694028097743853],[-78.57426905567633,2.3653762248856083],[-78.57589975516248,2.3617330310264606],[-78.57125280037661,2.3589446456787186],[-78.56113727938958,2.359970371052327],[-78.56857678985762,2.350573139002961],[-78.56661106596499,2.3482137180582185],[-78.56206578403498,2.348079928999425],[-78.56145202290958,2.3463378450747427],[-78.56094607752715,2.3279260232995966],[-78.56942965152729,2.323132482544679],[-78.57113745026373,2.3197899363723877],[-78.55870944336317,2.3163134982970064],[-78.55991075369957,2.3085677814103747],[-78.55014645200333,2.309327920759472],[-78.55285888172881,2.303571022470635],[-78.54896287201598,2.299434826178185],[-78.54471976295304,2.29739277642409],[-78.54284853544442,2.298126394297526],[-78.54232480726245,2.306712985327863],[-78.54072837650943,2.3078373177701224],[-78.53324122549867,2.304478037809588],[-78.52527709827433,2.2976507108361943],[-78.50767930109407,2.2875238522988184],[-78.49976642527423,2.278221858140512],[-78.51347250134694,2.2677904654320287],[-78.52211929740236,2.250604254033078],[-78.53432660979433,2.2367749962576795],[-78.54037226491761,2.2250567031410924],[-78.54691509075172,2.220186322303391],[-78.55365379786173,2.219266165525937],[-78.55989427187973,2.2134189843821446],[-78.56038982382205,2.2110497819206216],[-78.55713834417793,2.206092305371328],[-78.54767441248902,2.206041830440938],[-78.54479261576421,2.204322882359179],[-78.55139597263963,2.1950249546625287],[-78.56076394447086,2.192179510295432],[-78.56679011575062,2.1881287744909628],[-78.58013587595849,2.1828926044173045],[-78.59578410299281,2.18368234131367],[-78.6013071334529,2.1806253452920146],[-78.6047276931609,2.17484050319149],[-78.60953991968796,2.1714804385292723],[-78.61409877397386,2.1733890879758633],[-78.61543150486597,2.182195942597332],[-78.62610008418716,2.1889608605933404],[-78.63020135765703,2.186691144518875],[-78.63730688450238,2.17574862102083],[-78.63719791176152,2.169846638288959],[-78.6345033687083,2.1671267451561107],[-78.62818588080069,2.164616974142689],[-78.62627365648797,2.161427716299329],[-78.62846359010558,2.1560964111789076],[-78.6346726308065,2.154449048867093],[-78.64148528396203,2.160786302411452],[-78.65011161401128,2.1640989075367543],[-78.6540623738901,2.1725427764565666],[-78.66350284371981,2.176316095033826],[-78.66797399551302,2.174911080059303],[-78.67044942168855,2.1790224600337638],[-78.67832224892828,2.1811171742724014],[-78.67956256808941,2.1858308996603455],[-78.67675263275714,2.194682068841473],[-78.67686441520294,2.2000874670746953],[-78.68448227097343,2.208283446380449],[-78.68691622520436,2.2087586978959166],[-78.69245977103583,2.203135957876725],[-78.70566180743009,2.1971117581213093],[-78.70448456881934,2.1994596245143043],[-78.70638249983796,2.212337965824986],[-78.70456962307253,2.2253693702356827],[-78.70094055178606,2.2366891758148313],[-78.6966118382532,2.244043815092425],[-78.68905234968099,2.2535041019809796],[-78.68385919421564,2.2565752462863884],[-78.67324574352722,2.283720211122386],[-78.65402163522504,2.3095712245483355],[-78.638736757961,2.336457391080444],[-78.62635296174744,2.342853772870569],[-78.62691959140915,2.3511497209029244],[-78.6303566349938,2.3605832795988704],[-78.62722438166242,2.367043474190382],[-78.62741470317803,2.3730534485289354],[-78.62264510045117,2.383052395556433],[-78.62003351774217,2.398444058064115],[-78.61190012739121,2.425954783339648],[-78.59318732162853,2.443852458931758],[-78.56857424857611,2.457846411492085],[-78.5610524668204,2.468523512488048],[-78.56184666715728,2.4567527718883184],[-78.56391436009716,2.4514246991627715],[-78.5679781077564,2.44645146173184],[-78.5777995898282,2.4407258682048223],[-78.58090697644798,2.4348999758211676],[-78.57935354899047,2.4223388000126533],[-78.56828599259319,2.4100970286256143],[-78.56653357796341,2.4037079662609244]]]}}]}