{"type":"FeatureCollection","features":[{"type":"Feature","properties":{"code":"528529"},"geometry":{"type":"Polygon","coordinates":[[[-78.64877241421578,1.650342113386614],[-78.64263430828072,1.6430722784506884],[-78.63399407471707,1.6399611287597509],[-78.62320051906096,1.6293862302675848],[-78.60788101310891,1.6206433519698749],[-78.59477208161582,1.6097763398068423],[-78.59404160974805,1.6068651481379561],[-78.59766650967163,1.6037708371364374],[-78.59785500775865,1.6013912576898974],[-78.59184550444684,1.590942432880695],[-78.5866022946841,1.5873921063525813],[-78.58344759353787,1.5799072127731506],[-78.57944282911399,1.5787907530583425],[-78.56916901642512,1.5804809109202438],[-78.56584619680876,1.5719226935905226],[-78.55928620112678,1.5661673729325116],[-78.55351332186962,1.5568501321138228],[-78.54103449551047,1.5485823212403602],[-78.53391372714697,1.539682003819678],[-78.51866579256665,1.5324683958931473],[-78.5106651576898,1.5248528962844716],[-78.50161916550013,1.5206073765522774],[-78.48990310821762,1.5214671359859722],[-78.48165997893614,1.5286296344331163],[-78.47606852310997,1.529409455086693],[-78.46777711153754,1.5246966141593248],[-78.46417005817699,1.5172776355177575],[-78.4549315034954,1.5153212118308943],[-78.44620260070309,1.5058875862861214],[-78.43891805698229,1.5020276131991182],[-78.44699330330695,1.5011932357268165],[-78.44611270659942,1.4955054765431441],[-78.44854207397674,1.4843234832899839],[-78.44132639168163,1.4772666120601343],[-78.45213961115871,1.4710812378784794],[-78.45116307516236,1.4677473234242484],[-78.44794829240413,1.4695146422429843],[-78.44560877696432,1.4683392003213385],[-78.44619180719883,1.4655927538310607],[-78.45125586124635,1.4600974748639146],[-78.44998563600524,1.4545080327281426],[-78.46562452580997,1.4548785353161975],[-78.4622351433369,1.4439503061407208],[-78.46566577149719,1.4381488423521773],[-78.4622105018542,1.4328948318861308],[-78.46605112273829,1.429973534741066],[-78.4652264907873,1.4285315122909878],[-78.46839074307923,1.4231403024506903],[-78.47691839304036,1.4208383508739075],[-78.49566442880928,1.447526065023851],[-78.49838229488194,1.4535469953605684],[-78.5059561106869,1.4575970091983663],[-78.5092833577483,1.4622982852895916],[-78.51168947923935,1.461709297287598],[-78.51969677842374,1.4538817009498075],[-78.52860390721924,1.4536781197248274],[-78.53183931950593,1.4519374992738108],[-78.53554386407507,1.4532575967779735],[-78.53771506666914,1.4590340755839861],[-78.56158674887956,1.4542716153903825],[-78.56394623461614,1.4575308402351652],[-78.56966097910305,1.4577332161255754],[-78.57892419995,1.4543831150144797],[-78.5938450620414,1.4592823724612458],[-78.60832428520422,1.4591489269022304],[-78.60990204149789,1.4607869509559919],[-78.60980065557754,1.4638673193622935],[-78.61742925548702,1.4660441444516437],[-78.62072698419126,1.4726236003229474],[-78.62775376730673,1.472418429125753],[-78.64018250954365,1.483000379648331],[-78.64870075645484,1.4854362724934163],[-78.65363470018247,1.4835971046234135],[-78.68091139822064,1.535316067866745],[-78.68947619861092,1.5531447730182322],[-78.68872166941571,1.5543235306386123],[-78.6931309470217,1.5584684614933622],[-78.71148964768389,1.5941789671982178],[-78.70792463705351,1.597195167990435],[-78.71119810994094,1.6071196928035647],[-78.70703431025129,1.611563152753547],[-78.70313634752608,1.6192464123260493],[-78.6950491075047,1.6225413858327329],[-78.68997267409458,1.6311625746978962],[-78.6882525525599,1.6313407605917973],[-78.67959086259998,1.6253033453499484],[-78.67714959922802,1.6280891246243527],[-78.66607889271131,1.6318741695031918],[-78.66794250563157,1.6413745800482502],[-78.66695260399621,1.6435904077916348],[-78.66253096451118,1.6453796879719107],[-78.65666142194169,1.6443862042713135],[-78.65342632950063,1.650178584855496],[-78.64877241421578,1.650342113386614]]]}}]}