{"type":"FeatureCollection","features":[{"type":"Feature","properties":{"code":"528502"},"geometry":{"type":"Polygon","coordinates":[[[-78.76845919667971,1.8223120708871647],[-78.75938655137372,1.8194534696549454],[-78.7610659455562,1.8154257143985433],[-78.76278345896066,1.816941438124843],[-78.76216406197022,1.812909079559745],[-78.76399365298352,1.8115000598300526],[-78.76128382007533,1.8100826572654682],[-78.76223376569038,1.8049303001148473],[-78.77956310749158,1.8014732913755438],[-78.78358658339863,1.8057690957762134],[-78.77521960701216,1.8065694215167696],[-78.76391209646334,1.81533005587454],[-78.76578920357781,1.8210872853218802],[-78.76798698421192,1.8214375615308995],[-78.77083210050586,1.8196811184917578],[-78.77058791328488,1.8172138159836777],[-78.77223622279223,1.8147902798754671],[-78.7719844487508,1.8197107880299654],[-78.76845919667971,1.8223120708871647]]]}}]}