{"type":"FeatureCollection","features":[{"type":"Feature","properties":{"code":"528568"},"geometry":{"type":"Polygon","coordinates":[[[-78.43925284484692,2.2409767814717725],[-78.44499128567793,2.229219549464574],[-78.45668086879311,2.2203949274701245],[-78.45448455780343,2.210371172352154],[-78.46211264863382,2.199017478563576],[-78.46144499197823,2.186899827847242],[-78.46689815005362,2.177692875147386],[-78.4698483618601,2.1655367082302632],[-78.47403001119812,2.1593250388303318],[-78.4725191931426,2.1519055439106296],[-78.47312684531948,2.14011632117041],[-78.47522099082937,2.132131108817589],[-78.47893417637255,2.1268991265618524],[-78.47492953947557,2.1163582345499776],[-78.4758572501633,2.1065778984064423],[-78.48137707496807,2.097397801426041],[-78.49688609305156,2.078597229407251],[-78.5010499822157,2.07050373337006],[-78.50712520403295,2.0696886998730974],[-78.51590717651607,2.0760977140226373],[-78.51384599156046,2.0813779415453837],[-78.51457647988332,2.0857089433628175],[-78.52294943666305,2.0901459950874823],[-78.52932538741408,2.0883654515263856],[-78.53153955113743,2.0898911388038073],[-78.52778317409383,2.0975588976906465],[-78.52790918298496,2.1002924691090357],[-78.5302581107307,2.102651233907409],[-78.53495225560147,2.103392370724123],[-78.53877787562305,2.099909523394956],[-78.54668408507848,2.101517422310451],[-78.5510936815017,2.098760036277099],[-78.55496015845915,2.1021843220323717],[-78.56542865737367,2.144029567579878],[-78.56315325915432,2.1472726222229426],[-78.55712637722075,2.150745109022182],[-78.56060063499802,2.1531160639497102],[-78.56143377114023,2.156680664231601],[-78.56060701237004,2.1597086509751193],[-78.5524893849576,2.169181443724767],[-78.55532598986127,2.174625873408445],[-78.55180681794235,2.1818694686619438],[-78.55516478869555,2.1871668043260115],[-78.55073540195298,2.1909729219920564],[-78.55099239122643,2.195427000611062],[-78.54451511214779,2.2032891598165634],[-78.54690057428559,2.205923517385145],[-78.55713834417793,2.206092305371328],[-78.5602005893702,2.2126486079162078],[-78.55365379786173,2.219266165525937],[-78.54691509075172,2.220186322303391],[-78.54037226491761,2.2250567031410924],[-78.53432660979433,2.2367749962576795],[-78.52211929740236,2.250604254033078],[-78.51347250134694,2.2677904654320287],[-78.49976642527423,2.278221858140512],[-78.49542265945666,2.2759779405466247],[-78.48832384319871,2.277362224176784],[-78.4825867362577,2.272462348636111],[-78.47401484372784,2.2549140370244913],[-78.46913260700478,2.249067079052736],[-78.46040307583405,2.245288253165768],[-78.44885074557209,2.2425458361133224],[-78.4418354851266,2.242809699496547],[-78.43925284484692,2.2409767814717725]]]}}]}