{"type":"FeatureCollection","features":[{"type":"Feature","properties":{"code":"528501"},"geometry":{"type":"Polygon","coordinates":[[[-78.7304410510825,1.8304619944800606],[-78.72451246562804,1.8223052625976948],[-78.72695433372417,1.8205893165396105],[-78.72927401873528,1.8215635426540757],[-78.73200513731825,1.8175445785243483],[-78.73392297692715,1.8184423255393654],[-78.7351942295823,1.8184098432108726],[-78.73416962418264,1.8173015328745805],[-78.73834524581906,1.8084856300158094],[-78.74022161451182,1.8090277858308923],[-78.73984107226795,1.811791262300801],[-78.74148848600186,1.8136335011001847],[-78.7419461490934,1.8113882362465574],[-78.74399089028157,1.8120870577958499],[-78.74341891786099,1.8109344472980524],[-78.7457842574924,1.8109559931688182],[-78.74525789238379,1.8119444755535028],[-78.74648599159087,1.8128054176960404],[-78.74662359514303,1.8104830834170116],[-78.7419158326648,1.8098517924888142],[-78.74228201373734,1.806737949306978],[-78.74422800387487,1.807303341752288],[-78.74371659334895,1.8093620841569305],[-78.74491478647604,1.8065494738456778],[-78.74693621390077,1.8068662835066789],[-78.74785933876336,1.8100799658313917],[-78.7477455457124,1.8059667326035083],[-78.7488967564999,1.807526054065022],[-78.74969109464809,1.8055991754748106],[-78.75477240287574,1.806879990588527],[-78.75601514299052,1.8123067351747295],[-78.75358895041529,1.8171877490796078],[-78.75538924110117,1.8185763120591218],[-78.7464673140463,1.8214001581048933],[-78.7408095493887,1.826544838960558],[-78.73076843416106,1.829745726431895],[-78.73012830891167,1.8281630624105105],[-78.7304410510825,1.8304619944800606]]]}}]}