{"type":"FeatureCollection","features":[{"type":"Feature","properties":{"code":"911017"},"geometry":{"type":"Polygon","coordinates":[[[-70.36100303912218,-3.6905327397502106],[-70.37432563263383,-3.6887429607753006],[-70.38942261962035,-3.6831842371891526],[-70.40426693884888,-3.683815910697888],[-70.42050093691705,-3.6816682224135775],[-70.43328674102673,-3.6711841096847593],[-70.43733817822903,-3.660407287816838],[-70.45605581664307,-3.650116637467079],[-70.46124165576833,-3.641608620473619],[-70.4613226846975,-3.6353694062976842],[-70.46586029547478,-3.629211222079334],[-70.46991173062014,-3.6270234461341033],[-70.47752843350656,-3.629616365696677],[-70.48093164236082,-3.627914762298019],[-70.49721841701376,-3.6078196351734277],[-70.49827179206443,-3.595422236779143],[-70.56396315582674,-3.5669237459433702],[-70.3322314895986,-3.20368711151292],[-70.36100303912218,-3.6905327397502106]]]}}]}