{"type":"FeatureCollection","features":[{"type":"Feature","properties":{"code":"912019"},"geometry":{"type":"Polygon","coordinates":[[[-70.715738565636,-1.4261103530502055],[-70.70738401900581,-1.4352387419976367],[-70.69501604126663,-1.4423396336525798],[-70.68293097880843,-1.4416483145914754],[-70.66526084818048,-1.44801398605955],[-70.65143583787267,-1.4496596596687255],[-70.63046222646147,-1.4431431218538364],[-70.60019556731345,-1.4181965896844986],[-70.58510463785336,-1.4125529722821852],[-70.57625406208354,-1.4105788542417486],[-70.56899856466475,-1.4111720413745843],[-70.55918625835704,-1.415889521606175],[-70.55288416829086,-1.423588011383913],[-70.53828931013658,-1.447324493512383],[-70.53073544714493,-1.4667001675023243],[-70.52670672618098,-1.4721006610931795],[-70.51824566890139,-1.4751513414493047],[-70.50768656111563,-1.4763816219829664],[-70.492571818069,-1.4726202014572323],[-70.49226451018842,-2.476995690453464],[-70.50567770948601,-2.4746245318942215],[-70.51279584400822,-2.4693132526065256],[-70.52452254567078,-2.4464161112139777],[-70.53708876393301,-2.4286578584888048],[-70.54781649515411,-2.4232659040562226],[-70.56236592905924,-2.4200687518880954],[-70.57851829861625,-2.421351886139689],[-70.58353844228196,-2.424781899291304],[-70.58354573291098,-2.4284849855289963],[-70.57843356318028,-2.434244367506494],[-70.55306579638187,-2.443702396963772],[-70.54522213474354,-2.4489580663076254],[-70.54120869232167,-2.4565920418861538],[-70.54120866352525,-2.4655067245919327],[-70.5439016556872,-2.469896236561169],[-70.5545837466862,-2.4778074576170184],[-70.56822492392223,-2.4832965731281433],[-70.58027278144397,-2.485630619310598],[-70.6061441559749,-2.482435286457303],[-70.62156422612179,-2.4729289345998495],[-70.62753852790308,-2.464563457682573],[-70.62876630109395,-2.4517172747410996],[-70.62662195627627,-2.444447681489123],[-70.6177185370729,-2.427942388512065],[-70.61478960579905,-2.4075521919729113],[-70.61593405149165,-2.3994603075051373],[-70.6178029084403,-2.3981347119472503],[-70.62428060300971,-2.399781625858168],[-70.64203460003972,-2.4114422572880017],[-70.65717915043581,-2.412038804342558],[-70.66155877701556,-2.410759304606813],[-70.66625793142987,-2.404130830079737],[-70.66374080293866,-2.386346444630192],[-70.65082397113832,-2.3686061228003155],[-70.64999965697609,-2.3602853419949383],[-70.65232695451874,-2.3531541544803076],[-70.65848443528239,-2.3490401715177995],[-70.66860874739609,-2.345383993571886],[-70.73375771777307,-2.3296173845760677],[-70.74498076850853,-2.3211601099080212],[-70.75135970174284,-2.3029190414727054],[-70.75492211452746,-2.299353265681077],[-70.7651389319604,-2.2945990865066506],[-70.78027049724125,-2.292205980984079],[-70.78235955298913,-2.288376044589313],[-70.78285380909387,-2.2824449682470345],[-70.78038252754169,-2.2745368654288995],[-70.7675318605908,-2.2725598389530433],[-70.75171565495452,-2.281456453980695],[-70.7462788357455,-2.281456453980695],[-70.74380755522174,-2.277008146981075],[-70.75319842532565,-2.2577321465547584],[-70.7675318605908,-2.2424101990800978],[-70.77509880125751,-2.236801806862559],[-70.78220183927198,-2.234631434221569],[-70.78535874642745,-2.227923007544689],[-70.78437221294138,-2.2202280504669716],[-70.78614797424478,-2.219241516980901],[-70.79265909216758,-2.205824665683963],[-70.79029141282945,-2.200892000310432],[-70.78456951963858,-2.201089307007635],[-70.7804260800255,-2.20641658474716],[-70.77766378832132,-2.2042462131346383],[-70.77608533577205,-2.2052327455922978],[-70.77746648162412,-2.2147034650018327],[-70.77569072134918,-2.217268451037171],[-70.7695742147639,-2.2160846108538976],[-70.76799576221458,-2.209178878508169],[-70.77095536164444,-2.2034569873742385],[-70.77174458946172,-2.1870805356190317],[-70.77430957549711,-2.1839236294920283],[-70.7695742147639,-2.174650217808164],[-70.77154728276452,-2.1651795004555083],[-70.77312573531378,-2.1630091267861644],[-70.77509880228598,-2.1630091267861644],[-70.77588802804638,-2.168139099885309],[-70.78003146663104,-2.1699148591318362],[-70.78279376039205,-2.1758340579914375],[-70.78476682633578,-2.1756367512942347],[-70.78575335879344,-2.1730717652588396],[-70.78634527888511,-2.1665606473360413],[-70.79226447774471,-2.1645875803639],[-70.79798636990711,-2.165968726215965],[-70.79798636990711,-2.169322939040171],[-70.80232711621744,-2.1718879250755663],[-70.80607594243611,-2.1685337122513033],[-70.81002207535198,-2.1716906194067747],[-70.81337628714778,-2.1574845413209687],[-70.81673049997204,-2.1543276351939653],[-70.81949279270464,-2.1543276351939653],[-70.82560929928991,-2.143081156537903],[-70.82087393958511,-2.1359781174950285],[-70.82422815343779,-2.1345969716429636],[-70.82699044514197,-2.1365700386151047],[-70.82935812550858,-2.134399665974172],[-70.83152849712104,-2.1278885470229056],[-70.82580660495864,-2.1284804671145707],[-70.82600391268431,-2.1251262542903078],[-70.82876620438844,-2.1225612682549695],[-70.82699044514197,-2.116050149303703],[-70.82462276477537,-2.114077083359973],[-70.81890087364138,-2.1130905498738457],[-70.82166316637398,-2.1105255628100394],[-70.82008471176783,-2.1057902041337684],[-70.82186047204277,-2.1050009773449005],[-70.8183089525213,-2.0990817795137104],[-70.82403084674058,-2.094741033203377],[-70.8183089525213,-2.0951356455693713],[-70.8183089525213,-2.084481088033442],[-70.82284700450043,-2.081916101998104],[-70.82639852505031,-2.075010369652375],[-70.83523428919096,-2.0691256791530463],[-70.84604312030382,-2.067462782216978],[-70.85186326060847,-2.0716200245571486],[-70.86017774528875,-2.0599797460047284],[-70.867660781501,-2.056653951104124],[-70.87680671567779,-2.0483394664238403],[-70.88345830445047,-2.0524967087640107],[-70.913390450328,-2.0524967087640107],[-70.93085086918506,-2.0633055388483967],[-70.94165969926945,-2.0633055388483967],[-70.94747983854569,-2.0691256791530463],[-70.95912011915499,-2.075777266897262],[-70.96909750077134,-2.064136988344842],[-70.98738936912486,-2.0583168490686603],[-70.99570385277673,-2.0574853995721583],[-70.99736675074126,-2.046676569487772],[-71.00734413338603,-2.043350774587225],[-71.01971481695745,-2.0426727080364344],[-71.02116303371685,-2.0410176025808937],[-71.0263352377512,-2.0426727080364344],[-71.03171433048169,-2.0350178468472677],[-71.03936919064245,-2.0308800842368555],[-71.04185184882573,-2.023432109686894],[-71.05198936819824,-2.016811689921667],[-71.05033426377116,-2.0141221440705976],[-71.0511618154705,-2.007087946913032],[-71.05488580171698,-2.005846617821362],[-71.05736845990032,-2.000674414815478],[-71.06357510433014,-1.9959159871450538],[-71.06729909057663,-1.9961228748127269],[-71.06895419603217,-1.994260881689513],[-71.07329884733878,-1.9934333289617143],[-71.07267818330712,-1.9874335732280883],[-71.07640216852525,-1.9830889229499462],[-71.07640216955366,-1.9797787120388648],[-71.07909171540467,-1.9756409494284526],[-71.07909171540467,-1.9692274173308988],[-71.08271390949602,-1.9696347319904248],[-71.08467289709012,-1.966062460555861],[-71.0799482804959,-1.955230415438507],[-71.0815615653649,-1.9498143913371564],[-71.08133109551022,-1.9440526645106502],[-71.07948734284344,-1.9409413317569602],[-71.08110062668396,-1.9354100747851817],[-71.07626077516244,-1.933451088219556],[-71.07718265149578,-1.928611236697975],[-71.08582524327818,-1.9210057572047958],[-71.0965420555251,-1.9201991147702984],[-71.09838580716337,-1.917663954596435],[-71.09711822707646,-1.906831909479024],[-71.09366119056921,-1.9025682305373266],[-71.09538970933704,-1.8994568988120477],[-71.10195807756952,-1.898880726232278],[-71.10195807756952,-1.895999862304791],[-71.09988385607659,-1.894386579492732],[-71.09988385607659,-1.8860896924923622],[-71.10334089155538,-1.883439298419603],[-71.10357136243852,-1.8807889033183756],[-71.09930768349676,-1.8700720920998606],[-71.09988385607659,-1.8549763670123411],[-71.10437800281608,-1.849099406286939],[-71.10437800281608,-1.8450661961714445],[-71.09827057223606,-1.8381521241853989],[-71.09423736417745,-1.8360779016639412],[-71.09066509274282,-1.820982177604833],[-71.08651664975685,-1.8128005255318271],[-71.08697758843778,-1.8008161342264088],[-71.08513383474258,-1.7963219874868628],[-71.08640141482954,-1.7839918913994666],[-71.08421196046612,-1.7798434484134873],[-71.08559477342351,-1.7714313264858106],[-71.0807549229304,-1.761290686818711],[-71.08372731001447,-1.739190552382638],[-71.08615529722192,-1.7328777870831118],[-71.08421290663324,-1.728993006934104],[-71.0845565205916,-1.7246161468647188],[-71.08819363944076,-1.7211929769696326],[-71.08862153529196,-1.716486118492412],[-71.08263098926108,-1.71113741623833],[-71.08049150589119,-1.7038631785399616],[-71.08070545484526,-1.6869612780184298],[-71.082203091353,-1.6820404716155508],[-71.08113335069646,-1.6792591454972694],[-71.07599859636798,-1.6766917693615255],[-71.07450095883183,-1.6726267546611098],[-71.07428701193464,-1.6615014532732744],[-71.07086384101109,-1.6550830093343052],[-71.0672267231904,-1.653157475946898],[-71.06551513875706,-1.6452413955001362],[-71.07107778893675,-1.6377532109046342],[-71.07813807768099,-1.6326184565761537],[-71.07385911505503,-1.6272697532936604],[-71.07642649221924,-1.6247023761294486],[-71.07664044014484,-1.6217071020855087],[-71.07407306400904,-1.6114375934286045],[-71.07664044117331,-1.60822837145912],[-71.07407306298063,-1.605233097415237],[-71.07835202457818,-1.5956054315066694],[-71.07835202457818,-1.59132646990912],[-71.08113335069646,-1.5904706782066569],[-71.0800636110684,-1.586405663506298],[-71.07856597250378,-1.5857638176725573],[-71.07963571418873,-1.5831964405083454],[-71.08519836539688,-1.5842661821932893],[-71.08648205397895,-1.5827685446570854],[-71.08584021020215,-1.576564049672129],[-71.0896912759485,-1.5718571911949084],[-71.08840758736636,-1.5695037609278302],[-71.08263098823261,-1.5667224358380167],[-71.08156124654766,-1.5588063564197228],[-71.07877992248632,-1.556238978227043],[-71.08027755796559,-1.5496065873908265],[-71.08412862371193,-1.5442578841083332],[-71.08027755796559,-1.5371975963925024],[-71.08134729862206,-1.5327046858408835],[-71.08541231332248,-1.529495462842931],[-71.08348677993507,-1.523504915783576],[-71.08840758736636,-1.5187980573063555],[-71.09097496350216,-1.5110959247851952],[-71.0995328887542,-1.5070309111132474],[-71.09889104497734,-1.5006124671742214],[-71.10573738579603,-1.4890592689067716],[-71.10423974723142,-1.4843524114579623],[-71.10766291815497,-1.4817850332652824],[-71.11108608702165,-1.4742968496981916],[-71.1093745015599,-1.471087626700239],[-71.10702107540658,-1.4717294715055687],[-71.10637922854443,-1.4695899912209711],[-71.10809081297776,-1.4670226130282913],[-71.1068071254241,-1.4618878586998676],[-71.0995328887542,-1.4612460138945949],[-71.09782130534927,-1.4591065315531182],[-71.09696551158993,-1.451832296940097],[-71.09375628962044,-1.4505486083579626],[-71.09311444584358,-1.447339387416946],[-71.08904943114322,-1.4432743716880623],[-71.08305888408387,-1.4407069945238504],[-71.07835202457818,-1.4297956410616735],[-71.06808251592128,-1.4287259004051407],[-71.06166407198225,-1.4248748336303834],[-71.0615564105056,-1.421752638466785],[-71.0572405483905,-1.423083790699593],[-71.05296022307812,-1.4214085791928142],[-71.05236460779253,-1.417101173960475],[-71.0598575417356,-1.4090841930182592],[-71.05914022673295,-1.4051358808326881],[-71.05688236037315,-1.4042984766539917],[-71.04035576937997,-1.4063322649293468],[-71.03417567727911,-1.410520045841679],[-71.03143659649419,-1.4106394367051962],[-71.0262112487211,-1.4034600234639925],[-71.02216752586617,-1.4028620304192714],[-71.01747445468936,-1.4133313335758544],[-71.0089144098173,-1.415006408299746],[-71.00142217521517,-1.4251766012910707],[-71.00094174549162,-1.4339112067971769],[-71.00796024553108,-1.4426461064377918],[-71.00890626043878,-1.446474907432048],[-71.00688450082714,-1.4477912151255623],[-70.99463954126827,-1.4446795902941858],[-70.9922665736787,-1.4402525885098498],[-70.98870411050041,-1.411894472878771],[-70.98643765047495,-1.4074673764776549],[-70.98275204673166,-1.405791863637262],[-70.95945133421037,-1.4170381355763197],[-70.95112717599972,-1.4170376264972901],[-70.95398064221848,-1.4318749204349501],[-70.94922729916783,-1.4319943195260407],[-70.93936321592156,-1.428763002497476],[-70.93329742389375,-1.4324717945341945],[-70.92913858541084,-1.4416849950223423],[-70.92580448172316,-1.443958088502086],[-70.92235658909834,-1.4352231806338978],[-70.91106435709156,-1.4358206656280004],[-70.90678473934764,-1.4333075511479478],[-70.90678393819093,-1.4298379635282004],[-70.90916481450347,-1.426607258422905],[-70.91772537565367,-1.4224202694113615],[-70.9186717165777,-1.4142837680217895],[-70.9147495227183,-1.403754061350753],[-70.91214053991195,-1.402318156076774],[-70.90476212818555,-1.402437348450917],[-70.8882370181496,-1.4099741228416747],[-70.88562793249906,-1.4087772306943407],[-70.88360539127109,-1.4033928147453594],[-70.88812173797078,-1.3940603180103608],[-70.88657299918276,-1.391547524404416],[-70.87777590653769,-1.3984864147653298],[-70.88051588412452,-1.4090162181099686],[-70.88050746632251,-1.4233743041138496],[-70.87634973032993,-1.427801100209706],[-70.87183300310647,-1.4298348092949595],[-70.86636214039311,-1.4285180963951234],[-70.8594652433971,-1.42038098411075],[-70.85566603892164,-1.4194233724851415],[-70.85007326668904,-1.4227732607085954],[-70.85221770612344,-1.435456575379078],[-70.84900531243721,-1.4366525717529726],[-70.84116167753837,-1.432105153747841],[-70.83985004822989,-1.4269598455422283],[-70.84508351967042,-1.419063470054141],[-70.83973556920779,-1.4141571574917293],[-70.82546814555417,-1.411523429329975],[-70.82142412033716,-1.4221718275236412],[-70.81750209719922,-1.426478924223204],[-70.81429048615774,-1.4256409091497062],[-70.80632477410353,-1.4188199070977703],[-70.7976426942422,-1.4269549954073568],[-70.79467441372907,-1.4269546837892335],[-70.79253105930155,-1.4209718870727102],[-70.79301118049233,-1.413673487145843],[-70.7883727453243,-1.4131939789068042],[-70.78718288463847,-1.4275519713224298],[-70.78920393565323,-1.4359279671497234],[-70.78825060749074,-1.4376030655278669],[-70.77707346540092,-1.4379607547505202],[-70.77244213060004,-1.4341307463647581],[-70.76364507189356,-1.4334120357656275],[-70.76079178668067,-1.4392742280564335],[-70.76101976153382,-1.458298924439589],[-70.75186428443891,-1.461887109993711],[-70.74651683277096,-1.4594934038607335],[-70.73605644518256,-1.4469281862731123],[-70.73321036523794,-1.4409453813290156],[-70.72963996351189,-1.4395091819204708],[-70.71929364768232,-1.4426183693431085],[-70.71834782509336,-1.4391482716158635],[-70.72262814732034,-1.4328073814987192],[-70.715738565636,-1.4261103530502055]]]}}]}