{"type":"FeatureCollection","features":[{"type":"Feature","properties":{"code":"912018"},"geometry":{"type":"Polygon","coordinates":[[[-71.0615564105056,-1.421752638466785],[-71.06166407198225,-1.4248748336303834],[-71.06808251592128,-1.4287259004051407],[-71.07835202457818,-1.4297956410616735],[-71.08305888408387,-1.4407069945238504],[-71.08904943114322,-1.4432743716880623],[-71.09311444584358,-1.447339387416946],[-71.09375628962044,-1.4505486083579626],[-71.09696551158993,-1.451832296940097],[-71.09782130534927,-1.4591065315531182],[-71.0995328887542,-1.4612460138945949],[-71.1068071254241,-1.4618878586998676],[-71.10809081297776,-1.4670226130282913],[-71.10637922854443,-1.4695899912209711],[-71.10702107540658,-1.4717294715055687],[-71.1093745015599,-1.471087626700239],[-71.11108608702165,-1.4742968496981916],[-71.10766291815497,-1.4817850332652824],[-71.10423974723142,-1.4843524114579623],[-71.10573738579603,-1.4890592689067716],[-71.09889104497734,-1.5006124671742214],[-71.0995328887542,-1.5070309111132474],[-71.09097496350216,-1.5110959247851952],[-71.08840758736636,-1.5187980573063555],[-71.08348677993507,-1.523504915783576],[-71.08541231332248,-1.529495462842931],[-71.08134729862206,-1.5327046858408835],[-71.08027755796559,-1.5371975963925024],[-71.08412862371193,-1.5442578841083332],[-71.08027755796559,-1.5496065873908265],[-71.07877992248632,-1.556238978227043],[-71.08156124654766,-1.5588063564197228],[-71.08263098823261,-1.5667224358380167],[-71.08840758736636,-1.5695037609278302],[-71.0896912759485,-1.5718571911949084],[-71.08584021020215,-1.576564049672129],[-71.08648205397895,-1.5827685446570854],[-71.08519836539688,-1.5842661821932893],[-71.07963571418873,-1.5831964405083454],[-71.07856597250378,-1.5857638176725573],[-71.0800636110684,-1.586405663506298],[-71.08113335069646,-1.5904706782066569],[-71.07835202457818,-1.59132646990912],[-71.07835202457818,-1.5956054315066694],[-71.07407306298063,-1.605233097415237],[-71.07664044117331,-1.60822837145912],[-71.07407306400904,-1.6114375934286045],[-71.07664044014484,-1.6217071020855087],[-71.07642649221924,-1.6247023761294486],[-71.07385911505503,-1.6272697532936604],[-71.07813807768099,-1.6326184565761537],[-71.07107778893675,-1.6377532109046342],[-71.06551513875706,-1.6452413955001362],[-71.0672267231904,-1.653157475946898],[-71.07086384101109,-1.6550830093343052],[-71.07428701193464,-1.6615014532732744],[-71.07450095883183,-1.6726267546611098],[-71.07599859636798,-1.6766917693615255],[-71.08113335069646,-1.6792591454972694],[-71.082203091353,-1.6820404716155508],[-71.08070545484526,-1.6869612780184298],[-71.08049150589119,-1.7038631785399616],[-71.08263098926108,-1.71113741623833],[-71.08862153529196,-1.716486118492412],[-71.08819363944076,-1.7211929769696326],[-71.0845565205916,-1.7246161468647188],[-71.08421290663324,-1.728993006934104],[-71.08615529722192,-1.7328777870831118],[-71.08372731001447,-1.739190552382638],[-71.0807549229304,-1.761290686818711],[-71.08559477342351,-1.7714313264858106],[-71.08421196046612,-1.7798434484134873],[-71.08640141482954,-1.7839918913994666],[-71.08513383474258,-1.7963219874868628],[-71.08697758843778,-1.8008161342264088],[-71.08651664975685,-1.8128005255318271],[-71.09066509274282,-1.820982177604833],[-71.09423736417745,-1.8360779016639412],[-71.09827057223606,-1.8381521241853989],[-71.10437800281608,-1.8450661961714445],[-71.10437800281608,-1.849099406286939],[-71.09988385607659,-1.8549763670123411],[-71.09930768349676,-1.8700720920998606],[-71.10357136243852,-1.8807889033183756],[-71.10334089155538,-1.883439298419603],[-71.09988385607659,-1.8860896924923622],[-71.09988385607659,-1.894386579492732],[-71.10195807756952,-1.895999862304791],[-71.10195807756952,-1.898880726232278],[-71.09538970933704,-1.8994568988120477],[-71.09366119056921,-1.9025682305373266],[-71.09711822707646,-1.906831909479024],[-71.09838580716337,-1.917663954596435],[-71.0965420555251,-1.9201991147702984],[-71.08582524327818,-1.9210057572047958],[-71.07718265149578,-1.928611236697975],[-71.07626077516244,-1.933451088219556],[-71.08110062668396,-1.9354100747851817],[-71.07948734284344,-1.9409413317569602],[-71.08133109551022,-1.9440526645106502],[-71.0815615653649,-1.9498143913371564],[-71.0799482804959,-1.955230415438507],[-71.08467289709012,-1.966062460555861],[-71.08271390949602,-1.9696347319904248],[-71.07909171540467,-1.9692274173308988],[-71.07909171540467,-1.9756409494284526],[-71.07640216955366,-1.9797787120388648],[-71.07640216852525,-1.9830889229499462],[-71.07267818330712,-1.9874335732280883],[-71.07329884733878,-1.9934333289617143],[-71.06895419603217,-1.994260881689513],[-71.06729909057663,-1.9961228748127269],[-71.06357510433014,-1.9959159871450538],[-71.05736845990032,-2.000674414815478],[-71.05488580171698,-2.005846617821362],[-71.0511618154705,-2.007087946913032],[-71.05033426377116,-2.0141221440705976],[-71.05198936819824,-2.016811689921667],[-71.04185184882573,-2.023432109686894],[-71.03936919064245,-2.0308800842368555],[-71.03171433048169,-2.0350178468472677],[-71.0263352377512,-2.0426727080364344],[-71.02116303371685,-2.0410176025808937],[-71.01971481695745,-2.0426727080364344],[-71.00734413338603,-2.043350774587225],[-70.99736675074126,-2.046676569487772],[-70.99570385277673,-2.0574853995721583],[-70.98738936912486,-2.0583168490686603],[-70.96909750077134,-2.064136988344842],[-70.95912011915499,-2.075777266897262],[-70.94747983854569,-2.0691256791530463],[-70.94165969926945,-2.0633055388483967],[-70.93085086918506,-2.0633055388483967],[-70.913390450328,-2.0524967087640107],[-70.88345830445047,-2.0524967087640107],[-70.87680671567779,-2.0483394664238403],[-70.867660781501,-2.056653951104124],[-70.86017774528875,-2.0599797460047284],[-70.85186326060847,-2.0716200245571486],[-70.84604312030382,-2.067462782216978],[-70.83523428919096,-2.0691256791530463],[-70.82639852505031,-2.075010369652375],[-70.82284700450043,-2.081916101998104],[-70.8183089525213,-2.084481088033442],[-70.8183089525213,-2.0951356455693713],[-70.82403084674058,-2.094741033203377],[-70.8183089525213,-2.0990817795137104],[-70.82186047204277,-2.1050009773449005],[-70.82008471176783,-2.1057902041337684],[-70.82166316637398,-2.1105255628100394],[-70.81890087364138,-2.1130905498738457],[-70.82462276477537,-2.114077083359973],[-70.82699044514197,-2.116050149303703],[-70.82876620438844,-2.1225612682549695],[-70.82600391268431,-2.1251262542903078],[-70.82580660495864,-2.1284804671145707],[-70.83152849712104,-2.1278885470229056],[-70.82935812550858,-2.134399665974172],[-70.82699044514197,-2.1365700386151047],[-70.82422815343779,-2.1345969716429636],[-70.82087393958511,-2.1359781174950285],[-70.82560929928991,-2.143081156537903],[-70.81949279270464,-2.1543276351939653],[-70.81673049997204,-2.1543276351939653],[-70.81337628714778,-2.1574845413209687],[-70.81002207535198,-2.1716906194067747],[-70.80607594243611,-2.1685337122513033],[-70.80232711621744,-2.1718879250755663],[-70.79798636990711,-2.169322939040171],[-70.79798636990711,-2.165968726215965],[-70.79226447774471,-2.1645875803639],[-70.78634527888511,-2.1665606473360413],[-70.78575335879344,-2.1730717652588396],[-70.78476682633578,-2.1756367512942347],[-70.78279376039205,-2.1758340579914375],[-70.78003146663104,-2.1699148591318362],[-70.77588802804638,-2.168139099885309],[-70.77509880228598,-2.1630091267861644],[-70.77312573531378,-2.1630091267861644],[-70.77154728276452,-2.1651795004555083],[-70.7695742147639,-2.174650217808164],[-70.77430957549711,-2.1839236294920283],[-70.77174458946172,-2.1870805356190317],[-70.77095536164444,-2.2034569873742385],[-70.76799576221458,-2.209178878508169],[-70.7695742147639,-2.2160846108538976],[-70.77569072134918,-2.217268451037171],[-70.77746648162412,-2.2147034650018327],[-70.77608533577205,-2.2052327455922978],[-70.77766378832132,-2.2042462131346383],[-70.7804260800255,-2.20641658474716],[-70.78456951963858,-2.201089307007635],[-70.79029141282945,-2.200892000310432],[-70.79265909216758,-2.205824665683963],[-70.78614797424478,-2.219241516980901],[-70.78437221294138,-2.2202280504669716],[-70.78535874642745,-2.227923007544689],[-70.78220183927198,-2.234631434221569],[-70.77509880125751,-2.236801806862559],[-70.7675318605908,-2.2424101990800978],[-70.75319842532565,-2.2577321465547584],[-70.74380755522174,-2.277008146981075],[-70.7462788357455,-2.281456453980695],[-70.75171565495452,-2.281456453980695],[-70.7675318605908,-2.2725598389530433],[-70.78038252754169,-2.2745368654288995],[-70.78285380909387,-2.2824449682470345],[-70.78235955298913,-2.288376044589313],[-70.78027049724125,-2.292205980984079],[-70.8043774984128,-2.2952401795204764],[-70.8220246392367,-2.2838110309611466],[-70.83095196150106,-2.2647848783034306],[-70.83367606919137,-2.2531469949936422],[-70.84181675634198,-2.232782742973882],[-70.85831117251098,-2.2220763632478793],[-70.87351802904021,-2.22107029963837],[-70.88713662167851,-2.224109537543029],[-70.88964628779081,-2.2262711509390556],[-70.89324748622812,-2.2342726558782715],[-70.9057140185854,-2.249357061927469],[-70.91192489505619,-2.2543244742599313],[-70.91676952986393,-2.254464087388726],[-70.92983923553089,-2.25120392151905],[-70.94304614879962,-2.2410471630723805],[-70.94729629652312,-2.2353015704521226],[-70.95040120973863,-2.221371283625899],[-70.95903758767128,-2.2138795128512925],[-70.97059725072842,-2.2105269445066256],[-70.98909881336931,-2.2100262914894415],[-70.99476735918984,-2.211774897796545],[-71.00093233524257,-2.217615807497907],[-71.00677687226067,-2.230858428290844],[-71.00197029599684,-2.247270895074621],[-70.99314179574566,-2.264189056300836],[-70.9830785690038,-2.275847231809962],[-70.98057588190244,-2.281791021758636],[-70.97853127955403,-2.2954153099116184],[-70.98286549114056,-2.3008553214062886],[-70.98861766784984,-2.3024092281179946],[-70.99678101775976,-2.3009453553781327],[-71.00079433265478,-2.2986589569375724],[-71.01260573581476,-2.2809185147799553],[-71.02166134908418,-2.2719647234904983],[-71.0331210002202,-2.264359154522765],[-71.03852326067528,-2.2637700791031534],[-71.04959356712789,-2.2696357938095844],[-71.06026788515834,-2.2712478219217473],[-71.07780070431187,-2.275833867199424],[-71.08528521942446,-2.2794439904609476],[-71.10322214449684,-2.283144113755725],[-71.12165518818335,-2.2913697677419123],[-71.12650001530983,-2.297952266774587],[-71.12810244908178,-2.3040781661254073],[-71.1271871085006,-2.308193070572372],[-71.1201672745712,-2.3178869424680215],[-71.1161167259433,-2.326619911722105],[-71.11465905676874,-2.3356271264865995],[-71.11566668669622,-2.3389643227009174],[-71.12192216054837,-2.3444493357548595],[-71.12717231641187,-2.3433964522997144],[-71.13241379324893,-2.338960661445583],[-71.13925739635363,-2.336993280732088],[-71.14874837608073,-2.3405113984974264],[-71.15422663329576,-2.3469568225974626],[-71.15602681805211,-2.370090004917813],[-71.15926969785994,-2.3768555080976626],[-71.16483936818827,-2.379917328543172],[-71.17249868664732,-2.379824141366555],[-71.17980031691218,-2.3758903651875016],[-71.1917487055303,-2.3659206958615755],[-71.20934258948682,-2.343971258079364],[-71.21577428902145,-2.3404947757809964],[-71.22289310437259,-2.339669799301703],[-71.23197187713913,-2.3432791131789372],[-71.24078471215387,-2.352969150012484],[-71.25285471307137,-2.3804881552787265],[-71.25586859266889,-2.3843273569121948],[-71.26376472750144,-2.3890340693506005],[-71.26970100364906,-2.3882090815584434],[-71.27307251076269,-2.385144882325392],[-71.27356883917912,-2.3806185052257547],[-71.26324628037179,-2.361785887966562],[-71.26191074903073,-2.352779879565105],[-71.26478715157452,-2.3485268871695553],[-71.27025723369997,-2.345004997077069],[-71.27901669769017,-2.3434477283867636],[-71.28481487046264,-2.344817451327799],[-71.28965249951989,-2.3489305621710628],[-71.29431422376877,-2.357935665543039],[-71.2993492407702,-2.374575462346513],[-71.30537699070925,-2.3807910850795224],[-71.31231190305448,-2.383074594625043],[-71.33703936051228,-2.383111559934491],[-71.35142106572704,-2.389095295619029],[-71.37082313058045,-2.406003748347871],[-71.37977338094231,-2.4061830645001123],[-71.38528956917429,-2.3994601789498233],[-71.3882879995083,-2.3868408848261424],[-71.38508343741182,-2.377972576650393],[-71.37955967470066,-2.3695625805133886],[-71.37762914925327,-2.3589568760539805],[-71.3791785061353,-2.3542015666212706],[-71.38883712816363,-2.340710904004709],[-71.4019221442544,-2.3305104336656655],[-71.40907918989927,-2.3218210559762156],[-71.42529905202503,-2.2929663033959855],[-71.4389716019001,-2.2753133446727816],[-71.4486380215796,-2.268539561502223],[-71.45660396811877,-2.2665945843805844],[-71.46595784000306,-2.270645200885724],[-71.47466320071766,-2.2714424340995834],[-71.47971344381057,-2.2760267392525293],[-71.47904258869875,-2.292622832391146],[-71.4740830017854,-2.307391926191599],[-71.46616401598857,-2.323945297828004],[-71.46434753761741,-2.3319465888511672],[-71.46700328884725,-2.3467122959904145],[-71.47417480056464,-2.3515550086390817],[-71.48001136818164,-2.351598031474964],[-71.48822072855302,-2.345925152826112],[-71.49218027030241,-2.340437459650957],[-71.49564469719763,-2.331292173392967],[-71.49677406078075,-2.3177590834088164],[-71.50200735327223,-2.304955782406523],[-71.50309061074876,-2.292474395225497],[-71.50029116964396,-2.275880197506467],[-71.5021068818254,-2.2489279000635065],[-71.50453296127199,-2.2469047026892213],[-71.51439837018069,-2.247639517669711],[-71.52216561031236,-2.2463976476173],[-71.5370582817659,-2.238626374962564],[-71.54189513743438,-2.2376603959286285],[-71.56626714767418,-2.2370332393393824],[-71.56025160020562,-2.2281254132598747],[-71.54635780560528,-2.2293513352541936],[-71.54619434906516,-2.211371131263718],[-71.54194448313484,-2.2077750904656455],[-71.54455978572048,-2.203770409345566],[-71.54423287161171,-2.2015637470819343],[-71.54856446786897,-2.200501279570915],[-71.54652126214546,-2.1956793157501124],[-71.5488913799208,-2.190285256095649],[-71.54856446786897,-2.1817855221781883],[-71.54464151296213,-2.172958877237363],[-71.54872792440909,-2.16086310252183],[-71.54791064170831,-2.154488302597997],[-71.5509345846159,-2.1516278162305866],[-71.55502099503445,-2.151300904178754],[-71.5573911128098,-2.1491759701851265],[-71.5546940819541,-2.1369984682280005],[-71.55199705212686,-2.134056252562061],[-71.5528960620693,-2.1285804625806577],[-71.55011730294353,-2.125801705511776],[-71.5501990312136,-2.120244187260255],[-71.5474202731163,-2.1179557967265055],[-71.54979038986323,-2.115095310359152],[-71.549545205053,-2.109374335567452],[-71.54603089252498,-2.1077397732512395],[-71.53826671406671,-2.1078215004928893],[-71.53099290420045,-2.099730408954258],[-71.5299304377179,-2.093927705892554],[-71.52649785345994,-2.0930286959501245],[-71.52282008439175,-2.095235357185345],[-71.51922404256521,-2.094744987564866],[-71.51726256614023,-2.093355609030425],[-71.51538281798537,-2.087634635267193],[-71.51276751539973,-2.085836615382391],[-71.50720999817668,-2.0854279730035614],[-71.50467642283269,-2.0820771170156718],[-71.50018137209219,-2.079952184050569],[-71.49894616326196,-2.0668746591351237],[-71.48888834921314,-2.06425966713914],[-71.48728763705395,-2.062258775654641],[-71.48576695932002,-2.047292109818784],[-71.48296571227019,-2.044490862768896],[-71.4812849626004,-2.038488189343809],[-71.47496214736054,-2.034566442856942],[-71.47152061359583,-2.028243626588619],[-71.47584253940806,-2.022240954192],[-71.47552239656483,-2.0123165342799894],[-71.47704307429876,-2.0068741100591865],[-71.48240546203743,-2.0055935397148232],[-71.48304574669544,-1.9851844506865746],[-71.48568692386635,-1.980062169309008],[-71.48513753398663,-1.9730988184711578],[-71.48596621183049,-1.971441462783389],[-71.49084620346355,-1.969784108124088],[-71.49185903113948,-1.9656407199331056],[-71.48964922389865,-1.9619577078649968],[-71.48394055545015,-1.9608528047587583],[-71.48219112536054,-1.9573539435511407],[-71.48283565234391,-1.9517373515613485],[-71.47861624168195,-1.945088838860272],[-71.47891930826557,-1.9417551105540838],[-71.47649477868185,-1.9361483874986902],[-71.47891930826557,-1.9332692575253532],[-71.48104077126567,-1.923116540857734],[-71.48361683362697,-1.9214496782473134],[-71.48285916768214,-1.9134184225229092],[-71.48634442876585,-1.9094785641348153],[-71.48619289598827,-1.9015988432448694],[-71.48816282621073,-1.8984166477163171],[-71.4852836972658,-1.8941737217161858],[-71.4848290979046,-1.888415463826334],[-71.48088923848809,-1.8879608654935396],[-71.47922237382079,-1.8803842101588089],[-71.48073770365357,-1.8756866837689472],[-71.4780101085147,-1.867503898352311],[-71.47907084104315,-1.8640186362401323],[-71.47513097956977,-1.8614425738788327],[-71.46982732206959,-1.8515929227663719],[-71.46846352398592,-1.8402279418211265],[-71.46982732206959,-1.8343181511536955],[-71.4728579837921,-1.8332574196536484],[-71.47437331465335,-1.8293175592086754],[-71.47346411593094,-1.8237108351248708],[-71.47739423908212,-1.8158006054875955],[-71.47739423908212,-1.8104116520502203],[-71.47497730043261,-1.8080668936104871],[-71.47128431041517,-1.7967107685838073],[-71.47821922173205,-1.7980441977883288],[-71.47959246811712,-1.7959292962515292],[-71.47630449007642,-1.7917911788284755],[-71.46022888552585,-1.7912396539020392],[-71.45899325297734,-1.7888949489413335],[-71.47301568413945,-1.7858146802939245],[-71.47602998642685,-1.7819063817213987],[-71.47593868644225,-1.7774009776500748],[-71.4795012977163,-1.7761595909656194],[-71.47982210699024,-1.7738608892672119],[-71.47429816430162,-1.7683896789403093],[-71.4653490760798,-1.770228759392694],[-71.46525729272724,-1.7628265484779604],[-71.46269341946669,-1.7633319580418174],[-71.46082395676541,-1.767194252323577],[-71.45904620131199,-1.767286249592189],[-71.45534609550072,-1.760159638646769],[-71.45004313117079,-1.7588264243867116],[-71.45438487404192,-1.754964629927997],[-71.44812879649402,-1.7482520226322436],[-71.44552672379297,-1.7496771158900515],[-71.44584720602217,-1.7596078206142352],[-71.44219269003935,-1.7592401123045533],[-71.44365776297161,-1.7475619017067174],[-71.44251334504696,-1.744205905563149],[-71.44049917019885,-1.7432401075351436],[-71.43370036296494,-1.7452628925039448],[-71.43392986402677,-1.7488493800995002],[-71.43730235330304,-1.7550562055351975],[-71.43360924398627,-1.7550102979180906],[-71.4284438081321,-1.7421367738322147],[-71.42958817257778,-1.735102185866424],[-71.42479703940683,-1.7257689743639162],[-71.42890146402453,-1.7212633810591456],[-71.43000050706524,-1.7160682787521182],[-71.43940749286344,-1.7113788780866344],[-71.43817959008885,-1.6975398933018937],[-71.43685175355478,-1.694413480495541],[-71.42484279172913,-1.6924363563176144],[-71.41895282943347,-1.688206052392502],[-71.41575552094207,-1.6883899451139541],[-71.40908760872975,-1.693400930499081],[-71.40734846306532,-1.6924353309604498],[-71.40775978762224,-1.6837918279779842],[-71.41424498776513,-1.6777235378633577],[-71.41598505594249,-1.6721603384953596],[-71.41136910972705,-1.6717464274054805],[-71.40488420371867,-1.676021718491711],[-71.40251084120717,-1.67436641248986],[-71.40844634293757,-1.6631485214505801],[-71.41091891621357,-1.6644818220997877],[-71.41297117634497,-1.6695392334370354],[-71.41479503070587,-1.669263729112913],[-71.41539014719689,-1.6648038377368266],[-71.41078131883211,-1.6591487172049142],[-71.41096513647722,-1.6576315320618278],[-71.41402432822366,-1.6565279227363021],[-71.41347491468974,-1.6537236222405909],[-71.39552977956077,-1.6513776954901118],[-71.38899917985128,-1.65468777270371],[-71.38698439205149,-1.6542739839985074],[-71.38361302274916,-1.6488944798909984],[-71.3778977331877,-1.651744962598002],[-71.3756167741796,-1.6498594582503188],[-71.37657812522218,-1.6417676601716948],[-71.38032433714,-1.6328485582484404],[-71.37717325713982,-1.6305035622384594],[-71.37174068539838,-1.6309628543829149],[-71.3668041448534,-1.6279740410149088],[-71.36201250980247,-1.6181807166707927],[-71.36356908943628,-1.6019051242734008],[-71.36826994078075,-1.5963425347718498],[-71.36868156872822,-1.592158431569942],[-71.36621679310343,-1.588434217009194],[-71.35881666581326,-1.5843417079265123],[-71.35790843691211,-1.5821346085747905],[-71.36041833648085,-1.5744565230966145],[-71.35941201576071,-1.5726175033223626],[-71.35333772776926,-1.5714216972103827],[-71.35146918038186,-1.568249387071262],[-71.35133209105095,-1.5614906901240602],[-71.3590072300413,-1.5567095924951673],[-71.35909822869223,-1.5539508921123115],[-71.35654225592714,-1.5530772908707604],[-71.3521560267464,-1.5550998835208247],[-71.32954869325653,-1.5757874531858533],[-71.32630639040497,-1.5814883435235743],[-71.32420792749338,-1.5817638488761645],[-71.31854736958593,-1.577533647795292],[-71.31867668697663,-1.5739472280769178],[-71.32667303941889,-1.5636954456552985],[-71.32343045271716,-1.5568444418782406],[-71.31720486848991,-1.5513980293573013],[-71.31637225582494,-1.546253230230775],[-71.31755561264026,-1.5421848288691535],[-71.33313506978027,-1.5381148416491897],[-71.3425270547159,-1.5373958646834467],[-71.34847075004785,-1.5326090715399232],[-71.35037050655194,-1.528062179068911],[-71.35060740931459,-1.5243529735982975],[-71.34775315119509,-1.519806660140432],[-71.33681241924387,-1.5172951397462953],[-71.32658890767863,-1.5190909392237018],[-71.32255335374265,-1.5304586260011774],[-71.31981418451164,-1.5308178218921853],[-71.31744132285161,-1.5272286192084152],[-71.31874567901457,-1.5098788144863988],[-71.32349885134374,-1.5031778152213633],[-71.33336425099645,-1.496954926541946],[-71.33526352618946,-1.4835538320128308],[-71.3398421687379,-1.4753571379395112],[-71.33924706355975,-1.4711692346425593],[-71.33354009924051,-1.4680590311187416],[-71.32450572330907,-1.4684191063280991],[-71.31428240200569,-1.473086586769739],[-71.30227304320124,-1.4759595676852655],[-71.29418640687567,-1.4722509576828315],[-71.28693748428992,-1.4715336437086535],[-71.28015548077832,-1.4679448452027941],[-71.27516564942738,-1.4613644236239907],[-71.2681538342643,-1.461364924475447],[-71.26083689254727,-1.4676474134557225],[-71.26048587277432,-1.4773392078975007],[-71.26285833951238,-1.4873898290193779],[-71.27237279961065,-1.495644831669722],[-71.2730897186629,-1.5000720411994735],[-71.26987842746706,-1.5021062326243282],[-71.25953171671563,-1.5007910202220955],[-71.2540612561233,-1.4955267088757864],[-71.24253304283837,-1.4688451838929382],[-71.23813101986588,-1.465136572862093],[-71.2147087125287,-1.4619072294146918],[-71.20210453136781,-1.4631044146681234],[-71.2018671380381,-1.4556860140112349],[-71.20591148104387,-1.443122407993087],[-71.20662121436828,-1.4335501062306548],[-71.21399075063573,-1.430558423508046],[-71.22802216832861,-1.4281643461073372],[-71.23361403553179,-1.4294801539777495],[-71.23527819230992,-1.4281638545118085],[-71.232836517561,-1.424036155211411],[-71.21856880080128,-1.4169777156067767],[-71.20596505055778,-1.4034573001482045],[-71.20787190742908,-1.4008251074511122],[-71.21215182650661,-1.4024999116946333],[-71.21535631969743,-1.406568123822808],[-71.22725169004684,-1.4059688287698577],[-71.23081389714298,-1.4046524336587822],[-71.23045558057032,-1.4013024436195565],[-71.22213944318293,-1.3967561383892075],[-71.20513292948834,-1.3940050001442046],[-71.19788472989768,-1.38682638805966],[-71.19134633150861,-1.3864677691249767],[-71.18397639929083,-1.3937666513913882],[-71.17244042332175,-1.4153046597155026],[-71.15567828916693,-1.4194931317412056],[-71.14117386813399,-1.420570297752704],[-71.12880629662959,-1.4173400934989218],[-71.1143025924211,-1.3985550715310069],[-71.10420028794886,-1.4041788543908638],[-71.09837221732397,-1.4021447400992315],[-71.0939770448071,-1.4148279436979578],[-71.09195489027348,-1.416383540140714],[-71.08862829215934,-1.4161441310636178],[-71.08648454075296,-1.413631508179094],[-71.08720246767894,-1.4083667227208139],[-71.09409137676187,-1.40166623150634],[-71.09338156630434,-1.3979569324474141],[-71.08505842419493,-1.3937690116669614],[-71.0740028954329,-1.3940083014446714],[-71.06544280016715,-1.4173406869102223],[-71.0615564105056,-1.421752638466785]]]}}]}