{"type":"FeatureCollection","features":[{"type":"Feature","properties":{"code":"913018"},"geometry":{"type":"Polygon","coordinates":[[[-72.56270210397429,-1.7270453898005371],[-72.56084199495774,-1.7251275357934333],[-72.55746888450221,-1.7289254392890712],[-72.55641615634187,-1.7210162339805493],[-72.55263165962288,-1.718230219192833],[-72.55299036494677,-1.7133374172797744],[-72.54607105921673,-1.712748798488633],[-72.54465850267326,-1.7139387023689778],[-72.54438408541284,-1.7200657998553197],[-72.53746407931345,-1.7245065971676468],[-72.53250459421588,-1.7319634955132983],[-72.52644698859058,-1.733660101709802],[-72.52248018500848,-1.7286795767352032],[-72.5229303024172,-1.7262102769917647],[-72.52716474273814,-1.7209941841729801],[-72.52865930111744,-1.7155520808262281],[-72.53385517064254,-1.7143132786178512],[-72.53485439202399,-1.7117520844500405],[-72.53020846053846,-1.7078234689955707],[-72.5222812214904,-1.7081045485065829],[-72.53170371723019,-1.7000037628687892],[-72.53010947500292,-1.6968044581705044],[-72.52591314464797,-1.6952074319493136],[-72.52122110808426,-1.6955313347784227],[-72.51739887986616,-1.6980493168769044],[-72.5154911015104,-1.708978450053337],[-72.51216467617462,-1.7148337404664176],[-72.5051217208005,-1.7390271647481654],[-72.50320715266724,-1.740308974365803],[-72.49405117266394,-1.7380757402327731],[-72.49463889671011,-1.7362006437234072],[-72.5039320925427,-1.7328096548231429],[-72.50201754086453,-1.7258155381273923],[-72.4969583894025,-1.7247220363349243],[-72.4885276012431,-1.7310387220573489],[-72.483339952059,-1.7318660187029309],[-72.48269902153913,-1.7302205086160711],[-72.48707005856699,-1.7241357089137068],[-72.48273643524954,-1.72171559957593],[-72.47645013794664,-1.721674983295543],[-72.47977674531677,-1.729308408657289],[-72.47909790229187,-1.733926911580852],[-72.47587019612502,-1.7384106031737474],[-72.47605379676878,-1.7416566104752746],[-72.47838007101114,-1.7435754188770147],[-72.48334712955938,-1.7420168234958737],[-72.48552930049289,-1.7364368286331455],[-72.48703234455138,-1.741099330384543],[-72.48507886426694,-1.7458560343853264],[-72.46671478690729,-1.7475624015297626],[-72.46525724525958,-1.7461919051999644],[-72.4645627380267,-1.7375962844442938],[-72.46233508010903,-1.735906485508849],[-72.46041960591793,-1.7368678787175895],[-72.45969557929942,-1.7432239866986379],[-72.46407481198565,-1.7500794971108462],[-72.46749999042902,-1.7616908250063261],[-72.47346657169237,-1.7613660428589242],[-72.4758010405647,-1.7681768520170067],[-72.4781662166738,-1.7679464551817432],[-72.47939455962177,-1.7655677581389],[-72.47921165831889,-1.7588008511350495],[-72.48098922351045,-1.7589823414147645],[-72.48345398268015,-1.7657014525810268],[-72.48636838411818,-1.7654251645836894],[-72.48736850950058,-1.7619947637091968],[-72.48923736850611,-1.7616274678049422],[-72.48964957340979,-1.7682571672070821],[-72.48610945005987,-1.7793250938436813],[-72.49280824331572,-1.7829780075130088],[-72.49244932304737,-1.7904309093310644],[-72.49094676132842,-1.7943188282866345],[-72.48789397883576,-1.7935440068920911],[-72.48483448267035,-1.7902087153533444],[-72.48192079702835,-1.790942685982543],[-72.48516337550251,-1.7993990052274853],[-72.48393483509358,-1.8007257135601549],[-72.47600748291683,-1.7994976894293586],[-72.4755953644023,-1.8007784973440266],[-72.47965449435458,-1.805210609459266],[-72.47969998750938,-1.8084568152501674],[-72.46945405795412,-1.8131746934889748],[-72.46908774421246,-1.814683796102372],[-72.47314627046899,-1.818475710977225],[-72.46394497831676,-1.8203577001083886],[-72.4627246150543,-1.8300985070353022],[-72.45697902860474,-1.8279080993056596],[-72.45132536537591,-1.8285072802014497],[-72.4519210835058,-1.8266319769751362],[-72.45920741980194,-1.8250717011189295],[-72.46148828522172,-1.8224176900138218],[-72.45519329449422,-1.8142836712844428],[-72.45018143904679,-1.8167114651447491],[-72.4478999802156,-1.8162559628109989],[-72.44967753717964,-1.8125964485975032],[-72.4532248462574,-1.8103074677378004],[-72.44867082050911,-1.8056927546248858],[-72.45157752714022,-1.7989231417887481],[-72.44779310858286,-1.7988804377700376],[-72.44283403794765,-1.8089441375954607],[-72.4446189616454,-1.8196423586869628],[-72.44125433069848,-1.829750072766842],[-72.44481733997975,-1.838709284976801],[-72.44942587523843,-1.8426836969766214],[-72.44888374204908,-1.8460678097101777],[-72.44473312287874,-1.8460709896544358],[-72.44222325724866,-1.83733957129175],[-72.4360207728688,-1.8314003568838189],[-72.43433421455569,-1.834876855637333],[-72.43949144652385,-1.845526590806287],[-72.44008715745463,-1.8522477012647869],[-72.43890411328584,-1.8553121864048308],[-72.43130485998364,-1.8612625840967212],[-72.42793336109753,-1.8614483814936875],[-72.42318741049172,-1.8591658623383296],[-72.42304961564929,-1.8564682596685884],[-72.42573540459978,-1.8532653615921504],[-72.42495737754996,-1.8518484557652641],[-72.41606910524808,-1.8503923446810973],[-72.41643492842263,-1.8482429419831305],[-72.42431606856326,-1.8470020623208256],[-72.42212650415644,-1.8455863536010497],[-72.41369634540388,-1.846690627300461],[-72.40682181703261,-1.8522745240741187],[-72.40792033453926,-1.8555660265873257],[-72.40664689438682,-1.857944534396779],[-72.40158762979615,-1.8580857241279318],[-72.39675797836748,-1.8613820181548704],[-72.39679609758946,-1.8554834117998098],[-72.39433961121136,-1.8537020033185172],[-72.3919213479279,-1.854252501859321],[-72.3912876144488,-1.8581858049547577],[-72.39653686219754,-1.868332732519434],[-72.39224962677986,-1.8679698229225323],[-72.38987686796412,-1.863170906498567],[-72.38982257648354,-1.8553057997768292],[-72.38632147738502,-1.8549885921085547],[-72.38367336748308,-1.8585574861378973],[-72.37698276782879,-1.8608487768795499],[-72.37597492192839,-1.8626330824833985],[-72.38591622475275,-1.8713131023743586],[-72.38232248972275,-1.8784034134126273],[-72.38040783520034,-1.8783594084141555],[-72.37749364870683,-1.8737432914772398],[-72.37470905522667,-1.8757117911361547],[-72.38242227744348,-1.8855823175748583],[-72.38137674323855,-1.8867719211500003],[-72.37722592557878,-1.8858150150360302],[-72.37252647805838,-1.880972000025281],[-72.37103121416754,-1.8907586034975452],[-72.36934525749331,-1.8922687993452882],[-72.36382827633213,-1.8920446934929487],[-72.36046418017526,-1.893922089599812],[-72.3584044226979,-1.8895339824830444],[-72.35348298894507,-1.8866573557387483],[-72.35466532040323,-1.8811687657617426],[-72.36263887227477,-1.8772303708473714],[-72.36486645305928,-1.875308072940129],[-72.36422573851235,-1.8736621669029319],[-72.35743471350298,-1.8706041537516285],[-72.3485003515496,-1.871845541464495],[-72.3469669591808,-1.8906402565031613],[-72.33808676940868,-1.9027188562286028],[-72.33403463595079,-1.9019907528639237],[-72.32983910778103,-1.8976496311721007],[-72.32883126085216,-1.898199424201323],[-72.32947288762762,-1.9021771364731421],[-72.33631589732101,-1.9070647334386308],[-72.33585848208418,-1.9086195554641563],[-72.32351417497802,-1.9146649421639381],[-72.32109490176401,-1.913889630202391],[-72.3193631670564,-1.9085408168764957],[-72.31029108739381,-1.9047982929536147],[-72.30286074549088,-1.9067704888349226],[-72.30268502785901,-1.9138122974956104],[-72.29302622482476,-1.9118534651963728],[-72.29078975212627,-1.9157418675198983],[-72.29426154678367,-1.9193515845465754],[-72.29403254451648,-1.9215011775064568],[-72.28469454355712,-1.9242061561658943],[-72.28204606547274,-1.9225162543862098],[-72.28113165563207,-1.9131886345256248],[-72.27930801724409,-1.910995044794845],[-72.27374523130999,-1.9128738323844345],[-72.26837404113184,-1.9225720371084094],[-72.2697094521451,-1.9383473487848164],[-72.2641017572115,-1.9432901432886638],[-72.26857269406031,-1.9481341579455602],[-72.26766475620838,-1.951792852490314],[-72.2590506872508,-1.9526684447965863],[-72.24998638672741,-1.9576203297039],[-72.24942198158692,-1.9593232248263917],[-72.26395702552429,-1.966123762929044],[-72.27086881025423,-1.9725040825039173],[-72.27411970368615,-1.9788865895760068],[-72.27398208059361,-1.985697607507916],[-72.26411646496797,-1.9909544729304116],[-72.26270513535644,-1.9896783855669469],[-72.26185141082345,-1.9817333709183913],[-72.25846311027192,-1.980884472866137],[-72.2531076367523,-1.9850028668186042],[-72.25509088839073,-1.9920960729225499],[-72.2528325129519,-1.9920977688242942],[-72.24959011651208,-1.9894039590506054],[-72.25098646068767,-1.9797545570094144],[-72.24873501386611,-1.9796142445397322],[-72.2461948266652,-1.9827377437683822],[-72.24240266187877,-2.001895556608929],[-72.24269285750427,-2.011543968259957],[-72.2539920520669,-2.0319679151972423],[-72.23722189708894,-2.050000387721809],[-72.23481932372454,-2.0494343782110036],[-72.23129374563717,-2.0429099738393006],[-72.22551095425104,-2.042346859394115],[-72.22550356077778,-2.039934359502581],[-72.23156865449312,-2.036241051696379],[-72.23269820011052,-2.0334025719420197],[-72.22831906306942,-2.0319865526325884],[-72.22042990724782,-2.035965248095465],[-72.21789659621356,-2.052426656401849],[-72.23002777506275,-2.052985376312108],[-72.23454470797475,-2.056813195143775],[-72.23257623402685,-2.061497193400669],[-72.22496148826656,-2.062069872361235],[-72.22496119516046,-2.0643402774921924],[-72.22637244043972,-2.065616380282279],[-72.2337044622094,-2.0657528998560224],[-72.23455946715336,-2.075117302991714],[-72.23329241979962,-2.0792328964951707],[-72.23442234491233,-2.0810766028820353],[-72.23851207102956,-2.082350811281003],[-72.23763190626784,-2.0851148657355907],[-72.23971275298754,-2.0935456518381557],[-72.2438616052936,-2.0938049551072595],[-72.24334299772693,-2.096397986770114],[-72.25941980144142,-2.0951014714528924],[-72.2627907429117,-2.0883595864555105],[-72.27056983995715,-2.091211923444405],[-72.26875471707325,-2.0938049551072595],[-72.28197918277044,-2.0927677420307305],[-72.2843129121926,-2.0904340126085685],[-72.28638733937407,-2.0904340126085685],[-72.28872106776782,-2.0938049551072595],[-72.29131410045909,-2.091989832223362],[-72.29390713315041,-2.0925084377331586],[-72.29624086154416,-2.0883595864555105],[-72.30168623019586,-2.0893967985036284],[-72.30816881192413,-2.0847293406877156],[-72.31257696749935,-2.08524794722598],[-72.31594790896958,-2.0816177024865965],[-72.32346770274592,-2.080839792679228],[-72.32476422012002,-2.082395612293965],[-72.32683864627307,-2.0785060632570094],[-72.32917237569524,-2.0790246687668628],[-72.3320247106272,-2.0717641782596274],[-72.33876659562458,-2.0694304488374655],[-72.34447126651702,-2.0715048749905236],[-72.34862011882308,-2.067615325953568],[-72.35069454497614,-2.0603548354463896],[-72.34836081555397,-2.0595769256389644],[-72.3493980286305,-2.0549094667946406],[-72.34524917735285,-2.0538722537181116],[-72.34187823485416,-2.0507606144885813],[-72.34032241523937,-2.0463524589133613],[-72.34328414457366,-2.039134509930932],[-72.34558140850942,-2.039134509930932],[-72.34755049335217,-2.0338836187310676],[-72.35116048085922,-2.0366184582190385],[-72.35323895804737,-2.0366184582190385],[-72.35520804186166,-2.0335554386095396],[-72.36767890910414,-2.0354151290500226],[-72.37194525685425,-2.030383024597768],[-72.37708675365184,-2.032680289561995],[-72.37894644512073,-2.0320239293190525],[-72.37839947722313,-2.0286327285596144],[-72.38244703925403,-2.024256987435706],[-72.38594763338727,-2.024256987435706],[-72.38802610954696,-2.0267730381191313],[-72.39644941475859,-2.022616082714478],[-72.40246605957532,-2.0290703030833583],[-72.40531029243715,-2.026882431492993],[-72.41438995789179,-2.026116676847721],[-72.41526510693927,-2.024147593033433],[-72.4237978044963,-2.0198812432264504],[-72.42478234588924,-2.017365191514557],[-72.43440898026995,-2.0186779150858456],[-72.44381682481765,-2.0163806501216186],[-72.444801367239,-2.018130947188297],[-72.4477549945031,-2.018021552786024],[-72.45038043856039,-2.0202094254048575],[-72.45442800059124,-2.0167088312715578],[-72.46788340922666,-2.0175839792906913],[-72.47127460895763,-2.0164900434954802],[-72.47346248054805,-2.0118955135670262],[-72.47838518956951,-2.0117861201931646],[-72.4776194359527,-2.0071915912931786],[-72.48155760358128,-2.002050093467119],[-72.48593334573366,-1.9996434361574984],[-72.49238756610254,-1.9970179900433322],[-72.5010296580619,-2.000190403026636],[-72.50890599434746,-1.99898707385762],[-72.50912478109512,-1.9961428420242555],[-72.51284416197603,-1.9927516412648174],[-72.52159564628073,-1.9899074094314528],[-72.52640896295685,-1.9934080025362277],[-72.52794047327586,-1.9913295253481351],[-72.53472287376627,-1.9888134726077737],[-72.53811407349724,-1.9842189426793198],[-72.54095830738748,-1.9849846993814708],[-72.5428179967995,-1.9877195368126195],[-72.56015940017454,-1.987196972827519],[-72.5619500893211,-1.9903306772913538],[-72.569112842822,-1.9934643817551319],[-72.58030464638836,-1.9912260218646338],[-72.5914964478979,-1.9912260218646338],[-72.60806031581859,-1.987644644599925],[-72.61880444555572,-1.9970457590197839],[-72.62372884019447,-2.0046561853215508],[-72.62507185654022,-2.0118189377939757],[-72.62238582384879,-2.0185340195224057],[-72.6286532327764,-2.0382315929354036],[-72.62775788923159,-2.0498710672457605],[-72.61880444555572,-2.0601675262388994],[-72.60985100496515,-2.0628535589302714],[-72.5986592024272,-2.0713593287768504],[-72.59328713704446,-2.0838941466320193],[-72.5861243825151,-2.0946382784260322],[-72.58522903897028,-2.109411458228635],[-72.59552549693495,-2.11657421070106],[-72.59597316870736,-2.122841620657084],[-72.59239179349959,-2.136271784114001],[-72.59239179349959,-2.145672897505449],[-72.59686851328064,-2.1720855516184088],[-72.59328713704446,-2.180591322493399],[-72.59463015339014,-2.1859633868477317],[-72.60134523409016,-2.1895447651408517],[-72.60582195592809,-2.1953645022960586],[-72.60179290689103,-2.2119283702167536],[-72.60761264404618,-2.2137190583348456],[-72.61701375949445,-2.2235678445271105],[-72.61880444555572,-2.2307305980280034],[-72.61029867673756,-2.2352073188374675],[-72.58478136616941,-2.281765219164299],[-72.57739477729655,-2.2879067199880865],[-72.57815022283404,-2.2914321376384237],[-72.5731139120519,-2.300497498486095],[-72.57160301892009,-2.3181245867377243],[-72.56430036741182,-2.3309671814433273],[-72.56052313458235,-2.3332335211409827],[-72.55876042627142,-2.3365071225837255],[-72.55271685168736,-2.338773463309849],[-72.55095414337643,-2.3433061427052166],[-72.548184172292,-2.3453206682522136],[-72.54465875361319,-2.343557958912811],[-72.54264423012313,-2.343557958912811],[-72.54163696837804,-2.3453206682522136],[-72.5378597334917,-2.343557958912811],[-72.53181616096452,-2.344817036865493],[-72.53005345162512,-2.348342453487362],[-72.53106071439862,-2.3506087942134855],[-72.52652803397478,-2.355645104995631],[-72.52275080011691,-2.3634513878906205],[-72.52728347951228,-2.3649622810224287],[-72.52728347951228,-2.367228620720084],[-72.52023264524001,-2.3747830884359473],[-72.51620359620296,-2.3767976129544763],[-72.51519633342946,-2.3818339237366217],[-72.51242636337349,-2.3835966330760243],[-72.50814549812884,-2.3815821075290273],[-72.49904854455542,-2.3825484855986474],[-72.48095313443406,-2.391596190145094],[-72.4726014067648,-2.390900213267855],[-72.46772956451025,-2.395076076588225],[-72.45407953135572,-2.437665138045247],[-72.47235896378231,-2.4409495803005825],[-72.47696699921795,-2.443179091471677],[-72.48674057335194,-2.4521548297244635],[-72.49225654663945,-2.4523757309499388],[-72.51551233164935,-2.4351441714065345],[-72.54089563512883,-2.4367074534002313],[-72.55210358935653,-2.435688371765309],[-72.56157269205443,-2.4313412974481707],[-72.56469340728921,-2.422601598066308],[-72.57159825620278,-2.4135579013603206],[-72.57867000693898,-2.4068739269327466],[-72.58802408656868,-2.401752228682028],[-72.62154876728374,-2.3989031138035557],[-72.62720263825793,-2.401656230772005],[-72.62962101261314,-2.40536713522971],[-72.62911008134142,-2.4093955456039566],[-72.62326577675134,-2.418683546773366],[-72.62481500610647,-2.428254055960508],[-72.64728326125766,-2.4495672344087325],[-72.65093106459614,-2.4562555416646887],[-72.65279186575452,-2.4740218758911396],[-72.6552489301173,-2.479518677981673],[-72.66692247775677,-2.4884132217260344],[-72.67225554768453,-2.4900668410821822],[-72.67686409117078,-2.488331849297083],[-72.67987759950051,-2.4841228526440773],[-72.67992342278541,-2.4768431415746477],[-72.67619262516405,-2.4654847179788817],[-72.67669637996391,-2.4566028395041144],[-72.6779396373853,-2.4495075137801336],[-72.68396714564034,-2.4368313159318404],[-72.7008976204088,-2.423021133708289],[-72.70449793849934,-2.422520955831544],[-72.71644640322222,-2.429858491081575],[-72.71954388799742,-2.43457731651597],[-72.72044466583253,-2.4549989196327715],[-72.72855510134644,-2.4636145497660777],[-72.73320854354768,-2.465267263064277],[-72.73772577882175,-2.4648599607460824],[-72.74118880189292,-2.4625281977059785],[-72.74672123231767,-2.440098382650831],[-72.74955192367685,-2.437445577908818],[-72.7589965484143,-2.4342952990653544],[-72.76825162399649,-2.4365020364053294],[-72.77760591959913,-2.43619044711852],[-72.78471592839696,-2.4481472874772976],[-72.79114001128636,-2.453602212416911],[-72.81189254766525,-2.461634271354967],[-72.83090581908044,-2.4771737395644777],[-72.84440284158552,-2.4836881762713006],[-72.86118756753712,-2.4832451242626803],[-72.87218220324604,-2.488841342806211],[-72.89544474409485,-2.49028121992518],[-72.91879175298459,-2.5044506062672554],[-72.92289688517076,-2.503034604441325],[-72.92499506423218,-2.500151609580996],[-72.9253223856042,-2.494657298378229],[-72.91715955505771,-2.483385969465644],[-72.91688466265686,-2.478989969052577],[-72.9196764686044,-2.469285162756023],[-72.92515527912155,-2.4579798592448014],[-72.93966696301555,-2.446865082937734],[-72.945198100688,-2.42090695619504],[-72.95391121688766,-2.408230266751275],[-72.96154152401175,-2.38666935604067],[-72.97061261225576,-2.386676483147312],[-72.98320186968726,-2.4023005304695744],[-72.98652817469531,-2.403356646319594],[-72.99063271347018,-2.4022607575120674],[-72.99912419619324,-2.395169868489063],[-73.00231392094952,-2.389860364293156],[-73.00975991986132,-2.365642856972954],[-73.01285833640543,-2.361981949219853],[-73.0183813997757,-2.3599254560190275],[-73.02280673856848,-2.3608901680117356],[-73.02677426823101,-2.3639154900607195],[-73.03164928528759,-2.379442025605556],[-73.03064280824418,-2.395331040858366],[-73.03538043463624,-2.402477865841547],[-73.0437271075105,-2.4055519833742665],[-73.0503885251083,-2.4021681976853984],[-73.05467557746317,-2.3973633018965756],[-73.05687375918984,-2.3909999999601155],[-73.05710168262084,-2.3836733908833594],[-73.05500432322805,-2.379825477313375],[-73.05281459632738,-2.3657662453925923],[-73.05418794452828,-2.360821650085825],[-73.06130607699356,-2.358033376838307],[-73.06956134703898,-2.35835969342196],[-73.0888494337218,-2.370324950554334],[-73.10189544201626,-2.3717074940597627],[-73.10659581204965,-2.3700621989174238],[-73.10951781367783,-2.3678202898717586],[-73.11111237369386,-2.3628760133822198],[-73.10933443723457,-2.353533073841902],[-73.11021239804393,-2.3365447574092286],[-73.10806815607049,-2.332238938035289],[-73.11071624848893,-2.324501733567388],[-73.12713519446055,-2.31567485517013],[-73.13922831373753,-2.3046922645799555],[-73.15081741904709,-2.283864064656484],[-73.15537951087003,-2.271277454436074],[-73.15880609519434,-2.2416096141720914],[-73.1567535491559,-2.2359000972585363],[-73.15068745682288,-2.2321073812269105],[-73.13809854391963,-2.2325135553437008],[-73.12569335198793,-2.230499420604872],[-73.11593454628854,-2.2244215762592034],[-73.11105152383539,-2.2123630517316997],[-73.10817578463696,-2.192404809277946],[-73.10356675881121,-2.180665880462243],[-73.09152719053623,-2.1682394398796987],[-73.06547980629574,-2.1511491492575487],[-73.05991834705247,-2.1413736344525205],[-73.05814020284777,-2.130640991389953],[-73.0588199416461,-2.1270792933728444],[-73.06192444039925,-2.124842699318151],[-73.08636291785058,-2.125765648317099],[-73.09302334300139,-2.1233478653163047],[-73.09749430556121,-2.116955861605959],[-73.09726561594056,-2.107228239312178],[-73.09279401471792,-2.096768524325171],[-73.08485196301228,-2.0865356734734064],[-73.08385274265925,-2.0765339589070777],[-73.09091729841157,-2.0670833558332333],[-73.10213357685302,-2.061835382324773],[-73.10810747342799,-2.0572247798966146],[-73.11485202106309,-2.041242759501529],[-73.11621759012473,-2.0290041588027634],[-73.10736755737258,-2.005755267443078],[-73.10421598680534,-1.9893593513847918],[-73.10576447362496,-1.9693111099261955],[-73.10981674592256,-1.9552466987688604],[-73.10803809263882,-1.9479389770390299],[-73.10024167662135,-1.9327743247054059],[-73.10014238975214,-1.9237776154812423],[-73.10374323440521,-1.9129550073524229],[-73.10593238434967,-1.9112659057009864],[-73.11395895448999,-1.908848012656847],[-73.13333849645221,-1.9075751504891514],[-73.1381681561084,-1.9048817603199382],[-73.14391325919001,-1.895977944137826],[-73.14437058906611,-1.8852913218210574],[-73.13724511249274,-1.8581617558548942],[-73.1386569789513,-1.8435026344413927],[-73.14070896448862,-1.8398950360062827],[-73.14341239019984,-1.8389000888319629],[-73.13968955786584,-1.8260770016240713],[-73.14571615594923,-1.796697337124499],[-73.14571615594923,-1.7838908170971877],[-73.1524960778932,-1.7718376209303415],[-73.15324940278214,-1.7560178013471273],[-73.1668092476985,-1.7417046315417792],[-73.1668092476985,-1.7319114090134917],[-73.1773557940873,-1.7153382645412876],[-73.17886244386528,-1.6874652498196383],[-73.18488904092027,-1.6678788068199424],[-73.17886244386528,-1.6633588574860596],[-73.18262906831018,-1.6460323901816878],[-73.1743424945314,-1.6324725442369186],[-73.16530259792052,-1.6339791940148984],[-73.1585226759766,-1.6392524672093032],[-73.13742958319892,-1.6309658954874067],[-73.11708981633865,-1.6271992710425138],[-73.10352997039388,-1.6302125695700056],[-73.09825669719947,-1.63849914232037],[-73.06812370678244,-1.6603455589585678],[-73.06285043358804,-1.675412053652849],[-73.05682383550464,-1.675412053652849],[-73.05079723844966,-1.6852052761811365],[-73.03347077011694,-1.694245172792023],[-73.02518419736657,-1.7160915904586886],[-73.01991092417217,-1.7183515640971905],[-72.9988178324229,-1.7477312285967628],[-72.9897779347836,-1.7477312285967628],[-72.98299801078275,-1.7560178013471273],[-72.97621808883883,-1.7590310998745622],[-72.95587832095015,-1.763551049208445],[-72.9385518515889,-1.777110894124803],[-72.9325252535055,-1.777110894124803],[-72.92348535689462,-1.7846441409577096],[-72.9129388105058,-1.7816308424302179],[-72.89184571772813,-1.7899174151805823],[-72.87979252156128,-1.7884107664310704],[-72.87602589917327,-1.7838908170971877],[-72.86773932642296,-1.7838908170971877],[-72.86397270300648,-1.7778642190137361],[-72.8571927800341,-1.7763575702642243],[-72.85191950683969,-1.779370868791716],[-72.8413729614793,-1.777110894124803],[-72.82856644145193,-1.7891640902915924],[-72.82103319256214,-1.793684037568596],[-72.81123997106226,-1.7891640902915924],[-72.79391350272954,-1.7929307137080173],[-72.79165352806257,-1.7997106356519907],[-72.78638025486816,-1.8049839098748635],[-72.77206708506287,-1.8019706113473717],[-72.76693116550899,-1.7973125987475669],[-72.76361766975253,-1.796760349797637],[-72.76223704737771,-1.7931707295661568],[-72.75864742611782,-1.7926184795878157],[-72.75340105697967,-1.7948274784728824],[-72.74870693781992,-1.7945513529694495],[-72.74069932187524,-1.8058724636421744],[-72.73379620485889,-1.8047679657423146],[-72.7235795931145,-1.8061485891455504],[-72.72026609735798,-1.808357585973738],[-72.71446747926996,-1.8064247136205154],[-72.69955674733734,-1.807529211520432],[-72.69734774948068,-1.8061485891455504],[-72.69734774948068,-1.8036634668139868],[-72.68823563460774,-1.8039395923174197],[-72.68630276328298,-1.802282844439162],[-72.6799518952165,-1.7876482369815108],[-72.67691452393501,-1.7859914891032531],[-72.66062316757069,-1.7904094827596282],[-72.6520633037045,-1.7951036029478473],[-72.64654081009144,-1.8006260955324933],[-72.64350343880989,-1.7997977221075985],[-72.63770482072186,-1.7928946050911918],[-72.63024945475553,-1.7937229785160866],[-72.6180999696295,-1.8009022210358694],[-72.61147297708806,-1.8124994572120272],[-72.59490549727724,-1.8036634668139868],[-72.59269650044905,-1.7995215966041656],[-72.57778576748802,-1.7870959870031697],[-72.565084033412,-1.780192871015231],[-72.56287503555541,-1.775498750827012],[-72.558733166374,-1.7735658784737893],[-72.55652416748893,-1.7705285071922958],[-72.55486741961073,-1.7605880188943956],[-72.54962105150105,-1.7589312710161948],[-72.55210617280414,-1.747610159315002],[-72.55127780040772,-1.7396025443987924],[-72.5534867972359,-1.735460674188971],[-72.56149441318058,-1.7296620561008922],[-72.56270210397429,-1.7270453898005371]]]}}]}