{"type":"FeatureCollection","features":[{"type":"Feature","properties":{"code":"913019"},"geometry":{"type":"Polygon","coordinates":[[[-72.23763190626784,-2.0851148657355907],[-72.23541415533697,-2.085758516485953],[-72.22694491165487,-2.0832106859002124],[-72.22708991073716,-2.0850550998555377],[-72.23315547753606,-2.0907264101294913],[-72.23316317954209,-2.09469911697164],[-72.22864623120347,-2.0976821998579],[-72.2256857483415,-2.0968330015004426],[-72.22102461030488,-2.087755381618024],[-72.21708020003024,-2.088042078482033],[-72.21440198453041,-2.096415772655064],[-72.2118688041084,-2.0969851770546484],[-72.20974845594003,-2.090459660936574],[-72.20579574819106,-2.0863475487109895],[-72.20071389077515,-2.08464843517163],[-72.19845651601088,-2.0856433298953903],[-72.1960677196625,-2.098982937960102],[-72.20256070100152,-2.1049377497272417],[-72.20256848116912,-2.112458264441784],[-72.20609278501621,-2.115151670037619],[-72.20652060167737,-2.1179889814812896],[-72.19171114973557,-2.1123239344222497],[-72.18775922668829,-2.112326725615219],[-72.1867668989571,-2.1073615367754996],[-72.18450943574675,-2.1056601143826583],[-72.17957257946995,-2.1056636892488427],[-72.1807016242359,-2.1025411135615286],[-72.18605739908912,-2.0987064093072263],[-72.18394403815921,-2.097714607110163],[-72.17477303261074,-2.1026871976507095],[-72.17110323088679,-2.0988587833508063],[-72.16885256773838,-2.099002282963909],[-72.1623676442465,-2.1078042524833904],[-72.15714889701758,-2.1042605532388734],[-72.15334155036265,-2.112776859479027],[-72.14813097205263,-2.119023847651988],[-72.14982482922227,-2.1205834509067927],[-72.15871369596397,-2.1212868767931923],[-72.15871278270703,-2.1256855737825617],[-72.1503966124094,-2.133069862029515],[-72.14362939378748,-2.133926032198815],[-72.1398143944918,-2.13137472959113],[-72.13219217915349,-2.119034911636618],[-72.12965180271914,-2.118327005854553],[-72.12782083976356,-2.1196054010430316],[-72.1262718778035,-2.1261338039992665],[-72.12755359897506,-2.1383358024287986],[-72.12275525127984,-2.1363527050567086],[-72.12190006430154,-2.123440493020155],[-72.1204893095894,-2.1218805874032682],[-72.1175280173432,-2.1218827934124533],[-72.11245495002544,-2.125858980504063],[-72.1068163473089,-2.137356768345512],[-72.10216270558976,-2.1373598711566046],[-72.10216271381734,-2.132109449954953],[-72.10596145343675,-2.1217485569811743],[-72.10735842907604,-2.1065645442171785],[-72.10284859550279,-2.106567431055282],[-72.09932377537757,-2.1118203338887724],[-72.09537215366396,-2.1108294284935027],[-72.09495224572578,-2.1089849106655265],[-72.09706571875591,-2.103591517441828],[-72.1004462298838,-2.0997578292887056],[-72.10481806909678,-2.0987620377630947],[-72.10453545617798,-2.0966336327759905],[-72.09579150212943,-2.0953621219817364],[-72.0856366812684,-2.0997675994926226],[-72.07534454893295,-2.101760777658285],[-72.07210213398116,-2.108290369494057],[-72.07465027412809,-2.129147683596784],[-72.07324579291526,-2.140074894614145],[-72.08101252499631,-2.147732516143094],[-72.07297865599946,-2.158947708549249],[-72.07806040028674,-2.16135642582924],[-72.08018123079466,-2.170294733916535],[-72.08328654818808,-2.17185354424214],[-72.08751367422582,-2.1700060367317633],[-72.09215935374294,-2.1580833447783903],[-72.09583006872384,-2.1583648541783873],[-72.09879743700844,-2.162336164395583],[-72.0942887933432,-2.170001557864623],[-72.09302233117324,-2.178374365520142],[-72.0894973989478,-2.1850460613725318],[-72.08047900912686,-2.1914375467478067],[-72.07483323713751,-2.1908735283016654],[-72.06820254837368,-2.1844925104143726],[-72.05466033096212,-2.1827985761115087],[-72.0507001361517,-2.1731519652633438],[-72.03729493093778,-2.1640788252765333],[-72.03334322386348,-2.1557094125097365],[-72.0240272459722,-2.1514580851626306],[-72.01598590636888,-2.149760271574621],[-72.01104936685238,-2.141532961795974],[-72.00088617138397,-2.1378498222009625],[-71.99471426671397,-2.138937715896361],[-71.97620516558942,-2.1530790884926887],[-71.96483649459242,-2.1565805496030066],[-71.96105206883595,-2.162460844538998],[-71.95505517422941,-2.1669122409799115],[-71.94984432029673,-2.1632616279364356],[-71.94794507184326,-2.163580326846386],[-71.94969180844191,-2.1719991285082187],[-71.94874594985743,-2.1834378251278963],[-71.94338248019722,-2.1845528172552235],[-71.93485999507442,-2.1929774018493617],[-71.91796047951107,-2.191239461519558],[-71.91322153465569,-2.1883827567353364],[-71.91005544556538,-2.1840949361339312],[-71.90942294313197,-2.178852839145975],[-71.91194774071903,-2.1705905376391],[-71.91605276183338,-2.1699529505858663],[-71.92536894849849,-2.172648373985851],[-71.92505584123057,-2.1701067737049584],[-71.92126413307261,-2.1675671634602622],[-71.91620507725577,-2.1662989436820794],[-71.90666087974205,-2.170044424377238],[-71.89821413529694,-2.171240618212096],[-71.8954140154201,-2.1701860018312686],[-71.89357640049832,-2.161252794818836],[-71.87167113740759,-2.1555199435729264],[-71.85903614410887,-2.1561619076775287],[-71.85509190661253,-2.160612399089075],[-71.85194128426929,-2.1728466998696376],[-71.84705022350943,-2.1782507960946305],[-71.84278558091705,-2.1790469874962355],[-71.83914588581933,-2.175712779935907],[-71.8369332195083,-2.1707891741124854],[-71.83440027974177,-2.1569689470908315],[-71.82903631025852,-2.159513442437458],[-71.8244593481852,-2.1650761419824107],[-71.81561607847101,-2.162856222066239],[-71.81467014995246,-2.1647631139045416],[-71.81071782272727,-2.1647650093240713],[-71.80424064443599,-2.1555536867720093],[-71.80060934245773,-2.1534901991335573],[-71.79097274349749,-2.1541302585626454],[-71.78592198412639,-2.1604872438051643],[-71.78418950791178,-2.175421654598324],[-71.77740697783759,-2.1774903379283614],[-71.77503401127643,-2.1763792230293006],[-71.77124239876366,-2.1697085175670736],[-71.7677629103278,-2.168280102440008],[-71.75893590028983,-2.178442694212663],[-71.76209469977954,-2.1818237051635947],[-71.78283921533523,-2.1906855506065313],[-71.78790574381543,-2.2035799695590867],[-71.79415372957766,-2.2076011870063894],[-71.80126474727763,-2.2074144928075157],[-71.80736815047675,-2.2001853101474467],[-71.81685174495817,-2.196292729261984],[-71.82059056443114,-2.19647374440126],[-71.82747976559176,-2.200540163954088],[-71.83401071085791,-2.2277935996509655],[-71.85149046854809,-2.26258681793297],[-71.8550149009505,-2.28991714822007],[-71.8598376340463,-2.3010463648885775],[-71.86820735637428,-2.313102587761705],[-71.87801913714787,-2.318579209753125],[-71.89745105665912,-2.314913363419066],[-71.9099866335049,-2.314357891330303],[-71.91976800734699,-2.3282903152600625],[-71.92111082828859,-2.3358585219395422],[-71.9047990532265,-2.3693228947852845],[-71.90435551065076,-2.3764880918656104],[-71.90883433153988,-2.3835122020589665],[-71.91370988441503,-2.384740018444404],[-71.91872264489194,-2.3828646370564],[-71.92213355472376,-2.37916534062947],[-71.92544447937394,-2.3688490481223425],[-71.93441648643727,-2.361539567755756],[-71.94325974689548,-2.3619879882343184],[-71.94804330044508,-2.3639461993543023],[-71.95535270265003,-2.370191817641853],[-71.96031926960279,-2.372149528938735],[-71.9661102381354,-2.3711405445524747],[-71.97568492691289,-2.3738241717168194],[-71.98822071870313,-2.374634302628351],[-71.99518643495873,-2.3707033268982514],[-72.02198992602524,-2.3465381817004527],[-72.03042009403379,-2.3425602030619643],[-72.03889745418422,-2.3447427113246704],[-72.05159291784622,-2.35650426690421],[-72.07096374787187,-2.3859645263302127],[-72.08643679206443,-2.4012361685674364],[-72.10985227671398,-2.4182336360815953],[-72.11665776882427,-2.426851246995227],[-72.11939716945483,-2.458699689817877],[-72.12826979400381,-2.4756201084754252],[-72.13475588992014,-2.483142423992774],[-72.13854669304868,-2.4848723332149234],[-72.1477021886555,-2.4820335408140295],[-72.14970216482618,-2.4778333589418367],[-72.14996109065692,-2.4712164574784197],[-72.14627602890283,-2.451416145743167],[-72.14790869168576,-2.446303648967671],[-72.15337207042285,-2.44091355498756],[-72.15975018296007,-2.4376211731560034],[-72.16891295993997,-2.440577596755304],[-72.17616906928203,-2.447095013888543],[-72.1900391870787,-2.455248160620272],[-72.20207945263775,-2.45715139120324],[-72.21160055441777,-2.4531710080661355],[-72.218422400821,-2.4442199215804976],[-72.22374716504703,-2.440700331085509],[-72.22908103715997,-2.440420638943408],[-72.23960896051165,-2.442690475345671],[-72.24398889151041,-2.4451496840111417],[-72.24504131936555,-2.4476578023173943],[-72.24169207700402,-2.4588410955219615],[-72.24234049355698,-2.4644074933461866],[-72.24475915381925,-2.46677750313512],[-72.26147539475505,-2.4628343444749703],[-72.26626734142411,-2.4638783524712267],[-72.268181987719,-2.4659748592851543],[-72.26888387916915,-2.476058368970314],[-72.27117305029077,-2.4804362924492693],[-72.27486585827387,-2.4827133906841254],[-72.2915971792624,-2.4837434252318644],[-72.30896981746514,-2.489244077811179],[-72.32889103393137,-2.4901784332661236],[-72.33879432963403,-2.494136267800968],[-72.35164313304705,-2.494895991659291],[-72.35719671750593,-2.4892771144702124],[-72.35873877758826,-2.4844386040377344],[-72.35628954481524,-2.468882298167273],[-72.35751059096356,-2.4619451890687856],[-72.37688885560016,-2.4419821386462672],[-72.386876508272,-2.42440314448055],[-72.39011122018934,-2.424034047773432],[-72.39327080335221,-2.428045459021291],[-72.39633787296833,-2.4387642808449073],[-72.40072499792251,-2.4440972911230006],[-72.41085670042412,-2.4489668286378787],[-72.41786813506343,-2.4479087474342123],[-72.44232121845545,-2.438296197573834],[-72.45407953135572,-2.437665138045247],[-72.46772956451025,-2.395076076588225],[-72.4726014067648,-2.390900213267855],[-72.48095313443406,-2.391596190145094],[-72.49904854455542,-2.3825484855986474],[-72.50814549812884,-2.3815821075290273],[-72.51242636337349,-2.3835966330760243],[-72.51519633342946,-2.3818339237366217],[-72.51620359620296,-2.3767976129544763],[-72.52023264524001,-2.3747830884359473],[-72.52728347951228,-2.367228620720084],[-72.52728347951228,-2.3649622810224287],[-72.52275080011691,-2.3634513878906205],[-72.52652803397478,-2.355645104995631],[-72.53106071439862,-2.3506087942134855],[-72.53005345162512,-2.348342453487362],[-72.53181616096452,-2.344817036865493],[-72.5378597334917,-2.343557958912811],[-72.54163696837804,-2.3453206682522136],[-72.54264423012313,-2.343557958912811],[-72.54465875361319,-2.343557958912811],[-72.548184172292,-2.3453206682522136],[-72.55095414337643,-2.3433061427052166],[-72.55271685168736,-2.338773463309849],[-72.55876042627142,-2.3365071225837255],[-72.56052313458235,-2.3332335211409827],[-72.56430036741182,-2.3309671814433273],[-72.56832941644893,-2.324671791680089],[-72.57160301892009,-2.3181245867377243],[-72.5731139120519,-2.300497498486095],[-72.57815022283404,-2.2914321376384237],[-72.57739477729655,-2.2879067199880865],[-72.58478136616941,-2.281765219164299],[-72.61029867673756,-2.2352073188374675],[-72.61880444555572,-2.2307305980280034],[-72.61701375949445,-2.2235678445271105],[-72.60761264404618,-2.2137190583348456],[-72.60179290689103,-2.2119283702167536],[-72.60582195592809,-2.1953645022960586],[-72.60134523409016,-2.1895447651408517],[-72.59463015339014,-2.1859633868477317],[-72.59328713704446,-2.180591322493399],[-72.59686851328064,-2.1720855516184088],[-72.59239179349959,-2.145672897505449],[-72.59239179349959,-2.136271784114001],[-72.59597316870736,-2.122841620657084],[-72.59552549693495,-2.11657421070106],[-72.58522903897028,-2.109411458228635],[-72.5861243825151,-2.0946382784260322],[-72.59328713704446,-2.0838941466320193],[-72.5986592024272,-2.0713593287768504],[-72.60985100496515,-2.0628535589302714],[-72.61880444555572,-2.0601675262388994],[-72.62775788923159,-2.0498710672457605],[-72.6286532327764,-2.0382315929354036],[-72.62238582384879,-2.0185340195224057],[-72.62507185654022,-2.0118189377939757],[-72.62372884019447,-2.0046561853215508],[-72.61880444555572,-1.9970457590197839],[-72.60806031581859,-1.987644644599925],[-72.5914964478979,-1.9912260218646338],[-72.58030464638836,-1.9912260218646338],[-72.569112842822,-1.9934643817551319],[-72.5619500893211,-1.9903306772913538],[-72.56015940017454,-1.987196972827519],[-72.5428179967995,-1.9877195368126195],[-72.54095830738748,-1.9849846993814708],[-72.53811407349724,-1.9842189426793198],[-72.53472287376627,-1.9888134726077737],[-72.52794047327586,-1.9913295253481351],[-72.52640896295685,-1.9934080025362277],[-72.52159564628073,-1.9899074094314528],[-72.51284416197603,-1.9927516412648174],[-72.50912478109512,-1.9961428420242555],[-72.50890599434746,-1.99898707385762],[-72.5010296580619,-2.000190403026636],[-72.49238756610254,-1.9970179900433322],[-72.48593334573366,-1.9996434361574984],[-72.48155760358128,-2.002050093467119],[-72.4776194359527,-2.0071915912931786],[-72.47838518956951,-2.0117861201931646],[-72.47346248054805,-2.0118955135670262],[-72.47127460895763,-2.0164900434954802],[-72.46788340922666,-2.0175839792906913],[-72.45442800059124,-2.0167088312715578],[-72.45038043856039,-2.0202094254048575],[-72.4477549945031,-2.018021552786024],[-72.444801367239,-2.018130947188297],[-72.44381682481765,-2.0163806501216186],[-72.43440898026995,-2.0186779150858456],[-72.42478234588924,-2.017365191514557],[-72.4237978044963,-2.0198812432264504],[-72.41526510693927,-2.024147593033433],[-72.41438995789179,-2.026116676847721],[-72.40531029243715,-2.026882431492993],[-72.40246605957532,-2.0290703030833583],[-72.39644941475859,-2.022616082714478],[-72.38802610954696,-2.0267730381191313],[-72.38594763338727,-2.024256987435706],[-72.38244703925403,-2.024256987435706],[-72.37839947722313,-2.0286327285596144],[-72.37894644512073,-2.0320239293190525],[-72.37708675365184,-2.032680289561995],[-72.37194525685425,-2.030383024597768],[-72.36767890910414,-2.0354151290500226],[-72.35520804186166,-2.0335554386095396],[-72.35323895804737,-2.0366184582190385],[-72.35116048085922,-2.0366184582190385],[-72.34755049335217,-2.0338836187310676],[-72.34558140850942,-2.039134509930932],[-72.34328414457366,-2.039134509930932],[-72.34032241523937,-2.0463524589133613],[-72.34187823485416,-2.0507606144885813],[-72.34524917735285,-2.0538722537181116],[-72.3493980286305,-2.0549094667946406],[-72.34836081555397,-2.0595769256389644],[-72.35069454497614,-2.0603548354463896],[-72.34862011882308,-2.067615325953568],[-72.34447126651702,-2.0715048749905236],[-72.33876659562458,-2.0694304488374655],[-72.3320247106272,-2.0717641782596274],[-72.32917237569524,-2.0790246687668628],[-72.32683864627307,-2.0785060632570094],[-72.32476422012002,-2.082395612293965],[-72.32346770274592,-2.080839792679228],[-72.31594790896958,-2.0816177024865965],[-72.31257696749935,-2.08524794722598],[-72.30816881192413,-2.0847293406877156],[-72.30168623019586,-2.0893967985036284],[-72.29624086154416,-2.0883595864555105],[-72.29390713315041,-2.0925084377331586],[-72.29131410045909,-2.091989832223362],[-72.28872106776782,-2.0938049551072595],[-72.28638733937407,-2.0904340126085685],[-72.27549660207063,-2.09406425837642],[-72.26875471707325,-2.0938049551072595],[-72.27056983995715,-2.091211923444405],[-72.2627907429117,-2.0883595864555105],[-72.25941980144142,-2.0951014714528924],[-72.25086279253168,-2.096397986770114],[-72.24334299772693,-2.096397986770114],[-72.2438616052936,-2.0938049551072595],[-72.23971275298754,-2.0935456518381557],[-72.23763190626784,-2.0851148657355907]]]}}]}