{"type":"FeatureCollection","features":[{"type":"Feature","properties":{"code":"915018"},"geometry":{"type":"Polygon","coordinates":[[[-70.715738565636,-1.4261103530502055],[-70.72262814732034,-1.4328073814987192],[-70.71834782509336,-1.4391482716158635],[-70.71929364768232,-1.4426183693431085],[-70.72963996351189,-1.4395091819204708],[-70.73321036523794,-1.4409453813290156],[-70.73605644518256,-1.4469281862731123],[-70.74651683277096,-1.4594934038607335],[-70.75186428443891,-1.461887109993711],[-70.76101976153382,-1.458298924439589],[-70.76079178668067,-1.4392742280564335],[-70.76364507189356,-1.4334120357656275],[-70.77244213060004,-1.4341307463647581],[-70.77707346540092,-1.4379607547505202],[-70.78825060749074,-1.4376030655278669],[-70.78920393565323,-1.4359279671497234],[-70.78718288463847,-1.4275519713224298],[-70.7883727453243,-1.4131939789068042],[-70.79301118049233,-1.413673487145843],[-70.79253105930155,-1.4209718870727102],[-70.79467441372907,-1.4269546837892335],[-70.7976426942422,-1.4269549954073568],[-70.80632477410353,-1.4188199070977703],[-70.81429048615774,-1.4256409091497062],[-70.81750209719922,-1.426478924223204],[-70.82142412033716,-1.4221718275236412],[-70.82546814555417,-1.411523429329975],[-70.83973556920779,-1.4141571574917293],[-70.84508351967042,-1.419063470054141],[-70.83985004822989,-1.4269598455422283],[-70.84116167753837,-1.432105153747841],[-70.84900531243721,-1.4366525717529726],[-70.85221770612344,-1.435456575379078],[-70.85007326668904,-1.4227732607085954],[-70.85566603892164,-1.4194233724851415],[-70.8594652433971,-1.42038098411075],[-70.86636214039311,-1.4285180963951234],[-70.87183300310647,-1.4298348092949595],[-70.87634973032993,-1.427801100209706],[-70.88050746632251,-1.4233743041138496],[-70.88051588412452,-1.4090162181099686],[-70.87777590653769,-1.3984864147653298],[-70.88657299918276,-1.391547524404416],[-70.88812173797078,-1.3940603180103608],[-70.88360539127109,-1.4033928147453594],[-70.88562793249906,-1.4087772306943407],[-70.8882370181496,-1.4099741228416747],[-70.90476212818555,-1.402437348450917],[-70.91214053991195,-1.402318156076774],[-70.9147495227183,-1.403754061350753],[-70.9186717165777,-1.4142837680217895],[-70.91772537565367,-1.4224202694113615],[-70.90916481450347,-1.426607258422905],[-70.90678393819093,-1.4298379635282004],[-70.90678473934764,-1.4333075511479478],[-70.91106435709156,-1.4358206656280004],[-70.92235658909834,-1.4352231806338978],[-70.92580448172316,-1.443958088502086],[-70.92913858541084,-1.4416849950223423],[-70.93329742389375,-1.4324717945341945],[-70.93936321592156,-1.428763002497476],[-70.94922729916783,-1.4319943195260407],[-70.95398064221848,-1.4318749204349501],[-70.95112717599972,-1.4170376264972901],[-70.95945133421037,-1.4170381355763197],[-70.98275204673166,-1.405791863637262],[-70.98643765047495,-1.4074673764776549],[-70.98870411050041,-1.411894472878771],[-70.9922665736787,-1.4402525885098498],[-70.99463954126827,-1.4446795902941858],[-71.00688450082714,-1.4477912151255623],[-71.00890626043878,-1.446474907432048],[-71.00796024553108,-1.4426461064377918],[-71.00094174549162,-1.4339112067971769],[-71.00142217521517,-1.4251766012910707],[-71.0089144098173,-1.415006408299746],[-71.01747445468936,-1.4133313335758544],[-71.02216752586617,-1.4028620304192714],[-71.0262112487211,-1.4034600234639925],[-71.03143659649419,-1.4106394367051962],[-71.03417567727911,-1.410520045841679],[-71.04035576937997,-1.4063322649293468],[-71.05307435757197,-1.404298270965512],[-71.05914022673295,-1.4051358808326881],[-71.0598575417356,-1.4090841930182592],[-71.05212880032116,-1.419015381110455],[-71.05296022307812,-1.4214085791928142],[-71.0572405483905,-1.423083790699593],[-71.06448816074044,-1.419135494969055],[-71.07281245779086,-1.3952048048407164],[-71.07507103994658,-1.3937689941834606],[-71.08505842419493,-1.3937690116669614],[-71.09076508923738,-1.3958033326755412],[-71.09409209152943,-1.4002303354883452],[-71.09338226461682,-1.402742828789144],[-71.08720246767894,-1.4083667227208139],[-71.08648454075296,-1.413631508179094],[-71.08862829215934,-1.4161441310636178],[-71.09195489027348,-1.416383540140714],[-71.0939770448071,-1.4148279436979578],[-71.09837221732397,-1.4021447400992315],[-71.10420028794886,-1.4041788543908638],[-71.1143025924211,-1.3985550715310069],[-71.12880629662959,-1.4173400934989218],[-71.14117386813399,-1.420570297752704],[-71.14937550901578,-1.4200916163814554],[-71.17244042332175,-1.4153046597155026],[-71.18397639929083,-1.3937666513913882],[-71.19134633150861,-1.3864677691249767],[-71.19788472989768,-1.38682638805966],[-71.20513292948834,-1.3940050001442046],[-71.22213944318293,-1.3967561383892075],[-71.23045558057032,-1.4013024436195565],[-71.23081389714298,-1.4046524336587822],[-71.22725169004684,-1.4059688287698577],[-71.21535631969743,-1.406568123822808],[-71.21215182650661,-1.4024999116946333],[-71.20787190742908,-1.4008251074511122],[-71.20596505055778,-1.4034573001482045],[-71.21856880080128,-1.4169777156067767],[-71.232836517561,-1.424036155211411],[-71.23527819230992,-1.4281638545118085],[-71.23361403553179,-1.4294801539777495],[-71.22802216832861,-1.4281643461073372],[-71.21399075063573,-1.430558423508046],[-71.20662121436828,-1.4335501062306548],[-71.20591148104387,-1.443122407993087],[-71.2018671380381,-1.4556860140112349],[-71.20210453136781,-1.4631044146681234],[-71.2147087125287,-1.4619072294146918],[-71.23813101986588,-1.465136572862093],[-71.24253304283837,-1.4688451838929382],[-71.2540612561233,-1.4955267088757864],[-71.25953171671563,-1.5007910202220955],[-71.26987842746706,-1.5021062326243282],[-71.2730897186629,-1.5000720411994735],[-71.27237279961065,-1.495644831669722],[-71.26285833951238,-1.4873898290193779],[-71.26048587277432,-1.4773392078975007],[-71.26083689254727,-1.4676474134557225],[-71.2681538342643,-1.461364924475447],[-71.27516564942738,-1.4613644236239907],[-71.28015548077832,-1.4679448452027941],[-71.28693748428992,-1.4715336437086535],[-71.29418640687567,-1.4722509576828315],[-71.30227304320124,-1.4759595676852655],[-71.31428240200569,-1.473086586769739],[-71.32450572330907,-1.4684191063280991],[-71.33354009924051,-1.4680590311187416],[-71.33924706355975,-1.4711692346425593],[-71.3398421687379,-1.4753571379395112],[-71.33526352618946,-1.4835538320128308],[-71.33336425099645,-1.496954926541946],[-71.32349885134374,-1.5031778152213633],[-71.31874567901457,-1.5098788144863988],[-71.31708270391687,-1.524237117491623],[-71.31981418451164,-1.5308178218921853],[-71.32362089456058,-1.5291423347628097],[-71.32658890767863,-1.5190909392237018],[-71.33730944597278,-1.517369493055071],[-71.34594295866458,-1.509311546161939],[-71.35111192413342,-1.506669630569263],[-71.3528349119374,-1.5082777526567952],[-71.35765927922841,-1.5087372165511397],[-71.36064579197051,-1.506784497314186],[-71.36099039014834,-1.500466872623747],[-71.36834180731552,-1.4990884819691814],[-71.37086885616327,-1.4961019692270838],[-71.395565022229,-1.4931154564849862],[-71.39659881470567,-1.4954127738998295],[-71.3931528390977,-1.4993182144305592],[-71.39545015651248,-1.5015006661288908],[-71.40475429394508,-1.5019601289947673],[-71.413024636844,-1.5064399001647644],[-71.41968685868386,-1.5065547648528081],[-71.42577475091298,-1.5024195928891118],[-71.42864639793856,-1.504027714976644],[-71.4362275465387,-1.5029939224999112],[-71.44013298706943,-1.4998925440413586],[-71.44702494034226,-1.4990884819691814],[-71.44759926995306,-1.4928857240236084],[-71.46494401885161,-1.4855343068564366],[-71.47103191108067,-1.4773788296739667],[-71.47413328851081,-1.477034231496134],[-71.47539681447734,-1.4796761470887532],[-71.47884279214219,-1.4786423535836093],[-71.48045091320125,-1.4738179873210697],[-71.4833225612553,-1.4724395966665043],[-71.48929558673944,-1.47175040133925],[-71.49205236804858,-1.4731287909653474],[-71.49618754104074,-1.46991254679034],[-71.49607267532429,-1.4639395213062016],[-71.49745106495038,-1.4618719342959139],[-71.50560654316132,-1.4571624327213613],[-71.50836332447045,-1.4533718589355544],[-71.51261336317907,-1.4524529321753334],[-71.51709313229219,-1.4536015913969322],[-71.52318102349278,-1.4616422018344792],[-71.52754592791791,-1.4638246545612787],[-71.52995811207762,-1.4633651906669343],[-71.53248516092538,-1.4587705558373614],[-71.53650546717256,-1.4565881031105619],[-71.5411001030306,-1.4616422018344792],[-71.54385688433973,-1.4607232761027262],[-71.54649879993241,-1.4541759199793205],[-71.55143803293987,-1.4523380664588217],[-71.55855971764561,-1.4526826636082433],[-71.56407328026387,-1.447628564884326],[-71.57001713397602,-1.445762112434295],[-71.57231318434964,-1.4495082986410353],[-71.57605937055632,-1.450716746368471],[-71.58367259010794,-1.4469705591333195],[-71.588989759286,-1.4395990297442722],[-71.59636128867504,-1.4234058330761172],[-71.59914071834532,-1.4211097827025014],[-71.60832491778285,-1.4194179567068659],[-71.61086265831904,-1.4230432988607618],[-71.62173868580919,-1.4212306267553458],[-71.62693500990588,-1.414463321744222],[-71.63732765809937,-1.4086627742980227],[-71.64433665430147,-1.3968199892429993],[-71.65255409617413,-1.393073802007848],[-71.65847548870164,-1.384493823862897],[-71.66040900485984,-1.3778473629046175],[-71.66802222441146,-1.3641919067726462],[-71.6732185485082,-1.3626209248297982],[-71.67563544293466,-1.359962341269238],[-71.68119430124676,-1.3589955826759024],[-71.6877199181522,-1.3496905381570627],[-71.70016692655673,-1.3493280029132393],[-71.7040339588732,-1.3477570209703913],[-71.71418491690406,-1.3384519754231405],[-71.71696434657434,-1.330717911818681],[-71.72457756612596,-1.325763276856037],[-71.72481925526006,-1.3237089156165212],[-71.72675277141832,-1.325521587721937],[-71.72759868390193,-1.3235880715637336],[-71.72590685790624,-1.3215337113526289],[-71.72771952898319,-1.315854007959274],[-71.7333992323766,-1.312712044073578],[-71.73352007745785,-1.3086033236514822],[-71.73158656129965,-1.307757410139402],[-71.7317074063809,-1.3060655831152985],[-71.74064991668439,-1.2988148977790956],[-71.74959242801629,-1.2938602638449197],[-71.75285523698324,-1.294706178385411],[-71.75454706297887,-1.298089830376739],[-71.75672226827123,-1.2979689852954834],[-71.75756818178326,-1.3000233455065313],[-71.76119352393715,-1.3015943284777904],[-71.76941096683828,-1.2992982781041746],[-71.77327799915474,-1.290839145040536],[-71.77690334233705,-1.2890264739635882],[-71.77871601238559,-1.2777879132864882],[-71.78427487069769,-1.2744042602667491],[-71.7846374049131,-1.2693287802228497],[-71.79237146851756,-1.2653409038535415],[-71.80203904930863,-1.264978368609718],[-71.80469763286919,-1.2628031643458257],[-71.80856466518566,-1.2538606530139305],[-71.81847393408242,-1.2499936206974667],[-71.82367025817916,-1.2408094202314714],[-71.82922911649126,-1.2394801274227234],[-71.83370037215724,-1.2327128224116564],[-71.83962176468475,-1.2306584611721405],[-71.84385133121657,-1.2266705848028323],[-71.85049779217485,-1.2113233016467575],[-71.85666087383646,-1.209148096354454],[-71.85883608015723,-1.2104773891631453],[-71.86632845462759,-1.209631474622654],[-71.87116224450892,-1.210960767431402],[-71.88107151443415,-1.2054019091193027],[-71.89098078333097,-1.2099940088380663],[-71.89400190110689,-1.2092689414357096],[-71.8958145732123,-1.207577115440074],[-71.89641879656176,-1.2033475478797868],[-71.90366948189802,-1.1969427760556073],[-71.90499877264983,-1.1893295575324032],[-71.9192584541882,-1.1774867735058479],[-71.92554237990265,-1.168423416064229],[-71.93508911458406,-1.1666107449872811],[-71.9343640471817,-1.1449795350883392],[-71.93859361268511,-1.1388164534267275],[-71.94294402429824,-1.1361578678092883],[-71.94318571446075,-1.1328950608992159],[-71.9464485223993,-1.1314449240376803],[-71.95221829884537,-1.1323255238305592],[-71.95515158145952,-1.121849515228746],[-71.96185622655332,-1.117240070826881],[-71.96981799350209,-1.1147258291738353],[-71.97652263859584,-1.1164019899330242],[-71.97987496217121,-1.1101163847719704],[-71.97987496217121,-1.1034117386497542],[-71.98197016389156,-1.1004784570639572],[-71.98197016389156,-1.0962880536232547],[-71.97945592223846,-1.0904214894233064],[-71.97526551776934,-1.086231084954136],[-71.97526551776934,-1.0669552285097552],[-71.9731703170774,-1.0636029059628527],[-71.97442743687549,-1.0589934625894557],[-71.9702370344632,-1.0556411400425532],[-71.96185622655332,-1.0334320009839644],[-71.96185622655332,-1.0258892749963593],[-71.96478950916753,-1.0242131132087025],[-71.96604662999403,-1.020022708739532],[-71.96478950916753,-1.016251347288346],[-71.96562759006133,-1.0108038219926812],[-71.96311334840829,-1.008708621300741],[-71.96059910572677,-1.0020039741501137],[-71.95598966235337,-1.000327813390868],[-71.95598966235337,-0.9948802891236141],[-71.95389445960456,-0.9915279655483005],[-71.94844693636577,-0.9881756430013979],[-71.94496366326138,-0.9883164141564862],[-71.94496366326138,-0.9851343266143999],[-71.93329600756914,-0.9854878917825545],[-71.93064426829352,-0.9812451077074797],[-71.92905322452248,-0.9826593694086796],[-71.9260479200787,-0.9817754559739456],[-71.92339617977467,-0.9778862380954934],[-71.92410331011104,-0.9739970202170412],[-71.92180513600363,-0.9692238889039118],[-71.9134963519802,-0.9702845844084891],[-71.91190530820916,-0.9688703227072892],[-71.90554113312498,-0.9543741456695329],[-71.90023765251686,-0.9524295367303353],[-71.89705556497478,-0.9547277108377443],[-71.89458060879753,-0.9541973625712217],[-71.89245921675996,-0.9481867526552605],[-71.88680217201215,-0.9488938840200376],[-71.88362008447007,-0.9524295367303353],[-71.8793773014234,-0.9524295367303353],[-71.87654877802106,-0.9469492750807831],[-71.86806321089932,-0.9428832741040196],[-71.86452755818902,-0.9333370114777608],[-71.86240616615152,-0.9333370114777608],[-71.85887051446969,-0.9366958810897472],[-71.85674912243212,-0.9331602283794496],[-71.8572794686417,-0.9283870970663202],[-71.85392059902978,-0.9269728363935883],[-71.84561181397788,-0.9389940551971563],[-71.83712624788461,-0.9358119676550132],[-71.82687285492199,-0.937226229356213],[-71.82298363601507,-0.9338673587158155],[-71.82192294051055,-0.929801357739052],[-71.81768015746388,-0.9273264005333317],[-71.81502841613138,-0.9211390085474136],[-71.80937137241199,-0.9211390085474136],[-71.80481273718436,-0.9190235094854984],[-71.801105029126,-0.9137990132628602],[-71.79704740995578,-0.9167110132875678],[-71.78852526936117,-0.9179066034266725],[-71.78396241237698,-0.9219431066151174],[-71.77798080248311,-0.9437666229237607],[-71.76931424079095,-0.9528473363613443],[-71.74970632802524,-0.9613824271041267],[-71.73425604018024,-0.9646900082876755],[-71.71570088231437,-0.960204888188116],[-71.70498825582854,-0.9605760777757268],[-71.69564946091151,-0.9585628676067586],[-71.68863095161612,-0.9554484680374458],[-71.67601177679177,-0.9449092307896194],[-71.66693981025782,-0.9419788123878448],[-71.6549993324195,-0.9434506041350801],[-71.63384190644854,-0.9428630878342688],[-71.5979446026721,-0.9352072424255766],[-71.58412748566064,-0.9337862166579498],[-71.54977092761703,-0.9419909963463624],[-71.54620891798186,-0.9450162052666542],[-71.54324001731794,-0.9546422133258261],[-71.54303448719429,-0.9821910321122687],[-71.54599485795603,-0.9901209430540234],[-71.56293965275813,-1.0182199940146006],[-71.58265540080731,-1.0634621656610648],[-71.58419604883801,-1.071712868393206],[-71.58373861611767,-1.0808804790529507],[-71.57674178536212,-1.0959615848300928],[-71.57321676674746,-1.110263105467027],[-71.56796790569314,-1.1223184058271727],[-71.55965922348548,-1.1329533972441936],[-71.54226417346337,-1.1465671911697086],[-71.51785692055535,-1.1547726825403402],[-71.49358638776732,-1.1511512474396],[-71.49185503152654,-1.1500511430461415],[-71.4895358658789,-1.1426711290063167],[-71.48616317811326,-1.1402415261156307],[-71.47845704700762,-1.1396459108300405],[-71.4689200455062,-1.1428081998251969],[-71.45815441926356,-1.1423039883968613],[-71.41825123006095,-1.1267177229673848],[-71.41446712209324,-1.1230048295018946],[-71.4084556482855,-1.1098945003554377],[-71.40408332673297,-1.1052644922453965],[-71.37649450153253,-1.088119243711958],[-71.35039406508474,-1.0502086865719775],[-71.29994733871604,-1.044841926924164],[-71.29292031597345,-1.0466290154934654],[-71.26281311169572,-1.0444261903488155],[-71.24412055596628,-1.0375026597769192],[-71.23882569987711,-1.0369062505336615],[-71.22431416202193,-1.0449264381596777],[-71.21117635186295,-1.0495550321612654],[-71.19392513775455,-1.0523494225848253],[-71.1832973063544,-1.0563821945838185],[-71.16672578784977,-1.069077503979429],[-71.15248955582928,-1.0769604809183875],[-71.13719137360437,-1.093919181291767],[-71.11861371752997,-1.1049639576872323],[-71.10962633113724,-1.1062918456435114],[-71.0989896150221,-1.110461843756184],[-71.09104776180584,-1.1171992313744568],[-71.08109132750673,-1.1330584331070668],[-71.07527774249468,-1.1562523336452841],[-71.07298777741545,-1.1602399302782374],[-71.0562336579132,-1.1722475047348553],[-71.04239401698209,-1.190718505149448],[-71.03481698626581,-1.1968139975687109],[-71.03203290083627,-1.2012601890620545],[-71.02864447892853,-1.2135446891504102],[-71.01220296584273,-1.2313276790034706],[-70.9982251166353,-1.2529616584981795],[-70.97640424548081,-1.2669842356991126],[-70.9636710667748,-1.2714741216013294],[-70.95382106393504,-1.2723888060361332],[-70.92335566341251,-1.26197686940327],[-70.91131621649373,-1.2533565444298347],[-70.90306097215938,-1.2519337445988867],[-70.89685889401431,-1.2543621246713883],[-70.86409660185217,-1.2587092864061447],[-70.8531029740169,-1.2630154677918313],[-70.84273395634722,-1.2737394513684421],[-70.83299803452229,-1.291752035871582],[-70.8242241641093,-1.3026595254752351],[-70.8092782676701,-1.3349723018675945],[-70.80186152177725,-1.356147894247215],[-70.79346116728885,-1.3621966840632922],[-70.78116967893357,-1.3781455659835729],[-70.77003073525572,-1.3892812546408209],[-70.75765515012728,-1.3969324473755478],[-70.75363493129765,-1.4035322304132478],[-70.7238719313043,-1.419429481433724],[-70.715738565636,-1.4261103530502055]]]}}]}