{"type":"FeatureCollection","features":[{"type":"Feature","properties":{"code":"916017"},"geometry":{"type":"Polygon","coordinates":[[[-70.99665497493004,-0.0011657494335963747],[-70.98525641533655,-0.005245240490864944],[-70.98319555639722,-0.010608398533008767],[-70.98575188191813,-0.018859627827737313],[-70.98565983939801,-0.02481909226884227],[-70.9810525197584,-0.03146559230793855],[-70.96914940317993,-0.037607786302032764],[-70.95611068345761,-0.041045552881769254],[-70.95036529652589,-0.04943398257921672],[-70.94393413898041,-0.04883800631023405],[-70.9414772484244,-0.056401337143711316],[-70.94384260656784,-0.06304811280540434],[-70.94301817104935,-0.06909899755891047],[-70.9446592187241,-0.07478320758741575],[-70.94010339114448,-0.08069638388764133],[-70.94246860222057,-0.0872971912540379],[-70.94124069121847,-0.08991014487696702],[-70.93134562305602,-0.09678584464421647],[-70.91452206311487,-0.10086518863420224],[-70.90837958527067,-0.10864282940508474],[-70.91100412738388,-0.11997031127918945],[-70.91728381488667,-0.12909757099674835],[-70.92180775252069,-0.12900471909233602],[-70.9248142561284,-0.12358973166107035],[-70.93007076982354,-0.11973657097729529],[-70.93808928314519,-0.12152568454990842],[-70.95594267914464,-0.13579614108056148],[-70.95959049071064,-0.14052104152489164],[-70.96211567704898,-0.1475386375633434],[-70.95936074899328,-0.15606947981007124],[-70.94996883399176,-0.16795445054873426],[-70.9315590876136,-0.18006710303444606],[-70.93174145618326,-0.19501610125627167],[-70.92932338213325,-0.19928142364915402],[-70.911232818033,-0.20144312960502475],[-70.90026946857392,-0.20493207251297463],[-70.89739315961839,-0.20777611099919113],[-70.89899513984716,-0.21956033756561055],[-70.8887644682651,-0.2359805937730357],[-70.88707784001792,-0.24753682800280785],[-70.88739889097587,-0.25519446598678996],[-70.89279253513956,-0.26936204227007465],[-70.89302107974987,-0.2743145133895837],[-70.88178257872244,-0.2832605677060087],[-70.87813638695337,-0.3040342673750729],[-70.85726096094947,-0.31917402625748537],[-70.85565900643172,-0.32238425712910157],[-70.85600251343209,-0.3245482637108239],[-70.86262463629816,-0.32548091503650767],[-70.86321995950607,-0.3291340179392819],[-70.86763723325265,-0.3289509346021191],[-70.87146820837444,-0.3322842864982931],[-70.87187226081431,-0.3343848608024018],[-70.86699691465611,-0.3329696261945969],[-70.86549428403151,-0.33397448241254324],[-70.86581408646026,-0.34000221486809323],[-70.8704148744614,-0.34443093209455355],[-70.88071435707553,-0.3388133096053707],[-70.88759658025373,-0.3470778520884892],[-70.89374626953685,-0.34657483776726394],[-70.89411227268886,-0.3382638281942718],[-70.89712656572021,-0.3364371559008532],[-70.90222991964174,-0.3405007400377258],[-70.90423727180212,-0.3390848420845032],[-70.9100658597336,-0.3402256594318942],[-70.90865439950989,-0.3431939481725408],[-70.90974504223215,-0.344244351024372],[-70.911523693459,-0.34278294037591195],[-70.91293499118882,-0.3435588478057525],[-70.91426227647776,-0.34063614786504104],[-70.91694831431136,-0.34168621544461075],[-70.9203203294756,-0.3362973957047757],[-70.92187620154095,-0.3373476442902188],[-70.92360905827934,-0.33542964527271124],[-70.9268895060639,-0.33588583666295335],[-70.92643205688847,-0.332369409657133],[-70.93076564626733,-0.3318213660086258],[-70.92766725749118,-0.3299038153920719],[-70.92575242093443,-0.3257940726981019],[-70.92684390697951,-0.32026843205090927],[-70.92479869476466,-0.31319071943346444],[-70.92689756185416,-0.3134641195641734],[-70.9312691943502,-0.3206786119512799],[-70.9396996040428,-0.32017559043094934],[-70.94557390213049,-0.32670494881028844],[-70.948358703356,-0.3202202752299854],[-70.94972445342358,-0.31985469373938713],[-70.95218902130301,-0.323279243804393],[-70.95692732029647,-0.3193517575797955],[-70.95843796557364,-0.31437408344788764],[-70.95961993399152,-0.31738764319976553],[-70.96522796522578,-0.31496673476215165],[-70.9639919727224,-0.31231822993828473],[-70.96668597995705,-0.3135054197588829],[-70.96841770746556,-0.3118155426617477],[-70.96960013251197,-0.31336803937875857],[-70.97133179008637,-0.31163243258509965],[-70.97502409824642,-0.3114952764054806],[-70.97301780743868,-0.3089839802117922],[-70.97593967125562,-0.30934887058896265],[-70.97648201938944,-0.3065631838744025],[-70.9799452049545,-0.3077499767161953],[-70.97940366620497,-0.30373162862349545],[-70.98195209123043,-0.30437069046331544],[-70.98063197418588,-0.30199623163207434],[-70.98154849439061,-0.30026061866772125],[-70.97981634522068,-0.29953042242254924],[-70.98036524247641,-0.2973384452896539],[-70.98715569875708,-0.2926341208947747],[-70.99107679115451,-0.29646942781641883],[-70.99376250297183,-0.295464425559544],[-70.99321325296029,-0.2991179336686969],[-70.99453345536563,-0.2971998924850823],[-70.9947626293827,-0.29971099018933955],[-71.00137007945938,-0.3004412296290866],[-71.00378836022634,-0.29728993468444287],[-71.00657274698955,-0.2964675323968322],[-71.00675595991049,-0.2946411274984939],[-71.00916742518888,-0.29619313159150806],[-71.01121977993705,-0.29450353114549443],[-71.00944193912284,-0.2928597272447746],[-71.01204340607126,-0.2924942321433832],[-71.01454578463984,-0.2895709285069188],[-71.01669004306837,-0.2922652309046043],[-71.02293903978955,-0.28783479103691434],[-71.02475479310874,-0.29048322695513207],[-71.0262196315561,-0.28902183481864085],[-71.0310027295057,-0.29034551850185153],[-71.03022514982831,-0.2922635339744488],[-71.0337347880851,-0.29244590151563443],[-71.0325063258378,-0.29482037680196527],[-71.035374938958,-0.29778833027035034],[-71.03856400139722,-0.29760523664873517],[-71.04193688559542,-0.3017148764984654],[-71.04745315198903,-0.3039058365017695],[-71.04786408059562,-0.3019880195186033],[-71.05241931373541,-0.30468165034329786],[-71.05319722868501,-0.30143919219688087],[-71.05574632528345,-0.3043614622486075],[-71.05679920153955,-0.3045440097672554],[-71.05689064859143,-0.3023066155842571],[-71.05962169929717,-0.3041327623434995],[-71.06709925288237,-0.3021683548573719],[-71.06832679364521,-0.29956514675575363],[-71.07042545401777,-0.30125458367945157],[-71.0785353043479,-0.29627585128019973],[-71.08004665513658,-0.297052161859483],[-71.08492169790424,-0.29504194857196353],[-71.08637934342465,-0.2955899593102913],[-71.08656214188323,-0.29942595631683844],[-71.09057476875017,-0.293899952629431],[-71.09367305468209,-0.2940365585923246],[-71.09390226160934,-0.29645696000773114],[-71.0974568602877,-0.29704973164979265],[-71.09804422129366,-0.29376223594863404],[-71.10164549583573,-0.29161515136007665],[-71.1038812712502,-0.29257390764217917],[-71.10639196374814,-0.28850932488762737],[-71.10849014178115,-0.28818952348734683],[-71.10816860025608,-0.28695634788800817],[-71.11177070166593,-0.28604285233268456],[-71.11167868588535,-0.2820244610454665],[-71.11377686494683,-0.28184123989694854],[-71.11432684618097,-0.27974045990436025],[-71.11810308759192,-0.27759393478856964],[-71.1166535523692,-0.2712006383260359],[-71.11865960972051,-0.2669535306785633],[-71.12107048981511,-0.2675925318403074],[-71.12034574740056,-0.2640765861455634],[-71.12667900338892,-0.2559477373967525],[-71.13055435991907,-0.2568145324057127],[-71.13246902369752,-0.2546222179436768],[-71.13798549680808,-0.25357132349631684],[-71.14149520499893,-0.25475843618369254],[-71.14176960477579,-0.25142460914707954],[-71.14345586175523,-0.2532511179181256],[-71.14828541856718,-0.24968862594340635],[-71.16341536302264,-0.25091942378367094],[-71.16528510031804,-0.24973190691838454],[-71.16710815249382,-0.25151270450476204],[-71.17550082348816,-0.24731052334033166],[-71.17855195018836,-0.24872550803661397],[-71.1876237984514,-0.24141771842948856],[-71.19833597550786,-0.2361193018724066],[-71.20225763046335,-0.23118690800771446],[-71.20923068671323,-0.23246462236721754],[-71.20827741717198,-0.22707619960618786],[-71.21046681805637,-0.2194954644399445],[-71.21739529337998,-0.2136038113847576],[-71.22176662351387,-0.2147903810545131],[-71.23275339266598,-0.20510799377643707],[-71.25127002713202,-0.18099440337368833],[-71.2540931111019,-0.17208933660543835],[-71.25851812284998,-0.1675222815188704],[-71.26763572343532,-0.16240652046684545],[-71.26732360758598,-0.1377018872339022],[-71.27101551876723,-0.12913366521536318],[-71.27747826492464,-0.1250197264758981],[-71.27682934752016,-0.12077878022762434],[-71.28136154046223,-0.10855844672488502],[-71.28545083669047,-0.10644686191517394],[-71.28754983233529,-0.09987403229899883],[-71.2867328077736,-0.0922036416278047],[-71.29096753297313,-0.07896629468802985],[-71.29005960334871,-0.07138688621267875],[-71.28082733450782,-0.0657662493584894],[-71.28022480911693,-0.04574284787202032],[-71.28265878905893,-0.040383437474474704],[-71.28793797065566,-0.03741880896075145],[-71.28834280882558,-0.03860636079309643],[-71.29057803299486,-0.03796853308432446],[-71.3080498459666,-0.03163291476352015],[-71.32256159053873,-0.041183237680854745],[-71.34030832162239,-0.0433848389789091],[-71.34426741497089,-0.048135321930885766],[-71.35418685002196,-0.048323756254490036],[-71.35932850417129,-0.04440064708126101],[-71.36542446350347,-0.04326259624423301],[-71.37361891762896,-0.04692001654871092],[-71.37980708917428,-0.0425864086579395],[-71.40101746347989,-0.03629883711477078],[-71.4084330040381,-0.026487531481620863],[-71.41694755369849,-0.024529611410912366],[-71.42504259857009,-0.025264616653259964],[-71.43728806720799,-0.02225881135797181],[-71.44197341786685,-0.01911141009674111],[-71.48511882456029,-0.001485765778397763],[-71.50041586932781,0.009973842162992241],[-71.48599587211271,0.016792326587619755],[-71.47542136031495,0.019084608747846232],[-71.43785329201717,0.02069000237736418],[-71.41865688584272,0.023303230594422075],[-71.40252055073302,0.028529162522829665],[-71.38742861648456,0.03623073762810236],[-71.35857401919912,0.05566732832528487],[-71.34690750199275,0.06859423063480108],[-71.33296130927454,0.08922205396009986],[-71.32434697292189,0.10902506124318734],[-71.30145764666406,0.1003619983125077],[-71.29853623124808,0.09747404121696945],[-71.29807840257735,0.08624356306967229],[-71.3041433317419,0.07684636495895347],[-71.30099324316029,0.07143740934304788],[-71.28827394637142,0.06763293204278398],[-71.272549626932,0.07350098439906105],[-71.25763407057553,0.06176639663920014],[-71.24592171362923,0.06910067481180704],[-71.24149735699899,0.06946762618781577],[-71.2383539553507,0.06685479289268415],[-71.23415777103457,0.05919985148500473],[-71.22590198471102,0.06786395828487457],[-71.21126832547736,0.07744454003795909],[-71.2073922099566,0.08189093824825022],[-71.19626812830165,0.08564999849841115],[-71.19563540989526,0.08872170227652987],[-71.20038060253893,0.09834779672490868],[-71.19791648203204,0.10141907061404254],[-71.18952364957221,0.09995227504055038],[-71.1798114148354,0.093122381074636],[-71.16800054749393,0.07776632324703314],[-71.15477865804525,0.06603196894366192],[-71.15400070812859,0.06053102325819282],[-71.15864642261278,0.04398277840778064],[-71.14916346576575,0.015057999176463],[-71.14432581819648,0.007265271153812591],[-71.13812338729565,0.00492799463341953],[-71.13220240408828,0.007953264231787216],[-71.12891444250266,0.011850057617891707],[-71.12399350754453,0.026518590308853618],[-71.11624922224985,0.029269312034671202],[-71.11282345656582,0.027435824252734164],[-71.1110450459945,0.024089365885060943],[-71.10917592062236,0.014508973365366273],[-71.10958087912013,-0.00015969508007174227],[-71.10607100740691,-0.005981270062022759],[-71.10156200275827,-0.004468790043404169],[-71.09084184498789,0.0031411734591983986],[-71.08751593593018,0.0028662728308290752],[-71.08140464149159,-0.005705757510384046],[-71.07579682520179,-0.009051768505514701],[-71.06134632643852,-0.003230081423282627],[-71.05090915182626,-0.002863182497890193],[-71.04803300844998,-0.0063008482902660035],[-71.04816977690678,-0.010518279200425695],[-71.05318307217374,-0.017669120251582626],[-71.06366613074903,-0.023674605438543495],[-71.06507667565893,-0.02725007327245521],[-71.06129319709805,-0.03325503189682877],[-71.04346957862327,-0.04604389973678735],[-71.03394077483716,-0.047006422175400076],[-71.02905766599486,-0.044484949542948016],[-71.02646316057388,-0.04072611349329236],[-71.02732564640866,-0.03357522101998711],[-71.03184244973687,-0.021702744829440235],[-71.03162166061162,-0.014230929953498617],[-71.02892836711607,-0.010517864738062599],[-71.01652931909996,-0.003824957258757422],[-71.0084573144261,-0.0013494446940853777],[-70.99665497493004,-0.0011657494335963747]]]}}]}