{"type":"FeatureCollection","features":[{"type":"Feature","properties":{"code":"917018"},"geometry":{"type":"Polygon","coordinates":[[[-69.42561554113053,-1.3841984294604117],[-69.42923273801966,-1.3911810461119671],[-69.43371922800463,-1.4089846212704629],[-69.42887433402944,-1.4445101564461424],[-69.42879762250197,-1.4590214351338204],[-69.43395563917176,-1.471377520992121],[-69.44553716177461,-1.4817606272958983],[-69.45015266781672,-1.4942996154854882],[-69.45090843834197,-1.5202538732274888],[-69.44663580063747,-1.533944043408212],[-69.53343694160043,-2.015790731379127],[-70.49242651045398,-2.016397108287265],[-70.49257134292856,-1.475218573822076],[-70.48540017882476,-1.469584086932457],[-70.4704024026027,-1.4638952756521348],[-70.44144118051071,-1.4613094523429027],[-70.39489635580208,-1.4426915234878948],[-70.36541797007669,-1.4442430174734113],[-70.28836043031896,-1.4592407926670603],[-70.24595292496207,-1.4809617105216262],[-70.21957752412243,-1.4995796404050452],[-70.2056140782525,-1.518714732893443],[-70.18234166744082,-1.5383669931290456],[-70.16372373652894,-1.5481931217041733],[-70.10528412562627,-1.5730170265013612],[-70.0820117148146,-1.579740168133867],[-70.06339378698806,-1.5781886741482936],[-70.04632735109016,-1.5693968738684134],[-70.03236390522022,-1.558019251307769],[-70.02253777458822,-1.5425043104238512],[-70.00340268107135,-1.4835475338308584],[-69.97340712862723,-1.414247465029291],[-69.96668398802319,-1.3599451714213728],[-69.95737502308145,-1.3247779723587882],[-69.94703172984447,-1.2994369018712746],[-69.93823992956459,-1.2875421136203045],[-69.91910483501931,-1.252374913529252],[-69.89583242420764,-1.236859972645334],[-69.87152568304384,-1.2270338440702062],[-69.81825772081652,-1.2259995147464906],[-69.79084799065322,-1.2296196684079064],[-69.7510263086055,-1.2663383614560644],[-69.73913152138294,-1.2834047963254989],[-69.70913596893882,-1.3025398898423646],[-69.68069191150869,-1.3082287021511547],[-69.65328218134539,-1.2999540665331324],[-69.63725007579961,-1.2989197382378848],[-69.62225229957755,-1.307711537489297],[-69.58760226414836,-1.3159861720789081],[-69.56950150098362,-1.313400348769676],[-69.54984924280495,-1.313400348769676],[-69.53640295953994,-1.304091383827938],[-69.53123131394995,-1.291679431943578],[-69.52761116028853,-1.2720271727363865],[-69.51002756075724,-1.254960737866952],[-69.4903753015501,-1.2435831153062509],[-69.46348273810548,-1.2415144556304085],[-69.45107078622112,-1.248754761924772],[-69.43452151498508,-1.26426970280869],[-69.4303841966618,-1.3237436430350726],[-69.43865883227983,-1.3573593481121407],[-69.42561554113053,-1.3841984294604117]],[[-69.5760342244269,-1.3206484619711318],[-69.58126111794905,-1.3201139690813193],[-69.57994820308744,-1.3245557105038301],[-69.57586608847328,-1.325825704345391],[-69.57702599577073,-1.3219830862258846],[-69.5760342244269,-1.3206484619711318]]]}}]}