{"type":"FeatureCollection","features":[{"type":"Feature","properties":{"code":"130007"},"geometry":{"type":"Polygon","coordinates":[[[-75.29443540451359,10.703685502211613],[-75.29018402368752,10.697512771702293],[-75.29109528752252,10.694396528135599],[-75.28877946534152,10.691737958973192],[-75.28858416307878,10.685541550631797],[-75.28934087154363,10.679742542764018],[-75.29131206983573,10.678184774250667],[-75.28978022013075,10.67774893368096],[-75.28719232450982,10.669930262167384],[-75.29189139973408,10.664666262439141],[-75.29152980860044,10.660604754727729],[-75.2937911305271,10.65749458617097],[-75.29926353898952,10.65460807609412],[-75.29994110571727,10.649065848725968],[-75.30939022577701,10.634588543608459],[-75.31827114882867,10.63690141107412],[-75.32072528315871,10.633424273657852],[-75.32915228047904,10.632381918368708],[-75.33093428442851,10.629785267616626],[-75.33280418524629,10.629846736597528],[-75.3357457025997,10.633901223131886],[-75.34225134920831,10.63127655143495],[-75.34602198149372,10.621550565393193],[-75.34189728113176,10.614153257063947],[-75.34265455009779,10.610416143777115],[-75.34006536995219,10.609956522531036],[-75.3411821546548,10.60894876301984],[-75.33956787836729,10.608386932070971],[-75.34003017150695,10.606377374929764],[-75.34138164267858,10.60704421500202],[-75.3410089104272,10.604569125127227],[-75.3457470119597,10.60189163365095],[-75.34535671905229,10.60043008621966],[-75.34705655455832,10.601949649121877],[-75.34944831487803,10.60010407199809],[-75.34798711197499,10.596771321740789],[-75.35049894193031,10.594835979068648],[-75.34619456134749,10.590741884127624],[-75.35007918105941,10.586910851413052],[-75.3491011826178,10.584707121239035],[-75.35025254355793,10.583530856563357],[-75.35360041706247,10.584704785646068],[-75.36250539744157,10.579375514784942],[-75.36494350452341,10.57157890130651],[-75.36858432885094,10.5693676922985],[-75.36805052810291,10.562655387364828],[-75.36638438848757,10.561789945786245],[-75.36819085599927,10.558101653694223],[-75.37466302783236,10.553110804185167],[-75.38539664380158,10.55162279492788],[-75.38838712941708,10.54853622707003],[-75.38866586510761,10.545056384849943],[-75.38713662558973,10.543608657629193],[-75.38067381978266,10.547061987629604],[-75.37117281068413,10.542639249767944],[-75.371249532496,10.537758141246286],[-75.3693742374972,10.535985192733165],[-75.37109577931102,10.533188655950084],[-75.3800383101833,10.532604131388553],[-75.38937638107677,10.535510457495889],[-75.3957909940674,10.515943387267896],[-75.40022415005177,10.518602661941827],[-75.39860422864325,10.52819111333713],[-75.40009925290701,10.53114269091526],[-75.4017136515792,10.529463063276296],[-75.40350742913864,10.530686093290228],[-75.39971065898663,10.535820239809198],[-75.41127074473366,10.538933643846121],[-75.42458282344899,10.534535002392602],[-75.44416400596526,10.54088946589411],[-75.46666726724288,10.523114154392886],[-75.48167558705762,10.525412118698],[-75.49635543775855,10.522543591967008],[-75.49274397649333,10.538565798753552],[-75.49353176551955,10.543573899357398],[-75.49927101676326,10.550509783580821],[-75.50758376748945,10.556011583902034],[-75.5114189201447,10.556247304984197],[-75.51531279378247,10.56028431622326],[-75.51354022476465,10.569777760098646],[-75.51141473232678,10.57248865641634],[-75.50244035573189,10.575924124427104],[-75.47849062296183,10.579447592150416],[-75.46715523030787,10.584138732940687],[-75.45658659400215,10.590699344659697],[-75.45026477120933,10.597347388391029],[-75.44903577417193,10.600630222162238],[-75.44972060478915,10.605946231257064],[-75.4551056151779,10.615793607454634],[-75.4511912354248,10.620249584578517],[-75.45106849286708,10.627299934454356],[-75.44146647322964,10.63358146492618],[-75.431532251232,10.63648952498761],[-75.42059309691166,10.643136647234428],[-75.41749366426632,10.647265707164195],[-75.41642033331698,10.65192275199962],[-75.40248979657923,10.660110718709689],[-75.39621477100633,10.665614404166035],[-75.39491106070528,10.677479375811458],[-75.36451495252584,10.685193504086158],[-75.32793223500528,10.691499256436202],[-75.29443540451359,10.703685502211613]]]}}]}