{"type":"FeatureCollection","features":[{"type":"Feature","properties":{"code":"130012"},"geometry":{"type":"Polygon","coordinates":[[[-75.50082983223109,10.383576598633113],[-75.49145758619272,10.379955376419957],[-75.47150115894004,10.37873076466144],[-75.47151827942264,10.377569268420302],[-75.46518042115406,10.375392145082628],[-75.47601489545264,10.364119093528814],[-75.4745858653169,10.362531113488046],[-75.48864313085562,10.350350882044438],[-75.48847083176668,10.361605108986396],[-75.49746818376741,10.375831233473832],[-75.50312200949014,10.378525598606473],[-75.50082983223109,10.383576598633113]]]}}]}