{"type":"FeatureCollection","features":[{"type":"Feature","properties":{"code":"130013"},"geometry":{"type":"Polygon","coordinates":[[[-75.50317922791817,10.388282045058759],[-75.50062497882266,10.38453798669957],[-75.50312200949014,10.378525598606473],[-75.49746818376741,10.375831233473832],[-75.48849794151147,10.361669386643825],[-75.48864313085562,10.350350882044438],[-75.48224633974536,10.338994892772178],[-75.51013375677604,10.338906300676683],[-75.50896904459512,10.34513988001612],[-75.51407493979809,10.347263764998331],[-75.5160422834876,10.350583282285754],[-75.51541185130895,10.35509611479739],[-75.51192062937241,10.35038697420623],[-75.51151947096974,10.356657826359367],[-75.50999859268956,10.357944614667247],[-75.51078936214219,10.36612625851268],[-75.50946220849391,10.368372487016927],[-75.5097798439943,10.374176954886025],[-75.51350323168725,10.382885530511999],[-75.51608397449047,10.38414260403016],[-75.51572730651117,10.388491642672534],[-75.50995797229541,10.387236341160815],[-75.50317922791817,10.388282045058759]]]}}]}