{"type":"FeatureCollection","features":[{"type":"Feature","properties":{"code":"130005"},"geometry":{"type":"Polygon","coordinates":[[[-75.47562274312116,10.410441628614592],[-75.4765331368938,10.406779442507457],[-75.47479951705105,10.402776268055675],[-75.46685133479957,10.400041152945107],[-75.48292424894447,10.392891423640265],[-75.48969432149437,10.394680692507734],[-75.49285421730383,10.397465241764849],[-75.48869698421964,10.40653301636712],[-75.48831061996265,10.416820166926982],[-75.48552215953862,10.414960381869832],[-75.48147231128007,10.415706841904978],[-75.48503411934047,10.413524325414755],[-75.48152293841991,10.410431693859834],[-75.47562274312116,10.410441628614592]]]}}]}