{"type":"FeatureCollection","features":[{"type":"Feature","properties":{"code":"130018"},"geometry":{"type":"Polygon","coordinates":[[[-75.57525541994727,10.381242460919225],[-75.57051522450575,10.373658511870133],[-75.55856251128682,10.366459271285578],[-75.55630546151042,10.365474327771665],[-75.55531408303165,10.367119354490512],[-75.55193924993489,10.365333051651305],[-75.54074516836829,10.364405925118888],[-75.53729132928885,10.356901478790235],[-75.53947607749933,10.359792780380815],[-75.54081787308371,10.35534449497851],[-75.54345472873922,10.358781650663445],[-75.55011847164559,10.355633191134814],[-75.55164690897828,10.356374097580385],[-75.55000088158488,10.354757039355832],[-75.55119408470887,10.351389461921087],[-75.54853907601449,10.349322844732058],[-75.54483980529858,10.34817941925445],[-75.54834392081904,10.351768509837996],[-75.55008721007835,10.351733431720561],[-75.54907719313576,10.355483159883306],[-75.54639670374956,10.35604443855857],[-75.54493897286847,10.35541164301901],[-75.54675368643223,10.354170824034838],[-75.54543685114771,10.351569347830491],[-75.53821077849784,10.349073760067824],[-75.54289900776729,10.344736842649013],[-75.54265453155398,10.341119491493487],[-75.546840815054,10.3416042118792],[-75.54747196508549,10.336649259127853],[-75.55146844437644,10.336307201202999],[-75.55276347770797,10.339139228508998],[-75.5556996893265,10.337910180049448],[-75.55433421385305,10.340040350872357],[-75.55523932554496,10.34235478568445],[-75.55693020948723,10.341332197060524],[-75.55802030919187,10.346069867675624],[-75.56144912523644,10.343917784856444],[-75.55962934556476,10.335890274719645],[-75.56102976854339,10.335870275626462],[-75.56026938853876,10.337466713578522],[-75.56225634359868,10.340267249974602],[-75.56398895762464,10.33894767594768],[-75.56407583942018,10.343236891117158],[-75.56637832270178,10.344090537488512],[-75.57353736763895,10.339759910024156],[-75.576268788584,10.335538971096582],[-75.5788268645141,10.335684133701193],[-75.57760005497391,10.329233390496483],[-75.57504625427936,10.327324681400228],[-75.58156546295947,10.321937215090713],[-75.58130250460562,10.320616642446112],[-75.58267709516508,10.320503559020551],[-75.58060076845027,10.31939413282413],[-75.5818902019123,10.318606360253],[-75.59167063472944,10.323348545730767],[-75.59110752851183,10.325841109872385],[-75.59351865851795,10.331895320608965],[-75.59130764799932,10.339194710925995],[-75.59306640503411,10.347295640545724],[-75.59042291386754,10.354001698719514],[-75.59242809395732,10.356240439133785],[-75.59158775357531,10.358741084776739],[-75.58633369580087,10.36274237203645],[-75.58575278004417,10.3660597151964],[-75.58021444738785,10.369107655781704],[-75.57856600829672,10.373025336835326],[-75.57873858815049,10.37944225148027],[-75.57525541994727,10.381242460919225]]]}}]}