{"type":"FeatureCollection","features":[{"type":"Feature","properties":{"code":"130011"},"geometry":{"type":"Polygon","coordinates":[[[-75.48292559826103,10.392908196509325],[-75.4655094199158,10.381927965166312],[-75.46231825739693,10.378547191785572],[-75.46518042115406,10.375392145082628],[-75.47151827942264,10.377569268420302],[-75.47150115894004,10.37873076466144],[-75.49265356919688,10.380226917126606],[-75.50082983223109,10.383576598633113],[-75.50317922791817,10.388282045058759],[-75.48292559826103,10.392908196509325]]]}}]}