{"type":"FeatureCollection","features":[{"type":"Feature","properties":{"code":"130537"},"geometry":{"type":"Polygon","coordinates":[[[-75.2480768615984,10.505075879395633],[-75.24185612853455,10.503757598120956],[-75.23908685370566,10.50786689344244],[-75.23490353520549,10.50475691411907],[-75.22894040128148,10.504431667115625],[-75.22115505027705,10.49941256423375],[-75.21787090421316,10.499231127433063],[-75.21219967929989,10.493753377240182],[-75.21602313856368,10.489849558563265],[-75.21455348392004,10.486458389685538],[-75.20342111301835,10.482585083869765],[-75.19381953149741,10.475242912400802],[-75.1853453770023,10.476360515743693],[-75.18345024746111,10.475372781036754],[-75.1801779068889,10.470536847881192],[-75.17639912419656,10.468876501482612],[-75.17097492603403,10.458588175412899],[-75.17602826988116,10.456396929502603],[-75.1800062834867,10.451785699724553],[-75.19293734893148,10.449686736989918],[-75.19926364339238,10.44635403918312],[-75.20284313449349,10.447883777495633],[-75.20999516648106,10.446457489187651],[-75.21317721288551,10.442237393582957],[-75.21483404509598,10.443657436159526],[-75.21680958547245,10.44104263134011],[-75.2301859418452,10.434235828994076],[-75.24031086176842,10.431410720020892],[-75.24317814099868,10.432186695327914],[-75.2455948883578,10.430287611425229],[-75.24688425291419,10.42480414823416],[-75.24993540738234,10.421494929770063],[-75.249023254973,10.415317846892037],[-75.25085298585446,10.410147646263738],[-75.24894684375073,10.402454516728369],[-75.24877816786477,10.390389202423421],[-75.24545142371181,10.38746812330811],[-75.25185854758399,10.383826971935832],[-75.26304561722947,10.381404192761295],[-75.27722058595754,10.364966385153878],[-75.27993034584631,10.366334718669066],[-75.28553995368293,10.365636962586223],[-75.29318318524412,10.361851451822929],[-75.2982585367327,10.37310035143264],[-75.30862138477573,10.380935990190892],[-75.30714884226546,10.383765104947656],[-75.31013226968003,10.389382623564188],[-75.31547531035801,10.392230790218662],[-75.31678513886362,10.4004114930392],[-75.3187740078551,10.403208089472002],[-75.32204987187134,10.40301463223517],[-75.32699860357394,10.406209828305578],[-75.32707856395132,10.41053229507861],[-75.33583926927162,10.413389337191973],[-75.33514688268718,10.417625570088205],[-75.33019599742602,10.422265975752111],[-75.33002062535081,10.425516094766806],[-75.32004377852456,10.428361443488768],[-75.31576764205863,10.431991238798787],[-75.30980179407482,10.433796016579379],[-75.30709019944459,10.438699804315434],[-75.30897080120678,10.44541517812155],[-75.29956049662462,10.447559547621893],[-75.29887829573488,10.459521636122815],[-75.29329692275917,10.471275299434467],[-75.29940584149551,10.480166484285576],[-75.29690958935902,10.487133654758907],[-75.30163597076057,10.492707152950288],[-75.2984907940205,10.493287543172869],[-75.29670096670878,10.495542791117998],[-75.30032103295252,10.499895786178683],[-75.29941028642412,10.505068331655934],[-75.30130886330466,10.511603971762213],[-75.30622909995031,10.513371293666296],[-75.30584504557521,10.518033388154436],[-75.30784776048836,10.518505830993377],[-75.30934523964436,10.521565291163313],[-75.30740661315525,10.519692736963805],[-75.30226029707597,10.520273005830177],[-75.30030417060902,10.518440016842817],[-75.2945802565286,10.518463117718682],[-75.29394595226387,10.519756964227554],[-75.28753286548192,10.517846003870659],[-75.28647493031713,10.519576422171838],[-75.28303803174282,10.515668910357874],[-75.27979906515878,10.518643643319308],[-75.27970206760261,10.520876600801273],[-75.27668438173936,10.522188470765286],[-75.27165420561687,10.520342015351616],[-75.27283841501105,10.523823158551522],[-75.27174342197691,10.526333299804264],[-75.26850419519695,10.523187511140861],[-75.25957508858482,10.52031822541926],[-75.25816426702386,10.510777261328826],[-75.24916367851449,10.508973372122568],[-75.2480768615984,10.505075879395633]],[[-75.27499080430607,10.449140486945169],[-75.27985363226196,10.44648399729357],[-75.2828822165306,10.448793321774758],[-75.28286186982376,10.445573392690221],[-75.27871822143686,10.445827346001352],[-75.27708581267927,10.444299059849698],[-75.27944802790233,10.44297618349384],[-75.28248232311222,10.437548257227206],[-75.2805532230862,10.440046903577922],[-75.27835516682956,10.438805483983344],[-75.27560767544168,10.44058623323292],[-75.27341460918814,10.439147056483307],[-75.27178428405506,10.441299952800534],[-75.27088726929117,10.439857039719243],[-75.27185227027621,10.442682605320897],[-75.26995956785936,10.443967603110309],[-75.27027453866515,10.446976282902483],[-75.27228137043363,10.446409543197433],[-75.27263548273322,10.448553833507674],[-75.27499080430607,10.449140486945169]]]}}]}