{"type":"FeatureCollection","features":[{"type":"Feature","properties":{"code":"130528"},"geometry":{"type":"Polygon","coordinates":[[[-75.30934523964436,10.521565291163313],[-75.30784776048836,10.518505830993377],[-75.30584504557521,10.518033388154436],[-75.30622909995031,10.513371293666296],[-75.30130886330466,10.511603971762213],[-75.29941028642412,10.505068331655934],[-75.30032103295252,10.499895786178683],[-75.29670096670878,10.495542791117998],[-75.2984907940205,10.493287543172869],[-75.30163597076057,10.492707152950288],[-75.298775827893,10.490858405138226],[-75.29687255514392,10.48627624531639],[-75.29932906723309,10.480968982096726],[-75.29815234490042,10.47695273511215],[-75.30715649902004,10.468607108163894],[-75.31272380495898,10.465608065906622],[-75.31811238610015,10.465573160567544],[-75.3222259371168,10.47589332927447],[-75.32691867816357,10.480702341918686],[-75.33822943653388,10.48334403022551],[-75.34749755790943,10.491085718702834],[-75.35780836573258,10.49446989725675],[-75.3628054332051,10.498650814343648],[-75.37254290283602,10.502175869982239],[-75.37545289739779,10.501279902172769],[-75.37904212167888,10.492589404509431],[-75.38967510866138,10.482843401890932],[-75.39274047517671,10.481807169948581],[-75.40152124232526,10.482826705126627],[-75.40692796313556,10.476368709345252],[-75.41228960113966,10.474383203360844],[-75.40389707824102,10.511712437480867],[-75.40058851489488,10.518952441413091],[-75.39785474910087,10.516525690393564],[-75.39534718409664,10.516551910535554],[-75.38937638107677,10.535510457495889],[-75.3800383101833,10.532604131388553],[-75.37249769250286,10.532602217457054],[-75.3693742374972,10.535985192733165],[-75.371249532496,10.537758141246286],[-75.37113819947956,10.542553533197747],[-75.36605081007133,10.541820665058935],[-75.36660807267856,10.538535133682956],[-75.36187952846234,10.535652941007754],[-75.352440412063,10.536024294117738],[-75.34513758366262,10.532918270184325],[-75.34123034644279,10.52726323604162],[-75.33948438528984,10.521147632428892],[-75.33664903097224,10.521171311289436],[-75.33255422023524,10.515066072320394],[-75.32408072908555,10.520100054708678],[-75.32084991188003,10.516872332086734],[-75.31605084118968,10.519763116370711],[-75.31483336373691,10.523393515376483],[-75.31641257013456,10.526740724507135],[-75.31556807587322,10.533149080453484],[-75.31320438894892,10.536966983042362],[-75.31092897838818,10.52923415562583],[-75.31390490228608,10.524772145658119],[-75.30934523964436,10.521565291163313]]]}}]}