{"type":"FeatureCollection","features":[{"type":"Feature","properties":{"code":"130508"},"geometry":{"type":"Polygon","coordinates":[[[-75.26688372768541,10.685331774069027],[-75.26488386978565,10.674771063969843],[-75.26574172145843,10.669750152057532],[-75.25391601369148,10.660036177195934],[-75.24733445568364,10.657977315491962],[-75.22914437948526,10.644672614823264],[-75.22824106859628,10.638765590666196],[-75.22390717479846,10.6309830730209],[-75.22497456340687,10.628686668863054],[-75.22391110550575,10.622520343493761],[-75.22856484184155,10.617659639271665],[-75.22690250437824,10.609227859693704],[-75.2281340087585,10.606716185033179],[-75.22578962261497,10.603416477605492],[-75.22728129415606,10.59915708418373],[-75.22558055053531,10.596945341414084],[-75.22803492757782,10.583575911601656],[-75.23416654095524,10.57557846489658],[-75.23662383568916,10.56685619761538],[-75.23262310173152,10.557755010972642],[-75.23047425850626,10.558639676198766],[-75.22772301947384,10.556394939964662],[-75.22636416202806,10.550923186620082],[-75.2289893757142,10.548209549503042],[-75.23293171881937,10.549309240462605],[-75.23507375478363,10.533813188982435],[-75.23712683252688,10.53583042344701],[-75.23831030247084,10.535978627156169],[-75.2345358958014,10.520586629376282],[-75.2389409259398,10.514812748416091],[-75.23674907016311,10.511506829195639],[-75.24185612853455,10.503757598120956],[-75.24798263055266,10.50457914680129],[-75.2440055919106,10.507790145919444],[-75.2449273931677,10.51126223162612],[-75.24885834421514,10.514156058043056],[-75.25148722944107,10.514176884004087],[-75.2555283421089,10.525036870876193],[-75.25110710371638,10.52978962874306],[-75.2514892626719,10.531814058191515],[-75.25349143559583,10.531982923310863],[-75.25098241534539,10.533807898674127],[-75.2508416195077,10.536290716266024],[-75.2484485952321,10.536794437127242],[-75.24759318302495,10.54053179209808],[-75.24511394235617,10.540894573139667],[-75.24574790003578,10.543081914053687],[-75.24366596419543,10.542834234241923],[-75.24352988376671,10.54688642734942],[-75.24005370383037,10.547537583673261],[-75.24089555293762,10.54853330732169],[-75.23931763929221,10.54974253769393],[-75.23802791272408,10.548261334669178],[-75.23377673038738,10.551922959246724],[-75.23466107576792,10.554058568473636],[-75.24115042876173,10.559412965213937],[-75.2447704178723,10.55536715564915],[-75.24743431231002,10.55942823244311],[-75.25433183768439,10.560918955760258],[-75.25851922264633,10.546833228074831],[-75.2629162504735,10.550971301274899],[-75.27297553828049,10.554269999800397],[-75.27764327686117,10.558944640258858],[-75.28658810938788,10.558054184901323],[-75.28965334220567,10.554228106194387],[-75.29361557024697,10.555243343511165],[-75.29458180741995,10.563014109143808],[-75.29379087238806,10.569368012144082],[-75.29192656424067,10.570934352725885],[-75.29453172946836,10.576571318161939],[-75.2927738671786,10.582426143718976],[-75.29466008937914,10.585834415595798],[-75.29407613046101,10.589362899033233],[-75.29671638100524,10.593106069846499],[-75.30086468309457,10.588646360504754],[-75.30513793169393,10.588499845498177],[-75.31459276578033,10.597736654912808],[-75.31176209087619,10.60239926670755],[-75.31002332367865,10.60195753419066],[-75.31153074581698,10.60509369766055],[-75.3222733236343,10.612042896100832],[-75.32625805811165,10.6182762090736],[-75.33425803889907,10.608682676143872],[-75.34339091596962,10.614946044320789],[-75.34360621629719,10.61898655329287],[-75.34602198149372,10.621550565393193],[-75.3432723283197,10.630008176361912],[-75.34076592545551,10.630835101739763],[-75.3405399324111,10.632542056124862],[-75.3357457025997,10.633901223131886],[-75.331293720975,10.629703617508198],[-75.32915228047904,10.632381918368708],[-75.32072528315871,10.633424273657852],[-75.31827114882867,10.63690141107412],[-75.30939022577701,10.634588543608459],[-75.30548510817721,10.639424803808708],[-75.29981935354971,10.649329581497],[-75.29926353898952,10.65460807609412],[-75.29360062903402,10.657702079591331],[-75.29147261176979,10.6607303830952],[-75.29189139973408,10.664666262439141],[-75.28725387062389,10.669317646726938],[-75.28978022013075,10.67774893368096],[-75.29131206983573,10.678184774250667],[-75.28934087154363,10.679742542764018],[-75.28858416307878,10.685541550631797],[-75.28877946534152,10.691737958973192],[-75.29109528752252,10.694396528135599],[-75.29018402368752,10.697512771702293],[-75.2916186639772,10.699145919910052],[-75.27581732344913,10.69395845481722],[-75.27072878012837,10.694254764533468],[-75.26688372768541,10.685331774069027]],[[-75.28242331519431,10.609073079094628],[-75.29088901074965,10.60661101135895],[-75.29351152066045,10.602494590987703],[-75.29173074261445,10.599454646542995],[-75.28572350804677,10.60230900544991],[-75.28337188578166,10.60600904646924],[-75.28160633074185,10.605219508062305],[-75.28096215754272,10.607054781220484],[-75.28242331519431,10.609073079094628]],[[-75.28308767054943,10.601276837912337],[-75.28379620368139,10.600718208505043],[-75.2821930294308,10.599924052391202],[-75.28308767054943,10.601276837912337]]]}}]}