{"type":"FeatureCollection","features":[{"type":"Feature","properties":{"code":"130527"},"geometry":{"type":"Polygon","coordinates":[[[-75.29815234490042,10.47695273511215],[-75.29329692275917,10.471275299434467],[-75.29887829573488,10.459521636122815],[-75.29939018448664,10.447791822393185],[-75.30897080120678,10.44541517812155],[-75.30709019944459,10.438699804315434],[-75.30987565373118,10.43371098906573],[-75.31576764205863,10.431991238798787],[-75.32004377852456,10.428361443488768],[-75.33002062535081,10.425516094766806],[-75.33019599742602,10.422265975752111],[-75.3369652996725,10.414130631360365],[-75.35041964489835,10.418053413488849],[-75.3595587347902,10.425444500769345],[-75.36013589364637,10.41780456022417],[-75.37007578441916,10.411585661901768],[-75.38329444250144,10.410525486789084],[-75.38891065088217,10.407086023279192],[-75.39715073803063,10.405613997047055],[-75.405707378758,10.401694446284921],[-75.42269485083926,10.4021106919393],[-75.44008286014395,10.41491593978327],[-75.42400288676959,10.425607352585246],[-75.41598677691815,10.43925846354756],[-75.41099826300206,10.458812489010654],[-75.41228960113966,10.474383203360844],[-75.40692796313556,10.476368709345252],[-75.40152124232526,10.482826705126627],[-75.39274047517671,10.481807169948581],[-75.38967510866138,10.482843401890932],[-75.37904212167888,10.492589404509431],[-75.37447156988776,10.50194892665695],[-75.36319346970959,10.498820957817088],[-75.35820083688122,10.494645680708913],[-75.34749755790943,10.491085718702834],[-75.33822943653388,10.48334403022551],[-75.32654479919876,10.480463692860667],[-75.3222259371168,10.47589332927447],[-75.31690367303457,10.46489379920763],[-75.30786792927455,10.468085945945973],[-75.29815234490042,10.47695273511215]],[[-75.37048815078833,10.449052001807729],[-75.3712483744697,10.453921091950065],[-75.37174100254998,10.45534037450767],[-75.37212084750985,10.4476628721564],[-75.37523345141847,10.448203789726676],[-75.3755553528984,10.446852401858848],[-75.37322295839459,10.440514520964541],[-75.36602220394269,10.440751573879766],[-75.36207402031238,10.445449728647986],[-75.3650926070913,10.44687429225786],[-75.36276539182404,10.447890405807698],[-75.36751754805204,10.448951345053104],[-75.36766653029218,10.451200008909211],[-75.37048815078833,10.449052001807729]],[[-75.36671836491115,10.451109124415382],[-75.36665774233842,10.451495005304423],[-75.36688387730788,10.451295252970908],[-75.36671836491115,10.451109124415382]],[[-75.37636720336576,10.439885163508336],[-75.37894629654721,10.439747188688443],[-75.37859968159353,10.437515650457158],[-75.37628085636038,10.437045369404416],[-75.37636720336576,10.439885163508336]]]}}]}