{"type":"FeatureCollection","features":[{"type":"Feature","properties":{"code":"130520"},"geometry":{"type":"MultiPolygon","coordinates":[[[[-75.37636720336576,10.439885163508336],[-75.37628085636038,10.437045369404416],[-75.37859968159353,10.437515650457158],[-75.37894629654721,10.439747188688443],[-75.37636720336576,10.439885163508336]]],[[[-75.36665774233842,10.451495005304423],[-75.36671836491115,10.451109124415382],[-75.36688387730788,10.451295252970908],[-75.36665774233842,10.451495005304423]]],[[[-75.37174100254998,10.45534037450767],[-75.37048815078833,10.449052001807729],[-75.36766653029218,10.451200008909211],[-75.36751754805204,10.448951345053104],[-75.36276539182404,10.447890405807698],[-75.3650926070913,10.44687429225786],[-75.36207402031238,10.445449728647986],[-75.36602220394269,10.440751573879766],[-75.37322295839459,10.440514520964541],[-75.3755553528984,10.446852401858848],[-75.37523345141847,10.448203789726676],[-75.37212084750985,10.4476628721564],[-75.37174100254998,10.45534037450767]]]]}}]}