{"type":"FeatureCollection","features":[{"type":"Feature","properties":{"code":"131008"},"geometry":{"type":"Polygon","coordinates":[[[-75.27880696985557,10.364710767822714],[-75.28150439974695,10.359988046648084],[-75.28129356183149,10.354367754322084],[-75.28461260295006,10.349002071453583],[-75.28476234109542,10.340389690170241],[-75.28941705959386,10.336431304390146],[-75.29539268909446,10.335368235240253],[-75.29594959894592,10.332124579986782],[-75.30157905983691,10.32698506191258],[-75.3038175400552,10.321178152520929],[-75.31231661371254,10.322732155906237],[-75.31768383101729,10.328272780960958],[-75.32268871670982,10.327789171293148],[-75.32432545521038,10.32458086875124],[-75.32311178608029,10.318276469831574],[-75.32585254014123,10.313954407236508],[-75.33237194833919,10.310765638931798],[-75.33736628632522,10.305256345378439],[-75.34269734873322,10.306853507354049],[-75.34844139971813,10.304582653822138],[-75.35082243955304,10.30015111866311],[-75.3543899379859,10.298846814950707],[-75.35440241505057,10.294847139260412],[-75.37337308734817,10.298104925314135],[-75.37391740700627,10.294074909541052],[-75.38377307964964,10.291770048500382],[-75.38920387835623,10.281328928782614],[-75.38853029170104,10.278573733331825],[-75.38256495176785,10.27187526712072],[-75.40799487043296,10.281750748595414],[-75.41128614051814,10.284756124001717],[-75.41384747249725,10.283712924361339],[-75.41793292646429,10.285926347606107],[-75.41605440729819,10.290640908089358],[-75.41270341658435,10.29259686280642],[-75.41175482645656,10.297908632661233],[-75.41690607083234,10.29850540288777],[-75.41839889834284,10.302023123674303],[-75.42337535479885,10.302411494422643],[-75.42458172610083,10.304002902262368],[-75.42899064272353,10.303053578855042],[-75.43350892803738,10.297131484929764],[-75.43971345387564,10.30405150028514],[-75.43503286387721,10.309595027604644],[-75.43407185633447,10.314695527598133],[-75.42416040096884,10.322917242649453],[-75.42548058280533,10.321152982418766],[-75.42236235845832,10.3198056815815],[-75.42149918562393,10.321158314893182],[-75.42287235590425,10.322122846908485],[-75.41957855996424,10.327030643513467],[-75.41488064585155,10.327066093927101],[-75.41381527813263,10.322600380537892],[-75.41217672648787,10.32285124749302],[-75.41024393538163,10.319527423088346],[-75.40577855623627,10.31773772330348],[-75.40508255570484,10.315128422708426],[-75.40764995549478,10.309898109614892],[-75.40448115954382,10.315112786268344],[-75.40582691771726,10.318921613880491],[-75.40399320470635,10.321072383378578],[-75.3967211987283,10.321092801047882],[-75.396730185259,10.322554202440358],[-75.40295652847686,10.32226514324384],[-75.4056479522639,10.326327110669013],[-75.40004488635014,10.325783792713935],[-75.39920723225993,10.326431791719244],[-75.40565507114303,10.327199250493777],[-75.40410512187816,10.328737760392528],[-75.40580168076627,10.328986028473423],[-75.39812402414867,10.330364220638558],[-75.39640443226187,10.333391632482744],[-75.39753972481606,10.334502988037343],[-75.39209652926337,10.335494786120648],[-75.38753440761559,10.341291175573758],[-75.38023313524872,10.342390705067828],[-75.36592112244125,10.348311985495116],[-75.36216786055002,10.351997745561619],[-75.35771222692591,10.362440302013624],[-75.34730630359644,10.363061163506188],[-75.34049338201743,10.36561765974858],[-75.33808284336573,10.375751466443603],[-75.33488488695559,10.380238979728915],[-75.33589345585108,10.380179651965307],[-75.33544512896077,10.385038937965135],[-75.33139221800036,10.38990046185586],[-75.33263590839601,10.398417846932261],[-75.33571793773706,10.404863825362838],[-75.334253513752,10.409658889241143],[-75.33594692766292,10.412163831716896],[-75.33607662557739,10.41277342045106],[-75.33579910859129,10.413616541741646],[-75.33403762001313,10.411798801471548],[-75.33076155750746,10.41224884688927],[-75.32707856395132,10.41053229507861],[-75.32699860357394,10.406209828305578],[-75.32204987187134,10.40301463223517],[-75.3187740078551,10.403208089472002],[-75.31678513886362,10.4004114930392],[-75.31547531035801,10.392230790218662],[-75.31013226968003,10.389382623564188],[-75.30714884226546,10.383765104947656],[-75.30862138477573,10.380935990190892],[-75.2982585367327,10.37310035143264],[-75.29318318524412,10.361851451822929],[-75.28553995368293,10.365636962586223],[-75.27993034584631,10.366334718669066],[-75.27880696985557,10.364710767822714]],[[-75.39646497255916,10.329700072000378],[-75.39678884144962,10.33134372163471],[-75.39726324449998,10.329959951197338],[-75.39646497255916,10.329700072000378]],[[-75.414786017827,10.315627404506529],[-75.41679097063098,10.314899165387487],[-75.41393699430472,10.314929383085541],[-75.414786017827,10.315627404506529]],[[-75.41472800338448,10.316484421083999],[-75.41414760082063,10.316919169447772],[-75.41488688232698,10.316731173240669],[-75.41472800338448,10.316484421083999]],[[-75.41856446627548,10.320554770315766],[-75.41919322826351,10.322075053127776],[-75.41981037913547,10.32135629933407],[-75.41856446627548,10.320554770315766]]]}}]}