{"type":"FeatureCollection","features":[{"type":"Feature","properties":{"code":"131068"},"geometry":{"type":"Polygon","coordinates":[[[-75.2676617382802,9.983312280741927],[-75.28571943541442,9.958276238077985],[-75.33750596321744,9.91360493224795],[-75.36467318149266,9.910792450491954],[-75.36870350065624,9.906952087746902],[-75.37060847650616,9.90926808064944],[-75.37166533592011,9.912747974291676],[-75.3689977730279,9.919338567167017],[-75.37234135792716,9.915780860535335],[-75.38533068464062,9.97150002603155],[-75.3726721739468,9.975275638035612],[-75.34059919538282,10.004185744477525],[-75.3264651370697,10.009750369266897],[-75.30965510217612,10.047038266168329],[-75.30758365439266,10.039862604685425],[-75.30675370642223,10.00785886087175],[-75.3003302385415,10.002522546207842],[-75.30102097036195,9.995026981508772],[-75.29707113402452,9.985044405229303],[-75.29208460088876,9.981658398104571],[-75.28424510958484,9.987525219415147],[-75.28012476981911,9.988599282615553],[-75.27062235998187,9.985213770171697],[-75.2676617382802,9.983312280741927]],[[-75.3193289832061,10.002036470334872],[-75.32432266710276,10.001711266526058],[-75.31914787859233,9.999590426762154],[-75.30607115997583,9.988428613607994],[-75.3069949728665,9.985474584222914],[-75.30474607349703,9.9808124815072],[-75.30791873124969,9.976428568379049],[-75.30452757059948,9.98044097515924],[-75.30201947800424,9.980450701140171],[-75.3006003301727,9.978280776900192],[-75.30114187097911,9.975936489487083],[-75.30069551149933,9.972636811884286],[-75.30218195855247,9.971395807780482],[-75.30239209609852,9.970189043613459],[-75.30021100297279,9.972603554110151],[-75.30075598083414,9.975995995171218],[-75.29692233998935,9.976636711775086],[-75.29083566852154,9.973108345580044],[-75.2901921360421,9.974085482186808],[-75.2918234248258,9.975180761127945],[-75.29073235941365,9.978466301759909],[-75.2938394580695,9.979536479504475],[-75.29538710670846,9.982163410689623],[-75.29786482116862,9.981425419878576],[-75.29595399142391,9.982850928627158],[-75.2983734466722,9.983437582064653],[-75.30013682758454,9.988562807873166],[-75.30277305177634,9.988541838958668],[-75.3193289832061,10.002036470334872]],[[-75.28458589429783,9.966531301406462],[-75.28221528801225,9.96815529956109],[-75.28710005059014,9.971423408092335],[-75.28858500125943,9.969287507816205],[-75.28458589429783,9.966531301406462]]]}}]}