{"type":"FeatureCollection","features":[{"type":"Feature","properties":{"code":"131001"},"geometry":{"type":"MultiPolygon","coordinates":[[[[-75.41679097063098,10.314899165387487],[-75.414786017827,10.315627404506529],[-75.41393699430472,10.314929383085541],[-75.41679097063098,10.314899165387487]]],[[[-75.41414760082063,10.316919169447772],[-75.41472800338448,10.316484421083999],[-75.41488688232698,10.316731173240669],[-75.41414760082063,10.316919169447772]]],[[[-75.41919322826351,10.322075053127776],[-75.41856446627548,10.320554770315766],[-75.41981037913547,10.32135629933407],[-75.41919322826351,10.322075053127776]]],[[[-75.39678884144962,10.33134372163471],[-75.39646497255916,10.329700072000378],[-75.39726324449998,10.329959951197338],[-75.39678884144962,10.33134372163471]]],[[[-75.42876444501906,10.344693277823922],[-75.42869196553255,10.342764123290408],[-75.4299162420188,10.343807405206235],[-75.42876444501906,10.344693277823922]]],[[[-75.42102766221262,10.34583871287822],[-75.41274491012621,10.342328825738377],[-75.40627769024388,10.341810870204199],[-75.40560838808022,10.34383489650321],[-75.40429012326064,10.34103046333837],[-75.4057269376778,10.340077588719055],[-75.39717377514307,10.338916353702302],[-75.39821722880879,10.335212548583343],[-75.39640443226187,10.333391632482744],[-75.39812402414867,10.330364220638558],[-75.40580168076627,10.328986028473423],[-75.40410512187816,10.328737760392528],[-75.40565507114303,10.327199250493777],[-75.39920723225993,10.326431791719244],[-75.4056479522639,10.326327110669013],[-75.40295652847686,10.32226514324384],[-75.396730185259,10.322554202440358],[-75.3967211987283,10.321092801047882],[-75.40399320470635,10.321072383378578],[-75.40582691771726,10.318921613880491],[-75.40448115954382,10.315112786268344],[-75.40764995549478,10.309898109614892],[-75.40508255570484,10.315128422708426],[-75.40571405232146,10.31759447051661],[-75.41024393538163,10.319527423088346],[-75.41217672648787,10.32285124749302],[-75.41381527813263,10.322600380537892],[-75.41488064585155,10.327066093927101],[-75.4203010943126,10.326676640228754],[-75.42287235590425,10.322122846908485],[-75.42149918562393,10.321158314893182],[-75.42236235845832,10.3198056815815],[-75.42548058280533,10.321152982418766],[-75.42372300436568,10.322641488413808],[-75.42622294963928,10.324167662144532],[-75.42955856513743,10.324064451767129],[-75.43097076583979,10.321530175025373],[-75.4301437026507,10.32480772157362],[-75.42615232443461,10.329815756357107],[-75.43321355626068,10.336834572128396],[-75.42577110341864,10.343719732538375],[-75.42347204690759,10.340743154551035],[-75.42102766221262,10.34583871287822]]],[[[-75.45861174644568,10.367879227472997],[-75.45888190184024,10.365584563439882],[-75.45901900968312,10.367844732482467],[-75.45861174644568,10.367879227472997]]],[[[-75.45723000512538,10.373312305208174],[-75.4613882090593,10.368503143439852],[-75.4627207301491,10.370471437410288],[-75.46526908215515,10.369264567313678],[-75.46659561256729,10.370755109624895],[-75.47601489545264,10.364119093528814],[-75.46234629685375,10.378684858072688],[-75.45723000512538,10.373312305208174]]],[[[-75.45095091411923,10.379633367981967],[-75.45610507721489,10.383369918710741],[-75.45238860785474,10.38795948948939],[-75.44958446985294,10.386855190078904],[-75.45095091411923,10.379633367981967]]]]}}]}