{"type":"FeatureCollection","features":[{"type":"Feature","properties":{"code":"131048"},"geometry":{"type":"Polygon","coordinates":[[[-75.15468320045886,10.096561643473933],[-75.14546746794525,10.089966875121945],[-75.14695209054133,10.086860402787636],[-75.15379263505798,10.088004329116757],[-75.15376823320236,10.078218088684707],[-75.16537260676955,10.068704629261049],[-75.16829311715611,10.070069015613797],[-75.17219594338599,10.076192780946371],[-75.18186751556249,10.079902975778737],[-75.1805070403766,10.076303072150552],[-75.18187669338351,10.073200261071577],[-75.17662871884664,10.06531728516103],[-75.17859369506152,10.064293842929828],[-75.1803314543854,10.057950332341193],[-75.17885647240945,10.056186906177345],[-75.1868332145097,10.049993245834344],[-75.1932894876499,10.037821614227084],[-75.19710943066877,10.036073221835977],[-75.20179492119576,10.036397520615424],[-75.20760297524396,10.041236460936886],[-75.21410998351047,10.042287690656508],[-75.22106082848723,10.04847947306348],[-75.22625176765894,10.049516890800078],[-75.22796650529705,10.0527718599497],[-75.22791253880433,10.061229383500859],[-75.22442117597109,10.064032340850588],[-75.22557011698598,10.068158162214957],[-75.22393697186351,10.069805567721346],[-75.22676651033868,10.076183121814267],[-75.23026599786778,10.074511132417854],[-75.23549255097544,10.076307533534191],[-75.23631971700883,10.074225616205808],[-75.23970753522082,10.073708695284836],[-75.24125115647888,10.069846925508784],[-75.24947892185753,10.066218096934733],[-75.25045938444742,10.068266512748039],[-75.25341603327564,10.067408620965978],[-75.2622028116707,10.07036703563],[-75.26836211791988,10.076079137019633],[-75.27346613621518,10.077523951691148],[-75.27414953626891,10.080439964698542],[-75.27695461323867,10.080983477029292],[-75.27859813226081,10.07866464665392],[-75.28008681309109,10.07903550199768],[-75.2822422218934,10.086101858552865],[-75.27553205406326,10.08788318167342],[-75.26851809254066,10.092042762691847],[-75.25955736646335,10.090028681432045],[-75.25598388043812,10.091566777896901],[-75.25132620413899,10.09031220760778],[-75.24790011963779,10.092588651753204],[-75.24558849350223,10.095480315355587],[-75.2429279774982,10.134524190440118],[-75.24437195193218,10.134928645001025],[-75.23056160618626,10.134935940772266],[-75.2321891977191,10.137278583705722],[-75.23048884490646,10.14034866665844],[-75.2321891977191,10.142356028074857],[-75.22621434469255,10.141011882499242],[-75.22523821595945,10.142224172487943],[-75.22613357493094,10.138440880075166],[-75.22387238464489,10.139793830147141],[-75.1951715888813,10.138156139308762],[-75.17065872109725,10.133311145574623],[-75.16489859761265,10.128324787274096],[-75.16255633006068,10.111679974756498],[-75.15776537275337,10.100715272895513],[-75.15468320045886,10.096561643473933]]]}}]}