{"type":"FeatureCollection","features":[{"type":"Feature","properties":{"code":"131010"},"geometry":{"type":"Polygon","coordinates":[[[-75.43903221972192,10.282659371390082],[-75.43933778130707,10.277568286787812],[-75.4378026282447,10.275664116208418],[-75.43956570165273,10.274032980662696],[-75.43900332871465,10.27240520195329],[-75.43621483846579,10.273813441095115],[-75.43597761380067,10.270626140377885],[-75.43898797201098,10.270584165524895],[-75.4393861242761,10.268999651335434],[-75.44537261824348,10.266160163707355],[-75.4461232033616,10.272543780468936],[-75.44783835854736,10.27480295706448],[-75.44661805184921,10.2763174651717],[-75.44416247975653,10.274685544924353],[-75.44284040558586,10.27779757907581],[-75.44591498797462,10.279717764562122],[-75.44491532127756,10.280825774593154],[-75.44044192953646,10.279233202556554],[-75.43903221972192,10.282659371390082]]]}}]}