{"type":"FeatureCollection","features":[{"type":"Feature","properties":{"code":"131020"},"geometry":{"type":"MultiPolygon","coordinates":[[[[-75.35708837575095,10.24471689036585],[-75.35620160118918,10.24418599599636],[-75.35385001491954,10.24441097602488],[-75.35485819814909,10.24256646333913],[-75.35708837575095,10.24471689036585]]],[[[-75.34156635095496,10.266304084981869],[-75.33777016392986,10.260388573088676],[-75.34070466010621,10.258500570654121],[-75.33863950330561,10.254681801088225],[-75.33534364636677,10.254280940933938],[-75.33457034809561,10.255479331521997],[-75.33392549920978,10.251538132044857],[-75.33815606333081,10.247605116913292],[-75.33529061884207,10.244285407307132],[-75.33663930910512,10.242788773530833],[-75.33798371281978,10.244110060943001],[-75.33944990469752,10.243217430429524],[-75.33891102652876,10.241778902627118],[-75.34174227530377,10.238769382597468],[-75.34373060127757,10.238341402413937],[-75.34564900652987,10.242196859609862],[-75.34724984621596,10.23886207303633],[-75.34922854288243,10.238907466432238],[-75.35212083897693,10.243509322985176],[-75.35183500086237,10.250923309566758],[-75.36219325485268,10.249616151926375],[-75.36300949985497,10.252599079517836],[-75.35977075849985,10.252685301053248],[-75.36057210651222,10.258240900231044],[-75.35734261599754,10.258232111161249],[-75.35732746703928,10.260151773170321],[-75.35426236894745,10.259597854029721],[-75.35764606824716,10.263770582657344],[-75.35427316759387,10.26644684103104],[-75.34663202788477,10.266674518664274],[-75.34504219767592,10.268642028961494],[-75.34156635095496,10.266304084981869]]]]}}]}