{"type":"FeatureCollection","features":[{"type":"Feature","properties":{"code":"131007"},"geometry":{"type":"Polygon","coordinates":[[[-75.33579859128469,10.414772414459094],[-75.334253513752,10.409658889241143],[-75.33571793773706,10.404863825362838],[-75.33263590839601,10.398417846932261],[-75.3314981722624,10.388842956579992],[-75.33253823515315,10.389247426567579],[-75.33544512896077,10.385038937965135],[-75.33589345585108,10.380179651965307],[-75.33488488695559,10.380238979728915],[-75.33808284336573,10.375751466443603],[-75.33935687795793,10.367906632380823],[-75.34131754191333,10.364834851469482],[-75.35771222692591,10.362440302013624],[-75.36216786055002,10.351997745561619],[-75.36592112244125,10.348311985495116],[-75.38023313524872,10.342390705067828],[-75.38753440761559,10.341291175573758],[-75.39410279950226,10.334641504846388],[-75.39821722880879,10.335212548583343],[-75.39717377514307,10.338916353702302],[-75.4057269376778,10.340077588719055],[-75.40429012326064,10.34103046333837],[-75.40560838808022,10.34383489650321],[-75.40627769024388,10.341810870204199],[-75.41274491012621,10.342328825738377],[-75.42102766221262,10.34583871287822],[-75.42347204690759,10.340743154551035],[-75.42577110341864,10.343719732538375],[-75.43321355626068,10.336834572128396],[-75.42615232443461,10.329815756357107],[-75.4301437026507,10.32480772157362],[-75.43097076583979,10.321530175025373],[-75.42955856513743,10.324064451767129],[-75.42416040096884,10.322917242649453],[-75.43407185633447,10.314695527598133],[-75.43536782452026,10.309449863971565],[-75.44238442194103,10.310198820036703],[-75.44211611260073,10.316698796841706],[-75.46487457057651,10.326984191850215],[-75.46245056858385,10.348791810494447],[-75.47554850499796,10.363628955307945],[-75.46659561256729,10.370755109624895],[-75.46526908215515,10.369264567313678],[-75.4627207301491,10.370471437410288],[-75.4613882090593,10.368503143439852],[-75.45723000512538,10.373312305208174],[-75.45900708386364,10.374910884377584],[-75.4562562572367,10.376410314489078],[-75.45809038162457,10.380918211505048],[-75.45610507721489,10.383369918710741],[-75.45095872102638,10.379595210707691],[-75.44958446985294,10.386855190078904],[-75.45238860785474,10.38795948948939],[-75.4510538838411,10.389607778427944],[-75.45136729552797,10.395451232496043],[-75.43692536060558,10.390572045105046],[-75.4248601512017,10.395393984243242],[-75.42269485083926,10.4021106919393],[-75.405707378758,10.401694446284921],[-75.39715073803063,10.405613997047055],[-75.38891065088217,10.407086023279192],[-75.38329444250144,10.410525486789084],[-75.37116423655885,10.411221994342725],[-75.36013589364637,10.41780456022417],[-75.3595587347902,10.425444500769345],[-75.35041964489835,10.418053413488849],[-75.33579859128469,10.414772414459094]],[[-75.45888190184024,10.365584563439882],[-75.45861174644568,10.367879227472997],[-75.45901900968312,10.367844732482467],[-75.45888190184024,10.365584563439882]],[[-75.42869196553255,10.342764123290408],[-75.42876444501906,10.344693277823922],[-75.4299162420188,10.343807405206235],[-75.42869196553255,10.342764123290408]]]}}]}