{"type":"FeatureCollection","features":[{"type":"Feature","properties":{"code":"131077"},"geometry":{"type":"Polygon","coordinates":[[[-75.38533068464062,9.97150002603155],[-75.37234135792716,9.915780860535335],[-75.3689977730279,9.919338567167017],[-75.37166533592011,9.912747974291676],[-75.36870350065624,9.906952087746902],[-75.37510189510834,9.903444491976984],[-75.3835550776036,9.894263449857988],[-75.38831848396433,9.881769559901215],[-75.38963464561897,9.881759012194777],[-75.38940591280368,9.879506868089152],[-75.41022780220385,9.885110530499617],[-75.42229581205669,9.885934863173873],[-75.4269805765033,9.888608552498113],[-75.4324372940182,9.888341484487967],[-75.43991952598844,9.892425043035416],[-75.44397755242193,9.891725064488355],[-75.44504410182128,9.894497845277726],[-75.45024832332814,9.894876651510685],[-75.4634139970803,9.90213040880468],[-75.46416509744813,9.905850066336654],[-75.46009019118759,9.91262201270888],[-75.46669627960631,9.913143889694311],[-75.47146861490495,9.90804450761783],[-75.4781276362317,9.907100570164005],[-75.47982243956847,9.905317455496629],[-75.48424965938267,9.907296483321602],[-75.47612471151638,9.920627079144538],[-75.48038908774214,9.9267430437406],[-75.47842913546896,9.934000073538698],[-75.4757381590544,9.938859324571467],[-75.4730160691683,9.939611793796303],[-75.47055563562782,9.951320108963557],[-75.46240040424311,9.95684817982044],[-75.46591829677953,9.971250020911214],[-75.4744900340146,9.97972856171367],[-75.47549183987206,9.996044420721034],[-75.48045484841367,10.01211763002891],[-75.4746956063043,10.0328613176884],[-75.47509284531247,10.035387020304881],[-75.47974619289704,10.039425660596919],[-75.47700313923866,10.041589512912253],[-75.45434750186052,10.036048672913068],[-75.44803496796055,10.031380364575227],[-75.44826676861987,10.027127926510218],[-75.44498990495742,10.024480686670643],[-75.44295345610129,10.019283972794199],[-75.43796173550146,10.017576913507924],[-75.43296678662057,10.021552791038346],[-75.43572951952655,10.027649353037873],[-75.42043807771392,10.027454955804501],[-75.41488148711755,10.0332756165011],[-75.41190290983792,10.039566064597977],[-75.40396462840255,10.04544889053102],[-75.40472101907869,10.042379457554034],[-75.39983724894779,10.037165780546673],[-75.39888335411348,10.028363775031664],[-75.39492389566789,10.021570086356178],[-75.39295489618587,10.002921123219721],[-75.39730381964267,9.992204482722741],[-75.39436223132668,9.986942798018617],[-75.39489333035624,9.985201448401881],[-75.38533068464062,9.97150002603155]]]}}]}