{"type":"FeatureCollection","features":[{"type":"Feature","properties":{"code":"131017"},"geometry":{"type":"Polygon","coordinates":[[[-75.45611431468558,10.314482470303744],[-75.43531329238414,10.309441050219164],[-75.43971345387564,10.30405150028514],[-75.43350892803738,10.297131484929764],[-75.43106440964493,10.30176598116293],[-75.42458172610083,10.304002902262368],[-75.42337535479885,10.302411494422643],[-75.41813642232859,10.30186715625257],[-75.41602121740124,10.298071820777864],[-75.41179448834231,10.298253061146056],[-75.41270341658435,10.29259686280642],[-75.41605440729819,10.290640908089358],[-75.41793292646429,10.285926347606107],[-75.41384747249725,10.283712924361339],[-75.41128614051814,10.284756124001717],[-75.40799487043296,10.281750748595414],[-75.38248641166956,10.271916255697306],[-75.38527902905827,10.268154008303725],[-75.3898848060341,10.253699666250782],[-75.38674569504798,10.248169355446123],[-75.38898572615756,10.24322978305264],[-75.38617393757187,10.237093680523571],[-75.3995551121979,10.229937634524845],[-75.39938154195397,10.22809220549675],[-75.40167550356085,10.2270287907902],[-75.40209988316712,10.221667181582518],[-75.40045533878776,10.219642426117787],[-75.40192417581966,10.217510143902416],[-75.4070907409037,10.216477975336488],[-75.40992164823581,10.214007943341983],[-75.41427586714309,10.214988938665101],[-75.426828107843,10.208414936624479],[-75.43024121545653,10.209371343943815],[-75.43138421104521,10.208060549730703],[-75.43526639231993,10.209087274750402],[-75.43881374356386,10.208077162162681],[-75.43928417168388,10.200000469847794],[-75.43605394069061,10.189810562641867],[-75.4359234611598,10.171601926141363],[-75.43887181251381,10.171963672569746],[-75.44292443551029,10.165014328090592],[-75.45607597949072,10.1579783188173],[-75.46504027529204,10.159311023998328],[-75.4741435733273,10.153492414016114],[-75.48521645499994,10.154225868367178],[-75.49435958667084,10.149557835651933],[-75.49775326391983,10.145314406743353],[-75.51762957241505,10.21108029659274],[-75.50295082214762,10.2134437428615],[-75.50443644541826,10.21692037119874],[-75.50316770010596,10.223866130527313],[-75.50450024999213,10.247227495446168],[-75.49970062702818,10.245606929204143],[-75.49819068931947,10.248876313004132],[-75.49406755630389,10.249725788012597],[-75.48971199322222,10.248445454210014],[-75.48744273480463,10.252084149661584],[-75.48132464236102,10.254915834496217],[-75.47828988435191,10.254403556993225],[-75.47040240900537,10.260628658880933],[-75.4647134701982,10.260449589554867],[-75.46073556766447,10.26526250822377],[-75.45869262110847,10.264629445289131],[-75.46187751218486,10.267383915687958],[-75.47014101079884,10.267648030011173],[-75.4717218112824,10.26993698618827],[-75.47109003081562,10.276243927417852],[-75.47733283219907,10.284414834323456],[-75.47945017320154,10.296598339299578],[-75.48237382033778,10.301174872512433],[-75.482299752936,10.319253975649247],[-75.47520054175618,10.320971476712373],[-75.46364517758877,10.318995464280874],[-75.45611431468558,10.314482470303744]],[[-75.43933778130707,10.277568286787812],[-75.43903221972192,10.282659371390082],[-75.44044192953646,10.279233202556554],[-75.44491532127756,10.280825774593154],[-75.44591498797462,10.279717764562122],[-75.44284040558586,10.27779757907581],[-75.44416247975653,10.274685544924353],[-75.44661805184921,10.2763174651717],[-75.44783835854736,10.27480295706448],[-75.4461232033616,10.272543780468936],[-75.44537261824348,10.266160163707355],[-75.4393861242761,10.268999651335434],[-75.43898797201098,10.270584165524895],[-75.43597761380067,10.270626140377885],[-75.43621483846579,10.273813441095115],[-75.43900332871465,10.27240520195329],[-75.43956570165273,10.274032980662696],[-75.4378026282447,10.275664116208418],[-75.43933778130707,10.277568286787812]]]}}]}