{"type":"FeatureCollection","features":[{"type":"Feature","properties":{"code":"131560"},"geometry":{"type":"MultiPolygon","coordinates":[[[[-75.0156996234893,10.244258312988961],[-75.01674644221896,10.24125440619855],[-75.0187412360678,10.243660461869297],[-75.0156996234893,10.244258312988961]]],[[[-75.02002588315833,10.257386316948555],[-75.01738896373945,10.253399229394688],[-75.01906879501001,10.251086331075726],[-75.01787901968493,10.249565173059125],[-75.01891121396193,10.246603890068911],[-75.02131979651597,10.246973918544938],[-75.02061637062957,10.249070937523243],[-75.02198814222805,10.25132737229103],[-75.02212086376358,10.254769672245459],[-75.02002588315833,10.257386316948555]]]]}}]}