{"type":"FeatureCollection","features":[{"type":"Feature","properties":{"code":"132037"},"geometry":{"type":"Polygon","coordinates":[[[-75.10918885984904,9.8955022099002],[-75.1030182489597,9.882467731474833],[-75.09914992286258,9.880361900801063],[-75.09441629402659,9.882945729960227],[-75.08917077541042,9.880429229847437],[-75.0767830227785,9.881947510281805],[-75.07253191757502,9.878501218942006],[-75.05787194461107,9.88525838968053],[-75.0546768174463,9.888994305860251],[-75.05206833549147,9.887628935287978],[-75.05025564795943,9.888722335264617],[-75.05173437757992,9.885664865130991],[-75.05161197132287,9.879479734690221],[-75.0456533604891,9.874987091533626],[-75.04763948045371,9.871645715728903],[-75.0383479650962,9.867712801384698],[-75.02912672527287,9.870148005173291],[-75.02478346647746,9.866137446504297],[-75.01310995277663,9.867169970911391],[-75.00069863544127,9.862503290598],[-74.9928808854122,9.863021729500133],[-74.9856168488352,9.860814078903218],[-74.97808738975607,9.869972496315313],[-74.97324837230138,9.872709784524943],[-74.95974089876347,9.870988130610897],[-74.9507391378296,9.863589600491935],[-74.94446364637224,9.867010445078506],[-74.9393801455052,9.863013026819544],[-74.94353297891223,9.861657720585754],[-74.94386848771512,9.857467905414126],[-74.94696614629709,9.854614610945305],[-74.94859386227148,9.847842800327498],[-74.95087131634745,9.845555464975803],[-74.94184587552462,9.84339426604214],[-74.93774740250376,9.840784180745402],[-74.93296112049615,9.83074368464014],[-74.94000557328252,9.819974921647827],[-74.93952121285167,9.816164611021634],[-74.93358539333252,9.811339741850702],[-74.92612271205462,9.811325670700114],[-74.91841412502822,9.797773253195714],[-74.93416158031056,9.78603721841722],[-74.93563247525589,9.782968909527881],[-74.95102449874685,9.774583573385598],[-74.95101002444682,9.766383103899784],[-74.95328965573566,9.764686756870788],[-74.96166579863029,9.762900124930013],[-74.96753556437176,9.763421648131214],[-74.9735716374961,9.766291916015405],[-74.98902117663494,9.760262028972818],[-74.99438213895223,9.763660289990185],[-74.99663030401376,9.76867598049978],[-75.00175323639547,9.770367347810065],[-75.00184351822196,9.773786452271906],[-75.00525630701833,9.77742144327351],[-75.01569489471063,9.782769411219647],[-75.01885312650006,9.781874803011192],[-75.0199942780913,9.785609659895158],[-75.0216419252817,9.785931675532197],[-75.0201423265056,9.786410415524642],[-75.0217038426635,9.787086346000365],[-75.02515240788978,9.784511710088793],[-75.02269294828432,9.78354222612279],[-75.02547021822534,9.783092676414356],[-75.02541407349133,9.781565091660468],[-75.03227539254686,9.781330136767963],[-75.03709640094456,9.776914164001198],[-75.04616370657703,9.780655913506905],[-75.05018320961062,9.784337259498102],[-75.06011254547786,9.778123290500673],[-75.06424756008988,9.770880607475704],[-75.07392624908863,9.770835552437404],[-75.0768422538685,9.774778538319197],[-75.07863462349013,9.768245431266848],[-75.07810986995094,9.765316941194783],[-75.07418700349012,9.762923821274057],[-75.07522850414352,9.760736540009646],[-75.07704225097132,9.760828416950517],[-75.07792108287151,9.762742278543783],[-75.07906020123193,9.761779592582798],[-75.08505010757159,9.76401741871166],[-75.08836899442372,9.7636505362413],[-75.08872133883062,9.765284568909635],[-75.10200857551695,9.759645976477486],[-75.10791861609596,9.75883497344671],[-75.11110190383044,9.759043440802145],[-75.11268295422553,9.761440964513781],[-75.1173320296599,9.763589591766106],[-75.12440299466596,9.763384940960862],[-75.13312927801519,9.768327624392953],[-75.13828077435943,9.76898625235168],[-75.14600518088861,9.776509110886764],[-75.14605507886273,9.778943995858185],[-75.15005217933293,9.780844459930734],[-75.1551867331151,9.780242958868541],[-75.16095777146018,9.782212233973155],[-75.16698777780209,9.7861975474637],[-75.16818476456609,9.789082978704357],[-75.17072853691764,9.78977877766107],[-75.1734017624143,9.789992786264804],[-75.17563485050852,9.785036471855562],[-75.18139770245108,9.78377264764066],[-75.180545402311,9.780073730708978],[-75.18442924349199,9.774873597261205],[-75.18752773819767,9.77798779834103],[-75.1879712900294,9.781045094667945],[-75.19399713529288,9.784222007087294],[-75.21061830186005,9.784660914472568],[-75.22411130932556,9.78076952966569],[-75.22964856520252,9.781744056085358],[-75.2377336249258,9.785053266321881],[-75.23121789649514,9.789572490603803],[-75.23117624354467,9.79649677913784],[-75.24015905851047,9.801192650763653],[-75.24229421727955,9.805042881414693],[-75.24787072057995,9.80523051458158],[-75.24540810776978,9.813647792091615],[-75.2427867363449,9.812999185276738],[-75.24184599529036,9.815038511715102],[-75.23752717331769,9.832272070550744],[-75.23343962749857,9.838105096211677],[-75.23346832824393,9.844405402958557],[-75.2351536976775,9.844980425739664],[-75.2357769472136,9.849902463188187],[-75.2357032757622,9.859505861967023],[-75.23984788060068,9.863108488910996],[-75.24302294079502,9.861182365197635],[-75.24495266611416,9.86252369592603],[-75.24387982470347,9.864615471904358],[-75.24691285904288,9.865398185566733],[-75.24507965613947,9.868024787650313],[-75.24788072424036,9.867479526967315],[-75.25257096102956,9.8696846445103],[-75.25290053263382,9.868474491625136],[-75.25392886099542,9.869597445954469],[-75.2556275179063,9.868571219729347],[-75.25732437401433,9.871533564072251],[-75.26172706855976,9.873754233722991],[-75.2634624490961,9.872159492701087],[-75.26234295856119,9.868004245539453],[-75.26765036062056,9.869597971488588],[-75.26783472848246,9.866355633669968],[-75.27007418057894,9.868087801351862],[-75.27138386407415,9.866322789329672],[-75.27593161838001,9.869427459832764],[-75.27742490046211,9.868816541322417],[-75.27839179275298,9.87325925050942],[-75.28156582656169,9.871417517703776],[-75.28393987915814,9.872375111845827],[-75.28672112094415,9.870161877834448],[-75.29437096127697,9.871822465917035],[-75.30496817902872,9.878776998888725],[-75.30913122281311,9.877885045090409],[-75.3166249414578,9.87917167810349],[-75.31529319169988,9.880922223024754],[-75.30973985920946,9.881767363148015],[-75.30939790412884,9.884653184168428],[-75.30222844209743,9.887897218917203],[-75.29699376326539,9.895342944263348],[-75.29211109356805,9.896922078670002],[-75.28212134081662,9.892772822186032],[-75.27875453882751,9.896188075130624],[-75.27686631013557,9.896014020490327],[-75.27597914682258,9.893478288502365],[-75.27323606642466,9.896232553212656],[-75.268799363342,9.890841701270404],[-75.26466885330825,9.889132041053017],[-75.26165445846107,9.889169746841105],[-75.26260759739012,9.894735685979924],[-75.25704188245174,9.895919016055757],[-75.25371375915728,9.89025286650633],[-75.25095610778578,9.889428594510207],[-75.24495561157352,9.894796148115631],[-75.23633647650809,9.897944445150301],[-75.2296697531753,9.906655217529476],[-75.21712005375684,9.91353052031792],[-75.21067039658743,9.923640226490932],[-75.20222541797813,9.916678887286707],[-75.20016154158844,9.91431632856387],[-75.20002739154631,9.910045672668048],[-75.19385647932336,9.904453839403459],[-75.184774929762,9.907599034655561],[-75.18360632595466,9.912383604306399],[-75.17874138866318,9.912049285411513],[-75.17604850243083,9.908096525211988],[-75.17142598960987,9.905406522732505],[-75.15953171352328,9.913459589665877],[-75.15572495410913,9.918218680681719],[-75.14939539331476,9.918906707698284],[-75.13306153553492,9.91301256581221],[-75.12952106765675,9.91473100481494],[-75.1205023765022,9.905613241735637],[-75.11949877704092,9.902473940487653],[-75.11539769383296,9.902935199014166],[-75.1128706131035,9.905107969983078],[-75.11201334044381,9.90355803408795],[-75.10780705785061,9.904826305288282],[-75.10715524538045,9.899158173930118],[-75.10918885984904,9.8955022099002]],[[-75.12025994071882,9.843409953904313],[-75.12496128160194,9.838201793462645],[-75.12502421405651,9.833071713405388],[-75.12974636136022,9.834526157384232],[-75.12993990601473,9.83089898151735],[-75.1317993239179,9.832764905347915],[-75.13299412421316,9.831810777057115],[-75.12920390112623,9.829255323655445],[-75.12989131930482,9.826695665980765],[-75.12603507843573,9.825384608486388],[-75.12793964496547,9.82502637316071],[-75.12808891619795,9.823234715221304],[-75.1247637033959,9.820642143272266],[-75.12074805702173,9.821289618800336],[-75.1169896302921,9.826413527173997],[-75.112802481872,9.826725115432339],[-75.11337598050125,9.828172901274286],[-75.11519130495986,9.827623033168777],[-75.11600992977816,9.830331709079076],[-75.114481491417,9.831281958084674],[-75.11277382637809,9.829449040059842],[-75.1129677957793,9.833364598408082],[-75.1111406966823,9.836301005430698],[-75.11360502082078,9.83750204837196],[-75.11507085274366,9.834543516465487],[-75.11965964396285,9.834198301222159],[-75.1188011464281,9.842765807444664],[-75.12025994071882,9.843409953904313]]]}}]}