{"type":"FeatureCollection","features":[{"type":"Feature","properties":{"code":"132030"},"geometry":{"type":"Polygon","coordinates":[[[-75.12025994071882,9.843409953904313],[-75.1188011464281,9.842765807444664],[-75.11965964396285,9.834198301222159],[-75.11507085274366,9.834543516465487],[-75.11360502082078,9.83750204837196],[-75.1111406966823,9.836301005430698],[-75.1129677957793,9.833364598408082],[-75.11277382637809,9.829449040059842],[-75.114481491417,9.831281958084674],[-75.11600992977816,9.830331709079076],[-75.11519130495986,9.827623033168777],[-75.11337598050125,9.828172901274286],[-75.112802481872,9.826725115432339],[-75.1169896302921,9.826413527173997],[-75.12074805702173,9.821289618800336],[-75.1247637033959,9.820642143272266],[-75.12808891619795,9.823234715221304],[-75.12793964496547,9.82502637316071],[-75.12599783236146,9.8251437307934],[-75.12603507843573,9.825384608486388],[-75.12989131930482,9.826695665980765],[-75.12920390112623,9.829255323655445],[-75.13299412421316,9.831810777057115],[-75.1317993239179,9.832764905347915],[-75.12993990601473,9.83089898151735],[-75.12974636136022,9.834526157384232],[-75.12502421405651,9.833071713405388],[-75.12496128160194,9.838201793462645],[-75.12025994071882,9.843409953904313]]]}}]}