{"type":"FeatureCollection","features":[{"type":"Feature","properties":{"code":"132018"},"geometry":{"type":"Polygon","coordinates":[[[-75.02936753920238,10.103607266627932],[-75.03649384058662,10.100092813203275],[-75.03855561381135,10.097235926384712],[-75.04248624604162,10.084957579467925],[-75.04718551255615,10.081617238276408],[-75.04962936554637,10.064919366352342],[-75.05700429805171,10.056090745773417],[-75.0573441581949,10.048526906889322],[-75.05473442771086,10.045859962091129],[-75.06091070840375,10.03384377854212],[-75.05944831456429,10.02331232249037],[-75.0552589570496,10.022447796225606],[-75.04816258025733,10.017733976220939],[-75.0425949339039,10.017603245750195],[-75.03737766968902,10.023439926495882],[-75.03208404567403,10.026613408030983],[-75.03321039386367,10.02387338724958],[-75.0297423735903,10.020141961249863],[-75.03183328773383,10.017051162379516],[-75.02905364003374,10.01184540026577],[-75.0187551395822,10.012133380626096],[-75.01570905327878,10.009345261644967],[-75.01423749190269,10.010005915635475],[-75.01019615503441,10.00778665803631],[-75.01737719732859,9.987372654081241],[-75.01676516707192,9.98580932889297],[-75.01434109720202,9.985596923631135],[-75.01386608634209,9.982911142908165],[-75.01745544432072,9.979054622302726],[-75.01964152744955,9.970025590158627],[-75.01719217537726,9.968295690192463],[-75.00678251263076,9.969317985710234],[-75.00325594415324,9.97443301553966],[-75.00055688726582,9.975710584888759],[-74.98589406037388,9.966025991601498],[-74.97788469607696,9.963035041129956],[-74.97182571953772,9.95122359580381],[-74.96723927728124,9.948317001272983],[-74.95366313875007,9.957537361777952],[-74.9514361698889,9.964725443761154],[-74.94828699353582,9.967197052358074],[-74.94390478865068,9.968494359576027],[-74.93729666597261,9.965334939935474],[-74.92871052334323,9.968373962895669],[-74.92117861554249,9.96875575983944],[-74.91907092647307,9.975643935642893],[-74.91596111787118,9.977828131579713],[-74.90459473310187,9.97747559691095],[-74.90195365466144,9.974559894493154],[-74.8940130859699,9.972497852844924],[-74.88924485312845,9.973412322335264],[-74.88197785155165,9.96869958836595],[-74.88115390762869,9.967378317408873],[-74.88245888599943,9.966599989025383],[-74.87840439123755,9.957482518023767],[-74.87559903967355,9.955762535328802],[-74.8756406843965,9.949890820688722],[-74.87142309716307,9.943867629835381],[-74.86445760510799,9.942616118134367],[-74.86846711168027,9.931296312555219],[-74.86816654318352,9.903025990948208],[-74.8767877639304,9.891522344069699],[-74.87984675924429,9.883375522259485],[-74.8802298314568,9.859825990412048],[-74.87879515002942,9.852464992274406],[-74.8895261558115,9.853119734777295],[-74.89435765123761,9.851749831858854],[-74.8967128514542,9.852869650466914],[-74.90104612201588,9.851409324825283],[-74.90756719217694,9.855913505050069],[-74.9109695391964,9.854246288655418],[-74.91580063558678,9.85457562988853],[-74.91736067181586,9.856413693211266],[-74.92172460127745,9.854710089491846],[-74.92594627245609,9.855330091206497],[-74.93109532007867,9.858115064181902],[-74.93025222141381,9.860393033507592],[-74.93167668526473,9.859979252001494],[-74.9362999087395,9.863625409831968],[-74.93842637511239,9.862129525790294],[-74.94446364637224,9.867010445078506],[-74.9507391378296,9.863589600491935],[-74.95974089876347,9.870988130610897],[-74.97324837230138,9.872709784524943],[-74.97808738975607,9.869972496315313],[-74.9856168488352,9.860814078903218],[-74.9928808854122,9.863021729500133],[-75.00069863544127,9.862503290598],[-75.01310995277663,9.867169970911391],[-75.02478346647746,9.866137446504297],[-75.02912672527287,9.870148005173291],[-75.03974742956638,9.867968711821959],[-75.04763948045371,9.871645715728903],[-75.0456533604891,9.874987091533626],[-75.0515372662868,9.879073148167947],[-75.05178461185477,9.885315543316608],[-75.05025564795943,9.888722335264617],[-75.05206833549147,9.887628935287978],[-75.0546768174463,9.888994305860251],[-75.05787194461107,9.88525838968053],[-75.07253191757502,9.878501218942006],[-75.07661772532623,9.881931051087747],[-75.08917077541042,9.880429229847437],[-75.09441629402659,9.882945729960227],[-75.09914992286258,9.880361900801063],[-75.1030182489597,9.882467731474833],[-75.10793085250504,9.894334122370992],[-75.10207819696171,9.915624586637762],[-75.10339059245985,9.92263298120099],[-75.09254196987752,9.93355752135318],[-75.08924488086456,9.939375759039137],[-75.08468655005589,9.943861908609676],[-75.08248510096735,9.943480881969322],[-75.08306884905477,9.945405668707451],[-75.08170543458016,9.945312654309191],[-75.0813100251712,9.947412183715642],[-75.07641961541543,9.946170240643823],[-75.07557719449414,9.947425870228699],[-75.07692473907224,9.947725766124051],[-75.07586368155597,9.950200168999231],[-75.07822223449517,9.952793236657612],[-75.0768280428498,9.95401099076139],[-75.07817333205344,9.955007896090308],[-75.07904401046136,9.95335238131463],[-75.079902642722,9.955248169059075],[-75.0754393739407,9.965958289230514],[-75.08092198763825,9.961260016191432],[-75.0796796774124,9.97483812624688],[-75.07628516815339,9.987687878912368],[-75.07753595480244,9.991351909016942],[-75.07653703681154,10.003723274445747],[-75.07908493835981,10.009735941246788],[-75.08104622966516,10.03623954567388],[-75.07891785964512,10.04571149098689],[-75.08010805560315,10.057171112298022],[-75.07457703928691,10.066890622237224],[-75.07759063503431,10.07343628554429],[-75.08270967578949,10.078502072517438],[-75.09547324497191,10.069565893306105],[-75.10366680640931,10.06720951449438],[-75.1070996282375,10.067535558540726],[-75.10892320697576,10.071828122319062],[-75.1113800275977,10.073556012708536],[-75.12013047214703,10.071191836245589],[-75.12447884847239,10.07169107515432],[-75.13188688551395,10.077483214054553],[-75.13639569167316,10.077155805264908],[-75.13854556231246,10.085225522682663],[-75.14388066649957,10.090477181100653],[-75.14347957288885,10.094344987834347],[-75.14022866197337,10.097289866137942],[-75.13964723919452,10.095751640089304],[-75.1392615979326,10.09864778153036],[-75.13753859058824,10.099150469835308],[-75.13542308535568,10.107626106316104],[-75.12196280293114,10.113772858367383],[-75.12077692437475,10.11095401260917],[-75.11792538751416,10.110548332144788],[-75.11570966261502,10.10249768719359],[-75.10673256270434,10.096149488963931],[-75.10170798130918,10.098501803370823],[-75.09910622948217,10.104056755658235],[-75.09501754414879,10.104556375090738],[-75.09257206107719,10.110352625704138],[-75.08565182254978,10.119284600642402],[-75.07988882353987,10.11682191069906],[-75.07791865266188,10.113978146807028],[-75.07075941026375,10.114109357560437],[-75.05630961804047,10.122452043163037],[-75.05114246571583,10.120140734816232],[-75.04209456576524,10.120456573627507],[-75.02595231196887,10.11103194078413],[-75.02936753920238,10.103607266627932]],[[-75.07651214130351,9.956081521174156],[-75.07743553870336,9.95703517123917],[-75.07759217152739,9.956786162679634],[-75.07651214130351,9.956081521174156]],[[-75.07371883280143,9.952537561733664],[-75.07441609523187,9.953691336428392],[-75.07471472717134,9.953270960548878],[-75.07371883280143,9.952537561733664]]]}}]}