{"type":"FeatureCollection","features":[{"type":"Feature","properties":{"code":"132507"},"geometry":{"type":"Polygon","coordinates":[[[-74.9576448403505,9.677960484466325],[-74.95649458909986,9.675988157972824],[-74.94056306934618,9.667740805906362],[-74.93335482474737,9.671844931247279],[-74.92736053312882,9.66824479416266],[-74.92055404240085,9.669331626505368],[-74.91252789186512,9.667913747771877],[-74.90332776288136,9.669363113301529],[-74.89883972097664,9.667565771160298],[-74.888716213105,9.656015870079557],[-74.88043997105973,9.66089888327673],[-74.87603408731405,9.659077303830713],[-74.87162486113021,9.65971463171644],[-74.86557246765153,9.651570713199419],[-74.85750911629299,9.65328283447974],[-74.85122935988454,9.639288818155933],[-74.84694154751065,9.621733168606966],[-74.83057304870141,9.589650456862955],[-74.8301336661757,9.584252860394713],[-74.8263591175812,9.582361366397777],[-74.82527482137772,9.579455091712589],[-74.82827270560875,9.574839179435685],[-74.83438367505948,9.57198271736388],[-74.83533704847343,9.566536107382035],[-74.8409981864225,9.55963497937347],[-74.84746760202961,9.558653389610583],[-74.8514801425074,9.554131108797549],[-74.85665308187811,9.553805407222512],[-74.86411405696992,9.55809290386452],[-74.87000407685838,9.555732446249749],[-74.87569555077641,9.556859625420941],[-74.87928123001615,9.555454649527235],[-74.87703016886047,9.550668508416265],[-74.87950213535538,9.539658575653277],[-74.87631314285022,9.528992752557997],[-74.87646006512,9.521712253701594],[-74.88603237510995,9.517350245370665],[-74.89253978858284,9.512403654885418],[-74.89933005460159,9.510150284876374],[-74.90766104886967,9.501122018921933],[-74.91450428996257,9.499023059272588],[-74.925204023893,9.491926555981877],[-74.94086447088137,9.491888271180699],[-74.95653858072859,9.497231001269029],[-74.9721991449594,9.497191286932718],[-74.97354511293508,9.492289721660995],[-74.97488122020394,9.49358971825609],[-74.97438012598491,9.495989018087926],[-74.9759494048269,9.495123948805542],[-74.97797865355699,9.487190099957388],[-74.97698675160098,9.474100379770562],[-74.97956491712722,9.465475188207165],[-74.97925221403722,9.460780807823028],[-74.98791907911988,9.457614748557546],[-74.98896386461865,9.450920152375659],[-74.99078762436284,9.44876388071009],[-74.9981908606348,9.447127398291684],[-75.00580803146255,9.449028433149806],[-75.00779579693517,9.45288897805085],[-75.01122399180048,9.45339859188772],[-75.01837615131495,9.461688560555274],[-75.03050608883404,9.465525100579498],[-75.03649230717883,9.477102728470527],[-75.03198252605614,9.482360482467357],[-75.02914396711168,9.488000145508181],[-75.02912877598726,9.491784588748146],[-75.02719312169705,9.492372906205674],[-75.02539874455562,9.495921464841103],[-75.02876933018473,9.501178175997211],[-75.02738146140393,9.502305179304699],[-75.02886953956687,9.502232216450238],[-75.0290047581608,9.50999950697559],[-75.02677685958759,9.51155818874588],[-75.02704219570052,9.514293212325072],[-75.02374159352792,9.514468263526169],[-75.02375649154624,9.517203978218788],[-75.02147274031671,9.517307315094627],[-75.02238356500675,9.51944848099646],[-75.02021717860902,9.525637730349501],[-75.00550024946995,9.53078698468903],[-74.99843250348897,9.54114981524856],[-74.9956930781758,9.540989782393524],[-74.99595295223054,9.547295713692563],[-74.99422867887336,9.548317261532645],[-74.99607578014894,9.550019855321466],[-74.9917916393149,9.553581615045118],[-74.98910443934125,9.558769773308256],[-74.99794302758505,9.570925835324203],[-74.99198480447404,9.576317007112095],[-74.99194665954104,9.579090167396771],[-74.98954648964684,9.580959853270087],[-74.9884130410901,9.584806008203373],[-74.98564636102168,9.585234730922366],[-74.98298847165984,9.58892098978356],[-74.9811475492669,9.60385328815579],[-74.9776906690829,9.611194950545666],[-74.96512873634072,9.615642305207473],[-74.96332864517262,9.621619054681958],[-74.95957965748852,9.62409092964549],[-74.95876368399502,9.62867975891703],[-74.96227203669866,9.63065740040156],[-74.96340076470426,9.633826470946701],[-74.96994289428278,9.635191677996602],[-74.97703827142897,9.64251614071378],[-74.97603617349381,9.646620698000618],[-74.9668959615712,9.6555793846764],[-74.97236699911974,9.667795400777436],[-74.9816539831595,9.677766129399174],[-74.97282481956296,9.67751911190436],[-74.96453513474552,9.67974859736438],[-74.9576448403505,9.677960484466325]]]}}]}