{"type":"FeatureCollection","features":[{"type":"Feature","properties":{"code":"132567"},"geometry":{"type":"Polygon","coordinates":[[[-74.45862708891048,9.27103079461591],[-74.44819534241776,9.269752157743426],[-74.43904881688655,9.270916410210532],[-74.4306220869613,9.26839888474052],[-74.4204962434967,9.256161189071179],[-74.41330686978966,9.229756255476161],[-74.40638658806768,9.217029124012186],[-74.39841489562019,9.213483013069947],[-74.39178337896016,9.21531966228423],[-74.38413646866007,9.210963782442207],[-74.37919339853357,9.213350285363788],[-74.37322054377086,9.207047771579255],[-74.36937516428321,9.198298913916744],[-74.36362210825558,9.193243735328167],[-74.35810530912875,9.183944533391298],[-74.35967832018866,9.160687954423793],[-74.35499174568321,9.152041262241084],[-74.35068465001211,9.150184251921814],[-74.35901594355693,9.151294548180601],[-74.3690281780618,9.147472423835154],[-74.37286809549124,9.150259724176067],[-74.38091942127141,9.151741581290196],[-74.38419050302997,9.146065444535452],[-74.37996916815206,9.134627178833227],[-74.38371112334625,9.132577357139041],[-74.39036038063978,9.136571397992782],[-74.39607647238637,9.144193932148255],[-74.40197227829242,9.143352445052813],[-74.40599289204397,9.1382326226813],[-74.40955088458264,9.139717850001603],[-74.41311176601636,9.144272531896206],[-74.42116093926631,9.144078599518878],[-74.42911033096624,9.137188391513007],[-74.43350351447526,9.130951337066335],[-74.43611358023156,9.120251850990542],[-74.4405319749805,9.116835537721727],[-74.44584701116872,9.103967941578503],[-74.45046260154305,9.10073105039146],[-74.44748407568557,9.096350181453147],[-74.44868303705925,9.09125648563537],[-74.45532687446064,9.082471782637356],[-74.46017803267927,9.081382951002354],[-74.45965304671205,9.08494688999565],[-74.46180348402322,9.08735979406515],[-74.46700701338824,9.088783963781566],[-74.46848237897319,9.08783406650332],[-74.47302947301893,9.090228422611972],[-74.47802869713536,9.09593829022441],[-74.47886794016927,9.099846808883626],[-74.4748065250177,9.10606313198599],[-74.475450006075,9.108655940476808],[-74.48779389871879,9.112685189031765],[-74.49958495414359,9.123069747496345],[-74.5120902022195,9.126864160458126],[-74.52107549881703,9.140097929446313],[-74.53246506673759,9.145595050354075],[-74.54000040645104,9.147172117591253],[-74.53533350913631,9.16514017259027],[-74.5349474307863,9.173313632090185],[-74.53738893172846,9.175444725426019],[-74.54834199881924,9.17639391102199],[-74.55464289383525,9.186721292196353],[-74.55228004612002,9.189779813398275],[-74.55325878195492,9.191661606096886],[-74.54291562550083,9.196667240495572],[-74.53319946211354,9.212745630068412],[-74.53215206642767,9.22542935817279],[-74.525825177527,9.239769677832157],[-74.51177775006943,9.234507892340673],[-74.50540640057022,9.236293222273275],[-74.49892574202948,9.239965840901277],[-74.47209066235104,9.26609677992576],[-74.45862708891048,9.27103079461591]],[[-74.43278592076473,9.25946313850352],[-74.43725048949739,9.255017997050004],[-74.43242454560402,9.257755861187434],[-74.43054365279261,9.253507033984079],[-74.43622835647352,9.252254192506882],[-74.43374454334929,9.249621514384955],[-74.43361790093752,9.251575661100105],[-74.4318954664356,9.251133261124039],[-74.43368105245037,9.248917502286304],[-74.43179975443263,9.246860949435757],[-74.43373208376818,9.245519322515918],[-74.43077800913159,9.243128136067128],[-74.4296776229449,9.240193090702462],[-74.43083417443438,9.238925081754985],[-74.42938812151812,9.239840077807912],[-74.42639717104652,9.236516877667782],[-74.43012569683833,9.233890000990073],[-74.42996033048041,9.232513981924],[-74.42577566266363,9.235754237146466],[-74.42444050670412,9.233982203947221],[-74.42738012658111,9.231729071508369],[-74.4265761169595,9.229721412872095],[-74.42385124513635,9.233172311634405],[-74.42163108250776,9.228831976701088],[-74.4173974690546,9.22575263879412],[-74.41399271239436,9.227333006303411],[-74.41544147217138,9.231700958003671],[-74.42465354137278,9.24389909565997],[-74.43160164349337,9.25816560811353],[-74.43278592076473,9.25946313850352]]]}}]}