{"type":"FeatureCollection","features":[{"type":"Feature","properties":{"code":"132518"},"geometry":{"type":"Polygon","coordinates":[[[-74.79999467376814,9.270911663948311],[-74.80350585674557,9.273786994855016],[-74.84060608037089,9.278248101850181],[-74.85436932242106,9.283183922485364],[-74.87290801595066,9.307831303351747],[-74.88752572506922,9.311399842568449],[-74.8958415292413,9.31637448793714],[-74.9044397900089,9.317283529307872],[-74.91110729187267,9.320032051195142],[-74.9189958285719,9.320023669388604],[-74.92225013334763,9.32208269050119],[-74.92620523119695,9.321340826575636],[-74.92393145894522,9.32340767619263],[-74.9285019911959,9.327009525634082],[-74.94514165327337,9.33560491807549],[-74.94873512090828,9.340161530356738],[-74.95106877936792,9.34730671908784],[-74.94256679418982,9.351736875105416],[-74.94008071026451,9.357997683488918],[-74.93051931513497,9.368413749318506],[-74.92790362174122,9.378837902820067],[-74.92206106653191,9.385656974485414],[-74.92234032775656,9.389389986343474],[-74.91796132749829,9.391173412628916],[-74.91050888230876,9.388979488654343],[-74.9079856016744,9.39020810619644],[-74.90442683060473,9.396516444050974],[-74.90089290259255,9.396997037296842],[-74.8942454985525,9.402836698468946],[-74.88295483389209,9.406699060627886],[-74.87998053904715,9.40985413818413],[-74.87910072498431,9.40185645905109],[-74.8755758709205,9.399376035673356],[-74.86955597931075,9.403136802109657],[-74.85958360415259,9.404065247105393],[-74.85477581329815,9.410053851436828],[-74.85064515002642,9.420478670340742],[-74.84334956803207,9.423272233896512],[-74.83800490755709,9.429120545298645],[-74.83183355618917,9.426961784802188],[-74.81223059845945,9.432010373131106],[-74.80245774114991,9.438057846540744],[-74.79909215477988,9.436127208993128],[-74.79255250066251,9.42566564589498],[-74.79192692273256,9.414304939156807],[-74.796123870153,9.40532643130831],[-74.80824583518569,9.3968832175064],[-74.82057284080338,9.395416945410147],[-74.82450955524268,9.391408788154422],[-74.8246013355099,9.384586451184134],[-74.82267724811271,9.380754505212622],[-74.82450370546161,9.379216719337421],[-74.82241940008976,9.37898033490984],[-74.82888084732423,9.36761075374119],[-74.82682141380621,9.360208734116782],[-74.81725402491372,9.354535586016027],[-74.81528595925755,9.350373162382482],[-74.82129754825081,9.339967472509443],[-74.83144437811342,9.332723898853203],[-74.81054789372052,9.317286870717624],[-74.80328389519588,9.317196576549804],[-74.80312539266333,9.312840666883005],[-74.80771739056632,9.311478689142575],[-74.80906009632236,9.304575592695073],[-74.80711465023091,9.292729716141821],[-74.7993324730001,9.28114540131753],[-74.79525888211754,9.279768139892838],[-74.79702115231197,9.278188145708214],[-74.79736438060439,9.273292006499162],[-74.79999467376814,9.270911663948311]]]}}]}