{"type":"FeatureCollection","features":[{"type":"Feature","properties":{"code":"132568"},"geometry":{"type":"Polygon","coordinates":[[[-74.55325878195492,9.191661606096886],[-74.55228004612002,9.189779813398275],[-74.55455401788964,9.1859086251456],[-74.54919131030539,9.177123840900606],[-74.54572341961574,9.175357620458442],[-74.53687595077076,9.175307255571397],[-74.53484118650346,9.172974108247729],[-74.53533350913631,9.16514017259027],[-74.54000040645104,9.147172117591253],[-74.53246506673759,9.145595050354075],[-74.52107549881703,9.140097929446313],[-74.5120902022195,9.126864160458126],[-74.49958495414359,9.123069747496345],[-74.48779389871879,9.112685189031765],[-74.47485396192883,9.107896873793266],[-74.47888162976761,9.098098377411759],[-74.47460598489715,9.091407771586773],[-74.46848237897319,9.08783406650332],[-74.47035182727626,9.083693577491772],[-74.47553120469718,9.079690644724053],[-74.47962857419924,9.079787916874352],[-74.48059264752914,9.0745452161907],[-74.489086388712,9.069277215821046],[-74.48775061568699,9.066925731367235],[-74.48878217438653,9.064685734196189],[-74.49172217581571,9.062992868445178],[-74.49916883087388,9.064045640828567],[-74.50264981877893,9.060765348338805],[-74.49714344497391,9.058727192268066],[-74.4978215876294,9.056221996795387],[-74.49473755385395,9.054191208486884],[-74.49324356523181,9.046150722490836],[-74.49269863159356,9.047341384333379],[-74.48854722875001,9.039816939939953],[-74.490359174775,9.037060711932895],[-74.50017378170855,9.032027229367714],[-74.50214446989321,9.036848479449418],[-74.50595756348486,9.039746309593113],[-74.50923094586932,9.039966272878985],[-74.5115525664093,9.037165290138887],[-74.50976051457639,9.033050247880567],[-74.51739753537322,9.032649073022867],[-74.52129975790734,9.029768180299016],[-74.52393420083666,9.035164884079222],[-74.5273554773691,9.03549977273127],[-74.53227184501407,9.039101201539722],[-74.53997252948813,9.037737719187874],[-74.54797200222492,9.045964140392186],[-74.55270029858644,9.04151207340675],[-74.55467233917301,9.043769827666324],[-74.56128744086197,9.038239336884203],[-74.56575824092789,9.042079323219298],[-74.5691606640521,9.038477558110117],[-74.57486443402888,9.036847048885875],[-74.57753800405379,9.039898211581544],[-74.57761085686496,9.044529434282197],[-74.58514652876534,9.041082384980257],[-74.58647765631548,9.0352524096798],[-74.58206611202218,9.030368337186815],[-74.57619159899002,9.030918776077897],[-74.57309069258656,9.026632929057712],[-74.58553454675791,9.017212123048921],[-74.59483423103433,9.023242095452247],[-74.61986007771918,9.026558567521363],[-74.62402983620478,9.025685993693912],[-74.62862621218756,9.018747729654478],[-74.63310618801762,9.017255720784192],[-74.63921813757406,9.031734689921677],[-74.66521661628747,9.056734446048267],[-74.68420000630528,9.067781116834908],[-74.70367824892452,9.096110995548145],[-74.72617913449989,9.119930766094],[-74.73041305751428,9.129299728315402],[-74.73127677645164,9.135300196759715],[-74.72676186031543,9.160285899219275],[-74.72905055629661,9.17001428975965],[-74.72596152429048,9.179646062239158],[-74.72270305740784,9.176740708009959],[-74.7203839256988,9.17789865406752],[-74.71420950648684,9.174982546443402],[-74.70928862397926,9.175723452888974],[-74.70731572052944,9.173940173670758],[-74.70434367488826,9.17473298663873],[-74.69895767308094,9.172874166260613],[-74.69333401054882,9.178624713916918],[-74.69019463422455,9.172043708182741],[-74.68672379499026,9.172464306205825],[-74.68120986418955,9.170204214296461],[-74.67271924432976,9.172104376006928],[-74.66530225572444,9.167471645609567],[-74.65446878210042,9.18807819354447],[-74.65026964306895,9.186627451958714],[-74.64218507494127,9.194332834358192],[-74.6400024730903,9.201211910502252],[-74.6357950622957,9.202515794610122],[-74.63305102647467,9.20136614705524],[-74.63188587617725,9.198852274613046],[-74.63556274330136,9.198317732357964],[-74.63596347078658,9.196730426975478],[-74.63063605317888,9.19380592623196],[-74.62344670518291,9.200087862938574],[-74.6215628021202,9.204324147256955],[-74.6168515665916,9.20347906781177],[-74.61673714002012,9.198488597798018],[-74.61299044473435,9.196475741413224],[-74.61267271873106,9.19849349215599],[-74.6102156307141,9.19902825655464],[-74.60616277323271,9.204555992139262],[-74.59749169770629,9.194692324383766],[-74.58434126444382,9.190570102568245],[-74.57418771988,9.189521802881359],[-74.55325878195492,9.191661606096886]]]}}]}