{"type":"FeatureCollection","features":[{"type":"Feature","properties":{"code":"133008"},"geometry":{"type":"Polygon","coordinates":[[[-74.34065569920256,9.150296877690494],[-74.33673441242945,9.143403970022973],[-74.33041663758638,9.1383432224182],[-74.32860208651653,9.125187448453687],[-74.31861185965312,9.101175304649416],[-74.31629853247358,9.102368309283975],[-74.31260553834238,9.087361844779537],[-74.30812278777444,9.08215343031253],[-74.30440412988855,9.083157070911511],[-74.30069765698971,9.079968838425373],[-74.29049083601808,9.076757234582942],[-74.28534873346786,9.07295825636487],[-74.28556592098738,9.063958545116975],[-74.28370484317793,9.057187588106444],[-74.28207048243644,9.055207274728332],[-74.27354391336837,9.052232721744303],[-74.26941188021124,9.047207837987003],[-74.26883436757083,9.044026686327584],[-74.26543978529241,9.041260599670522],[-74.26982892702233,9.032633984742688],[-74.2793788005103,9.026316902041458],[-74.28180844659556,9.01628072950848],[-74.28688956970353,9.009271950307777],[-74.28800096022519,9.002530943600277],[-74.28376108252866,8.998143689062374],[-74.27662347650426,8.995487101708761],[-74.28072543800215,8.993223391738582],[-74.28175030051244,8.991272177113046],[-74.28036686226199,8.990252371454574],[-74.27456982797543,8.992162071969403],[-74.27122678198003,8.995800733482383],[-74.2618154623251,8.994828990028168],[-74.26444350319974,8.98768947110068],[-74.26537295606914,8.986613743880241],[-74.2646138513332,8.991907221856366],[-74.26926302961175,8.987069970237542],[-74.27261893216706,8.986386741933757],[-74.27306703279999,8.984661840198214],[-74.27922118655209,8.983280899006218],[-74.29048676132885,8.985072794515872],[-74.29499857465396,8.988106992023745],[-74.30156388326998,8.987122125642998],[-74.30509765495884,8.982798194367831],[-74.31959084025732,8.982483958898456],[-74.33119667832665,8.987120161317762],[-74.33459437987125,8.990336561816093],[-74.33574663041412,8.996230782892212],[-74.3513894540115,9.00874534248669],[-74.38805516684329,9.018239381830313],[-74.41908899680197,9.018663054896535],[-74.42765123945566,9.013443896290596],[-74.43347000267579,9.016322537753751],[-74.43428771835084,9.020747472368669],[-74.4370890970414,9.020379719835944],[-74.43832015404917,9.021947208159531],[-74.43935322867299,9.025092575161523],[-74.43725704993221,9.028748435318676],[-74.4381365708889,9.032353914133807],[-74.44198568979357,9.036013013884883],[-74.4477774080608,9.051558282510257],[-74.45149457470495,9.0548410391483],[-74.44778624135358,9.059147306923194],[-74.44874505831376,9.062301737589053],[-74.45337989907517,9.055647189987269],[-74.45741771147095,9.055032781971477],[-74.45823496948913,9.059736786520716],[-74.46091406327884,9.061206615999652],[-74.47861227552977,9.063963465185964],[-74.47574116329429,9.075698723490348],[-74.47677991594924,9.077332938192967],[-74.48041622644257,9.077453292707162],[-74.4799857018923,9.079369378821582],[-74.47332200320892,9.080789291814426],[-74.46843556941195,9.088660394356054],[-74.46180348402322,9.08735979406515],[-74.45965304671205,9.08494688999565],[-74.46017803267927,9.081382951002354],[-74.45532687446064,9.082471782637356],[-74.44847832454747,9.091769779239598],[-74.44748407568557,9.096350181453147],[-74.45046260154305,9.10073105039146],[-74.44584701116872,9.103967941578503],[-74.4405319749805,9.116835537721727],[-74.43611358023156,9.120251850990542],[-74.43350351447526,9.130951337066335],[-74.42911033096624,9.137188391513007],[-74.42116093926631,9.144078599518878],[-74.41311176601636,9.144272531896206],[-74.40955088458264,9.139717850001603],[-74.40599289204397,9.1382326226813],[-74.40197227829242,9.143352445052813],[-74.39607647238637,9.144193932148255],[-74.39036038063978,9.136571397992782],[-74.38371112334625,9.132577357139041],[-74.38109083795666,9.133045155531534],[-74.37987705775475,9.136673985133996],[-74.38419050302997,9.146065444535452],[-74.38091942127141,9.151741581290196],[-74.37286809549124,9.150259724176067],[-74.3690281780618,9.147472423835154],[-74.35901594355693,9.151294548180601],[-74.35068465001211,9.150184251921814],[-74.35499174568321,9.152041262241084],[-74.35967832018866,9.160687954423793],[-74.35830623182983,9.176464350078561],[-74.35495407589065,9.17272412781],[-74.35293276776525,9.163215091717575],[-74.34065569920256,9.150296877690494]]]}}]}