{"type":"FeatureCollection","features":[{"type":"Feature","properties":{"code":"133027"},"geometry":{"type":"Polygon","coordinates":[[[-74.26127187286113,9.169553271888674],[-74.24629803363871,9.16262795079831],[-74.2368358677856,9.148837260645792],[-74.22992606486446,9.143932963830707],[-74.22627602774878,9.138181848474119],[-74.22195608580216,9.134783999862293],[-74.22121632607002,9.133438231404398],[-74.2250789350552,9.126559619087914],[-74.22312903477922,9.121719815903191],[-74.21058269528248,9.115887171794384],[-74.20035641000771,9.101145254587436],[-74.19431047000586,9.096102057354244],[-74.17728020957355,9.08983336698725],[-74.17125255425128,9.07404064275056],[-74.16161403004662,9.071727176731372],[-74.14861841440717,9.071924188265541],[-74.13383630978035,9.062707722472396],[-74.13028321057118,9.054617268568165],[-74.12376993806129,9.048585194028362],[-74.12302943579363,9.045421870420057],[-74.1233253608724,9.043067652366005],[-74.12539726734127,9.042111272814566],[-74.13649778326436,9.04262516908608],[-74.13861142701597,9.032502885061035],[-74.13752459364486,9.029425542332604],[-74.13492671904618,9.027711860904958],[-74.13634263653978,9.026151286800427],[-74.14968634809014,9.034870416303477],[-74.15291312248809,9.041933302893597],[-74.15309236870627,9.04874545931142],[-74.16525964074566,9.047793937093957],[-74.1729275137896,9.044984465589266],[-74.18890434774909,9.057260493368176],[-74.20475536822147,9.05154251751486],[-74.2088293015754,9.05299130711677],[-74.21127459027139,9.05749925452642],[-74.21420118492387,9.059440365732655],[-74.23141159248996,9.0633680278209],[-74.24178489670805,9.056806973871574],[-74.24778457942233,9.056640044281039],[-74.26930043098082,9.07718811188903],[-74.30319218545657,9.105347743256232],[-74.31643212818523,9.10649833080754],[-74.32240974463679,9.112572981839207],[-74.32396788338946,9.115486632514148],[-74.32337319884431,9.121436257845687],[-74.3216882263896,9.125321765103536],[-74.31850185949816,9.127057533362688],[-74.32253462532651,9.134242744962876],[-74.31796765560068,9.136940080237537],[-74.30922833571407,9.136398679299305],[-74.30454810361368,9.133693701668278],[-74.30392546702933,9.12908526205473],[-74.30132246564466,9.125448824034493],[-74.30118031020595,9.134702745704203],[-74.30588950324773,9.13739530694869],[-74.30656184857276,9.141392302517772],[-74.29807021878241,9.152833660746694],[-74.29428053459935,9.156781984245129],[-74.29037209615865,9.155829702008702],[-74.27950119236914,9.159703278304903],[-74.26755690723667,9.159910799493218],[-74.26760600816783,9.162573457743008],[-74.27191229239776,9.16126022817798],[-74.28078619118702,9.164053356702595],[-74.28142629278221,9.166180878257592],[-74.27843737039933,9.16910237080674],[-74.26127187286113,9.169553271888674]]]}}]}