{"type":"FeatureCollection","features":[{"type":"Feature","properties":{"code":"133047"},"geometry":{"type":"Polygon","coordinates":[[[-74.00057722590435,9.024321294694573],[-73.98575414915604,9.010011227700375],[-73.98939073424356,9.008277320922161],[-73.99728230176288,9.009471542204267],[-74.00117470267094,9.007375914708689],[-74.00368423200035,9.001952690481232],[-74.00190360616386,8.995969108034672],[-73.9898671149889,8.994483537214535],[-73.97831930781706,8.987789810066545],[-73.99159268109827,8.976200945412529],[-74.00598737862737,8.95507079887932],[-74.00869465791271,8.95338169825635],[-74.01590911430435,8.952759164516237],[-74.02616059539235,8.960198597851047],[-74.06622203515911,8.949050786941825],[-74.0718620509557,8.948931163650286],[-74.07834371222788,8.952704296079446],[-74.07768164721426,8.954195541845365],[-74.07513765888979,8.952453518598759],[-74.07357934530188,8.953280771021355],[-74.07289290105837,8.958464200505773],[-74.07519380156691,8.958979312396309],[-74.06562026053126,8.97168384383599],[-74.05712088656873,8.969801738490844],[-74.05267360595474,8.970906775294566],[-74.04918707268763,8.98280610103393],[-74.05633539919683,8.999980659150708],[-74.06022134148589,9.005423588336782],[-74.08052643749193,9.025012471830621],[-74.07252634871804,9.024991615016347],[-74.06645337096239,9.020111281940387],[-74.06059806306581,9.018411220177029],[-74.05459590489045,9.019604304001632],[-74.04732244058084,9.02455618068143],[-74.04277487756531,9.041042845479183],[-74.03739222745219,9.044531131212352],[-74.0345182972842,9.04268743202465],[-74.03200988792861,9.032418279208798],[-74.02921035323556,9.027952554506726],[-74.02179190012811,9.026071926005045],[-74.0114617257039,9.028564438724572],[-74.00057722590435,9.024321294694573]]]}}]}