{"type":"FeatureCollection","features":[{"type":"Feature","properties":{"code":"133557"},"geometry":{"type":"Polygon","coordinates":[[[-73.87169119583194,8.92062326583897],[-73.87050902892463,8.899102757492699],[-73.8508906394149,8.869836343026407],[-73.84376296711679,8.862261922497225],[-73.84058573588027,8.856061955744678],[-73.8252238190156,8.846580825411593],[-73.81167131409353,8.832862202340095],[-73.81317204107103,8.83166302705041],[-73.82235708280302,8.831640098952903],[-73.83115803622132,8.822364955371825],[-73.83921671228018,8.821666128680363],[-73.84751909322046,8.817813017361857],[-73.8548861560837,8.826325003115016],[-73.87105435748481,8.82786678860316],[-73.8825804655479,8.83984433459517],[-73.89090560077892,8.84476103648393],[-73.90460569954377,8.845550888565867],[-73.91955926919258,8.862234119582183],[-73.92496754809332,8.872484790257488],[-73.92847089022501,8.887763326144977],[-73.94150687429021,8.896464602914307],[-73.94298784385848,8.899546169456187],[-73.94199352506251,8.903507643649164],[-73.9631792116055,8.912368490474421],[-73.96309689506631,8.921718881080778],[-73.96872173825045,8.924118467848075],[-73.9706490786113,8.930568439720957],[-73.97674585864064,8.935090718477113],[-73.97732825535456,8.939501314546419],[-73.98244279050311,8.941796787963824],[-73.98112167484084,8.945434591755713],[-73.98182276821962,8.952309711481405],[-73.9871967495908,8.95491619311548],[-73.98780878807503,8.959517334900909],[-73.98243091199203,8.966907361857125],[-73.97770621003707,8.987123961412863],[-73.95812032959543,8.992594817955535],[-73.95131948090312,8.992773368946587],[-73.9417927689691,8.989805399023112],[-73.93837592193859,8.98618866596155],[-73.93277673119621,8.983672864161178],[-73.9195413053871,8.97918390899946],[-73.88234397210539,8.97428565325572],[-73.86925535440895,8.97021089303405],[-73.86220486877875,8.96279502645956],[-73.86061062655148,8.953447493894942],[-73.86773646410813,8.937510458604038],[-73.87169119583194,8.92062326583897]],[[-73.95147328345337,8.990924764087993],[-73.95307034875532,8.989407007130865],[-73.94675791255742,8.986503784863032],[-73.94690977340815,8.98943720631695],[-73.95147328345337,8.990924764087993]]]}}]}