{"type":"FeatureCollection","features":[{"type":"Feature","properties":{"code":"133537"},"geometry":{"type":"Polygon","coordinates":[[[-73.97770621003707,8.987123961412863],[-73.98243091199203,8.966907361857125],[-73.98780878807503,8.959517334900909],[-73.9871967495908,8.95491619311548],[-73.9822987622706,8.953290837416716],[-73.98178962048883,8.950855159516095],[-73.98788056410683,8.945461222246252],[-73.98869907991019,8.938153620844162],[-73.98413661681946,8.93003205243997],[-73.98369670156052,8.9259191822523],[-73.97738025649363,8.931895043152508],[-73.9798081449706,8.927260821513471],[-73.9766649140438,8.927397833711154],[-73.97398937969359,8.929535387722865],[-73.97170082872287,8.927779536038202],[-73.97443336964182,8.919198804044868],[-73.97181576437339,8.915797319888725],[-73.97443505011688,8.913371561316183],[-73.97484969345783,8.910081694026587],[-73.97013664067129,8.906021815368092],[-73.96936721345782,8.900422624625719],[-73.96603010260418,8.896168709717301],[-73.9697540250873,8.893450591676185],[-73.9752956662432,8.892656555890085],[-73.97471718069619,8.888804696186128],[-73.97830326514224,8.884664683343487],[-73.9767609973145,8.879057376132778],[-73.97805805462093,8.873545798408543],[-73.97086559661477,8.862617060154037],[-73.96992800979348,8.864756226763632],[-73.96708777860152,8.86426148523401],[-73.96551943769907,8.857447066242685],[-73.95912248820872,8.858652092341856],[-73.95553969477868,8.856566830518432],[-73.95096521433715,8.85035485978483],[-73.95588894048831,8.840245844725132],[-73.95553597387368,8.828930235191478],[-73.958493613092,8.827414489867863],[-73.963570541183,8.832487281563033],[-73.96903602102816,8.83253755903246],[-73.96615293155111,8.828187699692933],[-73.96549843073217,8.82274449385585],[-73.96296379300708,8.819878655473588],[-73.96599656817898,8.813869223124243],[-73.96355402850992,8.810524928599648],[-73.9694196917942,8.807146391052981],[-73.97899855090611,8.796368951091154],[-73.980278039329,8.789789463338138],[-73.97582611941084,8.780860596353136],[-73.97673957177153,8.774590868287646],[-73.97830405704298,8.77119578001549],[-73.985243375236,8.766006680727457],[-73.98930496419439,8.756165589342118],[-73.99266162265491,8.754826538670784],[-73.99810219876451,8.756794192949997],[-74.00106091784755,8.756129103286867],[-74.00966435990853,8.745189389493817],[-74.01350308023086,8.742681990068832],[-74.02044640729287,8.742537199760363],[-74.02649284711777,8.740039351481073],[-74.03509003521981,8.740609312268077],[-74.04238760210825,8.738772709333716],[-74.04803323422948,8.739700088863003],[-74.05107530343639,8.736939263717886],[-74.05128757397227,8.744710683439962],[-74.05625345186849,8.748027044437265],[-74.05958621035336,8.753930284954322],[-74.05699353144627,8.757417925854043],[-74.04983783923171,8.760654291506967],[-74.04945846324165,8.766540351891763],[-74.05335901455669,8.768971703134696],[-74.0539159418916,8.773455255887825],[-74.04193735408734,8.785392485904651],[-74.03766588777887,8.796588903064162],[-74.04534841921401,8.811034757381037],[-74.07278815315937,8.832099823043166],[-74.07165776319067,8.846704177835704],[-74.07510748130096,8.85685678548839],[-74.07719606910752,8.858901333329413],[-74.07566191877658,8.864230172244675],[-74.07678857755582,8.86942229412523],[-74.07208870014642,8.8826952097495],[-74.07267500905567,8.886795552478873],[-74.07666844621366,8.89117624966724],[-74.0718620509557,8.948931163650286],[-74.05585571406567,8.951423623919197],[-74.02616059539235,8.960198597851047],[-74.01590911430435,8.952759164516237],[-74.00869465791271,8.95338169825635],[-74.00328427173326,8.958338735660675],[-73.99159268109827,8.976200945412529],[-73.97770621003707,8.987123961412863]],[[-74.03257284913582,8.939973712133906],[-74.039977073741,8.94263344035096],[-74.03955119466559,8.941033162194572],[-74.04401174733022,8.937893788955591],[-74.04105390242336,8.937683380929116],[-74.03709521633806,8.930064488488597],[-74.0336194693761,8.930407593367931],[-74.03376708892989,8.931980857424662],[-74.03722032534205,8.932350895156674],[-74.03750030647643,8.935303444613055],[-74.03530110453482,8.935213416811848],[-74.03428056045465,8.936941555055967],[-74.03558258410999,8.938660473312893],[-74.03303849911191,8.93857606492162],[-74.03257284913582,8.939973712133906]]]}}]}