{"type":"FeatureCollection","features":[{"type":"Feature","properties":{"code":"133510"},"geometry":{"type":"Polygon","coordinates":[[[-74.10336997543197,8.952344408046656],[-74.10596894429347,8.951445164647794],[-74.10530133906002,8.947846481780857],[-74.10062069661103,8.9456215389514],[-74.10075010759004,8.942233248684317],[-74.10598578915352,8.941716285597238],[-74.10657844355313,8.94040202656123],[-74.1104325380627,8.944183858585632],[-74.11137066995849,8.947347664533538],[-74.11054436473148,8.949943314611062],[-74.10611282854404,8.951170910909752],[-74.1050151492181,8.953316806618716],[-74.10336997543197,8.952344408046656]]]}}]}