{"type":"FeatureCollection","features":[{"type":"Feature","properties":{"code":"133501"},"geometry":{"type":"Polygon","coordinates":[[[-74.16055084365428,8.796552831471274],[-74.1587747151969,8.79082248345452],[-74.16229407634927,8.79120639590451],[-74.16632249803638,8.787353004849649],[-74.16891769559919,8.78824316401574],[-74.16768852886878,8.78914879609954],[-74.16841701892781,8.792641848663777],[-74.17232575458837,8.79489203667174],[-74.1711389494053,8.79600178991285],[-74.16249104983109,8.794447564383972],[-74.16055084365428,8.796552831471274]]]}}]}