{"type":"FeatureCollection","features":[{"type":"Feature","properties":{"code":"133517"},"geometry":{"type":"Polygon","coordinates":[[[-74.10327242251685,8.95602366321424],[-74.08938683900158,8.951747613137456],[-74.07805727967354,8.95266653578392],[-74.07185465851086,8.94897975961618],[-74.07666844621366,8.89117624966724],[-74.07267500905567,8.886795552478873],[-74.07208870014642,8.8826952097495],[-74.07678857755582,8.86942229412523],[-74.07566191877658,8.864230172244675],[-74.07719606910752,8.858901333329413],[-74.07510748130096,8.85685678548839],[-74.07165776319067,8.846704177835704],[-74.07277352356454,8.832437850501776],[-74.08436373444982,8.834911164256368],[-74.10781973150705,8.827706034809978],[-74.1085772740388,8.835565198162385],[-74.11453909875547,8.838643356445743],[-74.11898373112996,8.838563826985762],[-74.12717688016193,8.833227288121407],[-74.12724511012391,8.828774268798156],[-74.13788043784166,8.82405876831848],[-74.16077787336877,8.83288706185266],[-74.17102146835953,8.832910730428807],[-74.17505941753814,8.829158624506931],[-74.19097001774253,8.825170357329512],[-74.19725484025889,8.814910828678762],[-74.21284570694019,8.815378100508724],[-74.21898083553413,8.807896265517286],[-74.229828992232,8.80002145749728],[-74.23338406399392,8.79856321753715],[-74.23938431852218,8.798860237907206],[-74.24984660872923,8.803481568019208],[-74.26710705310921,8.805838912538547],[-74.27379231000464,8.808923223993474],[-74.27988555322014,8.80959704204821],[-74.28738872427999,8.805934564891857],[-74.29124683074383,8.807228744616111],[-74.30562603581484,8.823319964009386],[-74.31237641677586,8.840544449925119],[-74.3227034379953,8.857641005819062],[-74.33689089201556,8.86520831775357],[-74.34093383119728,8.871292686538538],[-74.35509429888583,8.869657361117959],[-74.35974939687958,8.871800121105764],[-74.36080419426628,8.879588549210155],[-74.35639950762766,8.878136151831939],[-74.34700351793691,8.879496929379968],[-74.33834866609124,8.892650403746984],[-74.33072728481983,8.896373886056665],[-74.32620757922683,8.892999906567184],[-74.3247336668311,8.889683786225419],[-74.3262244672814,8.881658516036453],[-74.33033607145637,8.875818391036773],[-74.32720740327557,8.870492783487919],[-74.32370515026452,8.87062280536179],[-74.3150301090638,8.877143840555789],[-74.31172001333829,8.877585541190967],[-74.30969403197008,8.87521001380793],[-74.3079306304889,8.863677553055425],[-74.30292453123417,8.859221969825],[-74.29562378851523,8.85785644498634],[-74.28831901327317,8.863400748779952],[-74.28063449077331,8.863720257074135],[-74.27477016240738,8.859234222689167],[-74.27098833758208,8.868027920445513],[-74.26345357893865,8.876137373796837],[-74.25000660250345,8.88643859550723],[-74.24955429554058,8.90007790406321],[-74.24806415020817,8.903357256556546],[-74.2437708737192,8.905561882504003],[-74.2432204955062,8.913870135851084],[-74.24129347601934,8.917689856726327],[-74.24495404130107,8.924820879690174],[-74.24353773916994,8.93089624446094],[-74.23269636402205,8.934767198228712],[-74.22536371387395,8.946508247692861],[-74.2155964626046,8.946013505134829],[-74.20721954734961,8.939517897153621],[-74.20040479102914,8.949323386944286],[-74.19497494054656,8.95074913326306],[-74.1699832659213,8.947291961001383],[-74.15554759627071,8.939694647341753],[-74.15208976066361,8.941209763258541],[-74.14509175028445,8.948490593273448],[-74.13915664553286,8.947593072515815],[-74.12917852343787,8.942062227949464],[-74.11951639442054,8.950062846371225],[-74.11005022998296,8.95471895223858],[-74.10327242251685,8.95602366321424]],[[-74.11137066995849,8.947347664533538],[-74.10657844355313,8.94040202656123],[-74.10598578915352,8.941716285597238],[-74.10075010759004,8.942233248684317],[-74.10062069661103,8.9456215389514],[-74.10530133906002,8.947846481780857],[-74.1060985805014,8.951012166693204],[-74.10256070429841,8.952244896976993],[-74.10357822681448,8.95354454904384],[-74.11054436473148,8.949943314611062],[-74.11137066995849,8.947347664533538]]]}}]}