{"type":"FeatureCollection","features":[{"type":"Feature","properties":{"code":"134008"},"geometry":{"type":"Polygon","coordinates":[[[-74.4630618832038,8.910963959896321],[-74.45857638258053,8.909590849265669],[-74.45088695440984,8.913984807191923],[-74.44447909520119,8.912977859121838],[-74.43807123804947,8.904556102744607],[-74.43349419678606,8.90217604198699],[-74.43102259538824,8.902542204547558],[-74.42699479796573,8.909133144008024],[-74.41857304261697,8.909865471186095],[-74.40996820598787,8.906020756072337],[-74.40767968484198,8.900619848019119],[-74.40264493934933,8.896317428676127],[-74.37536577510599,8.896225888035985],[-74.36428933502225,8.887437970126598],[-74.36163465234415,8.883044010143465],[-74.35881207745331,8.87056101550678],[-74.35372779908369,8.869673061321464],[-74.34093383119728,8.871292686538538],[-74.3370716664993,8.865344941199965],[-74.3217346513133,8.856678724036044],[-74.31237641677586,8.840544449925119],[-74.30712565207438,8.825747844258842],[-74.3000877545806,8.817170497898303],[-74.31600694433695,8.814617964244917],[-74.31820006921168,8.812312118984778],[-74.31570532374349,8.803897176039243],[-74.31934837979134,8.801929486793028],[-74.31293580003154,8.79464377887524],[-74.31007538976888,8.788897384069855],[-74.3054954606389,8.787671618398804],[-74.29861090495308,8.780652669958442],[-74.29325029539154,8.779917699683097],[-74.28937441332721,8.776817491592169],[-74.2927074042401,8.771186143509112],[-74.29101225534663,8.765962219100516],[-74.29182196356828,8.764415652383036],[-74.28875529195938,8.761596393190928],[-74.29171836032583,8.756956451354597],[-74.29075334597098,8.752995653876837],[-74.29391302477904,8.740673645461357],[-74.2899506075043,8.73442135875257],[-74.28996286859604,8.7299277066939],[-74.29263195769693,8.726163813792311],[-74.28711067764596,8.72202469672311],[-74.284632245333,8.725519447245972],[-74.28286732792753,8.721946735637971],[-74.27879557487171,8.724147095605872],[-74.27505368035565,8.719568339928799],[-74.27568462161332,8.717233035961101],[-74.28187812666152,8.714876742510114],[-74.28251791869553,8.709023106861025],[-74.28739219630194,8.70306776236066],[-74.28036517355935,8.705397446918425],[-74.2740916381997,8.702045129513749],[-74.2750808456363,8.699562716099763],[-74.2737796179955,8.69715944442288],[-74.26802281432333,8.700097446559823],[-74.26405568266813,8.698765750280927],[-74.25992825899033,8.687492835509943],[-74.25600044366416,8.68482060760249],[-74.25256309051827,8.685337555263004],[-74.25143233031025,8.682726170014917],[-74.21150258363645,8.65018417641096],[-74.24634614109442,8.652917097853617],[-74.28111304256078,8.652682367161617],[-74.3493810939774,8.657508287400788],[-74.35051328474896,8.65256740579997],[-74.35239225951511,8.65560856483529],[-74.3564739205861,8.653827860837168],[-74.36169795812339,8.654936158832129],[-74.35805689211185,8.659704840074482],[-74.36216865158161,8.659433989452737],[-74.3626605772356,8.66268632064731],[-74.36692916390501,8.661000296095892],[-74.37719548233326,8.664994482988448],[-74.37607865546448,8.671067865950477],[-74.37726487854911,8.686148204509493],[-74.3709711558912,8.69114847969422],[-74.37347115567223,8.69773218303311],[-74.38648461170413,8.70958215381603],[-74.38761175282292,8.714867125544117],[-74.37998420398168,8.729953306685047],[-74.37239787511663,8.738184716864055],[-74.37356348924158,8.7470523976898],[-74.37541086819664,8.748785795388983],[-74.37756899003034,8.745539348942486],[-74.38884728149878,8.751145097034396],[-74.38985390355259,8.753354918673438],[-74.38849026487748,8.761834675094974],[-74.3919063889129,8.76459291884936],[-74.40021484794852,8.763145011651147],[-74.40173575502507,8.765483202457006],[-74.40127381566964,8.76929457237901],[-74.41066789451418,8.768543954350719],[-74.41469882971484,8.771915135448069],[-74.41956766068967,8.772111960834195],[-74.42139869152248,8.773620244807319],[-74.41644265479272,8.786400246444316],[-74.41841781464541,8.78892442285212],[-74.42194353054407,8.789880776692485],[-74.42158305218527,8.793239997003354],[-74.41370625310054,8.79969922588731],[-74.41339329289985,8.801670535251219],[-74.42088408973939,8.811033026512291],[-74.42782046658681,8.812153471441832],[-74.4285922808154,8.817365135787156],[-74.43181792804035,8.817894447383594],[-74.43340696532005,8.820930874554904],[-74.46951073715962,8.823355635538178],[-74.4748805039734,8.828083078292423],[-74.47565362843773,8.832160526862879],[-74.47415379826208,8.837546700420091],[-74.4712080828063,8.838856098008307],[-74.46364781981686,8.838545284167196],[-74.46129878099936,8.840949209933456],[-74.4753143966729,8.86373618044962],[-74.47390469405741,8.870110665670097],[-74.46886050849093,8.872423774819765],[-74.46743530518984,8.875510599788186],[-74.47009377150795,8.881865035521741],[-74.46939904830208,8.88420633839462],[-74.47326849437314,8.890028290814996],[-74.473600273015,8.900105650413934],[-74.48152645071042,8.913596409704041],[-74.47515544265411,8.916400467487335],[-74.46832039516272,8.916888685606068],[-74.4658996481906,8.915724084496958],[-74.4630618832038,8.910963959896321]]]}}]}