{"type":"FeatureCollection","features":[{"type":"Feature","properties":{"code":"134007"},"geometry":{"type":"Polygon","coordinates":[[[-74.47594977668854,9.076711110992903],[-74.47861227552977,9.063963465185964],[-74.46091406327884,9.061206615999652],[-74.45823496948913,9.059736786520716],[-74.45741771147095,9.055032781971477],[-74.45337989907517,9.055647189987269],[-74.44874505831376,9.062301737589053],[-74.44778624135358,9.059147306923194],[-74.45065053707208,9.056668236975838],[-74.45120063966243,9.053707789080931],[-74.4477774080608,9.051558282510257],[-74.44198568979357,9.036013013884883],[-74.4381365708889,9.032353914133807],[-74.43725704993221,9.028748435318676],[-74.43935322867299,9.025092575161523],[-74.43769602622314,9.020797310693126],[-74.43428771835084,9.020747472368669],[-74.43312407575019,9.015979300205345],[-74.426435907334,9.013062683502199],[-74.43044883450614,9.009083282527683],[-74.42403834042784,9.011567814533294],[-74.41680702889175,9.00599599064634],[-74.4050960963383,9.002604674701331],[-74.40128969585055,8.998886388083235],[-74.40133865382819,8.995105907432276],[-74.39703506823139,8.994698234874761],[-74.39629987272713,8.991100415899552],[-74.39322461773702,8.988059489292255],[-74.39311167417964,8.984918835642361],[-74.38808809757273,8.985891612681314],[-74.38147976097866,8.983942990759374],[-74.3784824783865,8.967556779084646],[-74.37099632393654,8.96690270918316],[-74.36145633378118,8.973814312907166],[-74.3546718836048,8.972248471120054],[-74.35049373405673,8.97429376149654],[-74.34885492015911,8.970846773901144],[-74.3383842255198,8.970848582931524],[-74.3351267675393,8.973745216996576],[-74.32984075194202,8.97244120536186],[-74.32584756469561,8.973348013983866],[-74.32178406694788,8.978864830594262],[-74.31943641549935,8.975779840367238],[-74.31443488150103,8.97847739058642],[-74.3085237816262,8.979129789268825],[-74.31080530216394,8.973026541364504],[-74.29276873643812,8.968377603741487],[-74.28362426984881,8.967769037279197],[-74.27783391323953,8.971887162808173],[-74.27266767725712,8.97208201049932],[-74.26933118655438,8.969337387437633],[-74.26870649925564,8.96036858500122],[-74.25533287339772,8.951792496425867],[-74.24876190423407,8.952950595721347],[-74.24626361989516,8.950614500881386],[-74.24511079959512,8.946208427902263],[-74.23392093155752,8.945398354583574],[-74.23194003299557,8.950122204988077],[-74.23037329543502,8.950439318039628],[-74.22536371387395,8.946508247692861],[-74.23269636402205,8.934767198228712],[-74.24344406039779,8.931100842815624],[-74.24499108271527,8.92504463278675],[-74.24129347601934,8.917689856726327],[-74.2432204955062,8.913870135851084],[-74.2437708737192,8.905561882504003],[-74.24806415020817,8.903357256556546],[-74.24955429554058,8.90007790406321],[-74.24980564689218,8.886846681498696],[-74.26362340153798,8.87598697230601],[-74.27113939316234,8.86785830353466],[-74.27339229728693,8.860256638534736],[-74.27548508113898,8.8595118898279],[-74.27927589249504,8.863602306030089],[-74.28697879429114,8.863628653698981],[-74.2951789531873,8.857958411976767],[-74.30271822463646,8.859123767962672],[-74.30783051572348,8.863473049317463],[-74.30975496821776,8.875428107385346],[-74.31194222274263,8.877631731629776],[-74.3150301090638,8.877143840555789],[-74.32370515026452,8.87062280536179],[-74.32720740327557,8.870492783487919],[-74.33033607145637,8.875818391036773],[-74.3262244672814,8.881658516036453],[-74.3247336668311,8.889683786225419],[-74.32620757922683,8.892999906567184],[-74.33050393795804,8.896331088449642],[-74.33819081250596,8.892813247335368],[-74.34700351793691,8.879496929379968],[-74.3568523925752,8.87816971299668],[-74.36056151577043,8.879487627117385],[-74.36428933502225,8.887437970126598],[-74.37536577510599,8.896225888035985],[-74.40264493934933,8.896317428676127],[-74.40767968484198,8.900619848019119],[-74.40996820598787,8.906020756072337],[-74.41857304261697,8.909865471186095],[-74.42699479796573,8.909133144008024],[-74.43102259538824,8.902542204547558],[-74.43349419678606,8.90217604198699],[-74.43807123804947,8.904556102744607],[-74.44219057508371,8.911421665153966],[-74.44759148313693,8.913801725911583],[-74.45088695440984,8.913984807191923],[-74.45647094271487,8.910506256695612],[-74.46059027974911,8.909499306568648],[-74.46832039516272,8.916888685606068],[-74.47515544265411,8.916400467487335],[-74.48152645071042,8.913596409704041],[-74.48697321804394,8.920849019256252],[-74.49476911675487,8.93689210445433],[-74.51095170400993,8.94564373685472],[-74.51512949051784,8.949778993150744],[-74.52273997235551,8.953682215330957],[-74.52529656424304,8.95722897316358],[-74.52799973284363,8.9639422335203],[-74.53101253463342,8.98844935128227],[-74.53503426835886,8.994049559154291],[-74.5403891824057,8.996498668514164],[-74.55217223654768,8.994222845547995],[-74.56592978719692,8.994301056544657],[-74.59218376085681,9.001564370126573],[-74.59511285256775,9.003912039058662],[-74.60341242174616,9.017948953776795],[-74.61374774763897,9.025126851093773],[-74.60852252225055,9.025622989248347],[-74.59483423103433,9.023242095452247],[-74.58553454675791,9.017212123048921],[-74.57309069258656,9.026632929057712],[-74.57619159899002,9.030918776077897],[-74.58206611202218,9.030368337186815],[-74.58647765631548,9.0352524096798],[-74.58514652876534,9.041082384980257],[-74.57761085686496,9.044529434282197],[-74.57753800405379,9.039898211581544],[-74.57486443402888,9.036847048885875],[-74.5691606640521,9.038477558110117],[-74.56575824092789,9.042079323219298],[-74.56128744086197,9.038239336884203],[-74.55467233917301,9.043769827666324],[-74.55270029858644,9.04151207340675],[-74.54797200222492,9.045964140392186],[-74.53997252948813,9.037737719187874],[-74.53227184501407,9.039101201539722],[-74.5273554773691,9.03549977273127],[-74.52393420083666,9.035164884079222],[-74.52129975790734,9.029768180299016],[-74.51739753537322,9.032649073022867],[-74.50976051457639,9.033050247880567],[-74.51152054790839,9.037487427132135],[-74.50828923190824,9.040140291523812],[-74.50214446989321,9.036848479449418],[-74.50017378170855,9.032027229367714],[-74.490359174775,9.037060711932895],[-74.4884548766687,9.04059797415573],[-74.49269863159356,9.047341384333379],[-74.49324356523181,9.046150722490836],[-74.49473755385395,9.054191208486884],[-74.4978215876294,9.056221996795387],[-74.49714344497391,9.058727192268066],[-74.50134633164993,9.059332674431175],[-74.5025117822525,9.061346384423246],[-74.49847946688203,9.06422951709493],[-74.49172217581571,9.062992868445178],[-74.48878217438653,9.064685734196189],[-74.48869652569357,9.069894719448769],[-74.48221237044828,9.073065193817968],[-74.48009443397757,9.075387727614896],[-74.48041622644257,9.077453292707162],[-74.47594977668854,9.076711110992903]],[[-74.46694406242165,8.91802916459585],[-74.46082029811754,8.911188884388935],[-74.45612312551191,8.91173960095955],[-74.4596089779501,8.913638031801213],[-74.4582270401973,8.915326796123509],[-74.45987561607132,8.913810663077072],[-74.4606328788667,8.914642931213791],[-74.45950794272864,8.91710895228249],[-74.4626489213664,8.9172888628745],[-74.46556987398321,8.920064929537773],[-74.46694406242165,8.91802916459585]]]}}]}