{"type":"FeatureCollection","features":[{"type":"Feature","properties":{"code":"134001"},"geometry":{"type":"Polygon","coordinates":[[[-74.46515299069449,8.91917590988595],[-74.45950794272864,8.91710895228249],[-74.4606328788667,8.914642931213791],[-74.45987561607132,8.913810663077072],[-74.4582270401973,8.915326796123509],[-74.4596089779501,8.913638031801213],[-74.45622351178616,8.91159134891359],[-74.45918486779578,8.910624363034458],[-74.46371624826827,8.913017940612121],[-74.46694406242165,8.91802916459585],[-74.46515299069449,8.91917590988595]]]}}]}