{"type":"FeatureCollection","features":[{"type":"Feature","properties":{"code":"134548"},"geometry":{"type":"Polygon","coordinates":[[[-73.87675016731652,8.396770401635138],[-73.87728181450592,8.380450988330495],[-73.87204630777768,8.37308852671913],[-73.87433685701222,8.348056258439158],[-73.86795607772359,8.31942455858615],[-73.87106467584863,8.307644668961814],[-73.87428747017407,8.277938760897996],[-73.8704102305656,8.27034167555263],[-73.86926495286298,8.26265200775481],[-73.89722239243099,8.251216606265018],[-73.90225806249339,8.246205982891695],[-73.90365426782927,8.242586721918428],[-73.90198346217022,8.2353453768971],[-73.90813299410166,8.228665815516365],[-73.90841533139792,8.225325033123],[-73.90394438529313,8.22086648180749],[-73.90366975514519,8.216690282186391],[-73.90870541183784,8.203603812906351],[-73.9067523100203,8.191906851744534],[-73.91262722003125,8.181327651277286],[-73.9131918874246,8.176315066664017],[-73.91235263307789,8.171302475880168],[-73.90369306993705,8.15848864054118],[-73.9048223255337,8.146516046499926],[-73.90230459951738,8.142336990893966],[-73.89588043332418,8.139827754670648],[-73.89559813819409,8.13704397366007],[-73.9011984180571,8.123400547220228],[-73.90407849522603,8.12239046445734],[-73.90341186495607,8.129276992695907],[-73.90659159427946,8.129348439626142],[-73.90927779666384,8.132429460064998],[-73.91479429651395,8.130544273506075],[-73.91806791852554,8.134063999755483],[-73.91882908323186,8.13805402659807],[-73.92029705020133,8.13739455428805],[-73.92305009106502,8.145422529280836],[-73.93056303335732,8.144964260436666],[-73.93700497720789,8.148334681515053],[-73.93937451391321,8.144926735654508],[-73.94163706071492,8.149094683052851],[-73.94553331211176,8.15067041640009],[-73.94395251059973,8.1528975662672],[-73.94516068270457,8.154086979580484],[-73.950617856848,8.155414524036928],[-73.95271370031651,8.158210258634881],[-73.95897880861816,8.160681746904004],[-73.9603800317251,8.163239890711282],[-73.954546015674,8.167666358733982],[-73.96119190481824,8.171829885886382],[-73.9619187658243,8.174630790464903],[-73.9676651966252,8.173110030455575],[-73.97580455708498,8.175551274287102],[-73.97722647656917,8.17332621832901],[-73.9856938258601,8.170640611412807],[-73.99436612523306,8.171728693313185],[-73.99556647294725,8.173380235215404],[-73.99998637642136,8.170770315497975],[-74.00680304153116,8.1714079364898],[-74.0070434955058,8.174617848544244],[-74.00884722118974,8.173880112786946],[-74.01206847387982,8.175562466827046],[-74.01450623643342,8.178645018616862],[-74.01817178863291,8.17573299596637],[-74.01893925357808,8.178928286653559],[-74.02297183531522,8.175394651747467],[-74.02584563589943,8.175849396119077],[-74.02731991853443,8.178619790921857],[-74.03121319773243,8.177300181927876],[-74.04737203002219,8.163832860842774],[-74.04814530875296,8.160894314659743],[-74.05674507516039,8.160459777126732],[-74.05662553003049,8.158269376596195],[-74.05847385515267,8.158622119010374],[-74.05885450641142,8.15693244040267],[-74.06336043601692,8.158421172655096],[-74.06825721800254,8.157865288160849],[-74.07565787802594,8.162099306820323],[-74.08610482284217,8.158669044785597],[-74.09107936948038,8.16196133097202],[-74.09546458975899,8.160775571715021],[-74.09839317650466,8.156801555665538],[-74.10147739951356,8.158095529701257],[-74.10573082282644,8.155060609198301],[-74.1056789954942,8.15149472233486],[-74.10757423610721,8.149388980107119],[-74.11677389200736,8.144544076875889],[-74.1222902180507,8.13761860768983],[-74.12781215321951,8.13660193775263],[-74.13079136813343,8.133189391668736],[-74.14059533274389,8.12731423997377],[-74.14590274405924,8.126556160594987],[-74.15315986127501,8.122721189974072],[-74.17323846749895,8.107415994799624],[-74.17663614333247,8.106348281203339],[-74.18005036166392,8.105748434905195],[-74.18371402872822,8.107226999974898],[-74.18978800715848,8.105202312387348],[-74.19621732790557,8.106603165254967],[-74.20265131058261,8.110179616279993],[-74.21699855783078,8.107156215361613],[-74.21920663111757,8.108450732415008],[-74.23354115138955,8.108289629979822],[-74.2391044032081,8.11033435985513],[-74.26137720080169,8.104388001885468],[-74.27163051560274,8.1106481983457],[-74.27258478479013,8.1306856092761],[-74.28297674906929,8.139195711951004],[-74.2855604496732,8.154645775595498],[-74.26318900078786,8.158383942007447],[-74.26255879898031,8.161921833637109],[-74.26491679038992,8.168852462519283],[-74.26291245362302,8.178910131557757],[-74.25997136718695,8.183366800823478],[-74.24467826958187,8.194065253314534],[-74.24060729300021,8.199243320499647],[-74.24054766595987,8.203307663627072],[-74.24394105113117,8.209712429280614],[-74.23457340737315,8.215581988305189],[-74.22809781596868,8.221451409518465],[-74.22776738870027,8.2237108545375],[-74.22277093212261,8.224732117499002],[-74.21719657415332,8.229529602330956],[-74.21638919946776,8.232335099933778],[-74.2209943737763,8.236171760285742],[-74.22153473084535,8.238656948437665],[-74.21046927555619,8.251293207749143],[-74.2018680189355,8.258183504201043],[-74.19985295654152,8.261847179492975],[-74.19658992337412,8.263867833528934],[-74.18330857040746,8.264843455239884],[-74.17762164631915,8.268263809259395],[-74.17586216628928,8.276553312042438],[-74.16854881692194,8.28139573364183],[-74.16243748751629,8.291848236161456],[-74.16144370351043,8.298394698568302],[-74.16269895462847,8.305209704800347],[-74.16083403352934,8.307910194308192],[-74.15555946141205,8.308918254124649],[-74.15115724920616,8.311865545154376],[-74.1438614532957,8.311796699155309],[-74.13659122035256,8.303833081009998],[-74.13834178275732,8.31347025589804],[-74.12659801923337,8.320326603462433],[-74.1158954138914,8.332032289930623],[-74.08441120838495,8.339492162532053],[-74.0712227937118,8.34520081555388],[-74.06762141529703,8.345233516940652],[-74.05579520050787,8.35586380426156],[-74.03966642342226,8.356971196198685],[-74.03716782026612,8.36391614717138],[-74.02557641330219,8.369695792551909],[-74.01949771534925,8.377920638182275],[-74.00549465284507,8.376776702597112],[-73.99334272619649,8.383236786116811],[-73.98457068229737,8.381328050281127],[-73.97549911891292,8.381409372316398],[-73.96956284276524,8.385423412263322],[-73.95738762497894,8.387456439491245],[-73.95406532678294,8.384854756569894],[-73.95373262665657,8.381883307425426],[-73.95117885990066,8.382368457700068],[-73.94848977067812,8.378570037926295],[-73.94684994787838,8.37980820352874],[-73.94170156360121,8.377620561281049],[-73.93842205478467,8.379600675141319],[-73.93742607402561,8.382912986132055],[-73.93212106720881,8.37773235915347],[-73.93339675759347,8.373109116138323],[-73.92701325807434,8.373644666267069],[-73.92186450355791,8.371394623269566],[-73.9194877019346,8.372199507067307],[-73.91674809355862,8.376120229225478],[-73.9205381232984,8.383086196421004],[-73.88780416061383,8.383359734363069],[-73.89172295444223,8.387159145555472],[-73.89118731792433,8.396393887800627],[-73.88840729072894,8.396207176118196],[-73.88763817410506,8.397681727176746],[-73.87675016731652,8.396770401635138]]]}}]}