{"type":"FeatureCollection","features":[{"type":"Feature","properties":{"code":"135008"},"geometry":{"type":"Polygon","coordinates":[[[-74.31804220637042,7.9219633595103005],[-74.31804436095751,7.914839769100524],[-74.3155629389621,7.9056157802503435],[-74.31806867539552,7.900139611802047],[-74.32412331190733,7.898759106669672],[-74.32696337649162,7.895460124294004],[-74.32538939869573,7.886610564625414],[-74.32324615842532,7.883822908443449],[-74.30887123784584,7.877494463509208],[-74.302832651208,7.879407702894753],[-74.2953329696536,7.885795472507198],[-74.2883798147949,7.887361096264499],[-74.28171941946891,7.88165315698177],[-74.26219273206488,7.881517819088515],[-74.25811905993538,7.878153822690592],[-74.2504620081636,7.875981563886057],[-74.23821615591663,7.878080196490657],[-74.23529146388279,7.876839356937637],[-74.23176133288041,7.879315638777371],[-74.21931197962698,7.879312043342338],[-74.21693252256506,7.870983931798662],[-74.209199275544,7.861466084010715],[-74.20681980099857,7.848379049087271],[-74.20325062311906,7.845404727502853],[-74.18837898742885,7.85135337992773],[-74.18005087691358,7.85135337992773],[-74.14078977420024,7.8596814822154215],[-74.12234895137448,7.857302034409543],[-74.11283110255812,7.85849176242624],[-74.10093379770831,7.863845549300152],[-74.08487244120039,7.873958254411548],[-74.07297513635058,7.872768525366382],[-74.05512917804742,7.865035279373728],[-74.04939049347558,7.86465270184209],[-74.04964385748917,7.8621601932363205],[-74.05238944317307,7.857666516495044],[-74.05192268762124,7.854452044326479],[-74.05364065354041,7.851128074911401],[-74.06755134545136,7.837406394280322],[-74.07466130077023,7.833321819631635],[-74.08500866663957,7.831816361818596],[-74.09248260936306,7.822931312655555],[-74.09986749307825,7.819098357781968],[-74.10103527001786,7.815795704894924],[-74.10499877435632,7.818863006939068],[-74.10820722190863,7.817248808813133],[-74.1353552607593,7.818484931928765],[-74.13690746334174,7.8147650676799],[-74.13665802386481,7.805525294293943],[-74.13902402889852,7.802746800506327],[-74.13641193711044,7.799935100366724],[-74.13863609729515,7.787911170588643],[-74.13621105143329,7.784789714875274],[-74.1386576287677,7.779606053991245],[-74.13589845324441,7.777567442320503],[-74.13444121395878,7.773623058785347],[-74.1443252695588,7.769805949125612],[-74.14934782697912,7.770308136579104],[-74.15233666708662,7.766654671664526],[-74.1522265219213,7.762005948985973],[-74.15371576325276,7.759849162070736],[-74.15991052711462,7.760474237092296],[-74.16280868635988,7.757553098327321],[-74.16663821137769,7.756954440908771],[-74.16752782238393,7.751690665380977],[-74.17486988072415,7.747381707200475],[-74.17925497244744,7.738924148682315],[-74.17815579056696,7.73634741886184],[-74.1738761244863,7.742423498400115],[-74.16985588817312,7.743369254140305],[-74.15746797304729,7.738886803877563],[-74.1411705704694,7.743349411370389],[-74.12995558478019,7.74241159829171],[-74.12578644850231,7.7400927699732165],[-74.13419944254929,7.735001133097342],[-74.13683127631992,7.731571594057698],[-74.13802198958456,7.721637614772533],[-74.1476066131168,7.716249425467936],[-74.15249226324062,7.714881030246204],[-74.15539253284993,7.715815246861382],[-74.16100216948297,7.711374581189716],[-74.16974145234565,7.708191179298069],[-74.17658268591879,7.709731387155443],[-74.1913949557931,7.704192951654818],[-74.21121924772257,7.70177654059637],[-74.2174968413164,7.692836526322935],[-74.2188362509142,7.68460105688132],[-74.22464190149219,7.676660229022275],[-74.22518347418031,7.671651879535318],[-74.22688599083597,7.670669116319516],[-74.22568006073584,7.667651738989036],[-74.22733655664564,7.666320868549462],[-74.2275839186687,7.659160609021683],[-74.22961020034211,7.657597895756737],[-74.23072114349122,7.65306856291329],[-74.2260286749817,7.643156694113827],[-74.22531946821994,7.63639007096009],[-74.23713784216329,7.624639181357907],[-74.23396852479198,7.6225243960350895],[-74.23441228745435,7.6168651175101445],[-74.2305708458731,7.6150557734447375],[-74.22938898029946,7.604196648407424],[-74.23107645289792,7.599859257905052],[-74.225348979378,7.594318417905811],[-74.22682872612813,7.588648537166932],[-74.22477765384775,7.587983489670023],[-74.22472408536231,7.585255059435781],[-74.22098095774362,7.585270972526871],[-74.20347908956774,7.5934876152996935],[-74.19702488256854,7.594458022807089],[-74.1903500520234,7.598874546819104],[-74.18321104011807,7.600141052183574],[-74.18172226364265,7.598794138040773],[-74.17423238108853,7.5988477929154215],[-74.16929024993004,7.596952258167846],[-74.16528274162152,7.592339320146721],[-74.16067481828617,7.593174318798333],[-74.15920883312538,7.588879589120097],[-74.15316343716961,7.58261558330878],[-74.15225404304311,7.573467385530023],[-74.15555697978027,7.5732272174623745],[-74.15499800995843,7.570010575280094],[-74.16262042481463,7.563567838500376],[-74.1659636692994,7.564187699318381],[-74.17003489476417,7.5577127537758315],[-74.17400195854219,7.559755442192738],[-74.17327568169145,7.556095790167944],[-74.18016067857911,7.556553162210207],[-74.1822428653594,7.553149463817306],[-74.18435474327521,7.553325292520981],[-74.18831323189949,7.550439910645537],[-74.1991556570872,7.548933850165099],[-74.20073920556916,7.543174729411987],[-74.20440321716177,7.541049935286594],[-74.20510004970322,7.537998030055405],[-74.20835080635226,7.536570698906701],[-74.20754275083777,7.53094900069982],[-74.2103007631926,7.525674377160328],[-74.21809359405944,7.524216232845333],[-74.2206354535079,7.525300480712019],[-74.2230836331558,7.520410168658316],[-74.22596201750832,7.520287160762393],[-74.22713124969408,7.516459694686546],[-74.22965019750012,7.516874777172404],[-74.2338221959335,7.514270353451764],[-74.23589411885746,7.510818930183802],[-74.23764863665218,7.5114207480062305],[-74.23913054518846,7.50818652048531],[-74.24397159587397,7.506750450660547],[-74.24954081882981,7.499421970846868],[-74.25202631757134,7.499951101437432],[-74.251635343835,7.497789066379994],[-74.25505037257915,7.493396668601065],[-74.26269747211268,7.491822495401095],[-74.26880942166912,7.482318926509095],[-74.27441230143484,7.479748547321151],[-74.27487049211732,7.477419998163896],[-74.27929546067082,7.473455322429402],[-74.28688414055551,7.470197830510301],[-74.2909006539067,7.464951509708953],[-74.29387985133718,7.46335980876313],[-74.29555679474112,7.464188604877904],[-74.29771978625013,7.460893965615014],[-74.30292046374404,7.458815088362769],[-74.30646115582266,7.454849473660261],[-74.31032992106475,7.4536177543354825],[-74.31264446797707,7.454595356826758],[-74.32076553552974,7.459994808605359],[-74.32332212844574,7.463423743949193],[-74.32546365635932,7.462644958937233],[-74.33187769342214,7.464728945491913],[-74.33946713229739,7.462745496392529],[-74.34074997241447,7.467234124509503],[-74.34391985337231,7.470467034595572],[-74.3516221082781,7.472332946084805],[-74.36961102420514,7.481224587564384],[-74.37133571099616,7.480321509103362],[-74.37541416744028,7.470104711210865],[-74.38016545977649,7.46621792868433],[-74.38729214991201,7.46351285643658],[-74.39520897186583,7.462911691675117],[-74.40358939822352,7.458356338207523],[-74.41336085170906,7.456894470930592],[-74.42158612722841,7.4409460374112655],[-74.41351079554295,7.440275147332386],[-74.41188812819291,7.436441399529599],[-74.41552256794932,7.411230633737716],[-74.41319365678032,7.399385057489667],[-74.41062574174066,7.394097354218275],[-74.41284695646596,7.386951330391867],[-74.4248520215229,7.378467601096929],[-74.4296891096194,7.3782965988739875],[-74.43321559170772,7.38001969157915],[-74.44709467958006,7.378156055004695],[-74.45087292851076,7.372885996721607],[-74.45200286185099,7.3647585260857795],[-74.46806464619095,7.36022392144605],[-74.46834289851347,7.3494433622180395],[-74.47074253258916,7.345064922460949],[-74.48922165872807,7.343078467224075],[-74.4922953628269,7.34629010294816],[-74.49481828350633,7.356094946876965],[-74.5056993184831,7.360506275197338],[-74.50907479847018,7.375275378253775],[-74.51307986731302,7.381684494219201],[-74.52801945528586,7.389473000485225],[-74.53237282161427,7.4001097752215514],[-74.54262900576992,7.403792889105489],[-74.551149706545,7.4145178198776875],[-74.55902729033136,7.414413372283889],[-74.56041901885698,7.427640128322594],[-74.56399944172699,7.433961020374909],[-74.56432781725255,7.4386206075202495],[-74.56834183045999,7.441645240512742],[-74.56874318632362,7.445681992584241],[-74.56646501028092,7.451941456793406],[-74.57038852363206,7.455422764544096],[-74.56975187657531,7.459781636125399],[-74.5551644448044,7.466483988820812],[-74.55408742586025,7.473725415089007],[-74.54847530965225,7.471721839369536],[-74.54537808301615,7.473290541255324],[-74.54525973499335,7.48929923842087],[-74.54035023631599,7.486840486383926],[-74.53662287574957,7.488566827938996],[-74.53544194091637,7.480577299212882],[-74.53314788366436,7.479184941280437],[-74.53383955650969,7.484439825922664],[-74.53205466469359,7.486479472206611],[-74.53328625649146,7.490918899633471],[-74.52919220474502,7.493489855777682],[-74.52958705570967,7.499202784035049],[-74.52799343363324,7.500654509840331],[-74.51989519133377,7.492919416764892],[-74.51945354314921,7.489544964191907],[-74.51739814626808,7.489561706207667],[-74.51741199321816,7.492100221161024],[-74.5156162626464,7.493034430577097],[-74.51081843225774,7.492905776531757],[-74.50790475381484,7.490756633001297],[-74.50634250540583,7.480227710003476],[-74.49820547128303,7.4833233003875534],[-74.49566291352215,7.486688163762494],[-74.49207416849526,7.485481051981878],[-74.49042965805455,7.4870920454808925],[-74.48887810956154,7.511325847444368],[-74.4924984802243,7.522437236061762],[-74.4907214127989,7.529563933396389],[-74.49315794327839,7.52997079554126],[-74.49321203832642,7.538070037486818],[-74.49787652805719,7.5391675923712],[-74.49865015234462,7.542781360433025],[-74.49343154292694,7.550983939254422],[-74.48738057178429,7.552866920832571],[-74.4858106110849,7.555771965500526],[-74.4811437682776,7.556585527296249],[-74.47791995682257,7.55995319009179],[-74.47388543647128,7.56054569639565],[-74.47553542645375,7.564606279537259],[-74.47165816627643,7.568192639605911],[-74.47344602000697,7.570627835166988],[-74.47269068142754,7.573310564501014],[-74.47410737128149,7.575470308188528],[-74.47297687744009,7.577285381707156],[-74.4701871746575,7.576161032809807],[-74.46699911289278,7.5785983983845995],[-74.4625445293085,7.578311847559348],[-74.46274986814183,7.579953903107764],[-74.46729622685115,7.580241505001254],[-74.46866564640158,7.583391395093429],[-74.46763122657495,7.589450389116166],[-74.47005334240407,7.59360864241529],[-74.46754287410664,7.596410486990294],[-74.4671168315088,7.600080746371191],[-74.46975844268246,7.603873719513388],[-74.46957655850929,7.6088198153178155],[-74.47207697892333,7.611752801740522],[-74.47496223224346,7.612419279801031],[-74.47531387113878,7.614188901302612],[-74.47017657552885,7.619096523072358],[-74.46479336594297,7.621513262203962],[-74.46264063726187,7.625539941709462],[-74.46478088990676,7.627836953676876],[-74.46286098827062,7.630032437798775],[-74.45998715991846,7.630220329104702],[-74.46133430648928,7.634308341836743],[-74.46059352139991,7.639545389171872],[-74.4625761600866,7.639064417459167],[-74.46191332682639,7.640851909177911],[-74.46668845434647,7.643496951235818],[-74.46358752120352,7.659718596680875],[-74.45850115920939,7.667258378237591],[-74.46040394036294,7.670482388182052],[-74.45629651577838,7.6731183130970635],[-74.45175391396958,7.6704549102548185],[-74.4494139655555,7.675893352346236],[-74.45113294860431,7.67688197357063],[-74.44803884123434,7.6821368417577105],[-74.44565925767404,7.6810854731983795],[-74.44634621613886,7.679559069096513],[-74.44475681684742,7.6803888895400405],[-74.44579127061263,7.685098840543901],[-74.45040979204816,7.685667926126314],[-74.44990656278247,7.691361346886026],[-74.45461669479221,7.6916511373052],[-74.45582721791669,7.694771791861854],[-74.45456622706092,7.6967722843106685],[-74.45847682625936,7.696147217516682],[-74.45663651373286,7.7067233162012485],[-74.45847488661678,7.711226815597058],[-74.45723255170833,7.713845525412751],[-74.45932469792598,7.7150733849927065],[-74.45391844917077,7.718465442444767],[-74.45271177550666,7.717866336625207],[-74.45183527919943,7.719735376636606],[-74.45386340589874,7.724182213991867],[-74.4508453384833,7.730574044923799],[-74.45046598820426,7.7386623360134195],[-74.44833906623131,7.741876289846971],[-74.45227152394705,7.752138790696563],[-74.45077249492812,7.765254189036227],[-74.45191742913096,7.78764194799146],[-74.45075097991065,7.790493405661948],[-74.44542676692981,7.793607288953126],[-74.39436728628095,7.7923529068689845],[-74.38488412271698,7.794043879257401],[-74.37566307315552,7.798714892399062],[-74.36255159523876,7.815050135490992],[-74.35804800019781,7.825775695669961],[-74.3603009896832,7.829813681872508],[-74.3708778288464,7.833321578976097],[-74.3713290240629,7.83511607850221],[-74.36218463563523,7.84327469551971],[-74.35087740996494,7.856902601733452],[-74.34507520569781,7.859502450941761],[-74.33984382713783,7.86515803632966],[-74.34098257628733,7.869074717737135],[-74.33825620293817,7.876764299145748],[-74.3435958127319,7.87803929018952],[-74.34750356828681,7.881538286123089],[-74.34738858944166,7.887851871091357],[-74.344275627635,7.898159340590041],[-74.32589393922564,7.907186425892462],[-74.32630057717,7.913347112311442],[-74.33166393472999,7.91660126179238],[-74.33155860576096,7.91862899151289],[-74.32744065198193,7.920426227724533],[-74.31875266988897,7.919721502915195],[-74.31804220637042,7.9219633595103005]]]}}]}