{"type":"FeatureCollection","features":[{"type":"Feature","properties":{"code":"135047"},"geometry":{"type":"Polygon","coordinates":[[[-73.82032271037235,7.695951717792923],[-73.81478266330231,7.69163529106288],[-73.80952227340731,7.682434051361213],[-73.80642261656158,7.665363084145554],[-73.80674338366936,7.650988789887606],[-73.81110400360296,7.6318869418036],[-73.81720336502298,7.62619197838012],[-73.81604114578676,7.620568273681897],[-73.81774580880193,7.607011942953648],[-73.82611968500925,7.5949740993767705],[-73.83136017042773,7.578626885213907],[-73.838501715387,7.573947151908101],[-73.8491066094337,7.570792729469758],[-73.85207920734848,7.567931361727119],[-73.85548397429318,7.558241186053863],[-73.85672185501704,7.5442074070570015],[-73.86617749745926,7.536330858912208],[-73.87091209200275,7.523926296387344],[-73.88279289137859,7.512496984305699],[-73.8860573736215,7.506296689479996],[-73.89538986932808,7.4999124834208715],[-73.906438100262,7.498488355870563],[-73.91055987161968,7.495561460912882],[-73.91703997788676,7.478344381840145],[-73.91991725666361,7.478726538738783],[-73.91913166747594,7.483830864538447],[-73.92062196810315,7.484133007580681],[-73.93029160989312,7.479655418765731],[-73.94057294049674,7.494496827501905],[-73.9378801859051,7.507647748246143],[-73.93858976599154,7.512846047980986],[-73.93580521262061,7.516903944830688],[-73.93686537847725,7.5254298824350485],[-73.93379837673837,7.528766547973021],[-73.93385972333459,7.531644211387402],[-73.94202313597953,7.538245293347984],[-73.94467795441204,7.5439335934923974],[-73.95962437535695,7.561878547615493],[-73.96623902967343,7.5670015046798085],[-73.96640669151503,7.5713541942931215],[-73.9695046576013,7.573483253369659],[-73.97596682268869,7.582884078797122],[-73.97985803780256,7.601752428263239],[-73.97806471275783,7.612127826390349],[-73.98140676939147,7.616020063776034],[-73.98061353784743,7.629755951312063],[-73.98300145899123,7.640730167294748],[-73.98784607323012,7.649697545338313],[-73.990134980042,7.658657584416062],[-73.9890819659746,7.661208367660265],[-73.99264524985,7.663086440482289],[-73.9971693448357,7.6707934200529735],[-73.99874128014477,7.67727007486701],[-74.00233225483498,7.678760269564691],[-73.9931103310974,7.683019437757537],[-73.99059617377662,7.677790334112387],[-73.9875090042799,7.67681653171627],[-73.98281135550542,7.678211345569423],[-73.9831222742477,7.681051756738839],[-73.98022493364266,7.682210736381137],[-73.97626286809526,7.679844154391162],[-73.97727959048302,7.678102674162233],[-73.97583032882608,7.676498497180205],[-73.97301898864129,7.675934917879033],[-73.96866732849895,7.677656321881557],[-73.96033053895735,7.686800107641886],[-73.9584246303101,7.685478311150689],[-73.95947210312914,7.683447514614613],[-73.95800223251257,7.6827813728548335],[-73.95825208439493,7.6807108187878725],[-73.95681504989108,7.682089321542719],[-73.95557093063485,7.680473823465434],[-73.95526483014584,7.683091403022786],[-73.95354759647773,7.681737983981009],[-73.95471650984632,7.679063008075161],[-73.94965074961266,7.67965487571621],[-73.950935614733,7.6776061225737635],[-73.95010106551081,7.676126367596112],[-73.94866558189824,7.6761530361390555],[-73.94864220642825,7.678441802054351],[-73.94599894666118,7.6766800378536],[-73.94767320171644,7.675743579233767],[-73.94451872785595,7.67306502126263],[-73.9450222162892,7.6716320007698755],[-73.94345924282828,7.673561985256526],[-73.94218039923885,7.670914523273325],[-73.94015650355209,7.6722204385552],[-73.93794094526066,7.670657691351607],[-73.93791088080047,7.672442357938735],[-73.93406987939261,7.673184772081072],[-73.9416726900775,7.6783457876892385],[-73.9426260974301,7.681829551360636],[-73.94484830048862,7.6823422587526125],[-73.94965740980638,7.689310654101007],[-73.95536876248985,7.689870709958086],[-73.95786594433844,7.691771406458656],[-73.96105967590671,7.69068046960183],[-73.95999355639634,7.692428680987064],[-73.96444048836827,7.697279848461619],[-73.96454660101045,7.704936245115505],[-73.96268796163827,7.708543500050837],[-73.96065524294312,7.708563283171088],[-73.9524418665037,7.7022359808365195],[-73.94400581374703,7.702078523201578],[-73.93561984922638,7.697962766175749],[-73.93179575952729,7.699845583203171],[-73.92671660897207,7.699148680727603],[-73.9188073347579,7.705374583772084],[-73.91369918109518,7.703384500189998],[-73.91144612167574,7.704796442753263],[-73.90906955350891,7.701983431349447],[-73.90744874661135,7.704707813633888],[-73.89804672407678,7.703337429404314],[-73.89555143764778,7.704049547686907],[-73.8962453165023,7.708229514492984],[-73.89269720421089,7.711948765790112],[-73.8874725732623,7.7133106458284715],[-73.88350650193127,7.711538861512338],[-73.88008145204321,7.712285490212082],[-73.87888170802484,7.714297916707892],[-73.88191484418007,7.719377541375081],[-73.88026104587493,7.720683337357627],[-73.88185813997336,7.721908147605518],[-73.87870060649635,7.723443805633167],[-73.8514682795822,7.7055913403742125],[-73.83766046894709,7.698490267713396],[-73.82881373646694,7.690881977486754],[-73.82356755553383,7.691474500245704],[-73.82032271037235,7.695951717792923]]]}}]}