{"type":"FeatureCollection","features":[{"type":"Feature","properties":{"code":"135060"},"geometry":{"type":"Polygon","coordinates":[[[-73.9141107257388,7.390980371201408],[-73.91360431035815,7.376937703375802],[-73.91717825095498,7.367220986686505],[-73.92351968717509,7.371506960205124],[-73.92529950671263,7.370020079149299],[-73.92640813072387,7.374175385960598],[-73.92824531678514,7.375099414824149],[-73.92691961632613,7.378142813807301],[-73.9250600811805,7.374729883085877],[-73.92315001042635,7.376483393006936],[-73.92218373725791,7.374576235830489],[-73.91984691119535,7.3746432203486165],[-73.91911862065416,7.376796118722723],[-73.92527391803435,7.381474343303353],[-73.92369736090461,7.381370826450052],[-73.92132774706607,7.385923860779769],[-73.91811517443085,7.382439299036946],[-73.9163951104889,7.383008295144862],[-73.91538625980019,7.390911878986515],[-73.9141107257388,7.390980371201408]]]}}]}