{"type":"FeatureCollection","features":[{"type":"Feature","properties":{"code":"700001"},"geometry":{"type":"Polygon","coordinates":[[[-75.36346835182599,9.30772377557264],[-75.36598685945864,9.304885927281987],[-75.36940440891539,9.30741855131663],[-75.37568391952613,9.300151066371825],[-75.37444598738006,9.297165066822572],[-75.37488166854115,9.29555505137239],[-75.3769002564361,9.295267558493833],[-75.37515569910715,9.292083991022935],[-75.37692527021505,9.287959549828486],[-75.3907142665227,9.292635555030188],[-75.39604027927794,9.304840559597153],[-75.39941727313243,9.30791655917966],[-75.39836827924682,9.320363569641074],[-75.39390267075879,9.323156883285321],[-75.39461579177282,9.335275311504233],[-75.39058017304495,9.33378962961234],[-75.38868155605513,9.3358122767699],[-75.38457593021656,9.33549756101786],[-75.39019791947266,9.327543804607899],[-75.38909640919832,9.326385074877123],[-75.39181921076664,9.3262862425795],[-75.39138497251042,9.322117027111574],[-75.38228175983585,9.317035844353882],[-75.3778928299651,9.31247354067176],[-75.37072790850738,9.320867302843624],[-75.36894224638786,9.318850167109531],[-75.3716540456781,9.316359003706566],[-75.37117172464883,9.31502369142379],[-75.36611799513577,9.315041958619815],[-75.36643153434954,9.310791449912983],[-75.36346835182599,9.30772377557264]]]}}]}