{"type":"FeatureCollection","features":[{"type":"Feature","properties":{"code":"700002"},"geometry":{"type":"Polygon","coordinates":[[[-75.37692527021505,9.287959549828486],[-75.3775062723609,9.285686546851707],[-75.3803232617804,9.28627855436099],[-75.3834958773669,9.280706611174708],[-75.39234404555282,9.27963341495132],[-75.39751952826191,9.28238056695318],[-75.40426920576823,9.27567094214072],[-75.40705004954697,9.275318609046678],[-75.40556855650146,9.274546741339066],[-75.40696692362354,9.272486602309527],[-75.40850151104252,9.273733430483276],[-75.40613140149469,9.266681152277783],[-75.40637402034082,9.262475501148288],[-75.41063052075378,9.254206320389358],[-75.41346438177283,9.25543335310158],[-75.41126225288377,9.262913848032383],[-75.40848814540351,9.26409017852842],[-75.41507121007965,9.271910647759512],[-75.41397515877816,9.274716071314458],[-75.41541308597016,9.277115184998195],[-75.4115452751227,9.278834552684486],[-75.4115877467134,9.286289337580797],[-75.41424428778714,9.292797554267281],[-75.41128549054247,9.292506824880093],[-75.39992527128612,9.299428550535424],[-75.39463827969695,9.299976556131526],[-75.39039426868993,9.29237655412311],[-75.37692527021505,9.287959549828486]]]}}]}