{"type":"FeatureCollection","features":[{"type":"Feature","properties":{"code":"701077"},"geometry":{"type":"Polygon","coordinates":[[[-75.29892948646125,9.472520396898801],[-75.3006635649894,9.466131494971137],[-75.29867620369464,9.462486516764216],[-75.2995968674943,9.453109552231638],[-75.29302034165573,9.452305210423049],[-75.29212084011778,9.447450804382981],[-75.28958763192782,9.44401326817433],[-75.2874117334652,9.44382753145544],[-75.28703728680011,9.445611826774837],[-75.28528330276708,9.44387437906903],[-75.28279497889395,9.445152922353259],[-75.28208900349853,9.442731649847019],[-75.27971401193406,9.441740916201695],[-75.27879529497608,9.4361938654381],[-75.27522470298811,9.431331496167616],[-75.27605611751756,9.4297230542345],[-75.27417038794096,9.43000401958841],[-75.2742684005699,9.426574369476953],[-75.27244882041606,9.424242727793114],[-75.26698279035418,9.423405798754914],[-75.2606658351798,9.418277920593084],[-75.259199850019,9.411121306894074],[-75.2604133710534,9.406580574793793],[-75.26714020273761,9.394150258011337],[-75.26922079028981,9.385820223280177],[-75.27184255972196,9.383414822727275],[-75.27221290907204,9.382241832612578],[-75.27061325826554,9.381936466431455],[-75.2725463229375,9.380917569916221],[-75.27170721257272,9.377919277393516],[-75.27398028651203,9.376038234429473],[-75.27220161471632,9.376258881629667],[-75.27267014433141,9.372365825603708],[-75.26618525477818,9.370614730465718],[-75.26248929256184,9.36691977612304],[-75.25733846161995,9.365314306388768],[-75.25396632612791,9.359419302667845],[-75.25481846274567,9.35737807978154],[-75.26404634733609,9.35583895795952],[-75.27135767889922,9.360156815253106],[-75.27308414078203,9.356647098834742],[-75.27596812603252,9.357787665242142],[-75.28227847860592,9.355162984289223],[-75.28613240753623,9.351523994703143],[-75.28313145340434,9.340045646482167],[-75.2941973910331,9.339037981587637],[-75.29452882411823,9.334874203495303],[-75.29605561491451,9.335566137565024],[-75.2996406668043,9.328956205856514],[-75.30433640781786,9.333951291520293],[-75.30257081678258,9.336815448399022],[-75.30485950659306,9.338464365715936],[-75.30592159460878,9.337450721456605],[-75.3119533667865,9.34339097767679],[-75.3155843478907,9.348759552525678],[-75.31560126371329,9.353542786229639],[-75.32043646358932,9.358907084814518],[-75.33592294849717,9.36731040738806],[-75.33294922238093,9.392946183221454],[-75.33506633609761,9.40662092162222],[-75.34328084588066,9.415246786815487],[-75.35255321986597,9.419787142505811],[-75.35666985723861,9.429793242351082],[-75.36279418512925,9.43280359541916],[-75.36228039375885,9.442338927758385],[-75.36408573204062,9.443256584392088],[-75.36082280068905,9.445448035990864],[-75.3591083499864,9.444032879544693],[-75.35686634632401,9.445665809722641],[-75.3569994278144,9.451210837539804],[-75.34928589397953,9.450813925576313],[-75.3498499288807,9.453809504039214],[-75.34779881546268,9.451815870273549],[-75.34477855129404,9.453983712945899],[-75.33910951593487,9.451598519231652],[-75.3383263960377,9.454213653152692],[-75.3327040869359,9.455776031145376],[-75.33225101481185,9.458721055487842],[-75.32933013315755,9.459462505979502],[-75.33070503430662,9.461246250053705],[-75.32885040997405,9.461343237325423],[-75.32739042988914,9.463741562193775],[-75.32248714197613,9.466093332554578],[-75.31845428358798,9.46603526566156],[-75.31846492591114,9.469483709531573],[-75.31707194782791,9.469327044825832],[-75.31506843895721,9.474114741970368],[-75.30291694322602,9.474352790417925],[-75.29892948646125,9.472520396898801]]]}}]}