{"type":"FeatureCollection","features":[{"type":"Feature","properties":{"code":"701037"},"geometry":{"type":"Polygon","coordinates":[[[-75.16800648097012,9.613326801843584],[-75.16195418313663,9.610424842503221],[-75.16303650164514,9.606333279587659],[-75.15409317784366,9.600409644026968],[-75.13667289087056,9.598437207490065],[-75.13279186453673,9.596133731761483],[-75.13393043165195,9.59356071667537],[-75.1314102692553,9.586159170134522],[-75.13168720311455,9.58069946190875],[-75.1234997794221,9.577173798460649],[-75.12175230234487,9.573467082849334],[-75.11856838623197,9.57340656003555],[-75.11180882847833,9.567219750148183],[-75.10349739518699,9.565461224512944],[-75.10351797226491,9.562440728944694],[-75.09934545652493,9.55761554095659],[-75.09409281285895,9.555327981404446],[-75.09308758640168,9.55166412510664],[-75.08609199697622,9.547372384082337],[-75.08577967543835,9.539860003319689],[-75.07866229990674,9.532914079440388],[-75.07050343092084,9.535774773553158],[-75.06463288973367,9.532199152481269],[-75.05606720179753,9.533352090023754],[-75.04589943078832,9.540667783211575],[-75.04179112688541,9.540918712901714],[-75.03895779757119,9.540552484520845],[-75.03231469961992,9.533572595298892],[-75.02691368872246,9.531288869780383],[-75.02698506777551,9.528891923025071],[-75.01476666568783,9.53020292395513],[-75.01285137250255,9.528527729931852],[-75.02001923222053,9.525892510528479],[-75.02238356500675,9.51944848099646],[-75.02147274031671,9.517307315094627],[-75.02375649154624,9.517203978218788],[-75.02374159352792,9.514468263526169],[-75.02704219570052,9.514293212325072],[-75.02677685958759,9.51155818874588],[-75.0290047581608,9.50999950697559],[-75.02886953956687,9.502232216450238],[-75.02738146140393,9.502305179304699],[-75.02876933018473,9.501178175997211],[-75.02539874455562,9.495921464841103],[-75.02719312169705,9.492372906205674],[-75.02912877598726,9.491784588748146],[-75.02929034327849,9.487621191179528],[-75.03434483383904,9.479261229799476],[-75.04183725150392,9.475692542487081],[-75.04354527444087,9.477600952306545],[-75.04538421605349,9.4768613890069],[-75.04512858123883,9.478242958577312],[-75.05276688450346,9.478034267021371],[-75.06208241399378,9.471266730610694],[-75.06584885023369,9.470566873419841],[-75.07203569508818,9.463973992259866],[-75.07185343039123,9.455570716994714],[-75.07422610384629,9.449533230790394],[-75.07717274798568,9.44701516950181],[-75.07863159061316,9.441423200482802],[-75.07710194691737,9.42216223074388],[-75.07853304319411,9.415450520249976],[-75.08273125251355,9.416534717722982],[-75.0889358122904,9.422146662181035],[-75.09276503597454,9.422898415609836],[-75.09301688920607,9.42517236989596],[-75.09774609676765,9.429932952153479],[-75.09710807982543,9.434153054957221],[-75.09943444868452,9.434434477968068],[-75.09995794341006,9.440245618372217],[-75.11206940701618,9.442568694158354],[-75.11012208093183,9.454433581471505],[-75.11092465381927,9.46059306049898],[-75.1280835888657,9.46514590250996],[-75.12963286861452,9.467191967303677],[-75.13050085661683,9.475623213120002],[-75.13481207017179,9.482739011020783],[-75.13693821155687,9.491049083682697],[-75.14936693322494,9.497353612186146],[-75.15739878853134,9.499429907019248],[-75.16083656950934,9.504935339799374],[-75.16306323189463,9.505870296893136],[-75.1802146757658,9.508156186254666],[-75.18285224618882,9.516810502281771],[-75.19192638993559,9.524447717454223],[-75.19818049698767,9.535713949405704],[-75.19772325452914,9.543679139011147],[-75.20189889262065,9.550608346585761],[-75.20254828516556,9.555401649770488],[-75.20253104641205,9.56201458967331],[-75.19883882669808,9.576223610133184],[-75.20055872300384,9.583046726662928],[-75.19820658343212,9.590600140225149],[-75.20579342960383,9.599829179756568],[-75.21533979198904,9.606606428778377],[-75.22012585390996,9.614636281707192],[-75.22921274417325,9.622830453011034],[-75.23605125854436,9.632863493936497],[-75.2364159391193,9.637033446797716],[-75.230511826483,9.650767017252747],[-75.22693766785636,9.651331467644695],[-75.22152342193215,9.649543819602684],[-75.21974226233397,9.650655908436818],[-75.21037086270383,9.646232576135333],[-75.20471622451151,9.647287227483218],[-75.19528176901366,9.644043304834668],[-75.18870046914492,9.64500127024445],[-75.17989902618797,9.638865581149332],[-75.1727976079705,9.64149156308207],[-75.16927663113495,9.645344525276414],[-75.1646463566583,9.646126368876423],[-75.1698831304277,9.636691706661622],[-75.18171307434943,9.62749138947288],[-75.18786568543777,9.62820165450205],[-75.18846106006788,9.62589239892651],[-75.1824935737751,9.616589405122056],[-75.18551855232425,9.610544706450298],[-75.18252194850419,9.601779082089422],[-75.17799955970469,9.602637517917572],[-75.16800648097012,9.613326801843584]]]}}]}