{"type":"FeatureCollection","features":[{"type":"Feature","properties":{"code":"701078"},"geometry":{"type":"Polygon","coordinates":[[[-75.36257666439434,9.441864791074636],[-75.36279418512925,9.43280359541916],[-75.35666985723861,9.429793242351082],[-75.35166832529717,9.4189408752095],[-75.34328084588066,9.415246786815487],[-75.33506633609761,9.40662092162222],[-75.33294922238093,9.392946183221454],[-75.33592294849717,9.36731040738806],[-75.32043646358932,9.358907084814518],[-75.31560126371329,9.353542786229639],[-75.3155843478907,9.348759552525678],[-75.3119533667865,9.34339097767679],[-75.30712482299043,9.339820229365557],[-75.3060524371798,9.336969978058107],[-75.31018295235577,9.337970158976418],[-75.30834555752068,9.332843940720863],[-75.31298762823297,9.328958925058544],[-75.31221825655541,9.32591124981144],[-75.30555137278554,9.329036356495806],[-75.30610349832239,9.330821762533105],[-75.30404395476103,9.33379402209033],[-75.300329210099,9.329036921110742],[-75.30156925260906,9.327271720883573],[-75.30275298891968,9.32712416303633],[-75.30296940099356,9.329164049975816],[-75.30793139240552,9.325682640409298],[-75.31288065889817,9.325416958739652],[-75.31427137029414,9.322343289607886],[-75.31672244500766,9.322230828390047],[-75.32112365756745,9.318351214107793],[-75.33070978982482,9.318335789526884],[-75.336983316957,9.314815519231388],[-75.34339236401672,9.313431321990379],[-75.35384890317317,9.306287727345136],[-75.35895332153268,9.309131099400588],[-75.35581649471737,9.323935824620605],[-75.35817144399408,9.32477705460542],[-75.36090784568626,9.329609963111523],[-75.36637985716987,9.331234224547472],[-75.36502898866553,9.337761989869364],[-75.36557466175401,9.346967513034087],[-75.36850813154473,9.348539868976104],[-75.37282226793332,9.344127790921164],[-75.37528004603524,9.344420518572122],[-75.37431029261728,9.3510610310189],[-75.3768447421374,9.351925204527845],[-75.37717197094958,9.35457808845996],[-75.3725746981649,9.358579986614586],[-75.37635221484453,9.367916032504695],[-75.38002261923583,9.365060920777921],[-75.38145735311377,9.377621116480725],[-75.39071641905292,9.37481198950428],[-75.39095237359157,9.381902239864417],[-75.39629454317873,9.387764560710536],[-75.39858885856984,9.394249433808739],[-75.39777036024998,9.39970187711657],[-75.39554720793899,9.401986862477145],[-75.3962511243925,9.405797577281248],[-75.39461496284815,9.407455545920755],[-75.39463617550354,9.410514050667587],[-75.39228744933257,9.41120297551447],[-75.3930567809009,9.415015706065958],[-75.39537601545419,9.41600024437355],[-75.39278798099355,9.417657231878877],[-75.39464628406506,9.420716795921521],[-75.39208235012637,9.420930865203331],[-75.39309109180022,9.423798124893153],[-75.38536690844302,9.428867201853905],[-75.38562478423393,9.429966763229686],[-75.3838914276725,9.429874877032887],[-75.38340045229938,9.431548924342735],[-75.38171747605156,9.430934845428567],[-75.38017113353459,9.433385609552488],[-75.3766813740433,9.433137479282891],[-75.37638188952496,9.431705892439027],[-75.37636280368866,9.434674163696172],[-75.37234913603794,9.436747576833284],[-75.37537399220241,9.437884413079757],[-75.37351344918312,9.439552196146224],[-75.36869623985206,9.441604784350773],[-75.36504698023896,9.440406892557348],[-75.36445181952496,9.442092599320063],[-75.36257666439434,9.441864791074636]]]}}]}