{"type":"FeatureCollection","features":[{"type":"Feature","properties":{"code":"701010"},"geometry":{"type":"Polygon","coordinates":[[[-75.31334259825366,9.550875701531368],[-75.31053239861166,9.548479011886684],[-75.311195220559,9.544117074518226],[-75.30987005386163,9.543096928445323],[-75.31161674418036,9.542699435411862],[-75.31182341587515,9.538869756127667],[-75.31205053403568,9.540492030612711],[-75.31437786654539,9.540094176595858],[-75.313719527579,9.547142529236282],[-75.3160305767583,9.549866219378941],[-75.31334259825366,9.550875701531368]]]}}]}