{"type":"FeatureCollection","features":[{"type":"Feature","properties":{"code":"702037"},"geometry":{"type":"Polygon","coordinates":[[[-74.92411987578527,9.391906865951569],[-74.92206106653191,9.385656974485414],[-74.92790362174122,9.378837902820067],[-74.93051931513497,9.368413749318506],[-74.94008071026451,9.357997683488918],[-74.94256679418982,9.351736875105416],[-74.95106877936792,9.34730671908784],[-74.94678577599126,9.33725078194658],[-74.93285927177664,9.328880274916912],[-74.93432863537106,9.317874626645505],[-74.93878494262498,9.31273577191672],[-74.93446264760189,9.294564823720805],[-74.92888580800081,9.289736964867473],[-74.92953992212534,9.28216861112071],[-74.92793896725374,9.280585812373317],[-74.92786117689002,9.276860226898691],[-74.93120429281953,9.270874319143559],[-74.92838902398432,9.264533496903653],[-74.93071849462603,9.260917463182977],[-74.93137787231939,9.255557189922115],[-74.92655470007861,9.251658628643384],[-74.9200492087648,9.251074989570895],[-74.91040853511532,9.245507017201192],[-74.90995859871248,9.240862387723894],[-74.90461107813883,9.229927808944296],[-74.90770359142289,9.215225406555817],[-74.90684654296365,9.213249772591098],[-74.91508862117689,9.216244636286433],[-74.9178783075044,9.221918961953918],[-74.92123290085237,9.221383395370083],[-74.92765265811249,9.214860359855322],[-74.93015237301495,9.215016069138017],[-74.93405204604005,9.220320351931264],[-74.93357514798817,9.224207737125141],[-74.93934747085791,9.228472370461532],[-74.93951838772011,9.232358212991642],[-74.94435663795662,9.242741940474673],[-74.9472918571281,9.240896276961735],[-74.95791492375412,9.240887427213863],[-74.95771273812557,9.25317602873099],[-74.96340150723978,9.261028296376367],[-74.9670560818438,9.27024267031743],[-74.97565535665575,9.274567393493271],[-74.98176861850487,9.28531564111421],[-74.9866346222912,9.287328360716174],[-74.99039829099235,9.292839000500749],[-74.99033514050791,9.301418361580204],[-74.99394527302536,9.310584980821375],[-75.0020956378201,9.316763339996612],[-75.0073715376567,9.323219053664047],[-75.00101219830924,9.325084276096788],[-75.00144750408884,9.334242004452392],[-74.99028303755301,9.332502255092209],[-74.99017652896043,9.336403375135944],[-74.99409468309761,9.347021254297886],[-74.99339208510742,9.349197221666145],[-74.9876560467182,9.351418874507942],[-74.98636423549704,9.353446052983259],[-74.9830731381902,9.351889343765663],[-74.97955873515923,9.353967359183116],[-74.97692174066401,9.353244013393578],[-74.97485373816295,9.356998687336386],[-74.9662004289811,9.359364080446824],[-74.96285041220233,9.36240771185794],[-74.96022878983746,9.360113465372535],[-74.95835408105091,9.361415384126701],[-74.95555877634189,9.359956636115953],[-74.95645513393106,9.370080696261198],[-74.95305495075468,9.381356677847748],[-74.95709672676793,9.396525344192526],[-74.95990528398721,9.399277910944193],[-74.95423479955258,9.410352757970486],[-74.96172985311568,9.426409974997227],[-74.95882791125877,9.433178218976366],[-74.94524461065396,9.437531962743265],[-74.93642085049436,9.447348697524376],[-74.92810580942665,9.446654665431936],[-74.92603298044486,9.444191647415437],[-74.91426993259518,9.440578722676491],[-74.9089214308874,9.432703630806373],[-74.9005043765494,9.43324203280622],[-74.89430861406987,9.42956904291043],[-74.8909769591038,9.431042412288491],[-74.890017348186,9.428259033398945],[-74.8864360809647,9.425416113858205],[-74.89244070431681,9.420653861410017],[-74.90837302522715,9.417241348236303],[-74.91502087869662,9.413961004324392],[-74.91604363084286,9.406962441671624],[-74.92207902313828,9.399460434808645],[-74.92411987578527,9.391906865951569]],[[-74.97114082207173,9.325296986806052],[-74.97722093413313,9.322050992874324],[-74.97710969367654,9.320373093018816],[-74.98145337721871,9.317345095990845],[-74.98123088602108,9.31590931927218],[-74.9757008045591,9.316884903959192],[-74.97404751019081,9.31587649447232],[-74.97536943935108,9.314844869952424],[-74.97403114149967,9.314819985757254],[-74.97013409100299,9.319328384653204],[-74.96446703745261,9.317620305151934],[-74.96777938238188,9.319855246499571],[-74.96904913351102,9.323968823227233],[-74.97027755976279,9.323153193233566],[-74.97114082207173,9.325296986806052]],[[-74.9716577944148,9.3172375003345],[-74.97057738263874,9.316921480517351],[-74.9706222525574,9.317305485527243],[-74.9716577944148,9.3172375003345]],[[-74.97580770498826,9.314617245798217],[-74.97591695129478,9.315298881044498],[-74.97613283680613,9.315187632360391],[-74.97580770498826,9.314617245798217]],[[-74.98044644663213,9.319473111198192],[-74.98239036960024,9.321105652624851],[-74.981555883113,9.31752896917186],[-74.98044644663213,9.319473111198192]]]}}]}