{"type":"FeatureCollection","features":[{"type":"Feature","properties":{"code":"703038"},"geometry":{"type":"Polygon","coordinates":[[[-74.74530653115295,8.740937533527244],[-74.74664484545946,8.73751767213173],[-74.74872466990729,8.73654436853019],[-74.74483317505707,8.729248306253169],[-74.74610098860046,8.724517622876533],[-74.74518233232061,8.718573626210912],[-74.73911156880172,8.709079794612649],[-74.73565578390901,8.70744255731745],[-74.73033370803171,8.707679966073783],[-74.7258867328652,8.700284021459368],[-74.72713824559469,8.695889071086071],[-74.73136863590895,8.690362284753917],[-74.72967076369974,8.687460738847392],[-74.73151437546983,8.682334697483952],[-74.73619385886411,8.680143245885176],[-74.74013481151508,8.674881355492516],[-74.74545402832211,8.674576030449145],[-74.7466529105057,8.67044896775468],[-74.74856242178708,8.669695214005174],[-74.74587618443564,8.664691165464887],[-74.74077366560948,8.660242759734786],[-74.74930483592937,8.649889483406298],[-74.74762149972668,8.648746471362529],[-74.74238487405302,8.649322888711652],[-74.73801992746178,8.644693466813862],[-74.73771773813962,8.64233990490618],[-74.74121402926937,8.63530558433547],[-74.74696357110889,8.634301125096272],[-74.74787369645804,8.62908735861447],[-74.76731507764049,8.629766174899828],[-74.77180619561682,8.624691745924224],[-74.77512686578831,8.616744335004569],[-74.78227492387401,8.61385630797497],[-74.78398945170983,8.611320558503508],[-74.79258541802221,8.608889672116618],[-74.79810622498957,8.590128381459806],[-74.80519799230245,8.587551996167576],[-74.80932462305105,8.581800940460653],[-74.8167326837468,8.58057990356832],[-74.82021254345045,8.577819153499547],[-74.82095887081653,8.574191166191497],[-74.8253967884898,8.571353933937871],[-74.83659136370875,8.567664943533373],[-74.8492391271783,8.56773154032868],[-74.85209873628418,8.573152654192086],[-74.85922771676121,8.578072415697306],[-74.85738594898851,8.589187364782731],[-74.86442769697106,8.590149526238008],[-74.86316521590214,8.593259874772173],[-74.85883538342381,8.595882608883414],[-74.86672702704789,8.598164086226575],[-74.86852832252214,8.607990049222451],[-74.86484733751422,8.613649245472004],[-74.8645198680465,8.61839976339104],[-74.86508996973009,8.620364971005472],[-74.86881792473628,8.620628575221247],[-74.87096399322365,8.623038066918411],[-74.86996228198285,8.624603056126716],[-74.86249486164178,8.626783624746793],[-74.85594351310453,8.632483612111969],[-74.85539639094054,8.637326110844583],[-74.85239738365033,8.639330169932009],[-74.85198772928408,8.64505953989999],[-74.85552295004845,8.646471809508],[-74.8537584368209,8.647422416411587],[-74.84959576430424,8.663063587301792],[-74.86030753718285,8.67746541810817],[-74.86270327757512,8.676069347498299],[-74.8651619524789,8.678197949946309],[-74.87408431867874,8.675066067882653],[-74.88015043877965,8.680329845467327],[-74.8821649848955,8.686112850769518],[-74.88024946853824,8.697320668214331],[-74.88628853957249,8.705650306995153],[-74.88340006619887,8.709842286009803],[-74.88735379827654,8.711164039306425],[-74.88992387613081,8.716857650327995],[-74.89353630001818,8.719201665203798],[-74.8899159478674,8.726634111300143],[-74.89512370104586,8.734960795365623],[-74.89046046807181,8.740533102620532],[-74.89366735753367,8.745368672735879],[-74.89341507544162,8.749506478540866],[-74.88443615724458,8.75610845010425],[-74.8892124808433,8.758334721681365],[-74.89199013027957,8.774942239787947],[-74.89580816965133,8.777782979030519],[-74.8914072923638,8.781455072124459],[-74.89135732548402,8.784602480584795],[-74.89465521359688,8.785383049944528],[-74.89134246243276,8.787950975268643],[-74.89450551144694,8.79798725578803],[-74.88999979575755,8.79952598268818],[-74.89352471975548,8.802508601746865],[-74.89213813549935,8.808763249759693],[-74.88166395341142,8.810132755699328],[-74.87765239509628,8.804578965551968],[-74.87919782435631,8.79334371337444],[-74.87577769350884,8.793063892677083],[-74.87187836706886,8.799035619238339],[-74.87148635974773,8.803025668706653],[-74.8756187292056,8.812527832746184],[-74.87553511477194,8.818055282423757],[-74.87786337905055,8.819795212789813],[-74.88165522501976,8.829540964468322],[-74.88033340178907,8.8359140983153],[-74.85889393882707,8.83774362247982],[-74.85310177421582,8.841361732625899],[-74.85495825900097,8.853293991151588],[-74.8584744114126,8.856019260981952],[-74.86001318870643,8.861822489577833],[-74.86001357642925,8.871158182712179],[-74.86377315295755,8.87149272580757],[-74.86607288824075,8.876241081940407],[-74.8619979922646,8.88908746542819],[-74.87038210353188,8.892579869045278],[-74.86991309774783,8.896442378271502],[-74.87224902289478,8.899929397991968],[-74.86114201132875,8.899402481638162],[-74.85780826965282,8.902027886614633],[-74.85934599587841,8.907215174815349],[-74.85876830326055,8.914009370513043],[-74.85688514993245,8.916661106703316],[-74.85670530618921,8.921908495027935],[-74.85396391449393,8.925026478719417],[-74.85504964537472,8.9332976186613],[-74.84993600291426,8.933573830553883],[-74.85031786053617,8.938987301032455],[-74.84633383259876,8.940355058619843],[-74.84426968984246,8.94461185933801],[-74.83910854465057,8.946727830455018],[-74.84215383905325,8.953262549076783],[-74.84203241598726,8.958262324438408],[-74.84722900953591,8.960793171324383],[-74.8460600087497,8.966210994171718],[-74.83883447911751,8.973250545401072],[-74.83020865711882,8.974906782143364],[-74.82625406320636,8.977840596462329],[-74.82473696548084,8.982457825145616],[-74.82045926886758,8.984468976372682],[-74.81306056494185,8.99683118043555],[-74.81119231785965,9.003016516564855],[-74.80428377272364,9.012104865159642],[-74.80354198695971,9.01722114351827],[-74.7978639208468,9.02187358813029],[-74.79950614814516,9.02424696915375],[-74.79816239646306,9.027373198897351],[-74.79302425650184,9.025447342579014],[-74.79107476554594,9.0281170178921],[-74.78223130659836,9.028577009377443],[-74.77984774193703,9.034349607869785],[-74.77580555248989,9.037504624747896],[-74.76743663851778,9.038364576500328],[-74.76989460790998,9.03065038857602],[-74.76799846123907,9.026179840478505],[-74.76404970888012,9.027056266851673],[-74.75879953759,9.032921095040649],[-74.75661904713155,9.03198147498847],[-74.75607665580316,9.026414414847295],[-74.77407398850374,9.014504620591538],[-74.77725383095583,9.009921667840501],[-74.77707180794289,9.005690898030934],[-74.77532303708495,9.004851159287739],[-74.76302008879469,9.01087843614323],[-74.75596826824614,9.010606653752575],[-74.75386456850521,8.994857881035387],[-74.75521678015548,8.991223243818013],[-74.76149252975188,8.986381615147764],[-74.7611454149752,8.980976941966503],[-74.75487434273532,8.977234210298207],[-74.75827480976187,8.963528771859842],[-74.75630488056782,8.955741369112616],[-74.76628472633246,8.948492575082184],[-74.76415287400607,8.940439956549767],[-74.76867203143917,8.924537699071095],[-74.76902962398827,8.904289924337263],[-74.76112876757611,8.892982957834477],[-74.75961770063753,8.884523398995611],[-74.75185780152862,8.878777236618191],[-74.74980352359296,8.86666829783843],[-74.74617996784372,8.862656057665902],[-74.74619234103562,8.85911423018672],[-74.75042322397388,8.85246494615376],[-74.74969645552767,8.837918218080915],[-74.74291517603956,8.832032149468603],[-74.73980303493005,8.831349377793288],[-74.73825495125993,8.828782195004692],[-74.73348524466036,8.827844617439382],[-74.73019904993896,8.823441681209943],[-74.72932213197032,8.818033275810762],[-74.72285127757209,8.810577625994313],[-74.72212456157638,8.806537530456183],[-74.72291875368575,8.803264449405333],[-74.72951875989548,8.798847882198743],[-74.73311410649484,8.79405897663429],[-74.73299624081153,8.782850575034047],[-74.73973705828558,8.772560338118183],[-74.73897625456266,8.767904412228233],[-74.74028691096447,8.76419191471308],[-74.74321264378216,8.76161011158564],[-74.74808238801393,8.762101063304613],[-74.74820072575233,8.759347857890077],[-74.74440196967782,8.75388925318316],[-74.74627467197303,8.745604385590525],[-74.74530653115295,8.740937533527244]]]}}]}