{"type":"FeatureCollection","features":[{"type":"Feature","properties":{"code":"703078"},"geometry":{"type":"Polygon","coordinates":[[[-74.73271167282354,8.367938105097323],[-74.67671313605933,8.378959900944722],[-74.66637463433602,8.366640708404873],[-74.66258943930455,8.360475561630665],[-74.66157401892502,8.353462745793024],[-74.65839777293644,8.349735718441991],[-74.65709287067045,8.340910650103524],[-74.65361126055768,8.334940706861573],[-74.65697234440637,8.330787371574559],[-74.65655360375047,8.328847299095287],[-74.64697110395201,8.317205734989727],[-74.64661945168695,8.314788146364606],[-74.64941616227685,8.31161695928472],[-74.65269815169677,8.300202036142366],[-74.65000610775888,8.283183226389042],[-74.65128887177116,8.281280444207084],[-74.65832114162748,8.278993039949682],[-74.66220641645731,8.285100500354588],[-74.66232774490658,8.289686554888249],[-74.66545556873604,8.29330982781579],[-74.67937805688268,8.297859554674346],[-74.68347004865876,8.295582877072434],[-74.68707330603803,8.296108604546703],[-74.70414737400785,8.292626229272685],[-74.71362542004186,8.295137214876718],[-74.71388929062425,8.293408796896244],[-74.72384668240335,8.29271360883439],[-74.72183762508524,8.285573124199402],[-74.72494305457889,8.28036601893973],[-74.73182779229899,8.282173251612619],[-74.7375977446087,8.297589298492369],[-74.7468394751208,8.288968972490522],[-74.75072003557011,8.295475532356136],[-74.75498424724509,8.29201236427457],[-74.76288057851013,8.29204864772663],[-74.7652907078417,8.289237222181157],[-74.76776701333557,8.290904462229946],[-74.77116296549946,8.290310915142243],[-74.76879101503948,8.28242997143417],[-74.77098156263736,8.279319431609679],[-74.77925533950588,8.278319513972633],[-74.79573201709826,8.282165668905975],[-74.79625936436952,8.280785900138426],[-74.79961612875962,8.28086691261251],[-74.8007764854865,8.291924389244627],[-74.79970026049989,8.293144606468275],[-74.80757129413587,8.307210748494356],[-74.80548141357707,8.310685231500486],[-74.8009951992147,8.312021270892103],[-74.80590942152855,8.32007250205561],[-74.80173825201979,8.324682020505293],[-74.79899606842378,8.332004613514016],[-74.80370347711778,8.339794033037037],[-74.79967790935865,8.344073271285652],[-74.80438846302985,8.357148300171104],[-74.80152154683981,8.358743610950114],[-74.80188994523445,8.361917515175094],[-74.80594712731664,8.364518431906731],[-74.80913269922195,8.369194709645683],[-74.80574267500077,8.369641741726866],[-74.80454920345329,8.372272600534018],[-74.80531805371055,8.37413932140754],[-74.80880213619918,8.375125169950877],[-74.81057046494846,8.378927045291562],[-74.81524423534455,8.37889238163649],[-74.81761957143726,8.383781452360097],[-74.82228883622668,8.384633838889329],[-74.82528661041431,8.383460806608468],[-74.83023794407643,8.3899733715499],[-74.83023257663496,8.395453345235524],[-74.82328095724097,8.396119761589432],[-74.81843206365278,8.398480664519866],[-74.82080385059038,8.404092953506165],[-74.81753169205246,8.40788729756224],[-74.8184560099084,8.411150512763982],[-74.8154397864904,8.411679402699008],[-74.80837195720557,8.420182102644674],[-74.79897358667034,8.4237005474547],[-74.79412955555841,8.427435430049684],[-74.78844528485178,8.42605000896208],[-74.7867664120896,8.422165346055522],[-74.77844154733901,8.415602813205908],[-74.76929185934705,8.404219211280406],[-74.76654801995858,8.392814067597897],[-74.75923322254414,8.38308828004557],[-74.76269039583428,8.363420077922513],[-74.7600883344461,8.35951875116183],[-74.75924631256055,8.354589363434627],[-74.75753958957495,8.355906645063158],[-74.74519436098433,8.352630918858154],[-74.74270572652154,8.35326909212364],[-74.74612780421069,8.35803372335937],[-74.74407434594372,8.365056531544496],[-74.7357073798417,8.365408395668794],[-74.73271167282354,8.367938105097323]]]}}]}