{"type":"FeatureCollection","features":[{"type":"Feature","properties":{"code":"703050"},"geometry":{"type":"Polygon","coordinates":[[[-74.62664247101048,8.5489867654303],[-74.62380801863702,8.546926962701434],[-74.62531361323295,8.541699275221674],[-74.62327781126714,8.539408357804689],[-74.62069797863558,8.539399957486182],[-74.61833741509122,8.537103157377942],[-74.6187721994504,8.535520761780049],[-74.62195027915203,8.53802857566734],[-74.62680956206651,8.538722004064084],[-74.62871426537913,8.537997004538909],[-74.62888816678151,8.535569855512108],[-74.63156686976305,8.536167264401513],[-74.63103108617781,8.538683540313855],[-74.63723800314494,8.543208659628306],[-74.63651771491499,8.545473556421143],[-74.63540656402046,8.54369939331741],[-74.63093266731414,8.5434908519141],[-74.62792439375681,8.5479792681719],[-74.62664247101048,8.5489867654303]]]}}]}