{"type":"FeatureCollection","features":[{"type":"Feature","properties":{"code":"704018"},"geometry":{"type":"Polygon","coordinates":[[[-75.0126384345075,8.729702027324493],[-75.01096366934479,8.719150310955058],[-75.01877349213896,8.70462004104786],[-75.01653937148848,8.70366160152605],[-75.00546585218149,8.706673171241675],[-75.00282977197168,8.7043595550698],[-75.00481216074684,8.7010911184654],[-75.01165196478485,8.69734073621322],[-75.00211121461047,8.695453008372795],[-74.99612234391242,8.688592128462233],[-74.98107789182666,8.694651240755888],[-74.97170850897231,8.692413131805324],[-74.96887555915333,8.688596712230549],[-74.97426943677351,8.681560711184773],[-74.98229356847656,8.683907061653542],[-74.98573104400714,8.682369921640202],[-74.98524837330734,8.679524424822546],[-74.97787133249483,8.6777608608474],[-74.97323282019363,8.673503448205963],[-74.97282731867824,8.671308679880042],[-74.9764097058735,8.668651395242364],[-74.99238161873552,8.671537085650584],[-74.99887252364903,8.668530254998075],[-75.00236897830115,8.664719158641788],[-75.00364420382982,8.65559871646974],[-75.0130238752231,8.645046038506564],[-75.01514353433504,8.629412105794813],[-75.00759105151326,8.623305473286166],[-75.00639485562152,8.619136154973944],[-75.00848861546547,8.618861020889142],[-75.01109250336754,8.614534478398468],[-75.02131976257738,8.61798791124312],[-75.0245961870948,8.621418648418285],[-75.02905207063043,8.620129576968054],[-75.03009721916942,8.627375191054227],[-75.03547945482029,8.634344448237414],[-75.04024616248142,8.634020657508586],[-75.04636622850626,8.623580553891998],[-75.04912603446485,8.623573599563656],[-75.05595049105517,8.626948735022495],[-75.06252231279768,8.636878665329505],[-75.0664414316139,8.637911636080617],[-75.06878487878942,8.654361318085364],[-75.06662591877512,8.65885656422995],[-75.06129786353307,8.664176958603719],[-75.06169459449063,8.674177983085144],[-75.0634129399051,8.677503813981161],[-75.05996307369907,8.688761158132422],[-75.05745400099812,8.690384688345716],[-75.06079946897563,8.692462151489508],[-75.07257806893301,8.711991541640543],[-75.08806192719868,8.70803073593521],[-75.09647661097671,8.710357699234066],[-75.10142730700449,8.70700970745861],[-75.10396817503437,8.707104583337866],[-75.1097929525863,8.715281563196527],[-75.11441728163675,8.713257564665469],[-75.12473077575174,8.71238412694629],[-75.12455171362484,8.717815094317473],[-75.1194167690345,8.728063866487844],[-75.11337394007126,8.729515672511639],[-75.10557633620266,8.727233848583353],[-75.10098282443232,8.736368997483453],[-75.09870170087345,8.737558394341704],[-75.09637845128054,8.736583384554024],[-75.0928513572689,8.739441882942003],[-75.08966937771328,8.739709450775251],[-75.0897199832558,8.742386408489836],[-75.09418213206328,8.74473494748429],[-75.09578495561493,8.748962149626777],[-75.08922150950832,8.75606105124541],[-75.09253874982403,8.762960799084112],[-75.09014208794724,8.7648095037016],[-75.0901853164716,8.767323850255764],[-75.0926423376398,8.769919483878198],[-75.09483915668011,8.78078558792646],[-75.10131183656381,8.787896243614682],[-75.09934764299368,8.796459624754277],[-75.09164785532153,8.81289009648117],[-75.08664359903582,8.810458168282025],[-75.08750098379574,8.816504950578292],[-75.08440754079965,8.81493660967584],[-75.07980115087207,8.816107212775478],[-75.0777011473536,8.81707808513886],[-75.07554599669038,8.821620618042061],[-75.06906105468653,8.8219594960226],[-75.06615542483479,8.824122934904096],[-75.06706935953503,8.82809364245395],[-75.0639223902196,8.825962739380032],[-75.05953283505579,8.81833515557173],[-75.05407949597452,8.82218128376553],[-75.04714799600151,8.823852446294097],[-75.04465792274766,8.827235413342748],[-75.04224533646692,8.822382411126739],[-75.03534728658684,8.821641752535811],[-75.03636094832967,8.81709752475939],[-75.02749325207725,8.817995761313],[-75.02526589549325,8.81440103383602],[-75.02609140779106,8.811771579881338],[-75.02038487233233,8.811079604673921],[-75.01752015392401,8.813511852718761],[-75.01591184980214,8.809369704829464],[-75.0138314730807,8.810860876547508],[-75.00725950529937,8.810266906769925],[-75.00432108972859,8.80111389176642],[-74.99819496514885,8.79512036736594],[-74.99953381424547,8.778761743661846],[-75.00256634773336,8.775096354984669],[-75.00983758855023,8.774842358478963],[-75.01083966077431,8.76486259807507],[-75.01663320555542,8.758851090328733],[-75.02015513061497,8.75841181270414],[-75.01814101541657,8.75381522897601],[-75.02009870203085,8.749726348238482],[-75.01647822852385,8.743422826580286],[-75.01793293578396,8.740785074122925],[-75.02942061712076,8.736157160950313],[-75.0274049931972,8.73387836475689],[-75.02288513950845,8.733720122420266],[-75.0126384345075,8.729702027324493]]]}}]}