{"type":"FeatureCollection","features":[{"type":"Feature","properties":{"code":"705050"},"geometry":{"type":"Polygon","coordinates":[[[-75.20051465012813,9.113422382799854],[-75.19627866302966,9.110426298343214],[-75.19335955132493,9.110837524169654],[-75.19411447749894,9.108769628626646],[-75.19087289558558,9.105506923532346],[-75.1896107065943,9.107698196182184],[-75.18932286610215,9.102826869177363],[-75.19626208762162,9.104719959317038],[-75.19619867694121,9.10827950891769],[-75.20051465012813,9.113422382799854]]]}}]}