{"type":"FeatureCollection","features":[{"type":"Feature","properties":{"code":"705010"},"geometry":{"type":"Polygon","coordinates":[[[-75.23998905284833,9.281374762511177],[-75.238740677897,9.276724552704763],[-75.24009661250915,9.274984541091726],[-75.23775641315513,9.27422438117378],[-75.23945398197378,9.273277262747229],[-75.23973965759444,9.26935082450558],[-75.24414255577148,9.269512619082604],[-75.24661537073143,9.272257187636853],[-75.24986536221928,9.271830713093209],[-75.25019473430564,9.273405863313542],[-75.24809479043682,9.273016083598975],[-75.24852740889611,9.274850870303794],[-75.24578304808728,9.276132115306496],[-75.2457851605082,9.277631636949366],[-75.2431725740393,9.277809737482528],[-75.24357880163512,9.281138539549033],[-75.2417130053314,9.279363502269177],[-75.23998905284833,9.281374762511177]]]}}]}