{"type":"FeatureCollection","features":[{"type":"Feature","properties":{"code":"707037"},"geometry":{"type":"Polygon","coordinates":[[[-75.37289604222894,9.62956624860027],[-75.37216802628194,9.619248705507061],[-75.36999139453985,9.617808322394353],[-75.36814255211107,9.612275451796222],[-75.35918701041243,9.611809282456647],[-75.35750436326623,9.61364816339119],[-75.3544779726655,9.613136196477853],[-75.35077203249989,9.615103403384524],[-75.34921618717402,9.61050145324333],[-75.34249715211251,9.60663132531488],[-75.34331613380033,9.603359562727348],[-75.35649197576367,9.591079130129174],[-75.35194090370231,9.586146959436519],[-75.35731025913901,9.567096604440962],[-75.35378791241806,9.56350858857985],[-75.3446010184611,9.563092438570607],[-75.33880078674673,9.557121685944423],[-75.33871327760124,9.55034038897287],[-75.34134053377426,9.542300729844612],[-75.34420105819402,9.539368458189415],[-75.33024269797232,9.523507628432299],[-75.3192063928579,9.517018395766286],[-75.31969819612726,9.515305995778021],[-75.31145378437793,9.509948902461417],[-75.31664281167502,9.496795428094401],[-75.31363495463688,9.49639138182522],[-75.30795420223211,9.499988651612114],[-75.3014063421719,9.498534788703296],[-75.29711345546264,9.50247053949198],[-75.29059129103871,9.504451325953653],[-75.28832470348635,9.50415408241156],[-75.28690093897632,9.49963029081647],[-75.29964982508488,9.495539848903206],[-75.30128054102613,9.4909648151596],[-75.29823960619126,9.48133498952177],[-75.29885511669744,9.472566994600868],[-75.30291694322602,9.474352790417925],[-75.31506843895721,9.474114741970368],[-75.31707194782791,9.469327044825832],[-75.31846492591114,9.469483709531573],[-75.31845428358798,9.46603526566156],[-75.32248714197613,9.466093332554578],[-75.32739042988914,9.463741562193775],[-75.32885040997405,9.461343237325423],[-75.33070503430662,9.461246250053705],[-75.32933013315755,9.459462505979502],[-75.33225101481185,9.458721055487842],[-75.3327040869359,9.455776031145376],[-75.3383263960377,9.454213653152692],[-75.33910951593487,9.451598519231652],[-75.34477855129404,9.453983712945899],[-75.34779881546268,9.451815870273549],[-75.3498499288807,9.453809504039214],[-75.34928589397953,9.450813925576313],[-75.35713215552056,9.451096212478888],[-75.3563105471905,9.4470824584389],[-75.35808752925516,9.444470476694221],[-75.36082280068905,9.445448035990864],[-75.3640057099567,9.443468171013649],[-75.36874861020203,9.444062098625125],[-75.37627375290788,9.438438255087135],[-75.39363158050992,9.447103196982312],[-75.3949098625697,9.456945281843105],[-75.39276999764769,9.458023282949966],[-75.39442433999886,9.465740926441129],[-75.389333472398,9.475059947493833],[-75.39224178134253,9.483312975534545],[-75.39818834602909,9.484251045723795],[-75.39943766920447,9.490581536230138],[-75.40342824626379,9.492923380063814],[-75.40363643799662,9.49690423731289],[-75.40624191175709,9.501431914363877],[-75.40076776419835,9.504902133447331],[-75.39874242149295,9.510691317632165],[-75.40080020538915,9.514848244240454],[-75.38796717828433,9.526029187453844],[-75.38638337989084,9.535613068450573],[-75.38283458677051,9.541529950229233],[-75.3775379998126,9.544928039496654],[-75.3744500723538,9.553883649072418],[-75.38159611160683,9.55546479408423],[-75.38092873880134,9.56317077915105],[-75.38820750164678,9.56755447630627],[-75.38791162799015,9.57234623991252],[-75.39149386914653,9.57511559084611],[-75.38961677334487,9.577960914885466],[-75.39083669643395,9.58096740100973],[-75.38985760372947,9.587029460819622],[-75.39668754088996,9.58512462895169],[-75.39613755862734,9.587746871467402],[-75.40277589900353,9.589285338171521],[-75.40019157824878,9.591170774642023],[-75.40693033575246,9.59157776637062],[-75.4067373526276,9.593180634145313],[-75.41287594501597,9.594982938521639],[-75.41458403685851,9.598154645993418],[-75.41095458607674,9.598419449373125],[-75.41124460892394,9.601557077345149],[-75.4039038423075,9.606828918947542],[-75.40322042477027,9.6124571220534],[-75.39951302935845,9.618656148809464],[-75.4014625727649,9.628141804289669],[-75.40013477016936,9.629977258453778],[-75.39751760301749,9.629337576463115],[-75.39861253640191,9.631597658088026],[-75.39765166769888,9.637634783309068],[-75.39679002724387,9.636527416054605],[-75.39600163349343,9.637868187310232],[-75.39050702918456,9.637919617663727],[-75.38862116179666,9.636194681989593],[-75.38849941065752,9.638874059629472],[-75.38452672952644,9.639876615221567],[-75.38428414153361,9.637631353453287],[-75.38216847277869,9.638476571738181],[-75.38172960755952,9.63596766153114],[-75.37854575109628,9.635866676703358],[-75.3825503725667,9.634590651046437],[-75.38084991588141,9.632662726530214],[-75.37289604222894,9.62956624860027]],[[-75.35497272345111,9.495762755591613],[-75.35715380834932,9.49454501074382],[-75.35817196130063,9.495486536499925],[-75.35821098452357,9.493280125176284],[-75.36111594897301,9.4942975479334],[-75.36239239423446,9.491977891718648],[-75.3589269059866,9.491385101564617],[-75.36121625400028,9.489450094164738],[-75.35557108776356,9.48584110836066],[-75.35432625785359,9.489503777835807],[-75.34921572128957,9.4881232120253],[-75.3490864450365,9.489827105765471],[-75.35502324054761,9.494220484678578],[-75.35497272345111,9.495762755591613]]]}}]}