{"type":"FeatureCollection","features":[{"type":"Feature","properties":{"code":"440008"},"geometry":{"type":"Polygon","coordinates":[[[-72.64309622493772,11.182725436851456],[-72.64603840872195,11.178636631190273],[-72.6472206373358,11.162963044820287],[-72.64926560683824,11.166123585463197],[-72.65662990627635,11.166638825909047],[-72.66062052550183,11.168515034164841],[-72.66898447518196,11.164851376356467],[-72.668973005991,11.161781861104032],[-72.67832629269151,11.163842349804042],[-72.67547946301232,11.166290676519168],[-72.68496797653432,11.169538957707118],[-72.70843817638269,11.16790993252539],[-72.73047831148222,11.15090122927677],[-72.73319080291424,11.151169874917684],[-72.73432739644824,11.156018232687302],[-72.73759801437922,11.1578359863272],[-72.74218085400156,11.154425429251148],[-72.75187772380718,11.152501666841772],[-72.77273657954527,11.141267484244509],[-72.78845743519025,11.138830883830963],[-72.79873871128649,11.124773047506665],[-72.80608451007214,11.124987339960512],[-72.80847082376033,11.119202782738569],[-72.81240004291055,11.118750528226258],[-72.81464113331594,11.11503056936067],[-72.82119083634518,11.110645089914556],[-72.82731964001766,11.112096487646625],[-72.83212081387296,11.111289441034216],[-72.83529531356612,11.104811927470735],[-72.84352156302054,11.103397434369981],[-72.85144798548527,11.09735157252976],[-72.85654991707071,11.098423068737645],[-72.85758918806073,11.096084066490675],[-72.86676471669944,11.095741562221804],[-72.86905325944264,11.091128728073386],[-72.86749731744322,11.085087036567586],[-72.87244855648862,11.075749801797883],[-72.8859159824749,11.068435883701852],[-72.89410979896604,11.058602587910798],[-72.89386589868047,11.054121896284755],[-72.90700460564136,11.039071905007575],[-72.90888879152573,11.038655529769414],[-72.91261232628602,11.032379012954891],[-72.92399523915498,11.030955041727907],[-72.926246231405,11.025620635853272],[-72.92989312868565,11.02420978755282],[-72.93193779068372,11.01866098740851],[-72.93454004233377,11.017354570246766],[-72.93753064004954,11.017649452484818],[-72.94355076408726,11.025970776307872],[-72.94945588356882,11.02945698458717],[-72.95401847521487,11.02934743591851],[-72.95680238889452,11.026284597314941],[-72.96104537660119,11.026596326469871],[-72.96574500512753,11.024706460497498],[-72.97778429777992,11.027193250962853],[-72.97940973986789,11.026199233500563],[-72.98148735830654,11.030013267088691],[-72.9860827891506,11.030923617666758],[-72.98601034874491,11.029482784096217],[-72.99197463041077,11.025308422301862],[-72.99664915774059,11.034532021372343],[-72.99968870726332,11.03643174188096],[-73.00120848613847,11.043524022386691],[-73.00412139016419,11.047196829219672],[-73.00234401934824,11.050665591000097],[-73.0069076497212,11.057835261805394],[-73.012188270109,11.06327634905091],[-73.0278097751214,11.065531858220425],[-73.03479254295394,11.070951646421406],[-73.02892913915787,11.078309455358806],[-73.01875010464619,11.086915690669684],[-73.0185356712957,11.091530221748258],[-73.00535329049484,11.100985842593161],[-73.00301128211038,11.107434952631195],[-73.0043157318616,11.111205690846191],[-73.00074358795388,11.11508128186125],[-72.99964392373386,11.119853185214026],[-73.00506577910431,11.125381146027564],[-73.00951120646482,11.132957347819172],[-73.0085264624687,11.140135961960539],[-73.00277896825827,11.142598014269538],[-72.99370107378166,11.152502438173656],[-72.98812864414202,11.15499443358658],[-72.97939480688251,11.174997763988813],[-72.98193042985554,11.185140304217668],[-72.98700169225668,11.192465462162033],[-72.98897385317099,11.206552310849759],[-72.98812864414202,11.210778371421043],[-72.98333911636985,11.216131358166649],[-72.98333911636985,11.218666996566299],[-72.98892310467488,11.232923359320637],[-72.98728644022214,11.234949969067202],[-72.98049230211728,11.269697495704975],[-72.97853935456612,11.27255233283762],[-72.97633902236618,11.270936022290812],[-72.96405366249985,11.272144200566288],[-72.94108029191938,11.263167830849795],[-72.93367401351452,11.265675234388539],[-72.924499322028,11.265611913182681],[-72.92168640112709,11.270143142474069],[-72.91251104526674,11.270218759738725],[-72.90794281364197,11.261952483301513],[-72.90398185469871,11.246705143160966],[-72.88788619243371,11.230226500214883],[-72.84844250723472,11.22277744682873],[-72.82821084819511,11.222922937506553],[-72.80183180049835,11.219712036090414],[-72.77803596900901,11.211000496493114],[-72.74326240940576,11.190305324581004],[-72.73463935391743,11.187272235734156],[-72.70946269436479,11.185400514573132],[-72.65572985760701,11.1855404640026],[-72.64309622493772,11.182725436851456]]]}}]}