{"type":"FeatureCollection","features":[{"type":"Feature","properties":{"code":"441037"},"geometry":{"type":"Polygon","coordinates":[[[-71.81854968504462,12.309512704576207],[-71.8248748821573,12.297983169742622],[-71.83354187168158,12.268244739241084],[-71.8318557710254,12.250020024070238],[-71.83488464737172,12.22593593248422],[-71.84579171531396,12.203123640684794],[-71.85716479524399,12.198953003909253],[-71.85989139382212,12.199791955893886],[-71.85931773064203,12.20148192040864],[-71.86182844987945,12.204198547208023],[-71.85977598303111,12.205588923331732],[-71.86098878929795,12.211836350649605],[-71.85287809461647,12.21560773061276],[-71.8506658777348,12.224672883715016],[-71.85256521257747,12.223072343305716],[-71.85936331327139,12.229833470462665],[-71.86080563705508,12.22733012618653],[-71.86370494301383,12.2289021201168],[-71.86442184355411,12.227179742179203],[-71.86611559787951,12.227542832781978],[-71.86591791785764,12.230071310136395],[-71.86708522994121,12.229954978889339],[-71.86369760096267,12.234204920924356],[-71.86605458449861,12.233366708389894],[-71.8651471546973,12.234511125286133],[-71.8671309318699,12.234378069506818],[-71.8677024898281,12.236462624790192],[-71.8617138433305,12.238733459810135],[-71.8625597239324,12.240256960618808],[-71.863964557901,12.238927977371247],[-71.86772503225967,12.240619000153345],[-71.86754997797323,12.238647501555988],[-71.86969349592312,12.240980720870652],[-71.8670772255731,12.243172060369261],[-71.86877776864753,12.245752064750718],[-71.86471156506764,12.24846431449879],[-71.86503209049141,12.249666669732733],[-71.8658403702064,12.2484372839441],[-71.8762241223721,12.252116304626782],[-71.87041882454986,12.24776435446364],[-71.8690752621012,12.243097416011267],[-71.87625582205584,12.243188569956999],[-71.87500377453625,12.239376664216422],[-71.87744617433714,12.236301582004671],[-71.89022527917228,12.239907716966059],[-71.88852399356233,12.24823215079931],[-71.89074413047985,12.251888148767762],[-71.88879806835132,12.255637360652372],[-71.89036960359624,12.26096278925229],[-71.89236152397666,12.262229110525595],[-71.88562393889748,12.266812443800347],[-71.8872268056437,12.271101126236601],[-71.8901639634293,12.272066405929593],[-71.88981320282386,12.274228674443464],[-71.89359690661365,12.27659030036898],[-71.90038792236709,12.277491783715618],[-71.90427055204276,12.275621805764672],[-71.90878781199945,12.277043080415353],[-71.91524966855405,12.273708314410726],[-71.91724947297485,12.275027234348215],[-71.92160595034193,12.273774962628124],[-71.92544366073372,12.275134767269492],[-71.93399654353209,12.273351142494619],[-71.9394124277652,12.275935360405072],[-71.94627259187979,12.269212465598798],[-71.94538706584729,12.262515619184626],[-71.94775961897449,12.265924417624035],[-71.95193339969882,12.266929170997741],[-71.95191764807316,12.271177225840745],[-71.95598474845502,12.271894266249205],[-71.95150599544309,12.276388855219068],[-71.94081702930583,12.281466118582273],[-71.92834206063458,12.297268882474782],[-71.89996754134535,12.314815392255127],[-71.89844134396043,12.319377733989597],[-71.88719464933149,12.327974269030676],[-71.87430867389202,12.340501368424782],[-71.87217233447092,12.345284557905757],[-71.8680903607534,12.346959493789939],[-71.86686139045548,12.350105560132818],[-71.85795792702913,12.358262393830955],[-71.85533381480491,12.356068771189996],[-71.85244145494698,12.356353029616855],[-71.84948953695437,12.352713247101576],[-71.84266755273984,12.351580583246403],[-71.83677093847791,12.357423654733907],[-71.8262717580377,12.362791536412544],[-71.8247612444012,12.370051238104281],[-71.8228459666426,12.372108289749463],[-71.81375955049128,12.37258712641551],[-71.80831206119109,12.370222276322693],[-71.80686195621126,12.366412550880284],[-71.81333224907985,12.362358539486422],[-71.8146447145121,12.359211526976424],[-71.82637089989652,12.354443440173839],[-71.82765282778507,12.351188281790769],[-71.83781607570404,12.345408764965612],[-71.83985361882304,12.340000646501892],[-71.8344357712931,12.325521884081354],[-71.82870641880868,12.31808170101192],[-71.81854968504462,12.309512704576207]]]}}]}