{"type":"FeatureCollection","features":[{"type":"Feature","properties":{"code":"441018"},"geometry":{"type":"Polygon","coordinates":[[[-72.64179151704741,11.42734636439286],[-72.64417389385761,11.426463431063894],[-72.64728688034688,11.427948399216689],[-72.65605323695883,11.437259188615428],[-72.66125587980639,11.435395604491589],[-72.66340003539062,11.435772016510327],[-72.66388056075931,11.43816478367529],[-72.6670778929049,11.438396008406755],[-72.66871765605492,11.436805401723802],[-72.67236527016001,11.438148119821165],[-72.67395918637101,11.440501044094503],[-72.67598936172777,11.43846265662421],[-72.6808492061719,11.441088775339779],[-72.68391597342594,11.43806790027628],[-72.68381678734409,11.440777599486864],[-72.68533527449546,11.441956354021954],[-72.68803608899117,11.439993333904738],[-72.68955400638532,11.441054594024251],[-72.69304162054556,11.448007590502755],[-72.69778662395584,11.445113128508297],[-72.69716137615592,11.447224989969015],[-72.70010665863742,11.448217231311105],[-72.6969173483435,11.458308591098046],[-72.70302065589749,11.461113132249295],[-72.70521053912148,11.465591481083322],[-72.70881153804095,11.466035453547988],[-72.70986365530644,11.470866536568622],[-72.70608020245658,11.472140019915628],[-72.71081071202644,11.472556524737513],[-72.71006276589185,11.474938976624003],[-72.71234378557801,11.474568967688356],[-72.71252691210981,11.47673325194961],[-72.71452534561666,11.474872915647211],[-72.71599842188863,11.47865079331018],[-72.71394614427368,11.481698216588882],[-72.7171808993856,11.480700005137976],[-72.71811955475863,11.482485964477405],[-72.72139189430243,11.482485412203744],[-72.71901996955353,11.486031833735638],[-72.72047731374028,11.486426134483565],[-72.72180442625086,11.483882543137895],[-72.7233835287758,11.48491907332857],[-72.72266654184637,11.482760226442963],[-72.72453620098014,11.481240412600755],[-72.72844969524425,11.481290216986622],[-72.72898396907584,11.482624636581306],[-72.73316460025575,11.480219581585118],[-72.73399701443134,11.481483070527702],[-72.73261528133855,11.483496642708474],[-72.73378280836664,11.484380965463288],[-72.74246538805102,11.480151693066034],[-72.74391463942356,11.481781753889322],[-72.7471421234469,11.479879376913686],[-72.74856933323935,11.482064022279928],[-72.75033919642493,11.479323465679954],[-72.75242949144604,11.479816519535404],[-72.75384104525807,11.478253728108768],[-72.75514594649553,11.480391473410805],[-72.75732044010567,11.47806393212727],[-72.75885437549209,11.481695063384109],[-72.76137887997305,11.481929086507705],[-72.76173751536282,11.483625296753814],[-72.76537754778968,11.485369105376606],[-72.76382795745121,11.487802352039068],[-72.7654769899537,11.489115782150407],[-72.76485857512586,11.490326330985908],[-72.76646874072867,11.489897513650192],[-72.76807828515217,11.492079522089796],[-72.77342620270463,11.4908676115964],[-72.77742431002008,11.48626711464442],[-72.78527577650868,11.487358438195656],[-72.78529032897035,11.492445749442254],[-72.7874188203466,11.493144358103905],[-72.78834237921194,11.49633659843056],[-72.78579385134219,11.505832110503889],[-72.78936448549626,11.50505601281219],[-72.79283602201463,11.507930788359943],[-72.7935682350356,11.50561239815795],[-72.79677326198805,11.506138323093182],[-72.79772697993025,11.503972272996123],[-72.80003824405401,11.505316698308093],[-72.79996225449321,11.50312237632619],[-72.80236587892585,11.502783851101412],[-72.81419895239816,11.510709980459978],[-72.81784548149636,11.51064674255798],[-72.81927339782885,11.50768957848004],[-72.82637566142614,11.51259632915901],[-72.83020560810536,11.509658482316866],[-72.83477596346393,11.514157603632896],[-72.83689749125591,11.512864061542984],[-72.83876700435087,11.5144401651296],[-72.84331383717216,11.513630292357163],[-72.84536629579304,11.514765403905471],[-72.84761682215856,11.512252177325195],[-72.85179847663875,11.513747613994326],[-72.85427028475351,11.511705246451527],[-72.85381191203669,11.509890014552695],[-72.85495654593427,11.510100474001263],[-72.8585040010509,11.514681944766608],[-72.86000694329357,11.513895146130551],[-72.86283764390873,11.516819586195993],[-72.86530945099503,11.517167718102314],[-72.86646940354393,11.519425353062559],[-72.86550820676774,11.52503294618026],[-72.86764471999567,11.5245131291652],[-72.87371019320625,11.52893096341296],[-72.8774560873353,11.527931958004444],[-72.87887523311002,11.53123001786713],[-72.87733374072798,11.532720594116995],[-72.87903532664313,11.53399186425571],[-72.87814294295589,11.53639573757141],[-72.8818129935629,11.53466088359761],[-72.88307211471016,11.536273763260226],[-72.88006600705279,11.538131135591243],[-72.8823239783137,11.540596609528507],[-72.88529888508197,11.539614673180495],[-72.88220203794111,11.546104921947745],[-72.88006520589607,11.547205540562402],[-72.87988178625818,11.550461941304036],[-72.88192640403327,11.550847745059855],[-72.8815297008436,11.553067250513664],[-72.88284995467103,11.552440040445447],[-72.88334651448702,11.554492645105142],[-72.88669555938759,11.553669278138386],[-72.8892060533961,11.555252283602726],[-72.88894557564561,11.55805644628714],[-72.8910593417819,11.561348285101076],[-72.88032448551098,11.566763117237542],[-72.87251955604637,11.577400272497584],[-72.87409084549353,11.573843519232128],[-72.87274833308464,11.570550258082221],[-72.87557887943342,11.570452469653787],[-72.87740192441004,11.569633048821004],[-72.87820296491816,11.568528077837584],[-72.87386983113936,11.570340283030077],[-72.86831505780088,11.568196489457591],[-72.86789593353592,11.569738024005744],[-72.86757535771841,11.567821698264254],[-72.86648413803994,11.568186562930407],[-72.86812484118644,11.564476479169855],[-72.8670638824006,11.56340552597959],[-72.86447006603606,11.566011208513885],[-72.86566034015578,11.568708447114943],[-72.85479586618891,11.57163169932926],[-72.85204846016177,11.5757798533229],[-72.84474024580794,11.580266671381025],[-72.84292419938265,11.584409656422508],[-72.84505290467496,11.584470730481485],[-72.84558665400084,11.587651046017129],[-72.84822642220553,11.588763823907698],[-72.84609817971238,11.591456013884454],[-72.84768456463883,11.592910022832086],[-72.85037021577801,11.592193895680566],[-72.849623010122,11.59482758990373],[-72.85515441518953,11.59215998278853],[-72.85639794823351,11.592365227005132],[-72.85462795649266,11.593063828467677],[-72.8586937106432,11.593816530120478],[-72.8602043209533,11.590310450274842],[-72.87115378129619,11.583784582429416],[-72.87537994162636,11.577577152269498],[-72.87203131118815,11.583561155349116],[-72.86073084958429,11.596249621488141],[-72.84864533769667,11.60663285943258],[-72.83357714915758,11.630136040404125],[-72.82409303839802,11.637196478272585],[-72.80662097345788,11.645866183913483],[-72.7673887679224,11.679457375034701],[-72.73174336879964,11.693869839936724],[-72.7205500020006,11.700965725133472],[-72.68828377394516,11.706508242522432],[-72.6823082575732,11.701951017289446],[-72.71340823901153,11.679516024026213],[-72.64491637793401,11.468016539286452],[-72.64179151704741,11.42734636439286]]]}}]}