{"type":"FeatureCollection","features":[{"type":"Feature","properties":{"code":"441039"},"geometry":{"type":"Polygon","coordinates":[[[-71.43656372074389,12.380708907707287],[-71.43943531531892,12.376629604854998],[-71.4416241978683,12.36335643006322],[-71.43769553921925,12.356031115795645],[-71.43332373805862,12.354673359811727],[-71.43075157966513,12.34933096293878],[-71.43343939361893,12.345210829889993],[-71.43459262838132,12.336654210760003],[-71.43616723558404,12.336085716532011],[-71.43483362125988,12.327555510891216],[-71.44426097741899,12.323376233141687],[-71.44699140900235,12.32023116438802],[-71.44734099204112,12.310201510123761],[-71.45713921999919,12.296463120387102],[-71.4632363116466,12.29150983371261],[-71.46698177794354,12.283867619281068],[-71.46806721880353,12.277739689784767],[-71.46877128026745,12.264196922156486],[-71.4668999437439,12.259222151317772],[-71.46952827052553,12.251694042583665],[-71.46460143847798,12.242398435053417],[-71.46658112553462,12.238036675605542],[-71.46492874030957,12.234873350968769],[-71.46797203233467,12.229152548955426],[-71.4617203297812,12.223354193120201],[-71.46651976042642,12.222649779928986],[-71.46780133041693,12.217398086543938],[-71.4708995854956,12.213695574177166],[-71.47623908010377,12.213275198297652],[-71.48138228205909,12.210205004273178],[-71.489236373133,12.213493232225403],[-71.4920164733478,12.205787297552263],[-71.49667223777226,12.205760099361441],[-71.49908201434806,12.202856023486333],[-71.50291293804764,12.201990966545225],[-71.50847396534505,12.203597488376204],[-71.51959600451318,12.201496660046814],[-71.52509523989875,12.193587646028618],[-71.52948215607904,12.191727097867101],[-71.53025776320362,12.183078702583543],[-71.53842735267438,12.178688261930745],[-71.54800676920212,12.170510786362797],[-71.55174046394603,12.162464794085508],[-71.55845377366802,12.157163269575108],[-71.55509088387424,12.153929556275443],[-71.55535450351664,12.150535458393449],[-71.55867657751213,12.145728043948964],[-71.56498737437272,12.142964233235205],[-71.5621712221054,12.130320957888898],[-71.56657127869579,12.124839296529103],[-71.5733212143412,12.120911497657971],[-71.57713721842521,12.112102506961435],[-71.57524202923435,12.107093095093376],[-71.58122339950108,12.098838898741974],[-71.580149285907,12.094201185540555],[-71.5883219514493,12.090015916084894],[-71.5846471946893,12.0836052358585],[-71.58582332258214,12.07409207056935],[-71.61691284578848,12.082213402431762],[-71.63664245518589,12.08542251641478],[-71.66300201698232,12.096302031353503],[-71.67894744539262,12.105075839031485],[-71.69636535563507,12.124573710504649],[-71.70268112398674,12.12784233325715],[-71.6982047322789,12.132960876246159],[-71.70198297915266,12.148569067041706],[-71.69737771948343,12.150830358115059],[-71.69041231690278,12.147512348524344],[-71.68284293471356,12.1507945919696],[-71.67882401789217,12.164154166217315],[-71.67756156973337,12.164039398202931],[-71.67802064179114,12.167941508636773],[-71.67584005054533,12.168630116723364],[-71.67652865760346,12.172991299215028],[-71.67388899532835,12.173909443330501],[-71.66792106166315,12.180451217067912],[-71.6706754929811,12.187107757791296],[-71.6693976336112,12.194179805747353],[-71.67241012789663,12.199334515974442],[-71.67702929005185,12.201208959422843],[-71.67548956967624,12.20576118128298],[-71.67709622931847,12.21292422994685],[-71.68281500735696,12.219754940496102],[-71.67286197823097,12.217676381032618],[-71.68382262905686,12.230504036582147],[-71.68738556326184,12.246576306922009],[-71.68513488777216,12.257458687101575],[-71.67513274948749,12.27725124026648],[-71.67549133036982,12.28779506231109],[-71.68341827116956,12.323713302091846],[-71.67906189047608,12.347167980685754],[-71.7193145722145,12.346237191869534],[-71.74469500531097,12.340632880511862],[-71.74790471270535,12.341786231488243],[-71.74313946234724,12.346786121007028],[-71.73913442641452,12.35483821400527],[-71.73745515564514,12.363756806849551],[-71.7383861264957,12.371536559012895],[-71.7445207285271,12.378623294156512],[-71.75274467941244,12.379634663501008],[-71.75369126921953,12.37689347132357],[-71.75685737682181,12.379026330495208],[-71.76099315042438,12.378280356913365],[-71.76203043034963,12.380900737948082],[-71.75319559694947,12.383181664046049],[-71.7479386708489,12.38716288227846],[-71.74192607706726,12.388923879261029],[-71.73147378126458,12.39701755630415],[-71.7281929457572,12.407767431949594],[-71.72965712085914,12.410058921180621],[-71.7311452936388,12.408705751021955],[-71.73553236717083,12.409152792359066],[-71.73479214155418,12.41240409099737],[-71.73637107952834,12.414036331090415],[-71.72958036510863,12.424277911362253],[-71.73100807678105,12.426352703640816],[-71.72860430528118,12.429614462567997],[-71.7174642148899,12.43840869511439],[-71.69321770446226,12.445039633789747],[-71.6876783289652,12.447642755502159],[-71.68513814073583,12.45216123930544],[-71.66853602503784,12.458757168769012],[-71.6625540891277,12.458502974802343],[-71.64354087941905,12.452942403104998],[-71.63768942303972,12.447570611287915],[-71.63398855001037,12.447388905035268],[-71.62444489757121,12.440389981399164],[-71.61996557583058,12.440021558321916],[-71.6181568436885,12.44132920550095],[-71.60951252103735,12.43683490860883],[-71.60427922134676,12.437292022511997],[-71.6022266773652,12.439081497067946],[-71.59571066405596,12.43743548715804],[-71.59292601812524,12.438891080935605],[-71.58464778604372,12.435470821532817],[-71.57717179157737,12.435396280019063],[-71.57356956058379,12.438483123499509],[-71.57301994033293,12.440812706241445],[-71.5746232554801,12.442524951963321],[-71.5733789377345,12.44374001566149],[-71.57115113377796,12.441395965818629],[-71.55685382769849,12.435023746257059],[-71.55229822431937,12.435729170407285],[-71.55177163501031,12.439458754466443],[-71.54510387809279,12.438826206781528],[-71.54168534235964,12.440368975460729],[-71.53093666382131,12.435320696692997],[-71.5253579977063,12.437432376119432],[-71.51357839810271,12.430313700636475],[-71.5008059370063,12.425203796564574],[-71.49717486745601,12.42557210137096],[-71.47819977491247,12.419153317017447],[-71.46875473776953,12.409670032097267],[-71.46186472825303,12.408428394472821],[-71.45650867674874,12.405191366502947],[-71.45056504106645,12.393888922061933],[-71.44134102753361,12.383821437568088],[-71.43656372074389,12.380708907707287]]]}}]}