{"type":"FeatureCollection","features":[{"type":"Feature","properties":{"code":"441009"},"geometry":{"type":"Polygon","coordinates":[[[-72.4555310987808,11.725036719504033],[-72.45818908790159,11.722039031705549],[-72.45845333695081,11.717546788613106],[-72.46558809624634,11.709355015637243],[-72.46609709301771,11.69927730945318],[-72.47589387807085,11.695613996173051],[-72.47747937236608,11.692442990099096],[-72.48012187931317,11.685836721702913],[-72.47959338224325,11.681344461126969],[-72.48197163191361,11.678173447853908],[-72.48197163191361,11.67051019868751],[-72.47800787149293,11.658354673518545],[-72.47166586654413,11.654390920296976],[-72.46871429513664,11.654728657734836],[-72.46131362277191,11.651965780846865],[-72.45534791671315,11.645751040517553],[-72.44447349462183,11.640138239366877],[-72.43610647401232,11.633494974807945],[-72.42951413895537,11.623954110476461],[-72.42800369833827,11.612502752700948],[-72.4315667261315,11.608084834120916],[-72.43233721675455,11.60211871874202],[-72.42405251165587,11.588243828972054],[-72.41835724484184,11.583687620868716],[-72.4163639093245,11.578561888038053],[-72.40952959819793,11.572581870173224],[-72.4103838832321,11.56318468131849],[-72.40761057793702,11.555323875543309],[-72.4007019422981,11.546383662780443],[-72.39956288255894,11.538695060449129],[-72.40155622733226,11.532715025100742],[-72.39906578898132,11.528283843726001],[-72.39756953778567,11.519046403876132],[-72.39529144298996,11.516768300852902],[-72.39472191723416,11.51050350828308],[-72.39829304298382,11.501169301248126],[-72.48136532082577,11.467989687680756],[-72.4810523338856,11.472720998407283],[-72.49341193187513,11.479773742497287],[-72.49242367780471,11.483819272325718],[-72.49588505022564,11.484496969665656],[-72.49862786014313,11.48806126655694],[-72.50116429352886,11.486446967643644],[-72.50616664102529,11.48715227455142],[-72.50759533691718,11.484407423175526],[-72.51138858568203,11.486164308444927],[-72.51275595040437,11.488994034096606],[-72.51562137638115,11.488058612146801],[-72.51803230892631,11.489523188341309],[-72.51651331063903,11.491684348194156],[-72.52187118351503,11.494828474894462],[-72.52170198312342,11.498751274506503],[-72.52464709488345,11.499267591731723],[-72.52635588606694,11.503276160364464],[-72.52516382965632,11.507111757306859],[-72.52826302781676,11.509331765669117],[-72.52460839561991,11.514681899515153],[-72.52479927866517,11.51762820941076],[-72.52824189537989,11.520795051320931],[-72.52512358052991,11.52506454919046],[-72.52679076298597,11.530063681775516],[-72.52474577394315,11.53292169679554],[-72.52577610468234,11.534473229861874],[-72.52361693589421,11.536407775491057],[-72.5234409395544,11.542087401751303],[-72.52674686597396,11.540600700672883],[-72.5299718190002,11.54499869215067],[-72.53968457207208,11.549223406490682],[-72.5446050925679,11.556659843972454],[-72.5501445297715,11.55784390012866],[-72.55475995456663,11.560865927047814],[-72.56079688644041,11.561274523146722],[-72.5607211509049,11.566567373772955],[-72.56264850669243,11.569636881826284],[-72.56919858201786,11.569490796708692],[-72.57310432388232,11.573298743974021],[-72.57788808106352,11.570812412194016],[-72.58020766425886,11.573032838103927],[-72.58451792547606,11.571248828691523],[-72.58695140250967,11.572525415878033],[-72.58477021476722,11.575089720056042],[-72.59066158602911,11.579465349079669],[-72.59271287839618,11.597739468572229],[-72.59133340684849,11.607855571657751],[-72.58581552991387,11.617511853979352],[-72.5830566043021,11.636364589631114],[-72.59317269813158,11.651078910639967],[-72.59455216967928,11.660735202217552],[-72.5982307553308,11.670391476311636],[-72.5982307553308,11.679128108877876],[-72.5959316340278,11.68878438297196],[-72.59131295421213,11.6962714218825],[-72.58610373241777,11.69723241091333],[-72.58251831028872,11.700266218641502],[-72.58169091182731,11.70798864541888],[-72.57424427733798,11.713504669100075],[-72.57424427733798,11.718193296376796],[-72.56961936824598,11.71905604754977],[-72.56142704711027,11.728575968677774],[-72.55925323021535,11.731516997521055],[-72.55835813041136,11.737910570634654],[-72.5488956498549,11.746094350555211],[-72.54795671988768,11.751452732510302],[-72.54240477168082,11.754602693564948],[-72.54127626890414,11.759227453532844],[-72.53274632243085,11.767925302503272],[-72.5171130972875,11.775426404336827],[-72.50932251459602,11.777105906505824],[-72.49524585160299,11.77570526652579],[-72.48394669097894,11.778033325115928],[-72.4619681133064,11.777895228939826],[-72.4597362120349,11.77936520137223],[-72.45781565013863,11.757130407814998],[-72.45588609656943,11.75553642886905],[-72.4498457379251,11.75545253675591],[-72.44825175178005,11.753439083874468],[-72.45026157323093,11.744236081422343],[-72.45607507802447,11.73208055625338],[-72.4555310987808,11.725036719504033]]]}}]}