{"type":"FeatureCollection","features":[{"type":"Feature","properties":{"code":"441057"},"geometry":{"type":"Polygon","coordinates":[[[-71.47832709712469,12.211810145934237],[-71.46903229177957,12.188874244600072],[-71.45255279625462,12.187146184517587],[-71.44468688837617,12.181841848245313],[-71.4407348665984,12.176394463846236],[-71.43592833969984,12.164156913187298],[-71.43209075580643,12.14148044264914],[-71.4251861609182,12.116119386438186],[-71.4159011741138,12.10512160883735],[-71.40583801319224,12.096499434724308],[-71.39242553688979,12.087565420384522],[-71.37880706766458,12.081093786426834],[-71.35855102836666,12.0758390457666],[-71.35440063236837,12.0718612697313],[-71.34886932705973,12.056076999292145],[-71.34457397106002,12.059294700770238],[-71.33738708926916,12.060135839223676],[-71.30858612217577,12.05305099744271],[-71.27729797072357,12.052249905512497],[-71.24171448075509,12.04307651809114],[-71.24306488234652,12.039695733397537],[-71.24048614294935,12.029412268775616],[-71.24507141278139,12.02002239626097],[-71.2451095556575,12.016537669967306],[-71.23939513924375,11.988172529045414],[-71.23799133268926,11.974911689393196],[-71.23968683433844,11.973831665339958],[-71.23907288192277,11.97152374159748],[-71.2346937058008,11.967829172920744],[-71.23637488741645,11.960952426199015],[-71.22799772327835,11.957239887546166],[-71.22992223747923,11.952369933512102],[-71.23465243543097,11.953855055931285],[-71.23715528811158,11.952497777144742],[-71.24284744183012,11.944297789998473],[-71.2690934460889,11.920153014133177],[-71.26918512556881,11.914702164911262],[-71.27465551725544,11.9135117704638],[-71.28264395994626,11.908185643551462],[-71.2881369526857,11.910494358166261],[-71.2884653621499,11.913800327780393],[-71.29086041348569,11.916776484106322],[-71.295484440174,11.91867360471224],[-71.30108494115217,11.91834272287224],[-71.30326672539127,11.925241729203833],[-71.31027828858595,11.929116430616148],[-71.31471116689085,11.926817902724508],[-71.31359682988142,11.922319202041535],[-71.30912625401595,11.920961233170033],[-71.30393799290857,11.922475505763941],[-71.30590583744964,11.91866954750651],[-71.31099518089866,11.91934275260951],[-71.31246759485362,11.914752709775769],[-71.3190375458592,11.919540329787083],[-71.32851327481222,11.922066886010839],[-71.32673533732446,11.919927304938938],[-71.32713151497995,11.91508420251057],[-71.32569731589211,11.913405218676644],[-71.33610482405152,11.911042719603472],[-71.33365642020317,11.902414450940057],[-71.32915430714792,11.90397552795298],[-71.32453002951956,11.901745931421146],[-71.32078415390248,11.903691381626345],[-71.31579457966217,11.902355669279473],[-71.31245272254637,11.907181081468025],[-71.30593645212656,11.909328502357255],[-71.30507516339884,11.913351882619168],[-71.30190867732972,11.913175933587752],[-71.30058147020247,11.916654087105258],[-71.29781098901054,11.915864971388203],[-71.29472145718137,11.917156006135201],[-71.28997611849883,11.913552198539207],[-71.29822338314767,11.907349016875344],[-71.3004367385152,11.90238515472646],[-71.30171844220331,11.887468806469258],[-71.31202588701939,11.878920410765602],[-71.31589420386052,11.871031255972468],[-71.31751477627319,11.863224103015057],[-71.33298962538237,11.862681350703383],[-71.33958932203092,11.868534990466173],[-71.34812926907927,11.869414331445398],[-71.35152435323761,11.882360458430924],[-71.35221099802749,11.895470623026597],[-71.3553924530774,11.902282717737819],[-71.3640518167004,11.910249706089246],[-71.36695098690467,11.917700764938274],[-71.38401794319446,11.915498741978809],[-71.39775848443293,11.910780906934576],[-71.40559386813743,11.910404205923498],[-71.42772674921167,11.912554738879805],[-71.44741821470456,11.917797090921454],[-71.46898651374619,11.920481678651129],[-71.49016570567466,11.917669295625672],[-71.53487396138752,11.91756248569942],[-71.55962371445065,11.919907563984793],[-71.5902099569692,11.926259031633208],[-71.62584686115673,11.929832459037186],[-71.62749481070927,11.933026308876379],[-71.6279754636048,11.940815925860363],[-71.624946595486,11.962782859506717],[-71.61883544708627,11.986825954288577],[-71.61338806371566,11.990345959245985],[-71.6027603115055,11.990893363203213],[-71.58618926814137,11.99516296803074],[-71.57698059382875,12.006405831711277],[-71.57392120050753,12.01324272217164],[-71.58082579642428,12.030356408832631],[-71.58092497942079,12.038513181852693],[-71.57775115849967,12.048563957240958],[-71.57790374748771,12.059926989287646],[-71.5811004656531,12.066739085027336],[-71.59076780476022,12.07499679556679],[-71.58562097960191,12.074471107173395],[-71.5846471946893,12.0836052358585],[-71.58839870205759,12.089788317641762],[-71.58604970849154,12.092195849127506],[-71.580149285907,12.094201185540555],[-71.58122339950108,12.098838898741974],[-71.57524202923435,12.107093095093376],[-71.57713721842521,12.112102506961435],[-71.5733212143412,12.120911497657971],[-71.56657127869579,12.124839296529103],[-71.5621712221054,12.130320957888898],[-71.56503088571878,12.142799032456537],[-71.55867657751213,12.145728043948964],[-71.55500493590449,12.151171129458305],[-71.55520476331435,12.154149694396608],[-71.55845377366802,12.157163269575108],[-71.55174046394603,12.162464794085508],[-71.54767881019575,12.170864475972508],[-71.53842735267438,12.178688261930745],[-71.53025776320362,12.183078702583543],[-71.52948215607904,12.191727097867101],[-71.52509523989875,12.193587646028618],[-71.51959600451318,12.201496660046814],[-71.50847396534505,12.203597488376204],[-71.50161536549155,12.201990966545225],[-71.49667223777226,12.205760099361441],[-71.49242863505697,12.205438845800302],[-71.49079866987876,12.21193504924969],[-71.48901807900933,12.213581238108588],[-71.48138228205909,12.210205004273178],[-71.47832709712469,12.211810145934237]]]}}]}