{"type":"FeatureCollection","features":[{"type":"Feature","properties":{"code":"441047"},"geometry":{"type":"Polygon","coordinates":[[[-71.25547742250001,12.31911277737197],[-71.2565758392193,12.316817246361836],[-71.26241766423442,12.314824958827387],[-71.2648219910933,12.310176580677137],[-71.263023988692,12.309439484611062],[-71.26334798819465,12.307288400409561],[-71.27002895957008,12.300483360813985],[-71.26862460074193,12.297078962051728],[-71.2712621094584,12.29212220027],[-71.27796231887959,12.290252354988127],[-71.28238086789491,12.27956857117266],[-71.28526233654657,12.277789250429748],[-71.28300375850455,12.271718766647155],[-71.28488043058786,12.26941242362085],[-71.28390535806523,12.265053681623328],[-71.28678232625242,12.261608032031631],[-71.29047973137364,12.252117868887865],[-71.2902031297013,12.246454407687168],[-71.29302382254235,12.24138456350829],[-71.29316969374383,12.23664770536277],[-71.28556808119453,12.219909706696967],[-71.28852770222159,12.199885450574868],[-71.28799670397945,12.194823584024562],[-71.28429220671865,12.190403205410007],[-71.28380920383194,12.187200952167018],[-71.28808166772967,12.18303657449269],[-71.2976913451501,12.18019008934175],[-71.30419921730834,12.182368279174284],[-71.30697632269852,12.191010476034705],[-71.30668639138275,12.208327291406022],[-71.30268096567033,12.223944664136354],[-71.30397796229863,12.240454672522333],[-71.32120514273379,12.258687967989147],[-71.324447621449,12.25992202907753],[-71.33155059878538,12.258710857005838],[-71.3406600911299,12.252760894345158],[-71.34730530664433,12.250542637420551],[-71.37044525303111,12.249507904947393],[-71.37905121169098,12.255101184202147],[-71.39151000090453,12.266683576867422],[-71.40743255778165,12.268600464138558],[-71.42253112651275,12.278102868833628],[-71.43129730109041,12.278286935361848],[-71.44377898651976,12.271724696646743],[-71.45031738388036,12.270235065535587],[-71.46173095564927,12.275211337900373],[-71.46702200855799,12.280888829113906],[-71.4632363116466,12.29150983371261],[-71.45713921999919,12.296463120387102],[-71.44734099204112,12.310201510123761],[-71.44699140900235,12.32023116438802],[-71.44426097741899,12.323376233141687],[-71.43483362125988,12.327555510891216],[-71.43616723558404,12.336085716532011],[-71.43459262838132,12.336654210760003],[-71.43343939361893,12.345210829889993],[-71.43075157966513,12.34933096293878],[-71.43319717072319,12.354542636540089],[-71.43750868046959,12.355819108541027],[-71.44095261667604,12.360883631558352],[-71.44137000801538,12.368691613440376],[-71.43772628759365,12.379424075497127],[-71.43656372074389,12.380708907707287],[-71.43295634650923,12.380366946456036],[-71.42708140975873,12.38628316386081],[-71.41480635180113,12.380917523158473],[-71.40280443994897,12.384150029066575],[-71.39850869211261,12.382523476260701],[-71.39650995727209,12.379778938559753],[-71.38707139211789,12.37752268274096],[-71.38240251607976,12.378189462135083],[-71.35684379013139,12.368056416487548],[-71.35202874361494,12.368314091732145],[-71.33601523025305,12.355314250222364],[-71.32195344676637,12.347831846502231],[-71.31329344242369,12.349988942978712],[-71.31212605423536,12.357062183928065],[-71.30862430001895,12.354313315455727],[-71.30634260670291,12.355342321560897],[-71.30277285186713,12.354076343787426],[-71.29066427509918,12.347847562132358],[-71.28725042700705,12.344173641496127],[-71.28179109004901,12.343095450127464],[-71.27355100084361,12.338187914746868],[-71.2593988152027,12.326929776637996],[-71.25547742250001,12.31911277737197]]]}}]}