{"type":"FeatureCollection","features":[{"type":"Feature","properties":{"code":"441059"},"geometry":{"type":"Polygon","coordinates":[[[-71.61620687656375,11.737807933099702],[-71.78089993475669,11.687118967380172],[-71.8769189041991,11.665349099775483],[-71.87767262092467,11.668311280596015],[-71.88019854568478,11.670236226742759],[-71.88731710701063,11.671144130656046],[-71.88935491443931,11.67559844478842],[-71.89763087983351,11.68073893268388],[-71.89842715351057,11.684917367110586],[-71.90383467650605,11.685175008416593],[-71.9078884698701,11.68339813948063],[-71.91077305367418,11.68703731007264],[-71.91753529257744,11.68928009226596],[-71.9228941589289,11.700023601852251],[-71.92369693236265,11.707361975282936],[-71.92703445767859,11.708236860020747],[-71.92979839180543,11.714384342266271],[-71.92958952541426,11.718809266596736],[-71.93447665752376,11.724879645478154],[-71.93140561914794,11.731632736385222],[-71.93296128963857,11.735647485957486],[-71.93233262946637,11.741970248746782],[-71.93812233815686,11.747623407010337],[-71.94193227648691,11.748168135988578],[-71.9468592741137,11.754015579385225],[-71.9472253585127,11.760559875892113],[-71.94488054350859,11.763560777573502],[-71.94415429545427,11.768724146258137],[-71.95116580722674,11.775254901262429],[-71.95164142281084,11.77737601767734],[-71.94511675104405,11.790153899694303],[-71.94355397812944,11.803331344999549],[-71.9347397259209,11.815957635617735],[-71.932146024742,11.825695309908667],[-71.92314080824127,11.833638982439766],[-71.92497338688008,11.836026871701847],[-71.9222522914979,11.838414778447486],[-71.91892034651107,11.85229788341627],[-71.918888804179,11.868519382822512],[-71.91782860232689,11.873827603522159],[-71.9146218074817,11.878591546729865],[-71.90942466680161,11.878323226076702],[-71.90293268510874,11.8843237521138],[-71.90025466706993,11.895611917658869],[-71.89470425432779,11.900806106708956],[-71.88854514965334,11.902035870964482],[-71.88173502852334,11.908635852491557],[-71.86285057878956,11.91143514755754],[-71.83394623162576,11.93613338387803],[-71.81569670425068,11.939871786831816],[-71.8178482059999,11.9318313615139],[-71.81334686530494,11.924731258674342],[-71.80667114310012,11.921370509069448],[-71.77821350302963,11.915801051628762],[-71.77050780798362,11.91253089649689],[-71.76441192989836,11.907522204538623],[-71.76409149189215,11.902298923935007],[-71.7667846681453,11.89343261608002],[-71.7645873976187,11.889927864982099],[-71.7524337771253,11.88395595535809],[-71.73924255480404,11.880351067897436],[-71.7278518638243,11.87446689779],[-71.73489380206871,11.86757946143672],[-71.75570678824204,11.854472160025011],[-71.76072692368018,11.845173834321145],[-71.74446869344939,11.83192443814886],[-71.7257461586205,11.83239269419829],[-71.67687988203647,11.829471588343495],[-71.66252136408679,11.822105411997768],[-71.65022278050657,11.803204534951703],[-71.64007979290517,11.775200839124523],[-71.62922417588527,11.769209910513041],[-71.62679724180299,11.75998707146158],[-71.61620687656375,11.737807933099702]]]}}]}