{"type":"FeatureCollection","features":[{"type":"Feature","properties":{"code":"441028"},"geometry":{"type":"Polygon","coordinates":[[[-71.83394623162576,11.93613338387803],[-71.86285057878956,11.91143514755754],[-71.88173502852334,11.908635852491557],[-71.88854514965334,11.902035870964482],[-71.89498162836037,11.900616372434001],[-71.90025466706993,11.895611917658869],[-71.90257215018562,11.884729823386351],[-71.9092200766745,11.878425609586316],[-71.91388496544096,11.879079502595744],[-71.91649615837025,11.87632096882055],[-71.9189473657529,11.868186209612588],[-71.91892034651107,11.85229788341627],[-71.9222522914979,11.838414778447486],[-71.92497338688008,11.836026871701847],[-71.92314080824127,11.833638982439766],[-71.932146024742,11.825695309908667],[-71.9347397259209,11.815957635617735],[-71.94355397812944,11.803331344999549],[-71.9451852473727,11.789934179120849],[-71.95161255957157,11.777608494023411],[-71.95116580722674,11.775254901262429],[-71.94415429545427,11.768724146258137],[-71.94488054350859,11.763560777573502],[-71.9472253585127,11.760559875892113],[-71.9468592741137,11.754015579385225],[-71.94193227648691,11.748168135988578],[-71.93812233815686,11.747623407010337],[-71.93233262946637,11.741970248746782],[-71.93296128963857,11.735647485957486],[-71.93140561914794,11.731632736385222],[-71.93447665752376,11.724879645478154],[-71.92958952541426,11.718809266596736],[-71.92979839180543,11.714384342266271],[-71.92703445767859,11.708236860020747],[-71.92369693236265,11.707361975282936],[-71.9228941589289,11.700023601852251],[-71.91753529257744,11.68928009226596],[-71.91077305367418,11.68703731007264],[-71.9078884698701,11.68339813948063],[-71.90383467650605,11.685175008416593],[-71.89842715351057,11.684917367110586],[-71.89763087983351,11.68073893268388],[-71.88935491443931,11.67559844478842],[-71.88731710701063,11.671144130656046],[-71.88019854568478,11.670236226742759],[-71.87767262092467,11.668311280596015],[-71.8769189041991,11.665349099775483],[-71.9721827674901,11.64389195480129],[-71.97927038092371,11.631069922775453],[-71.97998839423877,11.63359522944154],[-71.97771455205293,11.637576069207114],[-71.98002614322144,11.642314325005998],[-71.97835145724878,11.646525354889889],[-71.9825819689193,11.64652187361196],[-71.98611463914625,11.648663185552664],[-71.98349764477274,11.659792713839238],[-71.98485553651102,11.670279277346594],[-71.9876403973862,11.673956136243135],[-71.9817651603305,11.678109943585241],[-71.98191789535741,11.68281083915275],[-71.97849954063014,11.686221326294742],[-71.97938480852366,11.692705130841148],[-71.99220232568683,11.687678593348267],[-71.99512039763619,11.687407663536476],[-71.99520822457038,11.692424629314814],[-71.99868774077424,11.690222708171177],[-72.00792722105405,11.689933133724992],[-72.01145207614633,11.687280114038458],[-72.0155183918265,11.689543547357573],[-72.01467194969501,11.694035234062596],[-72.01030747824421,11.699491942321515],[-72.01155130439429,11.699653992980757],[-72.01831103389782,11.69569553932348],[-72.02092827818291,11.691619494577083],[-72.03635531911317,11.68414651550421],[-72.03328552412438,11.676544452497012],[-72.04502105599443,11.672117229597518],[-72.05773925954895,11.67642594609407],[-72.0872192362749,11.70240879145274],[-72.10668182085675,11.71447849206504],[-72.12796020606618,11.731872561981504],[-72.14101410148629,11.740408901253488],[-72.14849853226661,11.7479772621993],[-72.16508483668935,11.759283062448276],[-72.17306518348062,11.762824058945853],[-72.16189575470969,11.782798763679011],[-72.17794800230217,11.79238414723028],[-72.18849182434678,11.80181502889036],[-72.19934082436748,11.808952332552678],[-72.21041870427075,11.810037615032513],[-72.22054290531264,11.814422606996914],[-72.27766418660389,11.84912681563577],[-72.2976965807917,11.856835879859489],[-72.278456146993,11.874511891121756],[-72.24340552806052,11.897789855523001],[-72.22861179997636,11.91395306383572],[-72.21723578898514,11.93204899640591],[-72.200816377129,11.978166259507134],[-72.18612042821735,11.999132417795408],[-72.18163543770157,12.012892950927949],[-72.1676483139995,12.006283760726546],[-72.12222289960727,11.996771814141766],[-72.10295104586118,11.994513511722346],[-72.06296539716584,11.994010923176347],[-72.04853057598035,11.991512286081615],[-72.01468658443207,11.98216724749011],[-72.00278473283788,11.978221891048292],[-71.96405029450989,11.952970508975966],[-71.95606231153289,11.94969463056151],[-71.95149231304384,11.949650767488095],[-71.9295196561149,11.966252316514272],[-71.93155670249615,11.949028971141274],[-71.93029784771551,11.944068906002144],[-71.9274444576015,11.94019890045837],[-71.91992187571753,11.937476159568178],[-71.90100097592403,11.93777274799237],[-71.85826111085521,11.934836380050626],[-71.83394623162576,11.93613338387803]]]}}]}