{"type":"FeatureCollection","features":[{"type":"Feature","properties":{"code":"441020"},"geometry":{"type":"Polygon","coordinates":[[[-72.2649089683747,11.725499614282626],[-72.25521383458005,11.722074321682157],[-72.2565287621037,11.720774570884771],[-72.25576866594918,11.716853501113064],[-72.25910604214096,11.715627645967515],[-72.25763176567659,11.71374347859512],[-72.25972145905882,11.713269247294647],[-72.26023955137583,11.707630794730676],[-72.26451727678545,11.710201821837416],[-72.26500406742599,11.708665740091476],[-72.26272050337298,11.70765482223328],[-72.26204675422389,11.706082415897527],[-72.26412092943696,11.707413214346104],[-72.26475060262504,11.70514481570649],[-72.269358622634,11.704833110205698],[-72.2761261981255,11.706277467220332],[-72.27144830676025,11.715213541530488],[-72.26971124472038,11.715669898499982],[-72.27078473507834,11.719389473756507],[-72.26772072919243,11.722035723205977],[-72.26895349547169,11.72383926377023],[-72.2649089683747,11.725499614282626]]]}}]}