{"type":"FeatureCollection","features":[{"type":"Feature","properties":{"code":"441017"},"geometry":{"type":"Polygon","coordinates":[[[-72.48136532082577,11.467989687680756],[-72.48741424639627,11.465110620442374],[-72.48646872308404,11.462313523158059],[-72.48938291780513,11.45770047303671],[-72.48988927559299,11.45363517448618],[-72.53144514415521,11.454040175150055],[-72.53212446026367,11.44531909777686],[-72.53655715859117,11.443468118244539],[-72.60496390062366,11.458773726852883],[-72.60582690376503,11.45401199068283],[-72.61040433172286,11.450464156070893],[-72.61088473676375,11.443703210948343],[-72.6166533798662,11.43136895892468],[-72.61574304677163,11.427764359427954],[-72.62348243873674,11.42855170005322],[-72.63034858221613,11.423599341033935],[-72.63346880585539,11.423859912372677],[-72.634712658745,11.426517422239272],[-72.63818374583394,11.426243081083612],[-72.63839785831038,11.427833601377415],[-72.64179151704741,11.42734636439286],[-72.64491637793401,11.468016539286452],[-72.71340823901153,11.679516024026213],[-72.6823082575732,11.701951017289446],[-72.68828377394516,11.706508242522432],[-72.68143346436676,11.70809321642571],[-72.65751384747898,11.718883460496897],[-72.63870655253146,11.717729650835167],[-72.62271505298168,11.721995541956744],[-72.6181299734115,11.724792879896597],[-72.59996396173966,11.743536266397598],[-72.59414150846777,11.746943522173183],[-72.58338435967681,11.747497778642924],[-72.57021575589192,11.743025729019337],[-72.56143382043268,11.74503619118991],[-72.54795671988768,11.751452732510302],[-72.5488956498549,11.746094350555211],[-72.55835813041136,11.737910570634654],[-72.55925323021535,11.731516997521055],[-72.56142704711027,11.728575968677774],[-72.56961936824598,11.71905604754977],[-72.57424427733798,11.718193296376796],[-72.57424427733798,11.713504669100075],[-72.58169091182731,11.70798864541888],[-72.58251831028872,11.700266218641502],[-72.58610373241777,11.69723241091333],[-72.59131295421213,11.6962714218825],[-72.5959316340278,11.68878438297196],[-72.5982307553308,11.679128108877876],[-72.5982307553308,11.670391476311636],[-72.59455216967928,11.660735202217552],[-72.59317269813158,11.651078910639967],[-72.5830566043021,11.636364589631114],[-72.58581552991387,11.617511853979352],[-72.59133340684849,11.607855571657751],[-72.59271287839618,11.597739468572229],[-72.59066158602911,11.579465349079669],[-72.58493832500977,11.575362831194411],[-72.5870049463125,11.573014821847835],[-72.58538770296832,11.57120587476129],[-72.58042862204866,11.573061094562092],[-72.57756028455111,11.570837822951773],[-72.57310432388232,11.573298743974021],[-72.56919858201786,11.569490796708692],[-72.56264850669243,11.569636881826284],[-72.5607211509049,11.566567373772955],[-72.56079688644041,11.561274523146722],[-72.55475995456663,11.560865927047814],[-72.5501445297715,11.55784390012866],[-72.5446050925679,11.556659843972454],[-72.53968457207208,11.549223406490682],[-72.5299718190002,11.54499869215067],[-72.52674686597396,11.540600700672883],[-72.5234409395544,11.542087401751303],[-72.52361693589421,11.536407775491057],[-72.52577610468234,11.534473229861874],[-72.52474577394315,11.53292169679554],[-72.52679076298597,11.530063681775516],[-72.52512358052991,11.52506454919046],[-72.52824189537989,11.520795051320931],[-72.52479927866517,11.51762820941076],[-72.52460839561991,11.514681899515153],[-72.52826302781676,11.509331765669117],[-72.52516382965632,11.507111757306859],[-72.52635588606694,11.503276160364464],[-72.52464709488345,11.499267591731723],[-72.52170198312342,11.498751274506503],[-72.52187118351503,11.494828474894462],[-72.51651331063903,11.491684348194156],[-72.51803230892631,11.489523188341309],[-72.51562137638115,11.488058612146801],[-72.51275595040437,11.488994034096606],[-72.51138858568203,11.486164308444927],[-72.50759533691718,11.484407423175526],[-72.50616664102529,11.48715227455142],[-72.50116429352886,11.486446967643644],[-72.49862786014313,11.48806126655694],[-72.49588505022564,11.484496969665656],[-72.49242367780471,11.483819272325718],[-72.49341193187513,11.479773742497287],[-72.4810523338856,11.472720998407283],[-72.48136532082577,11.467989687680756]]]}}]}