{"type":"FeatureCollection","features":[{"type":"Feature","properties":{"code":"441038"},"geometry":{"type":"Polygon","coordinates":[[[-71.70268112398674,12.12784233325715],[-71.70836533504371,12.128577766331603],[-71.71028677625833,12.125409158585626],[-71.72516666828511,12.124798359374665],[-71.7374438499765,12.126402537385104],[-71.73997161976246,12.124909835344567],[-71.74797780308671,12.13180617389628],[-71.74889958480338,12.136864181730232],[-71.7510810008601,12.139428208228765],[-71.76689196246792,12.144334711053034],[-71.77088099686347,12.147671803394644],[-71.78128288252765,12.15011905950115],[-71.79038759878517,12.148025115565986],[-71.79515795536037,12.152342863844694],[-71.80709870059371,12.154067089893488],[-71.80987233293354,12.15639907507716],[-71.81858043753277,12.157865281353054],[-71.83063691648812,12.163825535638011],[-71.8334835528201,12.174864142406818],[-71.83534643760305,12.176843462309535],[-71.8499002557586,12.173117677317009],[-71.8547693469294,12.174695284486575],[-71.85908009254302,12.179227097933335],[-71.870354348403,12.181548260816385],[-71.874941426237,12.186577470202906],[-71.87434803547251,12.19009426024894],[-71.87074764847637,12.189800868224097],[-71.871007201657,12.18825934190346],[-71.86856486356265,12.187252297159773],[-71.8692519516112,12.186179225377941],[-71.86792473522797,12.187214960582594],[-71.86713928076625,12.189496878099078],[-71.86246929401017,12.190643398160262],[-71.85814356090373,12.193872344628858],[-71.8576779942315,12.19603723052893],[-71.85490874614214,12.19541899773543],[-71.85663234792634,12.197680785546538],[-71.8605698213562,12.197785949964725],[-71.86059984879245,12.199417854785509],[-71.85716479524399,12.198953003909253],[-71.84579171531396,12.203123640684794],[-71.83401489044832,12.228955268997709],[-71.8318557710254,12.250020024070238],[-71.83354187168158,12.268244739241084],[-71.8248748821573,12.297983169742622],[-71.81854968504462,12.309512704576207],[-71.80913805582844,12.305210978403466],[-71.80016361855542,12.30696875121879],[-71.80013361580183,12.309777754782147],[-71.7973188550173,12.313403468203774],[-71.80004223662718,12.317828851219645],[-71.79383143111892,12.328884076591066],[-71.78813975871151,12.329180010925825],[-71.78636956848123,12.331215141318694],[-71.77622196934357,12.329418945890893],[-71.76180186928428,12.330994920922137],[-71.75549224690508,12.33428098708822],[-71.74790471270535,12.341786231488243],[-71.74469500531097,12.340632880511862],[-71.72594451638594,12.345381744695317],[-71.67906189047608,12.347167980685754],[-71.68341827116956,12.323713302091846],[-71.67549133036982,12.28779506231109],[-71.67513274948749,12.27725124026648],[-71.68513488777216,12.257458687101575],[-71.68738556326184,12.246576306922009],[-71.68382262905686,12.230504036582147],[-71.67286197823097,12.217676381032618],[-71.68281500735696,12.219754940496102],[-71.67709622931847,12.21292422994685],[-71.67548956967624,12.20576118128298],[-71.67702929005185,12.201208959422843],[-71.67241012789663,12.199334515974442],[-71.6693976336112,12.194179805747353],[-71.6706754929811,12.187107757791296],[-71.66792106166315,12.180451217067912],[-71.67388899532835,12.173909443330501],[-71.67652865760346,12.172991299215028],[-71.67584005054533,12.168630116723364],[-71.67802064179114,12.167941508636773],[-71.67756156973337,12.164039398202931],[-71.67882401789217,12.164154166217315],[-71.68284293471356,12.1507945919696],[-71.69041231690278,12.147512348524344],[-71.69737771948343,12.150830358115059],[-71.70198297915266,12.148569067041706],[-71.6982047322789,12.132960876246159],[-71.70268112398674,12.12784233325715]]]}}]}