{"type":"FeatureCollection","features":[{"type":"Feature","properties":{"code":"443040"},"geometry":{"type":"Polygon","coordinates":[[[-72.78941834194563,10.960401214078445],[-72.7859969687396,10.955530421863727],[-72.78788542266045,10.954493059663037],[-72.78916052374751,10.94940487218338],[-72.79073582720582,10.948660258202494],[-72.79250449431271,10.949979416738643],[-72.79781711983168,10.943327754946552],[-72.80107368101034,10.947387729250181],[-72.8024521364568,10.943914192411114],[-72.80579759620673,10.94639427023219],[-72.8059435558543,10.950480951131112],[-72.80398744172862,10.95475786612809],[-72.80068756460798,10.956093977510704],[-72.79973971598724,10.962399177587088],[-72.79504231815275,10.961492617848137],[-72.7969335858923,10.965453819503807],[-72.79057599901085,10.965561369908642],[-72.78914509505285,10.964311216780175],[-72.78941834194563,10.960401214078445]]]}}]}