{"type":"FeatureCollection","features":[{"type":"Feature","properties":{"code":"443048"},"geometry":{"type":"Polygon","coordinates":[[[-72.78719643507856,10.980413339721053],[-72.78826829226978,10.961851110284442],[-72.78941834194563,10.960401214078445],[-72.78914509505285,10.964311216780175],[-72.79198841671462,10.966245649280665],[-72.79668270145362,10.965630439079746],[-72.79504231815275,10.961492617848137],[-72.79973971598724,10.962399177587088],[-72.80068756460798,10.956093977510704],[-72.80398744172862,10.95475786612809],[-72.8059435558543,10.950480951131112],[-72.80579759620673,10.94639427023219],[-72.8029305638027,10.944227339788313],[-72.8077865721562,10.931444143808903],[-72.80256431485293,10.924015759032045],[-72.80076177290636,10.91854593607411],[-72.80481582029574,10.91247694456166],[-72.80946798517141,10.926050048158913],[-72.81409912971037,10.924183627590594],[-72.81483204104381,10.9265863562498],[-72.81763143792557,10.926406995874572],[-72.82292665602648,10.93107571661784],[-72.83725514551156,10.933801839027069],[-72.83907854324394,10.93740203678982],[-72.83947546240654,10.945868186916812],[-72.84125289081521,10.94679281433389],[-72.83958182393178,10.947780246678747],[-72.84127559471227,10.95260577199599],[-72.84309110017682,10.957036349675036],[-72.84801294942037,10.960699930350188],[-72.84854671417293,10.965716188560066],[-72.85444374289716,10.97529366955905],[-72.85441343058233,10.978762077555245],[-72.85858753012383,10.980578660827518],[-72.85996036204659,10.984032360038782],[-72.86694166640541,10.991483201886467],[-72.87154165222142,10.992125191702144],[-72.87845421342547,10.995778208215768],[-72.88311611868022,11.002919011667984],[-72.89875722786388,11.016790179504426],[-72.90403635083936,11.02392973442744],[-72.91032330223169,11.024712189950776],[-72.91168920656565,11.028952066618842],[-72.91486326711384,11.03204308146212],[-72.91249749450816,11.032498334912816],[-72.90888879152573,11.038655529769414],[-72.90700460564136,11.039071905007575],[-72.89386589868047,11.054121896284755],[-72.89410979896604,11.058602587910798],[-72.88481717906126,11.069465322781355],[-72.87244855648862,11.075749801797883],[-72.86883243329345,11.083008119206056],[-72.86597802604979,11.081014814542016],[-72.86151907158484,11.081111310218205],[-72.85631825936497,11.073561806794373],[-72.85687029337038,11.06657875511172],[-72.85391741789778,11.059432240718195],[-72.84932721565542,11.05192874158513],[-72.83931708020174,11.044554521790417],[-72.83659421384158,11.037017233178403],[-72.83792468113165,11.034340633361808],[-72.83707383932301,11.029127949829956],[-72.8300624838738,11.022991733143783],[-72.82936385670013,11.018538385747433],[-72.82201738531307,11.01150288761005],[-72.82045991710493,11.005559086348512],[-72.81853436520555,11.00376142024794],[-72.82018926600102,10.987449062058943],[-72.81716886916331,10.979378708035256],[-72.80530802157233,10.975665161508743],[-72.7986443640267,10.979382748785895],[-72.78719643507856,10.980413339721053]]]}}]}