{"type":"FeatureCollection","features":[{"type":"Feature","properties":{"code":"443049"},"geometry":{"type":"Polygon","coordinates":[[[-72.49711653609393,11.043663430855418],[-72.49933720677313,11.040664655993169],[-72.50390774313763,11.038993779371651],[-72.50724911791394,11.034684831475545],[-72.50871438830717,11.022800344104837],[-72.51751178331432,11.019200197764235],[-72.51945626781202,11.01363243108301],[-72.52580402586824,11.011955487679018],[-72.52585061637126,11.007698394883164],[-72.51858687187195,11.001130536758126],[-72.52317241835499,10.995760000669407],[-72.52655269602639,10.996299757128043],[-72.52978772470402,10.993645159810683],[-72.53540244390001,10.986442609698145],[-72.53830956499343,10.979703535434169],[-72.53712724279126,10.97445554444215],[-72.55058641346943,10.951274239239467],[-72.55367695420074,10.943833797002583],[-72.55347116593805,10.940484890941718],[-72.56056668089548,10.933779478629845],[-72.56303799638624,10.928177167592878],[-72.57103365977196,10.923546670972655],[-72.5770689060285,10.913584326214334],[-72.60328466584974,10.898986219210144],[-72.60654255577612,10.894061688816919],[-72.60740482563801,10.887696518200357],[-72.61019027272545,10.886537237224445],[-72.61251738309159,10.882574060959143],[-72.61456151029955,10.885744778040703],[-72.62074943090488,10.88696163534263],[-72.6296529992324,10.884445056039738],[-72.63816735760241,10.885111077471777],[-72.64784181558866,10.880547107712744],[-72.65090918756687,10.863596228644667],[-72.65467919867302,10.857918739488014],[-72.65846329944162,10.855996503287372],[-72.65852367415971,10.849999015269418],[-72.66386451602762,10.836365092666938],[-72.66213350534349,10.830461016026106],[-72.66811444880665,10.823495360448646],[-72.67475293727853,10.821024440908218],[-72.67618736879433,10.818513894449154],[-72.68644176243157,10.828314661631794],[-72.68812775201593,10.833924718897777],[-72.694284912934,10.841205523201609],[-72.71222944436727,10.855404420701802],[-72.71830252599563,10.85700400465953],[-72.72033165851167,10.864732668940746],[-72.7266341722962,10.863917685837407],[-72.72778568133202,10.8655722256496],[-72.73100600328166,10.865946777215811],[-72.73218058851074,10.869083657510089],[-72.73761263574653,10.870732061634214],[-72.74224408059075,10.867133613252179],[-72.74393022649838,10.870410519080735],[-72.75010228646318,10.87094571748213],[-72.75317705808533,10.875310929411512],[-72.75972314202534,10.875556077197814],[-72.765033912234,10.87782827387565],[-72.76740660420097,10.876314346838456],[-72.76906970888245,10.878664643441141],[-72.77182412785913,10.878468523566596],[-72.77403614727984,10.880247175821921],[-72.7751044213773,10.878253136849878],[-72.78216179037332,10.876866310909804],[-72.78527532810773,10.882440306867352],[-72.78887573258743,10.882752611950139],[-72.79229442258696,10.888911928483651],[-72.79540663260212,10.890601615318928],[-72.79716969881105,10.89717197050237],[-72.79487246161477,10.903463196101825],[-72.80479107905404,10.912393913254903],[-72.80079402280688,10.91878565059858],[-72.80764749381751,10.932776542514034],[-72.80107368101034,10.947387729250181],[-72.79781711983168,10.943327754946552],[-72.79665957589515,10.94382125000385],[-72.79250449431271,10.949979416738643],[-72.79073582720582,10.948660258202494],[-72.78916052374751,10.94940487218338],[-72.78788542266045,10.954493059663037],[-72.7859969687396,10.955530421863727],[-72.78941834194563,10.960401214078445],[-72.78779710721602,10.96335442070955],[-72.78734092405335,10.981832237641129],[-72.78106229378943,10.99099144181173],[-72.77972591089798,10.995933446471724],[-72.77722568691644,10.994188214484552],[-72.77240190995144,10.996560126892064],[-72.77365650183782,10.999354156332345],[-72.7681678491258,11.007375977125093],[-72.7613875456297,11.027620067977864],[-72.75927399855169,11.029880849972187],[-72.75973109291448,11.03287570338307],[-72.75434274214439,11.031421177128834],[-72.75148201203615,11.029256437267577],[-72.75219127844764,11.027678996705731],[-72.74799488947144,11.027798404024395],[-72.74625555251674,11.02626104906659],[-72.74142595353868,11.029094662230932],[-72.73445974671597,11.030222896584121],[-72.73040826940445,11.026154713252367],[-72.73023302588462,11.02395252471365],[-72.72676214551257,11.023246265468117],[-72.72260367624051,11.025088368513025],[-72.72507529306495,11.027003067258477],[-72.72043614415782,11.030658504725807],[-72.71729287929236,11.026587432498957],[-72.71537041786274,11.027105232738279],[-72.71293713520475,11.034470383726841],[-72.70986233684312,11.032173277142817],[-72.70551317684453,11.034646910742993],[-72.70507774970878,11.039253161830857],[-72.70660418877765,11.042758921830853],[-72.7052534406011,11.045730795722136],[-72.70648953800571,11.04650575492792],[-72.7013011123475,11.04766498551021],[-72.7020110349053,11.052622151469848],[-72.6987381430879,11.051094489582795],[-72.69671579109337,11.054582922383247],[-72.69837942130891,11.055894241102067],[-72.69818042282378,11.059309675052589],[-72.69555638876119,11.059151932539066],[-72.69409055889525,11.061258942836446],[-72.69051324706385,11.062190351803508],[-72.69086400766929,11.064450313100679],[-72.68639254528642,11.06580685243705],[-72.68645858055208,11.069496877454753],[-72.69295447341187,11.075909818197829],[-72.68609197473279,11.079527222832382],[-72.63697870327968,11.12428462987009],[-72.62649167388787,11.114287017760944],[-72.62407415108305,11.115080795407948],[-72.61496795798206,11.120765262547081],[-72.61381722542035,11.123047292163847],[-72.61617012398261,11.12535657550734],[-72.61504131061628,11.12668298044946],[-72.60275844780841,11.131120124733968],[-72.59214959837175,11.139684975517923],[-72.60062238298144,11.124395851814711],[-72.59991133325065,11.119325679562678],[-72.59602697064929,11.113172301256213],[-72.59311525036094,11.110810423362295],[-72.57273009319016,11.103168330286962],[-72.55888642899191,11.104977313369034],[-72.5513104925385,11.103321229864662],[-72.49711653609393,11.043663430855418]]]}}]}