{"type":"FeatureCollection","features":[{"type":"Feature","properties":{"code":"444018"},"geometry":{"type":"Polygon","coordinates":[[[-72.67618736879433,10.818513894449154],[-72.6744853087672,10.81322683601121],[-72.67540167264866,10.806624245325452],[-72.68254268281783,10.79597145053998],[-72.67823209764123,10.783246768826075],[-72.68121531113968,10.778345842217107],[-72.68259637163106,10.77025401122836],[-72.6825202195763,10.766454297673874],[-72.67989586669654,10.764202143283853],[-72.6897536075378,10.757281576683226],[-72.70617208865343,10.759506951458548],[-72.71257310563396,10.751552302360437],[-72.71174237090503,10.74980878890068],[-72.7138956426038,10.74151335714646],[-72.71759151123183,10.739747948145464],[-72.71493515527777,10.735191207308958],[-72.71991020071061,10.720718030359706],[-72.71770541226925,10.70947506692022],[-72.7146339481182,10.705314218860565],[-72.72931717828124,10.695390975486873],[-72.73343808780413,10.683872594112415],[-72.73346370527884,10.678066754300971],[-72.73937352062887,10.66926517250431],[-72.73857813244086,10.654242390730815],[-72.74884494863528,10.64850057249464],[-72.7482347202099,10.657502417760782],[-72.75149709003193,10.656910697186959],[-72.75363385317132,10.658817822481694],[-72.7589002306587,10.676333847168905],[-72.76567592776075,10.684078933620242],[-72.76353222880499,10.686903414215067],[-72.77019832375936,10.697906329914701],[-72.79148864301578,10.710529114572296],[-72.80618295361847,10.709276741036433],[-72.8092850057069,10.704519337694762],[-72.81179679349611,10.70431829877964],[-72.81416489963789,10.701586997133916],[-72.81662671849045,10.704345828128965],[-72.82399766989482,10.705395860741476],[-72.832480795494,10.764190776937141],[-72.8341440287308,10.771237359627946],[-72.8377302160211,10.77611564198952],[-72.83927915227008,10.774572866111214],[-72.84003383676009,10.768304269332532],[-72.84282704036104,10.766483981610293],[-72.87057600948822,10.767926736311438],[-72.87815204981439,10.76700150519855],[-72.88018131294263,10.76759689731216],[-72.87893815013797,10.771621077702378],[-72.88908556929817,10.776718556131698],[-72.89790097953295,10.78978843252014],[-72.88753647775434,10.789952043326707],[-72.87956451791177,10.79489472470192],[-72.88587562124826,10.804517132183832],[-72.89124612236992,10.809033478883578],[-72.89673543534207,10.820877219361705],[-72.89275441457062,10.83055930530611],[-72.88542387478657,10.834590463678751],[-72.88245017540982,10.832255979379795],[-72.8801007488695,10.83302189857585],[-72.87182154182449,10.839295116146786],[-72.8715878087217,10.851940356846796],[-72.86970656521135,10.853067625492486],[-72.86105877568048,10.852678622251972],[-72.85126400020397,10.855185453976674],[-72.84076026067811,10.863386392432233],[-72.83310234809994,10.860820677231118],[-72.82891488806172,10.862020444903749],[-72.82729817950764,10.860180998325802],[-72.82288130993896,10.859748982533858],[-72.8222761589343,10.86245619908425],[-72.8191540182782,10.864343347911529],[-72.81863596195666,10.86808563323575],[-72.81473852476557,10.870320872831655],[-72.814387417575,10.877331033230746],[-72.81127096523448,10.88160356397725],[-72.80620477716872,10.884592229249506],[-72.8074201206033,10.887550275731087],[-72.80550422577915,10.889516626973602],[-72.80427827293158,10.896189769844625],[-72.80690751708397,10.899082698431243],[-72.80492741145122,10.902301738941503],[-72.79897611798594,10.90195442670381],[-72.79930332211546,10.903854600755608],[-72.796982409144,10.905610969746817],[-72.79474316376445,10.902689882404047],[-72.79716969881105,10.89717197050237],[-72.79540663260212,10.890601615318928],[-72.79229442258696,10.888911928483651],[-72.78887573258743,10.882752611950139],[-72.78527532810773,10.882440306867352],[-72.78285652180665,10.877185586775965],[-72.7752189168545,10.878207305337469],[-72.77403614727984,10.880247175821921],[-72.77182412785913,10.878468523566596],[-72.76906970888245,10.878664643441141],[-72.76740660420097,10.876314346838456],[-72.765033912234,10.87782827387565],[-72.75972314202534,10.875556077197814],[-72.75317705808533,10.875310929411512],[-72.75010228646318,10.87094571748213],[-72.74393022649838,10.870410519080735],[-72.74224408059075,10.867133613252179],[-72.73761263574653,10.870732061634214],[-72.73218058851074,10.869083657510089],[-72.73100600328166,10.865946777215811],[-72.72778568133202,10.8655722256496],[-72.7266341722962,10.863917685837407],[-72.72078188904908,10.865004665247454],[-72.71830252599563,10.85700400465953],[-72.71222944436727,10.855404420701802],[-72.694284912934,10.841205523201609],[-72.68812775201593,10.833924718897777],[-72.68644176243157,10.828314661631794],[-72.67618736879433,10.818513894449154]]]}}]}