{"type":"FeatureCollection","features":[{"type":"Feature","properties":{"code":"445001"},"geometry":{"type":"Polygon","coordinates":[[[-72.96307896021654,10.619626350469105],[-72.9692758251864,10.615887365416881],[-72.96421506729718,10.613784904949227],[-72.96816922309318,10.611060285094538],[-72.96589056573941,10.607550586159675],[-72.96723137093369,10.606099705734152],[-72.96865453380491,10.607379237351608],[-72.97197380118075,10.60400210671429],[-72.9704485283657,10.60192930447198],[-72.97363180478732,10.597610279896116],[-72.98640645543787,10.598938063979631],[-72.99030963442357,10.59399066616703],[-72.99202154898694,10.595345698835104],[-72.99003983795541,10.597837966785335],[-72.99146771006485,10.60145952941292],[-72.99044146327094,10.60958801203617],[-72.98081177955817,10.620411312306828],[-72.97743627591694,10.621639793066095],[-72.96307896021654,10.619626350469105]]]}}]}