{"type":"FeatureCollection","features":[{"type":"Feature","properties":{"code":"445007"},"geometry":{"type":"Polygon","coordinates":[[[-72.95232264549247,10.623476295213095],[-72.95496317885835,10.621019735815594],[-72.96539547145403,10.618162391340093],[-72.96307896021654,10.619626350469105],[-72.97743627591694,10.621639793066095],[-72.98081177955817,10.620411312306828],[-72.99044146327094,10.60958801203617],[-72.99146771006485,10.60145952941292],[-72.99003983795541,10.597837966785335],[-72.99202154898694,10.595345698835104],[-72.99069533842044,10.5942959737269],[-73.01079326805086,10.574038421590046],[-73.01908450581647,10.56272280177194],[-73.02413020730722,10.561882168283773],[-73.05376848396259,10.563866918362919],[-73.07073478555463,10.559259616206873],[-73.07473590003605,10.557234006106398],[-73.07655770368251,10.553586771496612],[-73.08078658732853,10.552427317742342],[-73.08308488279215,10.553962243518868],[-73.08621687695609,10.552289652483637],[-73.09189241001502,10.555093857334214],[-73.09987453704036,10.551500708516471],[-73.10098445483226,10.552231835502141],[-73.10017751106415,10.554630418509532],[-73.09543546339768,10.55772295030556],[-73.09907332375394,10.559642749097463],[-73.10138693992576,10.566128947858033],[-73.10018415377436,10.576645971775918],[-73.09390719781487,10.57713371681109],[-73.09406109703872,10.579363537543372],[-73.09218785275431,10.578750903590958],[-73.08809547222688,10.581748161500457],[-73.08908201805428,10.582517349086856],[-73.08789469967837,10.585937281444956],[-73.0903028122342,10.588928989878639],[-73.08668004015811,10.587206870080138],[-73.08481326683403,10.590944414284365],[-73.08579854664873,10.592107951983905],[-73.08458687681087,10.595618177481356],[-73.0864050531406,10.597041966673999],[-73.08569772534327,10.598925575602152],[-73.08718365714668,10.599262472802423],[-73.08490482598614,10.603255195192844],[-73.0893088389949,10.608207993357098],[-73.08699320707575,10.612617530130649],[-73.08846895421289,10.614360019261653],[-73.08710679032441,10.61493310240013],[-73.0879521875583,10.619467889074258],[-73.08571662091765,10.620986202418806],[-73.08645502002037,10.623285670306927],[-73.08310959523743,10.62608064694274],[-73.08332208688847,10.628184089572983],[-73.0797609905103,10.629846168897245],[-73.07990568723045,10.634161786243112],[-73.07648852138277,10.636144037206918],[-73.07332714461609,10.634652581638761],[-73.06758134630735,10.638238494334928],[-73.06541201239338,10.642449428573627],[-73.06163807983592,10.64517835143181],[-73.05830241702938,10.64662393229304],[-73.05584048504818,10.645706309597927],[-73.05281193266126,10.648559585554835],[-73.05140909695643,10.64757647781073],[-73.0480651377041,10.651468172178795],[-73.04576292078917,10.650945330514276],[-73.04458218547381,10.653532305679107],[-73.03774684384786,10.65619086661394],[-73.03744825715984,10.660007796296213],[-73.03544831595622,10.66195134079743],[-73.03342537569256,10.661253076664025],[-73.02826508513635,10.663384834373687],[-73.02665525583427,10.666460639580578],[-73.02187283048607,10.666644472652365],[-73.02040882919096,10.665193247698596],[-73.01982235470246,10.666974242745994],[-73.01326077933277,10.66764452912912],[-73.01126668791017,10.669815026211609],[-73.00842632713443,10.66800537978412],[-73.00594845429418,10.669351613098002],[-73.00115622377501,10.666483266344414],[-72.99812162311764,10.666650176394569],[-72.9873635960368,10.671038499484268],[-72.9863955230939,10.666393560445727],[-72.98767496215157,10.659022145213783],[-72.98461680193299,10.655583395442989],[-72.97740933277981,10.65392539903553],[-72.97580491617072,10.651263391789826],[-72.96951156169524,10.648300073511848],[-72.96893615221978,10.646332031509814],[-72.96764870056649,10.64700650571092],[-72.96542813375999,10.641367316782066],[-72.9581806149983,10.63954494440685],[-72.95232264549247,10.623476295213095]]]}}]}