{"type":"FeatureCollection","features":[{"type":"Feature","properties":{"code":"445027"},"geometry":{"type":"Polygon","coordinates":[[[-72.83627401751932,10.516770286934673],[-72.8364035848216,10.511787090066434],[-72.84371514984116,10.504851350853357],[-72.84205477567463,10.496926962647933],[-72.84673623984918,10.492127538173406],[-72.84433460750972,10.486870094766232],[-72.85341019416131,10.480526162516128],[-72.8548100998334,10.47347452297339],[-72.86091644849188,10.473425676067507],[-72.86091999044794,10.465804864553263],[-72.86625107136786,10.4607849697706],[-72.88654265980989,10.45270519315659],[-72.91632120265501,10.453819779049127],[-72.9164576636075,10.444154229432002],[-72.93555362694343,10.444069658546766],[-72.93568493437044,10.435330511438565],[-72.96334712866013,10.4355505168906],[-72.96321131459803,10.42626910803773],[-72.98424628391831,10.426364561901664],[-72.9840530940765,10.417312272558434],[-73.02734230068825,10.417193341408677],[-73.02709567914383,10.51693878284317],[-73.07276725536667,10.5168443543364],[-73.07256402484057,10.528793750828243],[-73.07735602293172,10.532406648827646],[-73.08598780784013,10.535437235473864],[-73.11063461483559,10.495355864491103],[-73.11866037456315,10.494429986487887],[-73.13481622642655,10.497283021789258],[-73.13968545335177,10.493603699772848],[-73.14505482524356,10.493659121511769],[-73.14819895914297,10.491817490521953],[-73.14955070696561,10.4868700340881],[-73.15394021070733,10.485068160629169],[-73.15659792729082,10.48473803675131],[-73.15646881764548,10.487847292051129],[-73.15920334140162,10.486646186374799],[-73.16193877944318,10.48876327746575],[-73.16024124250617,10.489321515036465],[-73.16083733087538,10.4923741237223],[-73.15748345435185,10.492581343577001],[-73.15476452589803,10.499646916458914],[-73.15309642298593,10.49735050818731],[-73.14557729461194,10.499501341448877],[-73.14494941914137,10.504786502410354],[-73.14819676238972,10.505111327752331],[-73.14903687240064,10.508236979511196],[-73.14511912964048,10.50909435604359],[-73.14388698762588,10.513308805498866],[-73.13978460446651,10.515166731131956],[-73.14169618188896,10.518119286758917],[-73.13885673539863,10.519916514743045],[-73.13742431860163,10.530242192816559],[-73.13234880564761,10.53134679253219],[-73.12455739608828,10.524474807499303],[-73.12553149981812,10.527028014782559],[-73.123538348392,10.527974529513358],[-73.12283332122058,10.531465055194303],[-73.12030497344995,10.533768098977077],[-73.1173588188492,10.533442773811998],[-73.1149525081247,10.539802621210072],[-73.10612957277601,10.54039475521779],[-73.1050769474599,10.544681860023218],[-73.10291667823827,10.54822542968401],[-73.0987684214004,10.550293908353922],[-73.09987453704036,10.551500708516471],[-73.09855512756423,10.553088669016859],[-73.09162636839051,10.555087378146311],[-73.09076201181881,10.553631585879373],[-73.08860056297357,10.554271128001858],[-73.08822395349387,10.552776182928199],[-73.08577167138878,10.552247577871753],[-73.08308488279215,10.553962243518868],[-73.08078658732853,10.552427317742342],[-73.07655770368251,10.553586771496612],[-73.07473590003605,10.557234006106398],[-73.07073478555463,10.559259616206873],[-73.05063994536556,10.56408157282857],[-73.02413020730722,10.561882168283773],[-73.01885353613875,10.563007031402378],[-73.013860990728,10.553221970593938],[-73.01047513581278,10.552242164150357],[-73.00836973399953,10.55969387503194],[-73.01425413550652,10.56841102684001],[-73.01128533254462,10.572874641178089],[-73.00870548448637,10.570611733393037],[-73.00950395800197,10.566259831566754],[-73.0047823753132,10.55401151311463],[-73.00165144970106,10.55232518620113],[-73.0006237414903,10.553305813341808],[-72.99202139986278,10.551805180981034],[-72.99178896156911,10.550362631968369],[-72.98339911056416,10.546299901438829],[-72.97730329007169,10.544845996363847],[-72.97542654702585,10.541195556098728],[-72.96988582838287,10.537830553884021],[-72.95993309030615,10.536405704367155],[-72.95746592869472,10.532852517740366],[-72.95745663054589,10.530062805701789],[-72.95261034097422,10.52611924080685],[-72.94745749325648,10.531428236952138],[-72.9401163821118,10.5337361833204],[-72.94075221978437,10.538431986040564],[-72.93905969753308,10.540691283992317],[-72.92467571020438,10.536818960339076],[-72.91862723920553,10.537508615380204],[-72.91504535903243,10.544191021432937],[-72.91598054238358,10.547828114571075],[-72.91427823964398,10.553831582982184],[-72.91139599451822,10.552366804184544],[-72.90582361218696,10.543371643794785],[-72.89982398500865,10.544391018535805],[-72.89119385383583,10.537604397317295],[-72.88804984849173,10.542217077199325],[-72.88445364108594,10.53853483954839],[-72.86950697022957,10.532536120484792],[-72.86683964593601,10.52936683396672],[-72.85404372195194,10.526827354334273],[-72.8452697651498,10.523015078354376],[-72.83627401751932,10.516770286934673]]]}}]}