{"type":"FeatureCollection","features":[{"type":"Feature","properties":{"code":"446007"},"geometry":{"type":"Polygon","coordinates":[[[-73.15864219950925,11.262418937519612],[-73.22467933284537,11.228153827556298],[-73.24542683191282,11.216682198150352],[-73.24940369983341,11.213038325519165],[-73.25477820468183,11.213836452449584],[-73.25749608412423,11.21897821150003],[-73.27025608666804,11.226583842174307],[-73.27894545407304,11.224083704581915],[-73.28544171100145,11.217704822769747],[-73.30484395583233,11.213839704384839],[-73.34349032657053,11.215895334722404],[-73.34762923075209,11.233737513499307],[-73.34464410949278,11.26511965534172],[-73.33759919082189,11.269903617183047],[-73.31119844607332,11.275142901380661],[-73.31449707980693,11.273350024736885],[-73.31350044701531,11.271622364718553],[-73.31133753366794,11.269078299260855],[-73.30531047381385,11.267489948980767],[-73.30392789534136,11.27024672411926],[-73.30116230542205,11.270436453251989],[-73.30122450562561,11.274590389149466],[-73.30360982789517,11.274883300891645],[-73.30353187915136,11.276749859271263],[-73.27692682504039,11.285686571215763],[-73.26635521550736,11.291605632264066],[-73.26339725747181,11.296371418440742],[-73.25226457700893,11.302897417926829],[-73.24982980413779,11.309528863624337],[-73.22072650888248,11.325097224898002],[-73.21892876153493,11.327842175004378],[-73.21051843938164,11.317490183200619],[-73.20806545896409,11.309375862230809],[-73.20551410493431,11.310329881506675],[-73.20274365048186,11.306905968047602],[-73.19599166720741,11.304923208004709],[-73.19590013376637,11.301554690573482],[-73.19279515061675,11.301621098135342],[-73.19195586130297,11.294232407126003],[-73.18766282752642,11.29091565943429],[-73.18663497533373,11.28679972140253],[-73.18084850418023,11.28412466733505],[-73.17909853621524,11.281803055022635],[-73.17959370146315,11.27940013713004],[-73.17618379847653,11.279317435953317],[-73.1659544463862,11.267746416833859],[-73.15864219950925,11.262418937519612]]]}}]}