{"type":"FeatureCollection","features":[{"type":"Feature","properties":{"code":"446009"},"geometry":{"type":"Polygon","coordinates":[[[-73.4650205315711,11.211321156642953],[-73.45936917822422,11.196043891910449],[-73.45943128072571,11.188156822798703],[-73.46266061903088,11.182070756055111],[-73.4621017006312,11.177226740369804],[-73.46489632553971,11.175363660182768],[-73.46688362204253,11.16691768809801],[-73.46887089900497,11.166296658969316],[-73.47054767991506,11.162756797872248],[-73.47582640899702,11.162632600068378],[-73.4765095395988,11.159092737942842],[-73.4819124921957,11.159030635441354],[-73.48551443933917,11.151205686314654],[-73.4906068660589,11.15083306822038],[-73.48793643792584,11.141579758473995],[-73.47997933085014,11.135021689064843],[-73.48054258722038,11.125529076171006],[-73.4837649557706,11.12251194772358],[-73.47122883796408,11.115223825022781],[-73.46958495281638,11.112451463837942],[-73.4649042116369,11.112080199174045],[-73.46261282936388,11.104402203170366],[-73.46723057432536,11.1013803305176],[-73.46680757488895,11.099176330891623],[-73.47016133108468,11.093606836427],[-73.46960883222323,11.090291203566949],[-73.47147607657399,11.086322950909391],[-73.46853633534079,11.079177076207088],[-73.4669758332272,11.068244445297637],[-73.46434648623057,11.065697100136788],[-73.4655005848847,11.064052076503287],[-73.4702222045974,11.064051699064862],[-73.47162833440359,11.060187452799198],[-73.4747065790761,11.05908871520586],[-73.47712883168805,11.054656082698727],[-73.4766808153874,11.05080605156553],[-73.4705354486482,11.04775534241304],[-73.46524445950291,11.03724845379611],[-73.46581447582582,11.03200144290986],[-73.46917657783263,11.028693581989955],[-73.46986770251806,11.02248721215426],[-73.47339245682298,11.017929446989001],[-73.47536482034047,11.010475435481453],[-73.4689582250877,10.998861473744682],[-73.47036170665439,10.996102081219988],[-73.47511496228742,10.995835282661801],[-73.47509173799847,10.981645254449916],[-73.47844325938865,10.973882037585383],[-73.47851464872605,10.961389872326777],[-73.49364801789511,10.934264005668354],[-73.49371940106192,10.919630329979611],[-73.5005008718403,10.912706085668617],[-73.49885903637858,10.907994760665474],[-73.49985841305482,10.89800102681312],[-73.50407005383357,10.893860769201126],[-73.50856724064914,10.88550885435535],[-73.51213642264241,10.884152573158076],[-73.52191207525874,10.86874319058586],[-73.5342394171771,10.864882428683416],[-73.54088889352886,10.860703290802064],[-73.55075002823042,10.859601151120899],[-73.56460152299002,10.855503798073926],[-73.5661416290315,10.853869366369906],[-73.56611113262551,10.84568258134027],[-73.57449068069332,10.842354422050335],[-73.58642713423603,10.841035864124649],[-73.59818190106654,10.853166129716897],[-73.61098444204976,10.860406815506508],[-73.61470649482436,10.881157526399988],[-73.62434224840484,10.887819941587054],[-73.63303947619602,10.900016725812975],[-73.63634354113464,10.91056693962787],[-73.63567028152414,10.91696304476693],[-73.64030489911357,10.928753664132046],[-73.639976326127,10.934058670948843],[-73.63656902612843,10.940390919063475],[-73.63774173239301,10.947284636115228],[-73.6439052953657,10.956334855203636],[-73.6425533747647,10.966960792212717],[-73.65243191482745,10.976505468980633],[-73.66182453842589,10.981124533433842],[-73.66488144805834,10.989786975185268],[-73.66336648640794,10.99597631092746],[-73.6610982965422,10.997714551562467],[-73.65817589896358,11.005438734919665],[-73.65127061810415,11.010819238673264],[-73.64842360639068,11.0163850749679],[-73.64809199229961,11.019458271016106],[-73.65334197332783,11.0282696929508],[-73.6528660759505,11.030682760542618],[-73.6495834046732,11.030531195883327],[-73.64949333676276,11.033074734778381],[-73.64413970724058,11.036371253005768],[-73.6434871614909,11.039438304109922],[-73.63529020927848,11.041579039094358],[-73.64091305214191,11.054251367941845],[-73.64516484640194,11.054440585938664],[-73.64482676032208,11.058734153476905],[-73.64990592013328,11.060743848429354],[-73.6457169739956,11.067116793042885],[-73.64083465911091,11.070758547082505],[-73.64447289690554,11.071743543047035],[-73.64730984633746,11.075386280277712],[-73.64268574971504,11.075326489714996],[-73.64075526643381,11.077948706519635],[-73.64207564058898,11.079779006129797],[-73.64776829618751,11.081044941737161],[-73.6483998421694,11.08608118258519],[-73.65072312467242,11.088269962290326],[-73.64567697683765,11.091079846200444],[-73.64821578489716,11.097264691762689],[-73.63901014140458,11.10338165703331],[-73.63690175299428,11.108879449514006],[-73.64242513518172,11.116588597041527],[-73.64307591406714,11.123670205399264],[-73.64596998113967,11.12268111623348],[-73.64930244651839,11.123897292706488],[-73.64813540182985,11.12578950969845],[-73.65174786068434,11.128837820523074],[-73.64991994808923,11.131941604508654],[-73.65349783687691,11.137567403115895],[-73.64538390362998,11.137461963075111],[-73.64471453975978,11.144356317761208],[-73.63430884988674,11.141701307009953],[-73.63442851534444,11.146142431366968],[-73.63027859448658,11.145452560352965],[-73.62751635111925,11.141691130571246],[-73.62168713378088,11.150564126387962],[-73.61803869280806,11.150775480581558],[-73.6168731475887,11.15260542640749],[-73.61988135738261,11.161461412813367],[-73.61528977085663,11.160988737546461],[-73.61374474577451,11.165365100878091],[-73.60843176852825,11.163710354349007],[-73.61254547689657,11.168189365499984],[-73.61144097899671,11.170422787837936],[-73.60373517493576,11.172863850663589],[-73.59979653010987,11.178852206111912],[-73.59064635052238,11.179116466474],[-73.58862552267965,11.185076162314658],[-73.59140564449172,11.188340763856957],[-73.58680935386968,11.191780823863553],[-73.58420338028617,11.18909048714022],[-73.58294232772391,11.191680630936503],[-73.58194666578203,11.200339266422134],[-73.58363023646962,11.204367125551244],[-73.58083231231751,11.21009268719655],[-73.58122760242713,11.21651170294956],[-73.57898645134361,11.21853855335172],[-73.57421208384255,11.218712409502643],[-73.57523539648997,11.221977570517595],[-73.57875781211658,11.224340696940715],[-73.57262533793278,11.224801517350727],[-73.57746509586605,11.229886784053633],[-73.56787690569519,11.232263757426836],[-73.56796836097459,11.24528254799003],[-73.56637834975982,11.253039457416605],[-73.56839274880838,11.256452124856708],[-73.57331420107312,11.257621064964837],[-73.57207142599128,11.259991920133473],[-73.5653889685164,11.258374698386547],[-73.56639080934093,11.256341307089997],[-73.56484411303973,11.257714976164948],[-73.5626868962355,11.256094186750943],[-73.56454642212515,11.258391309790113],[-73.56093260984034,11.255758901120089],[-73.56147561309206,11.25745145833838],[-73.53202149655323,11.251466100799973],[-73.52687451712853,11.254064560582492],[-73.51464820528946,11.253850578718243],[-73.51285974683469,11.255815588871712],[-73.49980561178745,11.259683130267206],[-73.4909403889393,11.25932215105695],[-73.4856911298777,11.262280987382383],[-73.47818631433819,11.25733930256797],[-73.48402396799048,11.23995052913051],[-73.47626113782036,11.22566690339346],[-73.47737898284726,11.220574474616853],[-73.47116870081624,11.213681061984062],[-73.4650205315711,11.211321156642953]]]}}]}