{"type":"FeatureCollection","features":[{"type":"Feature","properties":{"code":"970001"},"geometry":{"type":"Polygon","coordinates":[[[-70.23025445336845,1.2708941847850497],[-70.22712273996939,1.2661152941938099],[-70.22889680537105,1.26375179753137],[-70.22576646288582,1.2581839022948316],[-70.2291340732308,1.2523406528868009],[-70.22764402457193,1.2518733964835178],[-70.22947458026431,1.2517350246848196],[-70.22823867312161,1.2498022695740474],[-70.2311980061848,1.2496015247934906],[-70.23337770165716,1.2462558953505436],[-70.23115451746446,1.2451507629016305],[-70.23450124117028,1.241250642504042],[-70.23550203401186,1.233343125898159],[-70.23991027391935,1.242916778005565],[-70.24149869824731,1.2416173974474987],[-70.24123605665375,1.2445352811918724],[-70.23702392325106,1.2507020292510447],[-70.23823982718676,1.2619711758086396],[-70.23025445336845,1.2708941847850497]]]}}]}