{"type":"FeatureCollection","features":[{"type":"Feature","properties":{"code":"971007"},"geometry":{"type":"Polygon","coordinates":[[[-69.45950880021769,0.731019201212348],[-69.4681443481972,0.7294054154918967],[-69.47475958049841,0.7304573599790274],[-69.47845954849839,0.7287997523228569],[-69.4829227751136,0.7228678696816928],[-69.4982895431416,0.7158702902199252],[-69.50161535655411,0.7089279237233086],[-69.51141970168828,0.7080464127303685],[-69.52569487054251,0.6981544144687746],[-69.52738124990657,0.6952583398764887],[-69.5262741757582,0.6823462574236601],[-69.53014282067255,0.6740252431618501],[-69.53922222284586,0.6753505805806412],[-69.54451669121215,0.6733700183193605],[-69.55245237685864,0.6733183195423749],[-69.55692288381846,0.6751064242129132],[-69.55902053631735,0.6728985319319918],[-69.56213389201747,0.6727188866781262],[-69.56548364962867,0.6650319092859718],[-69.57842323777663,0.6529748842276604],[-69.58168046538606,0.653471445072114],[-69.58509166935244,0.6495465505227003],[-69.5932469429033,0.6459842416107335],[-69.59603181303453,0.6426446923199478],[-69.59584886030956,0.6406306377996316],[-69.58756392175434,0.6337567388352454],[-69.58615215196943,0.6300021687650883],[-69.59021084174833,0.6280374681728063],[-69.59932048835924,0.6276346118115725],[-69.60296742060694,0.6254869327832466],[-69.60429483753654,0.6179355966748972],[-69.60712540959639,0.6133923232931124],[-69.60480590867644,0.6065219570287468],[-69.6057601171857,0.6046874531455728],[-69.61105449093532,0.6098405497463659],[-69.61481674552795,0.6197308695897163],[-69.61809669348946,0.6239909356129374],[-69.62456659863523,0.6238595520811714],[-69.62552886396321,0.6191911594110024],[-69.62780240584385,0.620795724115851],[-69.63481315965424,0.6311929169967812],[-69.63999381337231,0.6436483524593086],[-69.64731804366147,0.6538630636419498],[-69.66540838458968,0.6551618209638264],[-69.67128296755595,0.657730623549412],[-69.6813543724727,0.6560010681114932],[-69.6826745481385,0.6545832233165925],[-69.68167460479043,0.6483105755027623],[-69.68427694180122,0.6427748355500285],[-69.68569493263493,0.6421353016551166],[-69.68915170174716,0.646807375121],[-69.69083783942727,0.6468550681144052],[-69.6937528784996,0.6435619190646662],[-69.6973988378407,0.6431075017378021],[-69.70309811763741,0.6389020388132849],[-69.70519732102758,0.6324949385952436],[-69.71020997763179,0.6312638733598988],[-69.7112163168639,0.6248563432529295],[-69.7164730444751,0.6155183412651013],[-69.717823472806,0.6098864933589994],[-69.72227929874884,0.6091259416044181],[-69.72667430671493,0.6060382794837551],[-69.73116760498937,0.6060605524634184],[-69.73503594856999,0.6035416139133645],[-69.73729465105356,0.6045939810903747],[-69.74229189336126,0.6129646177037671],[-69.7445735763929,0.6133316976350898],[-69.74638104355068,0.6088666619895093],[-69.75662763747988,0.6032665405066382],[-69.7577190463918,0.5980286827588088],[-69.77634240439488,0.5911830978453736],[-69.78163807089669,0.5835106739432945],[-69.78510204013497,0.5813512665564531],[-69.786017078354,0.5781353494261339],[-69.79025910138165,0.5777220656862596],[-69.79208274079804,0.5723926148476721],[-69.79843043817624,0.5698649900721193],[-69.79956723842713,0.5650410948362605],[-69.80536640981728,0.5683951451665621],[-69.80957722475671,0.5798814987841183],[-69.81381997077938,0.5801569856247397],[-69.82003034022802,0.5847977892958625],[-69.82487542343665,0.5853037315929441],[-69.82966634372002,0.5834659284661825],[-69.83349631611031,0.5788248316889053],[-69.83902054367752,0.5817657288915257],[-69.8507550193371,0.5824550229492615],[-69.85450113663819,0.5792386985557414],[-69.85640782998706,0.572301219217934],[-69.85997108815144,0.5710147332721363],[-69.86535749516514,0.5728524088720519],[-69.86919492067835,0.576482057114788],[-69.87964826857768,0.5716116320540436],[-69.88617860192056,0.5714282041886349],[-69.88850630672641,0.572254614316762],[-69.89518182735651,0.5803414645583871],[-69.89956158454845,0.5746901523491488],[-69.90334560715547,0.5750114635030741],[-69.90645779248803,0.5782280624907798],[-69.91070031636713,0.579560491020743],[-69.9150873796147,0.5853498233013283],[-69.91654517117394,0.5813524214973995],[-69.91357729483877,0.5782739701079436],[-69.91288987151796,0.5749198693839048],[-69.91622376746022,0.5721166785776859],[-69.91717784638575,0.5676600021129161],[-69.92050461624979,0.5638465639929677],[-69.92899618536205,0.5575975065937087],[-69.92885914848176,0.5533705379076537],[-69.93196411311942,0.5528185820638214],[-69.933780306612,0.548591844777377],[-69.9582173031061,0.5569536583823833],[-69.96196352427984,0.5620538148760374],[-69.96315434141718,0.5680727850012772],[-69.9740264423138,0.5712895835068252],[-69.97867994622158,0.5763894294108809],[-69.98311332537804,0.572942940610119],[-69.98827076509156,0.5735403412719506],[-69.9879506798411,0.5700480569542492],[-69.98479922034568,0.5694972375393945],[-69.98479148440106,0.566188451021219],[-69.98616522032478,0.5654074682275905],[-69.99448070259433,0.5731265155428105],[-69.9999130521922,0.5715642249676876],[-70.00059268711783,0.5687615802644359],[-69.99598406649847,0.5680721483954017],[-69.99205522684349,0.5611799554954473],[-69.99606808613845,0.5584687568156141],[-69.99492320232929,0.5538742669964449],[-69.99651850488084,0.5468433156034394],[-70.05345857254338,0.6107887346678353],[-70.1408762092604,0.8421436854866329],[-70.13147812360376,0.8560640540132454],[-70.11971319884651,0.8672750071793303],[-70.09632062583944,0.8743129807778587],[-70.08843959574216,0.8720649103330516],[-70.07622474383805,0.8641371786610534],[-70.07230333056657,0.8646568074711354],[-70.0604546113982,0.8613807099984001],[-70.0499172520864,0.8629312321057796],[-70.02845618874619,0.8567835565131077],[-70.02234409212241,0.8613590314585622],[-70.01595856040086,0.8608058168011326],[-70.00839706430884,0.8580085827339303],[-70.00479648807925,0.8541607987476709],[-70.00228613085358,0.855303717203185],[-70.00005829193003,0.8593769337326762],[-69.98360895445353,0.8426099761824162],[-69.9762228746597,0.8394467039962024],[-69.97211829166184,0.8399480368139507],[-69.97225590652681,0.8432901798367425],[-69.96883790558383,0.8448909948401706],[-69.96764764689073,0.8497888124674091],[-69.97543789431,0.8634826356759504],[-69.97488822880769,0.8673280501306522],[-69.97844394026083,0.8730993126761746],[-69.98067115080602,0.8829440766297694],[-69.98062550029948,0.8908187725495509],[-69.97651288002334,0.8974096719007321],[-69.97746698465994,0.9045982279959617],[-69.97578107220875,0.9056956337562383],[-69.97414047293495,0.911280116742148],[-69.97108893074397,0.9115534140286172],[-69.96142164100206,0.9052743888427699],[-69.95768343448083,0.9056387907097587],[-69.9566837554425,0.9071028290288723],[-69.95777487124832,0.9128724285828298],[-69.95535625418063,0.9141070604567858],[-69.95608148819065,0.927247291569472],[-69.95293027757833,0.936172830514522],[-69.9542241827084,0.9407774011272636],[-69.95297174232377,0.9540911592892485],[-69.94919660443168,0.9674022794961843],[-69.9460500824888,0.9720921563305751],[-69.94148032156994,0.9737151496968863],[-69.93358165368352,0.9735136634092783],[-69.9216294834822,0.980587093592078],[-69.91647423949343,0.9945660545458281],[-69.91380742633584,0.9962865195803374],[-69.91076268112147,0.9957081954987643],[-69.89940571174344,0.9838156615938374],[-69.89227003610563,0.9828488731756693],[-69.88836604670729,0.9842807973486174],[-69.882266814871,0.9919359794118918],[-69.88239735507989,1.0011312150661524],[-69.87343661049061,1.0137632618770454],[-69.84649169520804,1.025700732549467],[-69.84543996463691,1.0291473067109678],[-69.84828524548169,1.0363346039925432],[-69.84780605605982,1.0387284571928035],[-69.83688669308731,1.05662471867646],[-69.83618294941215,1.0707768374686566],[-69.83031493202293,1.070288945366201],[-69.81396360923219,1.0596507657774055],[-69.80508321994222,1.057489781788206],[-69.79760675239231,1.0589921635296946],[-69.78999196343739,1.0674066837853502],[-69.7839184519201,1.0803547833235712],[-69.76740805066902,1.094298632221296],[-69.73850750051497,1.1074496414116197],[-69.72866520893723,1.1066601030046854],[-69.71604598269073,1.102755510939005],[-69.70550808961724,1.1107015231768287],[-69.70809049335514,1.1003498800150169],[-69.71445826078906,1.0993817505078027],[-69.72475618325586,1.09379117194311],[-69.72726041610633,1.090128301921709],[-69.71816497948566,1.0791322068528189],[-69.71748489513067,1.0736359220688882],[-69.7190800557571,1.0676826437095315],[-69.72977647193198,1.059443350518677],[-69.7281860010034,1.054633649846437],[-69.73091775310695,1.050741819723953],[-69.73091912196395,1.0475358116373172],[-69.71795767015652,1.0326451980972706],[-69.71568535212248,1.0262322388422263],[-69.714326488506,1.0115757080753838],[-69.7156923609582,1.0095152841672643],[-69.72251753231609,1.009289152283145],[-69.72456571570137,1.0076870167595189],[-69.72880726050323,0.9911281244437191],[-69.73432412133667,0.9886707782876556],[-69.7350136323958,0.9842887297257903],[-69.73232498848887,0.9822259136603293],[-69.72531714208549,0.9811516704825181],[-69.72393235143312,0.9788817466626369],[-69.72427198943274,0.9739957304133213],[-69.72242940301976,0.9715122834145973],[-69.71400737513375,0.9676395442705825],[-69.70965218229134,0.9678961540487876],[-69.708860674417,0.9652338156445808],[-69.70355842691151,0.9635257968214432],[-69.69846638585773,0.9587545742976431],[-69.69396866630888,0.9430673014146009],[-69.68870854483737,0.9362458766728423],[-69.68217888203907,0.9089493338078114],[-69.6760816165849,0.8993788616446068],[-69.65436915252786,0.8855632379317058],[-69.63364798364574,0.8838027469428198],[-69.62444575869614,0.8695047332948889],[-69.61122485243851,0.8637313048494661],[-69.60452818188804,0.8565936124358586],[-69.60027147990036,0.8480739699281798],[-69.59964974731696,0.8349834814947599],[-69.59796080815943,0.8307601689219268],[-69.59383999531019,0.8295252161738631],[-69.58002182208827,0.830606477443439],[-69.57358631217409,0.8259347937572556],[-69.57087015948662,0.8205229502747216],[-69.57417221587701,0.8152499033377012],[-69.56756862040288,0.813257573637145],[-69.57294350063285,0.8044819559003145],[-69.5704483242472,0.7990551022992349],[-69.5506180169574,0.7873339130885029],[-69.54837635782332,0.7883927368276886],[-69.5443370500721,0.7871384637584811],[-69.53887429251427,0.778974381597493],[-69.53443688906225,0.7774736237666957],[-69.52785838450029,0.7779573969568219],[-69.52401983592785,0.7810651363323586],[-69.51763842003328,0.7819131992893062],[-69.51339247349745,0.7852614224643162],[-69.51122142002754,0.7897231136148548],[-69.50698694885335,0.7912903952214947],[-69.50427061618848,0.7845054647625034],[-69.50525607495211,0.7771168827680413],[-69.4994972545042,0.7759282778105216],[-69.49651205611167,0.7724056163861519],[-69.49936761315405,0.7661298143391377],[-69.49706063969245,0.7599297725103042],[-69.50059834414554,0.7575236911284833],[-69.50173166414703,0.7547714462793351],[-69.49856997164852,0.7459989992307214],[-69.4856309964523,0.7446192078374452],[-69.48338616251613,0.7369833296402817],[-69.48144497109138,0.7351325280284868],[-69.47000344934014,0.7346307375538572],[-69.46381112083014,0.7363363467362092],[-69.45950880021769,0.731019201212348]]]}}]}