{"type":"FeatureCollection","features":[{"type":"Feature","properties":{"code":"972008"},"geometry":{"type":"Polygon","coordinates":[[[-70.04109094858848,0.2568087380237216],[-70.04035068080566,-0.10563530044015579],[-70.06762643370519,-0.1352881562966104],[-70.09705388992865,-0.15914164124512808],[-70.09823628926398,-0.16170006993098696],[-70.09727479115412,-0.16375483740529262],[-70.08962309859629,-0.17453155437203804],[-70.09966306916749,-0.19970241556575274],[-70.10198244050366,-0.20180474850656083],[-70.10812470443182,-0.20495850657101755],[-70.11626484136565,-0.20592077189900237],[-70.1227280863177,-0.21154161649860725],[-70.13610210812595,-0.21657112721879912],[-70.14705882310233,-0.22584765096974024],[-70.15338389268817,-0.22507343224253873],[-70.15802990130692,-0.21941148799453458],[-70.16308055783372,-0.22151444828529065],[-70.17769133113597,-0.22037835354592517],[-70.1840463685084,-0.23417498089708033],[-70.18354311456005,-0.23910792600696595],[-70.17872135642773,-0.24335420678659148],[-70.16729970315754,-0.2451765359672322],[-70.1644763013989,-0.24248056235046533],[-70.1571065748696,-0.24494406270656555],[-70.14859156858074,-0.24512341382586555],[-70.14440371773435,-0.2504661356866791],[-70.14135190814835,-0.2514241103524455],[-70.13765915158734,-0.2604664968226871],[-70.13320294923454,-0.2603731882898046],[-70.1301972128449,-0.2681827714568499],[-70.12941075050952,-0.27877912531687343],[-70.1264508703149,-0.2829803932243635],[-70.12785448969288,-0.29284696530157817],[-70.13417227893416,-0.29988357827062373],[-70.13653693053755,-0.30029575746328874],[-70.13876489904487,-0.3038591709224647],[-70.14481527574776,-0.3069678060714409],[-70.14650138565986,-0.3096178525306641],[-70.14982010796126,-0.31112635350513074],[-70.15236906777687,-0.3100313758976654],[-70.15450445177487,-0.3125443011443281],[-70.15546663688428,-0.3098041404946912],[-70.16206596432198,-0.30697498254335187],[-70.1701605278825,-0.31136313388310555],[-70.17447933340014,-0.3170745554722316],[-70.17898062678671,-0.3170308518073739],[-70.18284858984367,-0.3240211252134486],[-70.17815665612426,-0.33032241515138594],[-70.17869887570276,-0.3332002297467511],[-70.1924394087136,-0.3328859181726216],[-70.20267850838212,-0.3399703094958113],[-70.20795783704608,-0.33618114159088464],[-70.20618778462716,-0.32435039651244324],[-70.2079732348875,-0.3162660340732373],[-70.21889136475744,-0.31485462527160735],[-70.22312557265036,-0.31672903272453823],[-70.2308159274478,-0.3159099481924841],[-70.23354761681634,-0.31824060771373297],[-70.23481445848154,-0.32203247116649436],[-70.23189947905888,-0.3245434567705274],[-70.23076299659664,-0.3315773824192547],[-70.22684111949758,-0.3361891716700711],[-70.23275473494277,-0.33801868760701836],[-70.22615403144903,-0.3454611980418463],[-70.22623830100054,-0.3476538220651264],[-70.23106071322229,-0.3549185302151159],[-70.24129991470664,-0.35442030843603334],[-70.23829315398825,-0.3591237956786699],[-70.24288586768722,-0.3663885727343086],[-70.24548018490322,-0.3648822458872587],[-70.24644184550698,-0.35857906978577603],[-70.25053095147342,-0.3646559936753988],[-70.24433606831224,-0.373286322309184],[-70.23664526614232,-0.3745622708328824],[-70.23973475477692,-0.3782631438622275],[-70.2344559084525,-0.38008825600832097],[-70.22653628502127,-0.3770701803653651],[-70.22407971225402,-0.3788048975562788],[-70.22430857465304,-0.38063216428940905],[-70.22521634075503,-0.38255079888438104],[-70.22894669100384,-0.3835117467775149],[-70.22517037143132,-0.3851544996099392],[-70.2130701702992,-0.3735015876696366],[-70.21158150592402,-0.362447335204763],[-70.20898805157128,-0.3595225413551475],[-70.20534876990752,-0.3606175518727923],[-70.19915282745052,-0.369841515011899],[-70.18659535403509,-0.36709566913202707],[-70.18158221509134,-0.36924028134478704],[-70.183131443418,-0.37216427300927535],[-70.18795265236201,-0.3734453740299841],[-70.18599253656652,-0.37760110353121945],[-70.18753351884106,-0.38134731750585615],[-70.19436216427778,-0.38550675042858984],[-70.1903030692925,-0.3909407630180226],[-70.19089783199928,-0.3936357123060361],[-70.20604289764509,-0.39720509484561717],[-70.2106432896959,-0.39410084703246184],[-70.21309227050051,-0.40392256153228345],[-70.2190061790518,-0.4047475914905476],[-70.22255316108487,-0.4095906836344625],[-70.22309489009626,-0.4176758390028681],[-70.23210598928819,-0.41758860547997756],[-70.23205989243763,-0.4202377222271707],[-70.22445357270686,-0.4251675840663438],[-70.22545226855414,-0.4287761656925113],[-70.23131927704128,-0.42941834474163443],[-70.24146732560831,-0.4346301119311988],[-70.25540684887676,-0.4170958200480186],[-70.26687402204135,-0.412715992922017],[-70.27729563528987,-0.4138165086924346],[-70.284346095209,-0.4170167965817768],[-70.29125068495506,-0.43460594250359463],[-70.29520313353646,-0.44008874954835164],[-70.2992996154926,-0.4421462495943729],[-70.30731088446515,-0.44219549450752993],[-70.31932737654688,-0.4367189486208076],[-70.32533178392606,-0.4395535449762633],[-70.33433543925099,-0.4475969085544307],[-70.35289748253956,-0.4529036997190019],[-70.35558314087785,-0.45779234775272926],[-70.35503452027314,-0.4635019767665085],[-70.34478733910328,-0.4698467708514613],[-70.33113011096486,-0.47267307693175553],[-70.31625274993513,-0.46736821718224064],[-70.31029381308502,-0.4678221346860596],[-70.30796731464221,-0.47686535728007584],[-70.31068264868941,-0.4903872392976609],[-70.32365317855897,-0.4988436007087671],[-70.35041091627465,-0.4952011833237293],[-70.36370150362671,-0.497490722627731],[-70.36898070373536,-0.49694459291083604],[-70.37189501055667,-0.49347459082872547],[-70.37918913627647,-0.4676233943399666],[-70.38356842141326,-0.4631486234575277],[-70.38861937001775,-0.46210015819139016],[-70.40281051923199,-0.464207521244532],[-70.4305212251553,-0.4767809159786225],[-70.44906913558674,-0.4975724858649073],[-70.45676788350352,-0.49383006375779814],[-70.45913305961261,-0.4907706385548636],[-70.46041441260178,-0.48355376018110974],[-70.45982649212306,-0.47843743759949575],[-70.45714121019472,-0.47455363652778715],[-70.44700141693579,-0.46600752499495],[-70.4427748935654,-0.45814857144483767],[-70.4492523145691,-0.43741274108617745],[-70.46702152637772,-0.41316411926601404],[-70.4741245551362,-0.40010250538477976],[-70.48839949259087,-0.39021232438113884],[-70.50400213802436,-0.37602433557077575],[-70.51010566155128,-0.36444568335093663],[-70.51660640557441,-0.3570624276603098],[-70.51965059645823,-0.35645041488714924],[-70.52587658692028,-0.36134581773131913],[-70.52693677745958,-0.36715849154330726],[-70.52496111778379,-0.37511195998939684],[-70.52587636991893,-0.3760299189851821],[-70.52973760490488,-0.3754033012998548],[-70.53982292362048,-0.364672640045967],[-70.54836122207547,-0.36370679985179777],[-70.55489961018014,-0.3670065227061059],[-70.55896627964455,-0.3714530854671807],[-70.56353646325323,-0.3917653445753899],[-70.57034203249668,-0.394101561799971],[-70.5757740365379,-0.3925411481324659],[-70.58354076141984,-0.38813685950111676],[-70.59555042670019,-0.3680027451491128],[-70.60153216617778,-0.347320578921142],[-70.61185491319014,-0.3381465127276897],[-70.62514552008258,-0.3194792988502968],[-70.63112704153042,-0.31745978947088815],[-70.6368879219487,-0.3185128117657996],[-70.65251291749496,-0.3316680437411037],[-70.66142406647225,-0.3475768585692549],[-70.66636061421627,-0.35041835680243594],[-70.67576830655446,-0.3505989327967427],[-70.68092535751674,-0.3450028613205518],[-70.68763925036563,-0.3300977642244902],[-70.69673402466935,-0.32110725753710767],[-70.70883468448682,-0.3139955518091142],[-70.72664991601283,-0.2961063372135868],[-70.73399718752825,-0.2829435574986974],[-70.73733944162285,-0.28087903627556443],[-70.74245079271338,-0.2817483283429283],[-70.75259078343322,-0.28747685293114955],[-70.76492734533878,-0.2874728461191012],[-70.77296975452231,-0.2906342660803034],[-70.78735831636334,-0.30511977302694504],[-70.78832020219602,-0.3087879467263974],[-70.78612997547225,-0.31144817888031184],[-70.76762839329092,-0.3121423498125182],[-70.765118846478,-0.3181042794303153],[-70.76941438759741,-0.3256229162088289],[-70.82057770494515,-0.3430769186130078],[-70.82190602484724,-0.34679111202984814],[-70.82103638825163,-0.35573305668992816],[-70.82501126407902,-0.36027178127045545],[-70.83817171745699,-0.3604045696546905],[-70.84242162452495,-0.35769791977611476],[-70.84401618556939,-0.3535242346969767],[-70.84406268145568,-0.3420606189151272],[-70.85643726590956,-0.32903341157833665],[-70.85611697394216,-0.3205960485859123],[-70.87813638695337,-0.3040342673750729],[-70.88178257872244,-0.2832605677060087],[-70.89302107974987,-0.2743145133895837],[-70.89279253513956,-0.26936204227007465],[-70.88739889097587,-0.25519446598678996],[-70.88707784001792,-0.24753682800280785],[-70.8887644682651,-0.2359805937730357],[-70.89899513984716,-0.21956033756561055],[-70.89739315961839,-0.20777611099919113],[-70.90026946857392,-0.20493207251297463],[-70.911232818033,-0.20144312960502475],[-70.92932338213325,-0.19928142364915402],[-70.93174145618326,-0.19501610125627167],[-70.9315590876136,-0.18006710303444606],[-70.94996883399176,-0.16795445054873426],[-70.95936074899328,-0.15606947981007124],[-70.96137521900437,-0.15070332282959953],[-70.9616193578886,-0.14464921493726024],[-70.95594267914464,-0.13579614108056148],[-70.93808928314519,-0.12152568454990842],[-70.93007076982354,-0.11973657097729529],[-70.9248142561284,-0.12358973166107035],[-70.92180775252069,-0.12900471909233602],[-70.91728381488667,-0.12909757099674835],[-70.91100412738388,-0.11997031127918945],[-70.90837958527067,-0.10864282940508474],[-70.91452206311487,-0.10086518863420224],[-70.93134562305602,-0.09678584464421647],[-70.94124069121847,-0.08991014487696702],[-70.94246860222057,-0.0872971912540379],[-70.94010339114448,-0.08069638388764133],[-70.9446592187241,-0.07478320758741575],[-70.94301817104935,-0.06909899755891047],[-70.94384260656784,-0.06304811280540434],[-70.9414772484244,-0.056401337143711316],[-70.94393413898041,-0.04883800631023405],[-70.95036529652589,-0.04943398257921672],[-70.95611068345761,-0.041045552881769254],[-70.97430709280502,-0.035545108047870144],[-70.9810525197584,-0.03146559230793855],[-70.98565983939801,-0.02481909226884227],[-70.98575188191813,-0.018859627827737313],[-70.98319555639722,-0.010608398533008767],[-70.98525641533655,-0.005245240490864944],[-70.98710626049677,-0.00445507164869241],[-70.98467840492998,-0.003610601041486916],[-70.97210540100406,-0.00660596250298795],[-70.97201635845079,0.0014175397932945089],[-70.97382316946226,0.007401716679680703],[-70.97814410591275,0.010839993366971612],[-70.99540645702518,0.011134023026158957],[-71.00040161570831,0.020394658368616092],[-70.9941699893813,0.028853351258874227],[-71.00964575483277,0.0331144518952442],[-70.99757475324066,0.03833572189370216],[-71.00744613945727,0.042971229085878804],[-71.00625392158122,0.04842729456822781],[-71.00167539730364,0.05532437976921756],[-70.99778997746341,0.05711099731183822],[-70.98605922785106,0.05837149862895785],[-70.98292295022412,0.06081791449787488],[-70.98314746848195,0.06943196288659692],[-70.99099179449411,0.0660983754770541],[-70.99560425326104,0.07268858371492115],[-70.98641839597411,0.0822340174165106],[-70.98676589230297,0.09297294323448568],[-70.97132442746636,0.09183727015653176],[-70.96559528684111,0.09675132791954866],[-70.96134375894775,0.10457075842373342],[-70.96116938034805,0.10976316723980517],[-70.96572532311319,0.12582492381181964],[-70.95802591802163,0.14211638404884752],[-70.96734495552937,0.15567677198276897],[-70.96711344591932,0.16440228297170734],[-70.9639866114515,0.17143079901279634],[-70.95875845191665,0.17659797087787865],[-70.95282774787057,0.17966286225276917],[-70.93762722860413,0.17616179812125665],[-70.93368054752835,0.17735339276117656],[-70.93001500972707,0.18500734789250828],[-70.92998136628694,0.19115415445128292],[-70.94394623654978,0.19319942220204211],[-70.93829717560124,0.20179419037884827],[-70.93258346778441,0.20452336829077922],[-70.9230008188618,0.2035944625527577],[-70.91144126790488,0.19854783443531687],[-70.90509442619094,0.19378830118915857],[-70.89831841952764,0.1830964975789584],[-70.89566165733879,0.1820057694959587],[-70.89189006963028,0.19816814168490282],[-70.8894679085497,0.20252029033747476],[-70.88453115306027,0.20433880708168317],[-70.86846235782764,0.20534294853212032],[-70.86142620662929,0.21130015348501274],[-70.85674218780349,0.2208846309783894],[-70.85356678308091,0.23326197680046334],[-70.855547070748,0.25172171474099514],[-70.8546600349618,0.25714665338210807],[-70.8508375619744,0.26070008169290304],[-70.83410872364612,0.2690475176714813],[-70.8352749013576,0.2723773800622098],[-70.84653518274064,0.28134653833978973],[-70.85006645531428,0.28929504352225877],[-70.85042996243624,0.2950810827298369],[-70.84740941030373,0.2997300707465911],[-70.84375292691033,0.3020137684970905],[-70.83530335630519,0.29696826446729574],[-70.83778332511133,0.30923201572784365],[-70.82819068075588,0.3132251700641291],[-70.82587201184595,0.32774612742434783],[-70.81620382735906,0.33023364294166413],[-70.82766535540264,0.33629086084420123],[-70.83004407609968,0.33909900360112033],[-70.82569400901485,0.356661603364671],[-70.8349082410308,0.3679389661494952],[-70.83639484852097,0.3750557400422849],[-70.82642943797555,0.4032005422967586],[-70.82529275908081,0.41161858188269207],[-70.82911337470108,0.4185312644429473],[-70.84372225155533,0.4271480865411377],[-70.84107161888386,0.43596141932198407],[-70.84134546844399,0.4430205973483794],[-70.83542541494865,0.44687110362201565],[-70.83296127798667,0.45182185210035186],[-70.8202885439328,0.45392999059913564],[-70.814314017951,0.4569095932359346],[-70.80660875690774,0.45457153201385836],[-70.80145800309901,0.4557637797147436],[-70.78313147520419,0.4713481764641756],[-70.77856957158616,0.47208181799180693],[-70.77022994765696,0.47712357334859234],[-70.75609309917928,0.47845284044626624],[-70.74779940652138,0.4815697041638032],[-70.74219149664333,0.49408337724082685],[-70.74661656906954,0.510814930657375],[-70.74606742293065,0.5169572110405625],[-70.72441481319976,0.550510695345281],[-70.70253266126934,0.5707701449586011],[-70.68042208711336,0.586812542128655],[-70.65635077495403,0.6015715376520347],[-70.62416121420301,0.614404408433586],[-70.61882850423012,0.6118829275736175],[-70.61973595048647,0.6056486746044243],[-70.6152730776555,0.5942345361636399],[-70.6175001236499,0.5836461589037754],[-70.61486063312469,0.5741577050314959],[-70.61512805491907,0.5637525736027555],[-70.61458603177311,0.5610475455780488],[-70.61052724017839,0.5574721291662286],[-70.6080623092588,0.5461960437069706],[-70.60427827842426,0.5422998437322804],[-70.6052315479655,0.5354698705762644],[-70.6033175907271,0.5286856363728702],[-70.6070099503093,0.5139716280105517],[-70.61129745106507,0.5073250672933227],[-70.61384591105764,0.4845434991856905],[-70.61986523291017,0.47060945648740926],[-70.62364239683404,0.45011990314492323],[-70.62223036788157,0.4448485613655748],[-70.63162276727951,0.43128070282517683],[-70.63453761608997,0.4299973515721831],[-70.63152352977556,0.42009602945074676],[-70.63253046241897,0.41665826184248544],[-70.62760208256543,0.40877427702986324],[-70.62892225103212,0.40400627661648514],[-70.61985020839342,0.3982763996263543],[-70.61807269153866,0.3952515938555621],[-70.6199420174571,0.39043814965253887],[-70.6193473215991,0.38379175348615036],[-70.62377264496524,0.38053705995912424],[-70.6244968608172,0.37453265257994417],[-70.61784409550626,0.3730196727382804],[-70.61451735135324,0.36747293050746066],[-70.60699455349635,0.3667850485012991],[-70.60311864469253,0.3611930619987902],[-70.59741215345684,0.35926757591971636],[-70.59385643274766,0.36050512034290705],[-70.5887066868126,0.35358356540905334],[-70.58332798386186,0.35046616690141263],[-70.58141295807167,0.3463402684038783],[-70.56595482938093,0.3282803004685775],[-70.5591113897986,0.3282344093065035],[-70.54530097617544,0.3324509444431669],[-70.36268627453751,0.33681376215838554],[-70.36770702087051,0.3288171598046574],[-70.36815722466844,0.32344097242423686],[-70.36499864835076,0.31673176927324675],[-70.3590164625291,0.3127808304454902],[-70.35535444200121,0.30689955128997326],[-70.3511511758299,0.29453808050664065],[-70.34934963764323,0.2766165450480571],[-70.33856966565588,0.26467037169510377],[-70.3296502274319,0.2470257197020942],[-70.32910139908182,0.24229270176095952],[-70.31435274454793,0.2422030729954372],[-70.30375515449998,0.23958539779295052],[-70.29562992586887,0.24298705369903928],[-70.2838498439258,0.24275922488476454],[-70.27937109914143,0.24037006755304446],[-70.26726285044657,0.2283786499283451],[-70.258313651153,0.23086132250983837],[-70.25055413873844,0.23003553356096518],[-70.24343566174485,0.2329314446309354],[-70.2400939321559,0.23182911777325899],[-70.23854456601794,0.22737209575171846],[-70.23689665966003,0.22686661831068022],[-70.23205997779831,0.2314628647096697],[-70.20242800035345,0.2330756240445453],[-70.18855603958775,0.2385918811821739],[-70.18558844813111,0.23840859935558],[-70.18129232902703,0.2338597086207983],[-70.17598964957568,0.23133330666337315],[-70.16275222447427,0.23271393829423914],[-70.12372646951849,0.24558587549330468],[-70.09947262835254,0.23263102937210078],[-70.09147673048187,0.2332754565965729],[-70.08631903160085,0.231116688901011],[-70.08284750536694,0.23176044455249212],[-70.07900939799634,0.22955556869351312],[-70.07225717303788,0.2336919110247777],[-70.06810684491677,0.23461116174439667],[-70.06563519518221,0.2330035127404244],[-70.06203448011286,0.23525524546903398],[-70.05331309317847,0.23594590015625272],[-70.05135249401496,0.2411843358888177],[-70.04724756648886,0.2440799970472085],[-70.05223029952953,0.2533152216319081],[-70.05104744356572,0.25699123514868916],[-70.04109094858848,0.2568087380237216]]]}}]}