{"type":"FeatureCollection","features":[{"type":"Feature","properties":{"code":"972048"},"geometry":{"type":"Polygon","coordinates":[[[-69.42879859643705,-1.0765150069275933],[-69.43922831586951,-1.0746778064681735],[-69.44838348443164,-1.0763208174396937],[-69.4554946389145,-1.0810318544788515],[-69.45895777408589,-1.085699109691575],[-69.46324556794781,-1.092745958749049],[-69.46471841076328,-1.103914398158281],[-69.45644079060509,-1.1265324942991128],[-69.45485320034402,-1.1358718486888506],[-69.45541060179096,-1.144339929202431],[-69.4631617293137,-1.1505606458112538],[-69.47965011675262,-1.1505967153472625],[-69.48211372818048,-1.1515106058244555],[-69.48389209555722,-1.154576356977259],[-69.48302946471205,-1.1598410550179779],[-69.46572595635848,-1.1674042572961412],[-69.4616745818912,-1.1763332847181687],[-69.4607740282566,-1.1915314200548437],[-69.46246794610431,-1.2014638227376508],[-69.46671793956148,-1.2104789554811077],[-69.47419430426709,-1.2174777433627924],[-69.4880874344936,-1.2220008777831595],[-69.50025686214855,-1.2212150006315596],[-69.50835980237338,-1.2173647113593233],[-69.5340788450269,-1.1921265715129152],[-69.53708505552856,-1.191346373420913],[-69.54669871713531,-1.193537478434564],[-69.55384743033892,-1.1921136882134533],[-69.55780746059855,-1.1886778077972622],[-69.56307138525045,-1.1779064253618685],[-69.56640609880458,-1.174771432259604],[-69.57047275078543,-1.1585057561049439],[-69.57364594024284,-1.1541028712976527],[-69.58595328306802,-1.1496038867645098],[-69.59271267729929,-1.1530864954950175],[-69.60697232798435,-1.1668380071297406],[-69.6220408034589,-1.1684382102098994],[-69.625222247196,-1.1703172189145903],[-69.62948719009358,-1.1802660108573946],[-69.62635984860367,-1.203239666316449],[-69.6297703285465,-1.2198378009134672],[-69.63789486092207,-1.228868970161102],[-69.64788233155952,-1.231341784092649],[-69.65995309763832,-1.2267984942557746],[-69.66444639488435,-1.2222576325717114],[-69.66776500611388,-1.2184045675331276],[-69.67084793842741,-1.2065274376402044],[-69.6722515228384,-1.1880015317648827],[-69.66893305764768,-1.1488425935028772],[-69.6693831586013,-1.1386167473731348],[-69.6723274784606,-1.1264183258666662],[-69.67096934503832,-1.1226126236913956],[-69.66633882887771,-1.1198631597507642],[-69.66057100544396,-1.119131404386735],[-69.65239990930496,-1.120922808300861],[-69.64985909372564,-1.1247295348048851],[-69.64854631667532,-1.1324334527022302],[-69.64454802218336,-1.1359659151838173],[-69.64191600020774,-1.1356456674394622],[-69.64023786689575,-1.1325282936144276],[-69.63914662973372,-1.1248250215789994],[-69.64173297549178,-1.119000777788699],[-69.65085106767265,-1.1075798660255032],[-69.67336565313087,-1.085286068664118],[-69.69060837230404,-1.0580869954103491],[-69.70322828657856,-1.0467561340740872],[-69.71988313566669,-1.0409252630001902],[-69.72919159975692,-1.0444983705585855],[-69.73467745819062,-1.0397270781006682],[-69.73758393959275,-1.0318844788434376],[-69.739720437394,-1.030324573226494],[-69.74361968670081,-1.0303228588128377],[-69.749067176001,-1.0348602988686366],[-69.76473061061489,-1.0405858070349154],[-69.76537154010634,-1.0436121122749569],[-69.76192223542989,-1.0477865296051618],[-69.75929085108862,-1.0605815660433109],[-69.75034848476713,-1.0752136229635312],[-69.74395506694839,-1.0792973522324587],[-69.73310536861516,-1.078980548742095],[-69.72761229977101,-1.083155528630357],[-69.72593395151455,-1.0868708235091162],[-69.72797800056088,-1.0943903149233734],[-69.73578348024228,-1.0997064618294985],[-69.7428251161246,-1.101262929363088],[-69.74967751035598,-1.1020397839884595],[-69.7581229527928,-1.1001564331994018],[-69.76701889419058,-1.097309601463337],[-69.77354994332944,-1.0919415747743528],[-69.78694005100715,-1.0740521020397864],[-69.80327477062178,-1.0416697371128407],[-69.81152985246223,-1.033274173109703],[-69.82088472502113,-1.0307021823523428],[-69.83604386181747,-1.0345016017722628],[-69.841499011986,-1.0389014033088984],[-69.84780887296387,-1.0473824936203755],[-69.85798713100144,-1.0732418837106366],[-69.86225190214913,-1.0783302624806197],[-69.8706978886321,-1.0833253080351142],[-69.8825462828126,-1.086163167638631],[-69.90433702985729,-1.0855114415576281],[-69.91078443782294,-1.0878471425041312],[-69.91478169255959,-1.0922020854349626],[-69.9259509927752,-1.0990300325591988],[-69.93725918415299,-1.101134164245991],[-69.95414260253403,-1.0950272550862792],[-69.96131510567,-1.0850722256396352],[-69.96240636031553,-1.0807607014950236],[-69.95953700568833,-1.0678296175382798],[-69.94809236467091,-1.0518300035769812],[-69.9337412556211,-1.0407388022578061],[-69.93160478661622,-1.03505323057135],[-69.93123889556443,-1.0295960996225517],[-69.93332975931429,-1.0255137063005009],[-69.94385818248907,-1.0128051269110756],[-69.9458495588234,-1.0023025968336015],[-69.94426315024276,-0.9962955782388576],[-69.9239218324912,-0.9848867301064388],[-69.91029600373133,-0.975079515617665],[-69.90729700466864,-0.9746682167718177],[-69.8990421233745,-0.9811383029234548],[-69.89604333102875,-0.9814606980557983],[-69.89290826902078,-0.9788481835778384],[-69.89540292707142,-0.971326419305683],[-69.90189592486553,-0.9620594168756043],[-69.93030085005779,-0.9463601101866743],[-69.9362363250487,-0.9441188922543802],[-69.94324060275653,-0.9447437399901446],[-69.93954140506008,-0.9360594592618554],[-69.93673140596434,-0.9336300744009804],[-69.93373209116982,-0.934007271121402],[-69.93239220848847,-0.9316867067918793],[-69.92259373781798,-0.9345542791282355],[-69.9112671609733,-0.9327115898710758],[-69.90888924040456,-0.9274301827247768],[-69.9100986301853,-0.9179623984902037],[-69.91323054824448,-0.9160733357314257],[-69.9139166027083,-0.9135676784880502],[-69.92598856280887,-0.9087209281740911],[-69.944821816674,-0.9147014180940687],[-69.9457111386879,-0.9124768568167951],[-69.94146477357594,-0.9031847285075401],[-69.94808324135732,-0.8977250521634801],[-69.95343642762077,-0.8986265529936759],[-69.95867965898077,-0.8967650555796922],[-69.96874500122891,-0.8990926781102075],[-69.9704854345033,-0.8968391579485342],[-69.97265671011678,-0.8967674477370338],[-69.97947257921209,-0.8982617387212599],[-69.98373348547278,-0.9013517127806949],[-69.9929793873477,-0.9017428058164114],[-70.0044792444155,-0.899193292698726],[-70.01162204715996,-0.9008700797794518],[-70.01413011095883,-0.8984866508725418],[-70.02588740775792,-0.8990007034673226],[-70.03947483550257,-0.8905228722902052],[-70.04503737563891,-0.8813210597460852],[-70.04316835928171,-0.8588823198667228],[-70.04553074625466,-0.8525364520878043],[-70.04436584792563,-0.8470176968633041],[-70.04761350176364,-0.8445326794328594],[-70.04981730598553,-0.8401296033352423],[-70.04939702060892,-0.8363584815111835],[-70.0451120539355,-0.8346787530848587],[-70.0448536032452,-0.8290860405019203],[-70.05251471016584,-0.8172303351235541],[-70.05822558873729,-0.803829390747012],[-70.0631807944855,-0.7981289251560497],[-70.0651749928661,-0.7908349094796563],[-70.07263922812069,-0.7878499394013261],[-70.07696143881151,-0.7822946209883526],[-70.07699152898272,-0.7777860709113611],[-70.08171139005873,-0.7722803882197127],[-70.08307528892976,-0.7632796906954127],[-70.07985830530458,-0.7546484097238704],[-70.07317181222123,-0.7490220794118727],[-70.0732247132475,-0.7409259557040286],[-70.06357211994924,-0.7348992856296377],[-70.05909826643745,-0.726577043407417],[-70.0546098676632,-0.724437037588757],[-70.05381473350047,-0.7220793403136554],[-70.04385091909785,-0.7143199214873448],[-70.04396376186787,-0.7075619537058628],[-70.03964159437163,-0.7052942801182098],[-70.03840366531097,-0.7019446428347464],[-70.03440452852453,-0.6993035469107554],[-70.03350940815176,-0.695747669878358],[-70.02289006448763,-0.6826583590116684],[-70.018383825321,-0.670488131228467],[-70.01314987359785,-0.6656701793618822],[-70.01263377028863,-0.6608685581340978],[-70.00704125208136,-0.6559856426389956],[-70.0001830862306,-0.6531843513660647],[-69.99446903080019,-0.6419287308845014],[-69.98848733040336,-0.6382720304897589],[-69.98755575688551,-0.6316621183217421],[-69.97529976522378,-0.6253808830128946],[-69.96453189491956,-0.628456169884771],[-69.96198837247954,-0.6245835860356124],[-69.95669970967128,-0.6218349746738454],[-69.95444364000059,-0.6177536108227173],[-69.95514945804427,-0.6125392478442109],[-69.93982848656162,-0.5831446359610482],[-69.92778176341204,-0.5765557945233013],[-69.91780212127901,-0.5748121514798186],[-69.91672406566477,-0.5713521571718729],[-69.90844937039708,-0.5633683784678851],[-69.90929735005017,-0.556006555519275],[-69.90131664124709,-0.5472994906754138],[-69.8939992048492,-0.5486373534956783],[-69.8860171045634,-0.547296449570922],[-69.87969715147904,-0.5503085921289994],[-69.87437579756846,-0.5493030417122782],[-69.8488428443896,-0.49972068014290016],[-69.84266574608489,-0.49230352287304413],[-69.83387409287229,-0.488235065975573],[-69.83054851908685,-0.4812969356336225],[-69.8257408105078,-0.4781464654998899],[-69.82555957528183,-0.4740236091353722],[-69.82342103087996,-0.47330554851191664],[-69.82532356623574,-0.4649330637873277],[-69.81867034326791,-0.46253964150446336],[-69.81581935148182,-0.45938138194708245],[-69.81273235990568,-0.4467020319225412],[-69.81036029837395,-0.4213440342996364],[-69.8153518235697,-0.412972034999882],[-69.81867899144106,-0.4105803333013682],[-69.81820414307509,-0.4079488018928714],[-69.8203433518508,-0.40436079837303396],[-69.81939338669537,-0.4007722940017402],[-69.81487891278942,-0.39778130856313965],[-69.81345402933397,-0.3920397443522461],[-69.81820774159542,-0.3841461014359311],[-69.8179259473169,-0.3735005540848988],[-69.81201199659944,-0.3725464751593677],[-69.80691538103332,-0.3736859483324224],[-69.80007932463985,-0.3804420577183123],[-69.78947319749057,-0.38468431420233173],[-69.79047364374702,-0.38811028557489635],[-69.78801625953861,-0.39167146834228106],[-69.77681610399054,-0.3950001161423984],[-69.7754578944635,-0.39276154233579064],[-69.77172759563683,-0.3915720847994635],[-69.77040713406399,-0.39221110344470844],[-69.7714524111583,-0.3932619516121463],[-69.76985841884255,-0.3966865037339744],[-69.76489842569441,-0.3960447813133783],[-69.76525695926841,-0.3977803325711875],[-69.76170983016806,-0.39974237875333074],[-69.7600690581159,-0.3983716582230272],[-69.75833676290716,-0.4050385203955784],[-69.7558349026736,-0.4037586411645293],[-69.74800713047216,-0.4080476938401034],[-69.74781633484452,-0.41512641535967987],[-69.74445143753093,-0.41352648687370674],[-69.7406670971352,-0.4214254550653891],[-69.73789699543858,-0.42146984778668184],[-69.73757642784864,-0.4241185428724634],[-69.7353950313323,-0.42261027638284077],[-69.73511207388526,-0.4280904814680184],[-69.73233508985129,-0.4304638614630676],[-69.73074057200142,-0.4365829556097083],[-69.7290094296767,-0.43877429510826005],[-69.72386608682478,-0.4400957121042097],[-69.71867034482648,-0.44685252185939817],[-69.7164046900715,-0.4440654107519322],[-69.71585558609883,-0.4468051908777966],[-69.71339877987509,-0.44543396229693144],[-69.71239212285423,-0.4494065549819197],[-69.71143765723434,-0.44840142314137665],[-69.70766135514532,-0.4518245426427825],[-69.70661649148491,-0.45036257355008047],[-69.70319830850758,-0.4540600506622354],[-69.70142836818883,-0.4518672723725672],[-69.69882618544443,-0.4540579660092021],[-69.69195955036957,-0.45227352156564393],[-69.69182205686076,-0.4556527934203132],[-69.68827430863803,-0.45519414610930653],[-69.6899982127843,-0.45752410731807913],[-69.6880915451465,-0.4593499866822981],[-69.68517701412475,-0.4578412460807044],[-69.67939337838726,-0.461217846041734],[-69.67911882948624,-0.4634555251032566],[-69.67507547789904,-0.4624941390936783],[-69.67452638215389,-0.46692382922680054],[-69.66915485464659,-0.4666012016664354],[-69.66596516588584,-0.46842647836336937],[-69.66123553357744,-0.46755619487737476],[-69.659236394559,-0.47052391488927015],[-69.65600070150748,-0.4690149675707289],[-69.65026362850506,-0.47513151940751186],[-69.63842998836094,-0.48229522524616186],[-69.63833113240918,-0.4880035789911972],[-69.63660720975093,-0.4894639200594497],[-69.63742289939421,-0.49183912759684745],[-69.63550754553091,-0.49498901666055417],[-69.63100676225179,-0.49375331726326976],[-69.62895442293029,-0.4974973067167525],[-69.62822961263856,-0.4948483102973569],[-69.62613889492758,-0.49407038712024587],[-69.62130979577256,-0.49671673838548713],[-69.61953139445723,-0.5010085915100149],[-69.61384699416686,-0.49872196989741724],[-69.60884260006986,-0.5024181809968127],[-69.6040204799258,-0.503164878602206],[-69.60556186740672,-0.5050195451009358],[-69.60278436503773,-0.506753451879149],[-69.6042872034077,-0.5093113210922979],[-69.6026925909411,-0.5099957197637082],[-69.60478406352888,-0.5144264969605388],[-69.60377648708044,-0.5161154165776338],[-69.60773624068906,-0.5191317778069333],[-69.60914043805172,-0.5249781752775675],[-69.60704136527374,-0.5281736562265564],[-69.60735440157913,-0.5380834660841174],[-69.60293699824882,-0.5425565842594438],[-69.59842802753883,-0.5421427338476974],[-69.60011425675032,-0.5447923761290099],[-69.59405632510868,-0.5483966825196376],[-69.59700919955287,-0.5518234817884036],[-69.59355236153499,-0.5516844990948471],[-69.59414009380873,-0.554653098425149],[-69.59232438265565,-0.5575291297012086],[-69.59014199677767,-0.5552901681718367],[-69.58882291331781,-0.5557461435891469],[-69.58813611014784,-0.5579831942723104],[-69.59027203613505,-0.5594915810897305],[-69.59027166486732,-0.5614552912918498],[-69.58722009799374,-0.5613163065414142],[-69.58603757010309,-0.563279661930892],[-69.5878071905762,-0.5679841066535118],[-69.59080638812827,-0.569264699623659],[-69.58989018674072,-0.5770729715264906],[-69.59202667425757,-0.580682070459261],[-69.59002021889904,-0.5825531940951691],[-69.59465883404448,-0.5916436345420948],[-69.59888547568579,-0.593701264171898],[-69.59847365130582,-0.5963039457109289],[-69.59729142372038,-0.5991347769382855],[-69.5922327042042,-0.6029676546787073],[-69.58513765410282,-0.605475150777238],[-69.58531285339961,-0.6102245662059431],[-69.57925522103477,-0.6171622861992887],[-69.58280233265162,-0.6217311246051622],[-69.5776148377339,-0.6229150491207633],[-69.57425000932597,-0.6186205169034338],[-69.56564303970714,-0.6259677452242158],[-69.5680921305551,-0.6288916854666127],[-69.56845860061998,-0.6323170109772605],[-69.57154834019457,-0.6322729298739773],[-69.5706408589711,-0.6356974449719246],[-69.56800133245042,-0.6368372698723306],[-69.56394943142055,-0.6349624674974734],[-69.55934094038491,-0.6411020667310936],[-69.56143955036379,-0.6453275986829112],[-69.56612454518154,-0.6464719394743952],[-69.57061855102444,-0.6534617809346059],[-69.57070979238779,-0.6578456231002292],[-69.57334140812867,-0.663098947595131],[-69.57011483016322,-0.6646497525241557],[-69.57347969353816,-0.6661589764937617],[-69.57761491486707,-0.6637866300834503],[-69.5771108669611,-0.6690382576481966],[-69.57402072423707,-0.6707258248633821],[-69.57565365441502,-0.6747910637642462],[-69.58124573553431,-0.6744750789141563],[-69.58179489195754,-0.6762564555136805],[-69.57878148647205,-0.6808667812907743],[-69.58787600366509,-0.6882706716521056],[-69.59006564520507,-0.68717592750113],[-69.59192755913824,-0.6893693362260365],[-69.58915023571825,-0.6927923785942767],[-69.58932526326521,-0.6947562770013747],[-69.59552142272355,-0.6902847446843907],[-69.59615384802379,-0.6939843414165807],[-69.59351470099841,-0.6968595211422439],[-69.5985580668962,-0.6980501922407711],[-69.59823693880503,-0.701429410616413],[-69.59659684758185,-0.7026156532414234],[-69.59887050876182,-0.7050371725738955],[-69.59722961741033,-0.7070458257140899],[-69.599007538443,-0.7092389495604152],[-69.59863394538525,-0.7147187669227719],[-69.60405149980903,-0.7133522588930532],[-69.60486694776836,-0.715224976614877],[-69.60086160227445,-0.7183734813949627],[-69.6032646579784,-0.7246770894423662],[-69.60736238949221,-0.720980687052645],[-69.61273361258054,-0.7224457250178489],[-69.60630906586363,-0.7265514608997705],[-69.60585150253104,-0.729611034198399],[-69.61208548810521,-0.7314872331981519],[-69.61535773406075,-0.7361931866459486],[-69.61936312069236,-0.7331816333854135],[-69.61940138801003,-0.7408537559538786],[-69.61403097430593,-0.7419006425607222],[-69.61839447182166,-0.7446436890199948],[-69.62071386064133,-0.7516323590841694],[-69.61902773324567,-0.7528182222139321],[-69.61712067685659,-0.7499401566785764],[-69.6122523559892,-0.7482472035098908],[-69.61187894290885,-0.7576546901595975],[-69.61483182352373,-0.762497058279962],[-69.60318829920669,-0.7605715814569294],[-69.607637005242,-0.7695709718307739],[-69.60362327588467,-0.7750937348957905],[-69.60016695620186,-0.7743146999723081],[-69.59793914298933,-0.7774647628427829],[-69.59838209215371,-0.7841780406830594],[-69.59346881703544,-0.7859556079314984],[-69.59396446256602,-0.789380993091811],[-69.59783261794166,-0.7881962334809032],[-69.5976954864447,-0.7897487631080935],[-69.59437689167021,-0.7910710419388352],[-69.58327536993033,-0.7872273326418053],[-69.58167324366269,-0.7935739717526076],[-69.58522854888105,-0.7948549534740437],[-69.58390068560743,-0.8001512987478918],[-69.5807120983086,-0.8023867553451964],[-69.57975067116132,-0.806268005879474],[-69.57638553113532,-0.8061743960129775],[-69.57611082693944,-0.8085944600992434],[-69.5722893062898,-0.8051209510281865],[-69.56973249020177,-0.8161704397472818],[-69.56572742135893,-0.8157112154800643],[-69.56668903979653,-0.8096838275528171],[-69.56136290465668,-0.8123742856323588],[-69.55954014455858,-0.8186125114750098],[-69.5595400838805,-0.8296083360635294],[-69.55680045904944,-0.8298153821113488],[-69.56278957348837,-0.8378123639603814],[-69.56768818301634,-0.8380845505289471],[-69.56800855314538,-0.8418353215324714],[-69.56364431309413,-0.8460874603206889],[-69.56164582816513,-0.8510703126606813],[-69.55924985534483,-0.8522603204137909],[-69.55387857980588,-0.8503128966273721],[-69.55185664844436,-0.8552415428475229],[-69.54544769600136,-0.8551840621666997],[-69.54596670157531,-0.862212522671939],[-69.54250256778619,-0.8654557747759668],[-69.53671139253669,-0.8637258233876537],[-69.53638412772898,-0.866875316501023],[-69.5334545814465,-0.8705589044969315],[-69.53111974953396,-0.8636847309384166],[-69.52778502775232,-0.8710850371775791],[-69.5248321965027,-0.871799819126295],[-69.52361181472827,-0.8766108413471443],[-69.52854788116122,-0.8762548850501162],[-69.52882268614445,-0.8776618129276699],[-69.52055256127528,-0.8801569605168993],[-69.52638950735917,-0.8837083813078834],[-69.52000343159153,-0.8925552845095126],[-69.52219282321994,-0.8963879041108385],[-69.52174266364511,-0.8992182704821516],[-69.5260985105769,-0.8991654249917929],[-69.52746445913391,-0.9008053094980255],[-69.51856901653076,-0.9028264119349387],[-69.51792817445693,-0.904150777475536],[-69.51988821209085,-0.9069331731740249],[-69.52905921763931,-0.9056838150316366],[-69.53115784407328,-0.9095575342813618],[-69.52645006411154,-0.9108080041701214],[-69.5253587158777,-0.9124974760608779],[-69.52496207130929,-0.9234066358551445],[-69.52087314737724,-0.9265593623917994],[-69.52410821205035,-0.9310754674075383],[-69.52033857941109,-0.9322653106098073],[-69.51510435720752,-0.931128267646443],[-69.51456349105939,-0.9364690694050637],[-69.50983300720065,-0.9379793084474386],[-69.50678072350257,-0.9341930983432007],[-69.5058807828197,-0.9401722677429802],[-69.50333960522863,-0.944506900990973],[-69.49342131483405,-0.9497587506992886],[-69.49523758751673,-0.9527227158675942],[-69.49291793952955,-0.9537275474029343],[-69.48791337265419,-0.9500812846713416],[-69.48786681917511,-0.9573344125585663],[-69.4836327398375,-0.9543263580594612],[-69.48013033050324,-0.9550129483418459],[-69.47448444847049,-0.958118618491028],[-69.47426362334977,-0.9608558285390245],[-69.47025779448785,-0.9630030787068335],[-69.46962420601915,-0.9655140653393346],[-69.46748838287618,-0.9630508673453733],[-69.46593904964834,-0.9639650941232958],[-69.4624452936294,-0.9707231349241852],[-69.45699033372273,-0.9717316616535072],[-69.45814172962992,-0.9843286396030066],[-69.46128523720779,-0.9865628548701579],[-69.45929458386854,-0.9909006145834383],[-69.454609845133,-0.9942362434513257],[-69.45502899510905,-0.9978877779793152],[-69.44947492831062,-0.9961120639842989],[-69.44624792868376,-1.0008161127565245],[-69.44369876317967,-1.0010922022644877],[-69.43359769283842,-0.9963529560754409],[-69.43000414704187,-1.0014681658822724],[-69.4303775344112,-1.0081320373439553],[-69.42897377722187,-1.009000398670878],[-69.42491500105382,-1.0058998038854838],[-69.4197349757141,-1.0073190370778207],[-69.41367680238852,-1.0028959886265056],[-69.41322686598568,-1.006821803631965],[-69.41537052174687,-1.012206212381841],[-69.41842224494371,-1.0126604466460094],[-69.42501397939026,-1.009505938846928],[-69.42752384399193,-1.0124251739647434],[-69.42625061775561,-1.0167166218829493],[-69.4161943463705,-1.0168851003078885],[-69.41630919357499,-1.017969986837386],[-69.42245087951846,-1.02035313806482],[-69.42930935595888,-1.0201335635301803],[-69.42852333276846,-1.0249786467388162],[-69.43426852121075,-1.0330019094079717],[-69.4372136926205,-1.028264721132416],[-69.43969378792502,-1.029311979006991],[-69.43757985106731,-1.0397253811705127],[-69.42963752373907,-1.0423678644634151],[-69.42802829710428,-1.0451523622984382],[-69.42558667480591,-1.0438518915913164],[-69.42170293338387,-1.0496744909020208],[-69.41581324671074,-1.051014855922915],[-69.42196273750449,-1.0653649128760208],[-69.42627272824132,-1.0672792403537414],[-69.42415985993534,-1.07067863882844],[-69.41805611220798,-1.0736096794379364],[-69.41755291790929,-1.0754901958394498],[-69.41974262012735,-1.0767903744688851],[-69.427501165806,-1.0728825150413286],[-69.42879859643705,-1.0765150069275933]],[[-69.6343631204071,-0.5632689928681884],[-69.6341685174853,-0.5657082980855535],[-69.634904715721,-0.5663326789084522],[-69.63326543902429,-0.5654030080091843],[-69.6343631204071,-0.5632689928681884]]]}}]}