{"type":"FeatureCollection","features":[{"type":"Feature","properties":{"code":"972047"},"geometry":{"type":"Polygon","coordinates":[[[-69.8179259473169,-0.3735005540848988],[-69.81820774159542,-0.3841461014359311],[-69.81345402933397,-0.3920397443522461],[-69.81487891278942,-0.39778130856313965],[-69.81939338669537,-0.4007722940017402],[-69.8203433518508,-0.40436079837303396],[-69.81820414307509,-0.4079488018928714],[-69.81867899144106,-0.4105803333013682],[-69.8153518235697,-0.412972034999882],[-69.81036029837395,-0.4213440342996364],[-69.81273235990568,-0.4467020319225412],[-69.81581935148182,-0.45938138194708245],[-69.81867034326791,-0.46253964150446336],[-69.82532356623574,-0.4649330637873277],[-69.82342103087996,-0.47330554851191664],[-69.82555957528183,-0.4740236091353722],[-69.8257408105078,-0.4781464654998899],[-69.83054851908685,-0.4812969356336225],[-69.83387409287229,-0.488235065975573],[-69.84266574608489,-0.49230352287304413],[-69.8488428443896,-0.49972068014290016],[-69.87437579756846,-0.5493030417122782],[-69.87969715147904,-0.5503085921289994],[-69.8860171045634,-0.547296449570922],[-69.8939992048492,-0.5486373534956783],[-69.90131664124709,-0.5472994906754138],[-69.90929735005017,-0.556006555519275],[-69.90844937039708,-0.5633683784678851],[-69.91672406566477,-0.5713521571718729],[-69.91780212127901,-0.5748121514798186],[-69.92778176341204,-0.5765557945233013],[-69.93982848656162,-0.5831446359610482],[-69.95514945804427,-0.6125392478442109],[-69.95444364000059,-0.6177536108227173],[-69.95669970967128,-0.6218349746738454],[-69.96198837247954,-0.6245835860356124],[-69.96453189491956,-0.628456169884771],[-69.97529976522378,-0.6253808830128946],[-69.98755575688551,-0.6316621183217421],[-69.98848733040336,-0.6382720304897589],[-69.99446903080019,-0.6419287308845014],[-70.0001830862306,-0.6531843513660647],[-70.00704125208136,-0.6559856426389956],[-70.01263377028863,-0.6608685581340978],[-70.01314987359785,-0.6656701793618822],[-70.018383825321,-0.670488131228467],[-70.02289006448763,-0.6826583590116684],[-70.03350940815176,-0.695747669878358],[-70.03440452852453,-0.6993035469107554],[-70.03840366531097,-0.7019446428347464],[-70.03964159437163,-0.7052942801182098],[-70.04396376186787,-0.7075619537058628],[-70.04385091909785,-0.7143199214873448],[-70.05381473350047,-0.7220793403136554],[-70.0546098676632,-0.724437037588757],[-70.05909826643745,-0.726577043407417],[-70.06357211994924,-0.7348992856296377],[-70.0732247132475,-0.7409259557040286],[-70.07317181222123,-0.7490220794118727],[-70.07985830530458,-0.7546484097238704],[-70.08307528892976,-0.7632796906954127],[-70.08171139005873,-0.7722803882197127],[-70.07699152898272,-0.7777860709113611],[-70.07696143881151,-0.7822946209883526],[-70.07263922812069,-0.7878499394013261],[-70.0651749928661,-0.7908349094796563],[-70.0631807944855,-0.7981289251560497],[-70.05822558873729,-0.803829390747012],[-70.05251471016584,-0.8172303351235541],[-70.0448536032452,-0.8290860405019203],[-70.0451120539355,-0.8346787530848587],[-70.04939702060892,-0.8363584815111835],[-70.04981730598553,-0.8401296033352423],[-70.04761350176364,-0.8445326794328594],[-70.04436584792563,-0.8470176968633041],[-70.04553074625466,-0.8525364520878043],[-70.04316835928171,-0.8588823198667228],[-70.04503737563891,-0.8813210597460852],[-70.03947483550257,-0.8905228722902052],[-70.02588740775792,-0.8990007034673226],[-70.01413011095883,-0.8984866508725418],[-70.01162204715996,-0.9008700797794518],[-70.0044792444155,-0.899193292698726],[-69.9929793873477,-0.9017428058164114],[-69.98373348547278,-0.9013517127806949],[-69.97947257921209,-0.8982617387212599],[-69.97265671011678,-0.8967674477370338],[-69.9704854345033,-0.8968391579485342],[-69.96874500122891,-0.8990926781102075],[-69.95867965898077,-0.8967650555796922],[-69.95343642762077,-0.8986265529936759],[-69.94808324135732,-0.8977250521634801],[-69.94146477357594,-0.9031847285075401],[-69.9457111386879,-0.9124768568167951],[-69.944821816674,-0.9147014180940687],[-69.9261646712489,-0.9087227958257245],[-69.92279667420956,-0.9092246181820656],[-69.9139166027083,-0.9135676784880502],[-69.91323054824448,-0.9160733357314257],[-69.91015288361353,-0.9178309532518938],[-69.90943657854143,-0.9296147684412972],[-69.91142945331654,-0.9328052892120695],[-69.92030564244726,-0.9345324936303427],[-69.93126573380044,-0.9316863396379063],[-69.93381733568486,-0.9340470224815931],[-69.9372334844029,-0.933967236939452],[-69.94160339734304,-0.9388287978541143],[-69.94324060275653,-0.9447437399901446],[-69.93613865591959,-0.9441457695711506],[-69.92593481743125,-0.9495658375084872],[-69.92994163976863,-0.9484711632915719],[-69.93625160564767,-0.9498892579979952],[-69.9386628981477,-0.9519977657076879],[-69.9447967000508,-0.9658444905508077],[-69.95006109675785,-0.9705652720828652],[-69.97730675228706,-0.9783016476260968],[-69.99083343301749,-0.9776986738342544],[-69.99700674973906,-0.972100215343005],[-69.99863860313769,-0.9685681220722699],[-69.99804428883186,-0.9634322230872954],[-69.99190928776477,-0.9547677645600743],[-69.99132230728253,-0.9500443203903615],[-69.99622076048723,-0.9414200307710416],[-70.0051620253468,-0.9384799871756968],[-70.00938194714467,-0.9382946371512162],[-70.01560742030017,-0.942602249100446],[-70.0179264820751,-0.9510850291429733],[-70.01443207813736,-0.9648450706799849],[-70.01425735192413,-0.9723204275119883],[-70.0179348402275,-0.9780973434059774],[-70.02419769932538,-0.9829550569172056],[-70.02801312851,-0.9839162536933941],[-70.03255303168561,-0.9842349433473601],[-70.03786335452179,-0.9820307308337419],[-70.0422198061778,-0.9774880354366928],[-70.04916181786177,-0.9643681993675841],[-70.06027869630537,-0.9523005854650819],[-70.06481778084077,-0.9495922211728498],[-70.07626286306004,-0.9492647249656443],[-70.09619159435567,-0.9572336354761433],[-70.11631050009976,-0.9764389325362117],[-70.13034936165957,-0.993858918175647],[-70.13235554242397,-1.0054608018835438],[-70.12695355553456,-1.0180302247725876],[-70.11805739919225,-1.0229883225011918],[-70.1095206032918,-1.0209289434906168],[-70.10475221515554,-1.0165289115828386],[-70.09494756971623,-1.011489181229365],[-70.08881357857967,-1.0116761243113501],[-70.07692621156991,-1.0169106653320341],[-70.0717538995491,-1.0259024904827356],[-70.07047891673295,-1.031360767116496],[-70.0723024533051,-1.0423205499369033],[-70.08074835442733,-1.0547905635721122],[-70.10881834880144,-1.0837149026300494],[-70.11531812917394,-1.1021939763184037],[-70.12059072051096,-1.1122812346765727],[-70.13253130119352,-1.1178701029413673],[-70.15105532810435,-1.1187316066135509],[-70.15627459983898,-1.1168947157153184],[-70.16290419536841,-1.1101952231185805],[-70.16743643767569,-1.0998734407853021],[-70.16616224778869,-1.0844640983223144],[-70.16729113931666,-1.076987984556638],[-70.17378470583947,-1.0739115324594195],[-70.1858166122177,-1.0727582658153096],[-70.20366172719798,-1.0680703039409423],[-70.20810257696087,-1.0650868405309097],[-70.2174106451007,-1.0523771236840957],[-70.2184020770585,-1.0424703312768884],[-70.21708265009886,-1.0374260161266307],[-70.2073618083266,-1.0239475189566747],[-70.19182884398754,-1.0116651045497633],[-70.18564878068304,-0.9923141090664558],[-70.18555695516432,-0.989424824251671],[-70.18818916637338,-0.9863047127126379],[-70.19468144939992,-0.984007821073078],[-70.20839225425135,-0.985238041957075],[-70.21251949692322,-0.9876666112629664],[-70.21733408681115,-0.9945431975477277],[-70.2197075531954,-1.0105944352096117],[-70.22410940544643,-1.0167832618728312],[-70.23087737174603,-1.020494551996478],[-70.24004763681592,-1.0214980537556357],[-70.24930950526095,-1.0199791562557152],[-70.26265426273733,-1.0121743574032962],[-70.28185069667978,-0.9936337602266008],[-70.29491953125597,-0.9771604857504599],[-70.29823128997305,-0.9656465431339143],[-70.29536242694132,-0.9525309288213748],[-70.28468922888476,-0.936897835318689],[-70.2763798812748,-0.9351599206999595],[-70.25903733324327,-0.9414536700973599],[-70.25463514571999,-0.9411352478384742],[-70.25113365169955,-0.9389821736007207],[-70.24791399206691,-0.9342143377381262],[-70.24204660408452,-0.9115607757570388],[-70.23736265724972,-0.9065645845175254],[-70.21554134797867,-0.8950237748686618],[-70.21260354227428,-0.8863764800186686],[-70.21467176897585,-0.8799721113439318],[-70.23421152582739,-0.8599162871786916],[-70.24498437276497,-0.8399652561638504],[-70.25172159788929,-0.8320790571144698],[-70.27237407092491,-0.8219457348159267],[-70.28539783297924,-0.8099849051286014],[-70.2909217335017,-0.7944114612919861],[-70.28975442038967,-0.7678263538236934],[-70.28690162780077,-0.7575015571254085],[-70.28299466517507,-0.7507394231233206],[-70.2760746333646,-0.7466248549770285],[-70.27025356746168,-0.7455256484138886],[-70.2601514810193,-0.7479413426479482],[-70.25172862009481,-0.747069164770835],[-70.2464565810314,-0.7435494282369746],[-70.24386291996171,-0.7367879318692303],[-70.24692260433216,-0.7291154298055176],[-70.25731431767133,-0.7122658307282563],[-70.25423123931898,-0.6924402295914547],[-70.24641893489303,-0.6747133340786604],[-70.24624352887923,-0.666857059621293],[-70.24734136452844,-0.6597772345829185],[-70.25212552280226,-0.6510094381513909],[-70.24808910600302,-0.6398620324485478],[-70.24646456791601,-0.6244223077366655],[-70.25101960256643,-0.6143756409762773],[-70.24893634826282,-0.6037774246068466],[-70.25404081393066,-0.590990246497995],[-70.25564284558158,-0.5779726201316748],[-70.26425644351247,-0.5682018197072125],[-70.26876625754528,-0.5594793457090645],[-70.27400031519801,-0.5569694368843443],[-70.28546684147227,-0.5572944000376197],[-70.2913804661734,-0.5610884602435817],[-70.29242503569924,-0.567575219505386],[-70.29059388351027,-0.5817344540913609],[-70.29190606509235,-0.5848869039769511],[-70.29768173862783,-0.5888181388745011],[-70.30151249571975,-0.5890936946207717],[-70.31197959492403,-0.5831605716778654],[-70.31498628982206,-0.5792337827373331],[-70.31648934313654,-0.5734331807836384],[-70.31490949807608,-0.5610991786715545],[-70.31236963072081,-0.55538848213439],[-70.28486436750347,-0.516595062627971],[-70.27463328248751,-0.5075921817202129],[-70.25156860266645,-0.4973497663530111],[-70.24229140837099,-0.4880273339564951],[-70.23524941767602,-0.4746865195287455],[-70.2302443952006,-0.46902041317389376],[-70.22778681353122,-0.46810571331241135],[-70.21554895742486,-0.4703840086543778],[-70.19569688623454,-0.47795740382633767],[-70.1915618798501,-0.4756717654047975],[-70.18696882882199,-0.46708249425324766],[-70.18760952588542,-0.4611445191185908],[-70.19558995495208,-0.44347143274683276],[-70.20014511815782,-0.4392711994524916],[-70.20715662273125,-0.4361681652014795],[-70.21129176589852,-0.4362156936440442],[-70.23080885382012,-0.44618185598096716],[-70.23613456627015,-0.44294111327673136],[-70.24146732560831,-0.4346301119311988],[-70.23131927704128,-0.42941834474163443],[-70.22454523573168,-0.4278626958483187],[-70.22445357270686,-0.4251675840663438],[-70.23205989243763,-0.4202377222271707],[-70.23251800598689,-0.41818236751220184],[-70.23041899902921,-0.4169936792508224],[-70.22309489009626,-0.4176758390028681],[-70.22255316108487,-0.4095906836344625],[-70.2190061790518,-0.4047475914905476],[-70.21309227050051,-0.40392256153228345],[-70.2106432896959,-0.39410084703246184],[-70.20604289764509,-0.39720509484561717],[-70.19089783199928,-0.3936357123060361],[-70.1903030692925,-0.3909407630180226],[-70.19436216427778,-0.38550675042858984],[-70.18685400527164,-0.38020478574480876],[-70.18599253656652,-0.37760110353121945],[-70.187632479694,-0.3728971061810853],[-70.1838101753711,-0.37252999231111517],[-70.18158200837439,-0.36974273516483436],[-70.18290260775848,-0.3676421804011625],[-70.18659535403509,-0.36709566913202707],[-70.19915282745052,-0.369841515011899],[-70.20534876990752,-0.3606175518727923],[-70.20898805157128,-0.3595225413551475],[-70.21158150592402,-0.362447335204763],[-70.2130701702992,-0.3735015876696366],[-70.22517037143132,-0.3851544996099392],[-70.22894669100384,-0.3835117467775149],[-70.22521634075503,-0.38255079888438104],[-70.22430857465304,-0.38063216428940905],[-70.22407971225402,-0.3788048975562788],[-70.22653628502127,-0.3770701803653651],[-70.2344559084525,-0.38008825600832097],[-70.23973475477692,-0.3782631438622275],[-70.23664526614232,-0.3745622708328824],[-70.24433606831224,-0.373286322309184],[-70.25053095147342,-0.3646559936753988],[-70.24644184550698,-0.35857906978577603],[-70.24548018490322,-0.3648822458872587],[-70.24288586768722,-0.3663885727343086],[-70.23829315398825,-0.3591237956786699],[-70.24129991470664,-0.35442030843603334],[-70.23106071322229,-0.3549185302151159],[-70.22623830100054,-0.3476538220651264],[-70.22615403144903,-0.3454611980418463],[-70.23275473494277,-0.33801868760701836],[-70.22684111949758,-0.3361891716700711],[-70.23058024853174,-0.3319424620299287],[-70.23189947905888,-0.3245434567705274],[-70.23490574098264,-0.32057048356176665],[-70.2308159274478,-0.3159099481924841],[-70.22312557265036,-0.31672903272453823],[-70.21693753891634,-0.3147622649627806],[-70.2079732348875,-0.3162660340732373],[-70.20618778462716,-0.32435039651244324],[-70.20795783704608,-0.33618114159088464],[-70.20267850838212,-0.3399703094958113],[-70.1924394087136,-0.3328859181726216],[-70.17869887570276,-0.3332002297467511],[-70.17815665612426,-0.33032241515138594],[-70.18179574135553,-0.32639563443837005],[-70.18220749785831,-0.32182811449575865],[-70.17898062678671,-0.3170308518073739],[-70.17447933340014,-0.3170745554722316],[-70.1701605278825,-0.31136313388310555],[-70.16206596432198,-0.30697498254335187],[-70.15546663688428,-0.3098041404946912],[-70.15450445177487,-0.3125443011443281],[-70.15236906777687,-0.3100313758976654],[-70.14982010796126,-0.31112635350513074],[-70.13876489904487,-0.3038591709224647],[-70.13685720604985,-0.30056991555613877],[-70.13417227893416,-0.29988357827062373],[-70.13295110628741,-0.29709672735913273],[-70.13035712640055,-0.2958169273181852],[-70.12785448969288,-0.29284696530157817],[-70.1264508703149,-0.2829803932243635],[-70.12941075050952,-0.27877912531687343],[-70.12937279480991,-0.2715166920817751],[-70.13320294923454,-0.2603731882898046],[-70.13765915158734,-0.2604664968226871],[-70.1401226180048,-0.2527482928302902],[-70.14440371773435,-0.2504661356866791],[-70.14859156858074,-0.24512341382586555],[-70.1571065748696,-0.24494406270656555],[-70.1644763013989,-0.24248056235046533],[-70.16729970315754,-0.2451765359672322],[-70.17872135642773,-0.24335420678659148],[-70.18149800724632,-0.24125387416654576],[-70.18354311456005,-0.23910792600696595],[-70.1840463685084,-0.23417498089708033],[-70.17909544210949,-0.22311931329534218],[-70.17741698072439,-0.21996719148290822],[-70.16308055783372,-0.22151444828529065],[-70.15802990130692,-0.21941148799453458],[-70.15338389268817,-0.22507343224253873],[-70.14705882310233,-0.22584765096974024],[-70.13610210812595,-0.21657112721879912],[-70.1227280863177,-0.21154161649860725],[-70.11626484136565,-0.20592077189900237],[-70.10812470443182,-0.20495850657101755],[-70.10198244050366,-0.20180474850656083],[-70.09966306916749,-0.19970241556575274],[-70.08962309859629,-0.17453155437203804],[-70.09727479115412,-0.16375483740529262],[-70.09823628926398,-0.16170006993098696],[-70.09705388992865,-0.15914164124512808],[-70.06762643370519,-0.1352881562966104],[-70.04035068080566,-0.10563530044015579],[-70.03787831527512,-0.1245435257080203],[-70.03327771342202,-0.1346817865875778],[-70.01328792657932,-0.15463427284856834],[-70.00913807359865,-0.1610728228388325],[-70.01072490589763,-0.16806132938063456],[-70.00980970518464,-0.17925156868597014],[-70.01907965307407,-0.2016355368020868],[-70.01888799664005,-0.20661409847986079],[-70.00996205351714,-0.21643054015493135],[-69.99684692154409,-0.2388968566919516],[-69.98882772739353,-0.24962708702844338],[-69.982221000312,-0.2631896727440335],[-69.97539231270912,-0.266703921508622],[-69.9641462814256,-0.2772954766558655],[-69.95750055683214,-0.27985035515814616],[-69.95043569049022,-0.2928186090844065],[-69.94033394034852,-0.2982037058623632],[-69.93837273748926,-0.30459719155834364],[-69.9327649993611,-0.313775192572848],[-69.92880526117915,-0.315692010938335],[-69.92297657760247,-0.3254633461529579],[-69.91678941495928,-0.32715027573379984],[-69.91414132151243,-0.33135116311751744],[-69.91136382839937,-0.3315783018468892],[-69.90863314793296,-0.33509393798044584],[-69.89152002074468,-0.34289621303491913],[-69.88597315921459,-0.3352209454892545],[-69.8743682693692,-0.3397370772445356],[-69.8665405578459,-0.3395507543133931],[-69.86335862251332,-0.33799669025000867],[-69.85835338406497,-0.3395471773903296],[-69.85589718976456,-0.3378564651978877],[-69.85307371807187,-0.3387230267504151],[-69.8482524155396,-0.337167714157772],[-69.84542882249065,-0.3409571833963696],[-69.83832634703424,-0.34492763897782197],[-69.83677713516266,-0.3511382737646045],[-69.83067393148139,-0.3591736072636422],[-69.82903290848924,-0.3651101693182568],[-69.82970506458088,-0.37164162263502476],[-69.8179259473169,-0.3735005540848988]]]}}]}