{"type":"FeatureCollection","features":[{"type":"Feature","properties":{"code":"972007"},"geometry":{"type":"Polygon","coordinates":[[[-71.04723161312921,0.566236549220946],[-71.04216557727295,0.5636245170825305],[-71.04412607153535,0.5671537996198595],[-71.04321822007262,0.5684831027130031],[-71.03660288492716,0.5694007161521313],[-71.03865599146678,0.5738009393501784],[-71.03519152857609,0.5770558035986824],[-71.03013303120349,0.5751757787927545],[-71.02935539187649,0.5803561897984082],[-71.02429661990976,0.576964099436168],[-71.02297643395951,0.5776519619019496],[-71.02201493687812,0.5806772500123429],[-71.0253031823139,0.5859942073311686],[-71.02174067285569,0.590119804495032],[-71.02106143388039,0.5875530351403313],[-71.0163158123762,0.5857657233989926],[-71.01490450641882,0.5787521156606203],[-71.01704877307486,0.5761389141831046],[-71.01212012685471,0.5769185085792969],[-71.0125314699236,0.5730677534226061],[-71.00646635049719,0.5770559506659652],[-71.00897682085156,0.5689885287319498],[-71.00737353861456,0.5643583920665947],[-71.00587112293442,0.5640832764937613],[-71.00199468036891,0.5684384168855559],[-70.99971393733375,0.5642210795637084],[-70.9925111969593,0.5674754984966057],[-70.98115831152654,0.5691258412348361],[-70.98362346767505,0.5617917358405862],[-70.98147910537386,0.5562905412720625],[-70.9855838590932,0.5546858891495958],[-70.98489729657877,0.5445100273831258],[-70.97760301659258,0.5473061774718531],[-70.97486481306913,0.5559704107701577],[-70.97035500623537,0.5602788074210139],[-70.95713346131492,0.550927217650667],[-70.95644654604473,0.5458395176527802],[-70.95808681724537,0.5395593673508188],[-70.95575961226251,0.5363502112016363],[-70.95142630570535,0.5378633288545984],[-70.94322453626825,0.5505151495298151],[-70.93998892034995,0.5499648659335321],[-70.93884477084879,0.5466186585058495],[-70.93469435633853,0.5479940749046932],[-70.93200872165437,0.5463892777718229],[-70.92926956373623,0.5484979932268743],[-70.92795016248766,0.5522108085307309],[-70.92006114550577,0.554502952879659],[-70.91354501186879,0.5516607049119102],[-70.90834167173722,0.5406597535375113],[-70.90970746499937,0.5381840774504667],[-70.90875372957368,0.5374047669043307],[-70.90113920081473,0.5404296240972712],[-70.89890356321155,0.5403844219916891],[-70.89553159946945,0.5371291597359686],[-70.89147269371762,0.5396507784072355],[-70.89124328830093,0.5366714688765342],[-70.88459091996879,0.5395590732162532],[-70.88289728802806,0.5386879525780728],[-70.87924994851716,0.5325454490227912],[-70.88134824790637,0.5292451574398456],[-70.87624348810397,0.5250280186073724],[-70.87792944374974,0.5211772788773033],[-70.88294261046144,0.5181521810288245],[-70.87915801912573,0.5171891669946831],[-70.87459529892436,0.5118719165697598],[-70.87710565615004,0.5117343541552941],[-70.87774717082527,0.5090755268539056],[-70.87988321816869,0.5108632962521256],[-70.8813937770567,0.5101755695407633],[-70.87819680692292,0.5044459074951533],[-70.88211896684368,0.5015121703093541],[-70.87395514282173,0.500504159858167],[-70.87322989338503,0.4979366417973097],[-70.87600705122583,0.4931693664358363],[-70.88371350320551,0.4894106414579369],[-70.88622327319052,0.4857893421115591],[-70.88293484674887,0.48111389124045445],[-70.88161561725019,0.485055749949197],[-70.87527457183825,0.4845515817154933],[-70.87071947650975,0.4865680150232947],[-70.86702709944404,0.4851012287058438],[-70.86424193620672,0.4784548829330788],[-70.86350969850315,0.4592481203424654],[-70.84996741218595,0.45448073082388873],[-70.84964719735171,0.4509964508742996],[-70.8566200571691,0.42899368629065293],[-70.85379045081675,0.42335542707382956],[-70.8413455969993,0.4135457062706678],[-70.84043029241366,0.41744250171359454],[-70.84372225155533,0.4271480865411377],[-70.83045018748146,0.4195343250003134],[-70.8261652382916,0.4148572522752829],[-70.82579950664842,0.4055157720948728],[-70.83502684205052,0.38174519812537255],[-70.83632086236616,0.3722391938814553],[-70.83462357328386,0.3674828426364911],[-70.82569400901485,0.356661603364671],[-70.8297805438749,0.3383586915953174],[-70.81620382735906,0.33023364294166413],[-70.82587201184595,0.32774612742434783],[-70.82819068075588,0.3132251700641291],[-70.83778332511133,0.30923201572784365],[-70.83530335630519,0.29696826446729574],[-70.84375292691033,0.3020137684970905],[-70.85024039785435,0.2956608085785888],[-70.85019148307123,0.2897598758865456],[-70.84653518274064,0.28134653833978973],[-70.83548191449529,0.27257465487770105],[-70.83396361143514,0.26956233439904054],[-70.83708200650364,0.2664728365085125],[-70.8512071235375,0.260485062130158],[-70.8546600349618,0.25714665338210807],[-70.855547070748,0.25172171474099514],[-70.853617889475,0.2329582047052554],[-70.85764067632556,0.21850405085729108],[-70.86339492843183,0.20883431856441348],[-70.86929553510754,0.20511244576726995],[-70.88453115306027,0.20433880708168317],[-70.8894679085497,0.20252029033747476],[-70.89628948858632,0.18176139098466138],[-70.90509442619094,0.19378830118915857],[-70.91255528095496,0.19919821634192658],[-70.92530195076989,0.20414916022434682],[-70.93519253595144,0.20384602062131307],[-70.94056659959801,0.19926752102639966],[-70.94394716420493,0.19298808137818924],[-70.93004552670192,0.19125312764549562],[-70.93001340638517,0.1850136183065274],[-70.93348322231918,0.17757150690744083],[-70.93762722860413,0.17616179812125665],[-70.95304631967372,0.17961554875466845],[-70.95967235062136,0.1758897709613052],[-70.96511939871976,0.1697220386826075],[-70.96743997230521,0.16259837422501278],[-70.96726174835896,0.15529768704197977],[-70.95803597618942,0.14232156244509042],[-70.96572532311319,0.12582492381181964],[-70.96116938034805,0.10976316723980517],[-70.96134375894775,0.10457075842373342],[-70.96559528684111,0.09675132791954866],[-70.97132442746636,0.09183727015653176],[-70.98676589230297,0.09297294323448568],[-70.98641839597411,0.0822340174165106],[-70.99560425326104,0.07268858371492115],[-70.99099179449411,0.0660983754770541],[-70.98314746848195,0.06943196288659692],[-70.98292295022412,0.06081791449787488],[-70.98605922785106,0.05837149862895785],[-70.99778997746341,0.05711099731183822],[-71.00167539730364,0.05532437976921756],[-71.00625392158122,0.04842729456822781],[-71.00744613945727,0.042971229085878804],[-70.99757475324066,0.03833572189370216],[-71.00964743325096,0.03310071601697473],[-70.9941699893813,0.028853351258874227],[-71.00040161570831,0.020394658368616092],[-70.99540645702518,0.011134023026158957],[-70.99111493814445,0.010075727906439624],[-70.97903319961239,0.010950744284912162],[-70.97529765572887,0.009470381497749258],[-70.97226468001065,0.002979970236594909],[-70.97210540100406,-0.00660596250298795],[-71.00047732347593,-0.0007074384233192177],[-71.01237950211481,-0.002266316626162279],[-71.02537280375861,-0.008180012289869865],[-71.03065961948414,-0.012580836098322834],[-71.03197933954988,-0.016247898051460652],[-71.03184244973687,-0.021702744829440235],[-71.02732564640866,-0.03357522101998711],[-71.02646316057388,-0.04072611349329236],[-71.03101873824193,-0.04595196108937216],[-71.03690095636546,-0.047464863797870294],[-71.04633903815164,-0.044669076749300984],[-71.06129319709805,-0.03325503189682877],[-71.06507667565893,-0.02725007327245521],[-71.06366613074903,-0.023674605438543495],[-71.05318307217374,-0.017669120251582626],[-71.04816977690678,-0.010518279200425695],[-71.04803300844998,-0.0063008482902660035],[-71.05090915182626,-0.002863182497890193],[-71.06134632643852,-0.003230081423282627],[-71.07579682520179,-0.009051768505514701],[-71.08140464149159,-0.005705757510384046],[-71.08751593593018,0.0028662728308290752],[-71.09084184498789,0.0031411734591983986],[-71.10156200275827,-0.004468790043404169],[-71.10607100740691,-0.005981270062022759],[-71.10958087912013,-0.00015969508007174227],[-71.10917592062236,0.014508973365366273],[-71.1110450459945,0.024089365885060943],[-71.11282345656582,0.027435824252734164],[-71.11624922224985,0.029269312034671202],[-71.12399350754453,0.026518590308853618],[-71.12891444250266,0.011850057617891707],[-71.13220240408828,0.007953264231787216],[-71.13812338729565,0.00492799463341953],[-71.14432581819648,0.007265271153812591],[-71.14916346576575,0.015057999176463],[-71.15864642261278,0.04398277840778064],[-71.15400070812859,0.06053102325819282],[-71.15477865804525,0.06603196894366192],[-71.16800054749393,0.07776632324703314],[-71.1798114148354,0.093122381074636],[-71.18952364957221,0.09995227504055038],[-71.19791648203204,0.10141907061404254],[-71.20038060253893,0.09834779672490868],[-71.19563540989526,0.08872170227652987],[-71.19626812830165,0.08564999849841115],[-71.2073922099566,0.08189093824825022],[-71.21126832547736,0.07744454003795909],[-71.22590198471102,0.06786395828487457],[-71.23415777103457,0.05919985148500473],[-71.2383539553507,0.06685479289268415],[-71.24149735699899,0.06946762618781577],[-71.24592171362923,0.06910067481180704],[-71.25763407057553,0.06176639663920014],[-71.272549626932,0.07350098439906105],[-71.28827394637142,0.06763293204278398],[-71.29697932354111,0.06932881421573711],[-71.30405262619706,0.07496693356432615],[-71.30373161020611,0.07854227284298076],[-71.29807840257735,0.08624356306967229],[-71.29853623124808,0.09747404121696945],[-71.30145764666406,0.1003619983125077],[-71.31558783597643,0.10485378889023877],[-71.33588301779662,0.11525875473972746],[-71.33574579168288,0.11920086438846056],[-71.32881781721085,0.1290567344927922],[-71.32950424191398,0.13877449093752148],[-71.33967472595452,0.14885875858482223],[-71.34564839010153,0.15724718931068082],[-71.34938790788692,0.15674295114285997],[-71.35202744160671,0.15367141911463023],[-71.34837992314681,0.14519150945523052],[-71.34856301573996,0.14289961398935702],[-71.35079856592552,0.141340803663752],[-71.35927509920816,0.1464744534449096],[-71.3740925843145,0.1487200083193443],[-71.37860843941871,0.15623758477357796],[-71.37929514797202,0.17076864760997523],[-71.38221750338442,0.17516897365231898],[-71.39858363883275,0.18144835056551756],[-71.4089365953156,0.18850725399772728],[-71.41094352478615,0.18667342991506075],[-71.41249204760123,0.1750302912639654],[-71.41066078434045,0.16398314636541045],[-71.41645198530108,0.155227655248666],[-71.42575264248416,0.14825978337751167],[-71.43332101268595,0.14505086171323],[-71.44872506586904,0.14605887113600602],[-71.45547680848796,0.14413317011246818],[-71.4610852449286,0.1450956843235076],[-71.4713926876878,0.15426292474393222],[-71.4770841801178,0.1552255171166621],[-71.4770923140697,0.16178013918647594],[-71.46564774092946,0.16778549478959803],[-71.46341225862113,0.17521153883126317],[-71.46651743923167,0.1811245598366895],[-71.47258295357994,0.18621256013977927],[-71.47900762371,0.18997093133350518],[-71.48292923444245,0.1896957108594961],[-71.49200025378087,0.16938874103112767],[-71.49281626224132,0.15678311285165591],[-71.50348268697547,0.14954025601986132],[-71.50585525758629,0.1390890966462166],[-71.51022701143853,0.13647636825220388],[-71.51929956418473,0.13849261952577763],[-71.5249532891201,0.13807963917639654],[-71.53466559996167,0.1271242251797844],[-71.5389531192294,0.1261153199836258],[-71.54816256178862,0.1298738536711994],[-71.5527624211062,0.1356492433565677],[-71.55153473327613,0.13991210982868552],[-71.53790825659746,0.15128072014761074],[-71.53416936719037,0.16049421374185613],[-71.5349023052633,0.16599500413246915],[-71.54320237220799,0.1742913573711462],[-71.5496275051371,0.17768309600603516],[-71.55696611819491,0.17873695442472126],[-71.5758879590133,0.17607741955481515],[-71.58505168524567,0.1706223814865666],[-71.5917042767498,0.16910932554014835],[-71.59635876282022,0.16906335621644075],[-71.59836537450201,0.1716301430546423],[-71.59626682622968,0.17708479237165875],[-71.58742460038468,0.18510694226603164],[-71.58450941321661,0.20477176698386756],[-71.56983000885975,0.21449012712434978],[-71.56832706661703,0.21948645617510465],[-71.56956281949334,0.22232842749184556],[-71.57443812965607,0.2227406498790856],[-71.57881800820422,0.22104451779460987],[-71.58997984809781,0.20917157469114045],[-71.60333986663278,0.2012411742107929],[-71.6171947254278,0.18524307411689733],[-71.61830841554689,0.1874362411578545],[-71.62825784512404,0.18946271206465326],[-71.64331101737395,0.18946801162894644],[-71.64422634561379,0.19034117166864917],[-71.63996145516677,0.19489382136089262],[-71.63555900127687,0.19657119362540243],[-71.62662566468066,0.19633494803753138],[-71.62287914217325,0.20063149600218821],[-71.62477903648863,0.20412391915959915],[-71.63032518530815,0.20615829159032728],[-71.63355331313647,0.20994320071474704],[-71.62960827448342,0.22040403567564226],[-71.63125610267969,0.22155686317478285],[-71.64203705785803,0.2157159113073135],[-71.65131514072783,0.21479326364209328],[-71.65737272886963,0.21828420481386956],[-71.66283535787215,0.2241534028550518],[-71.70238774430322,0.2397690601433169],[-71.73105191722874,0.2823270873188335],[-71.7319594159357,0.28858921519412206],[-71.7290830473305,0.2924972268311308],[-71.71265666366259,0.2977427022527195],[-71.70630945787991,0.30482427564339787],[-71.70526412113594,0.3084558625002387],[-71.70928446029336,0.3212791955058947],[-71.71179485042916,0.32348452079429535],[-71.71978237060705,0.3168167978153633],[-71.73305847543156,0.3114801509644849],[-71.73616417232023,0.3059169258854695],[-71.7393984276091,0.29185023158572676],[-71.74382392169673,0.28945859262222484],[-71.75172043499612,0.29428240969645003],[-71.75724382746796,0.3051286709747387],[-71.75853416493095,0.3345467364895285],[-71.75999816931142,0.3352818425192936],[-71.77264064144418,0.3306803490065704],[-71.7911276680785,0.3359145012760223],[-71.79482056142234,0.33903913693364984],[-71.79504964905027,0.34299205859861104],[-71.79126491990331,0.34846321750342213],[-71.78278013234097,0.3492935902205545],[-71.77898833882233,0.35159295526443657],[-71.77894280144449,0.3587638036363501],[-71.7714663071551,0.36998264084280663],[-71.77215222175073,0.3728320570548931],[-71.78848764996229,0.36763202542289264],[-71.79789446298213,0.36804224748942715],[-71.81687700864865,0.3760331903239944],[-71.82126427141407,0.37552660113658476],[-71.82185203659793,0.3718946173008817],[-71.81961664993474,0.3686781365840943],[-71.81089552936697,0.36711823199561877],[-71.80665361021204,0.3609147315145833],[-71.81157480228086,0.3517654045059544],[-71.82485832628964,0.34307322842443],[-71.83384600578853,0.3422886172855897],[-71.84288649786765,0.34619234751642125],[-71.85690200864008,0.3557481499755113],[-71.856994206455,0.3596091340215253],[-71.84654172861804,0.36181941228903725],[-71.83942252657249,0.370003725971344],[-71.83755326338905,0.3741414721266665],[-71.8415749806594,0.39018205923787264],[-71.8408961026675,0.3986859583474711],[-71.8288938956523,0.405631228137338],[-71.82967289663719,0.40857284010752437],[-71.83227448597029,0.41008836328751386],[-71.8464727437792,0.41072666407990255],[-71.85281318755227,0.415826873024173],[-71.85368323141114,0.4182631021699308],[-71.85150096380403,0.43324822134991336],[-71.85273653567447,0.44023457227621066],[-71.862098749256,0.45608909459537017],[-71.8647001143886,0.4584784247054472],[-71.87040688227535,0.4589360394601272],[-71.88259099094722,0.464584532708443],[-71.88834474631574,0.46931663842104854],[-71.89227358391378,0.4681204774963703],[-71.88957294219642,0.4564003578659026],[-71.89550054857364,0.44665294319582927],[-71.90512939307729,0.44260440311614957],[-71.91115704737115,0.4436595882256711],[-71.92402773706942,0.4511461890197097],[-71.92667502833115,0.45799435943763456],[-71.90631983071933,0.4689992394625051],[-71.90596085902882,0.47225191621373597],[-71.910470631924,0.47936949126318495],[-71.92796455640985,0.47927569010641946],[-71.93154284114786,0.4834203895616156],[-71.93367967319296,0.4894991934441464],[-71.93249680797317,0.49689069313001255],[-71.91651306390838,0.5141785619582038],[-71.91867193650512,0.5210153320907693],[-71.9326184727231,0.5449315654026918],[-71.93287831283925,0.5525873233937659],[-71.93640345178164,0.5543819525036042],[-71.93326705485532,0.5574675803649711],[-71.93956980003946,0.5645438284802822],[-71.94267499710509,0.5731371928330304],[-71.94728318680706,0.571527466375187],[-71.94874739687606,0.569044431781947],[-71.9465044192786,0.556175596365506],[-71.94828281236641,0.5505668853307384],[-71.95124231306573,0.5463367860656945],[-71.95781919268853,0.543438143452363],[-71.95987214187647,0.5451836479768986],[-71.96640245773574,0.5597520638455649],[-71.97088198619332,0.5633811166200644],[-71.9777714393224,0.5653543738541202],[-71.99000086117167,0.5657627097570526],[-71.9939758943508,0.5682432709460841],[-71.99602911916128,0.5755046284303376],[-71.99370906699619,0.5889274189828484],[-71.99563205395992,0.5931549060038606],[-71.99727211021604,0.5947630980255099],[-72.01402697945292,0.5968696342108615],[-72.0155218988155,0.599515967992545],[-72.01457613484774,0.601781262792656],[-71.99847045760953,0.6098902862549949],[-71.99432727510703,0.6157320300231959],[-71.99640973750991,0.616564323870989],[-71.98971871413733,0.6262228245431061],[-71.98708695955673,0.6350977692584365],[-71.99982812514736,0.6359694555399642],[-71.99891276913951,0.6516137621514417],[-72.00371166807997,0.6617221323776334],[-72.01886360989249,0.657075778202227],[-72.02831688383156,0.6662632419163401],[-72.03735828813916,0.6674555328118004],[-72.03767863255712,0.6689717697309447],[-71.81460356961225,0.8961041772519138],[-71.64898020802792,0.6163237598530031],[-71.63507858903688,0.5960002290148054],[-71.63075309761444,0.5869646580331391],[-71.6271820757375,0.5739731561637313],[-71.6195368366565,0.5595021677401633],[-71.59293310100884,0.5250407106165085],[-71.58426525582041,0.517341084409793],[-71.57291974843429,0.5262342510696385],[-71.55563928027851,0.5361829741067936],[-71.54980269620643,0.5354041027056269],[-71.5468880191458,0.5411800354086154],[-71.53845741199228,0.5440235154505331],[-71.53252858793917,0.5492949508181368],[-71.52810314527363,0.5489745632056042],[-71.51971816291558,0.5554842680484171],[-71.51265402882467,0.5557143635500097],[-71.50969290935683,0.5598401242362456],[-71.50567976518334,0.5608942500499552],[-71.49483079910118,0.5686883129909575],[-71.48566790179353,0.5689642214929904],[-71.47413133241315,0.5768034608285006],[-71.44887745739612,0.5880362488577475],[-71.43332877639853,0.5930341462833439],[-71.42863652386194,0.5930798903781351],[-71.41700813616194,0.5988112514107797],[-71.40059767689797,0.6004630864190972],[-71.39179230323373,0.6049557532298877],[-71.3785705865634,0.6032146689512956],[-71.37487827943175,0.6003271859678421],[-71.3680413005253,0.5986774099014269],[-71.36064877651069,0.5886393265222409],[-71.33685133242346,0.586899352961666],[-71.3127721372523,0.5888717730434792],[-71.30388457046195,0.5929976201188651],[-71.29171456585078,0.593961333493894],[-71.28514619967513,0.5966661126354893],[-71.27740162127435,0.6052844300891138],[-71.264171916691,0.601984542684022],[-71.25537466875107,0.6033144906106145],[-71.23070878517535,0.5977691450047473],[-71.21233584881179,0.5974946917489206],[-71.20170818093396,0.5997877503832001],[-71.19455111780559,0.5967621444841029],[-71.18433551702014,0.5963045379569962],[-71.18105438017909,0.593462799068277],[-71.18196231803097,0.5879153852644663],[-71.18023031489986,0.5865404851438143],[-71.17649208986671,0.5870454545342909],[-71.17421129335253,0.5842945857411905],[-71.17503542033825,0.5824615278481815],[-71.17909415228331,0.5823688147835924],[-71.17868211090195,0.5810403488426346],[-71.16595601507959,0.5733848561897616],[-71.16390362536441,0.5735689494574672],[-71.15907352553484,0.5799406506840228],[-71.15027720936382,0.5767777754766144],[-71.14972756340194,0.5792075768566747],[-71.1474009703424,0.5783364829579796],[-71.1443486784168,0.5733403698801567],[-71.14539453863802,0.5698558050519864],[-71.14247960549523,0.5681602941467645],[-71.14525671911298,0.5651807182495077],[-71.14101505912555,0.5613762131812905],[-71.13891643989069,0.5643098732338672],[-71.13827553611031,0.5587635526645158],[-71.1306153475889,0.5556923127139726],[-71.12852471832394,0.5584424759954913],[-71.12793034334004,0.5562430107726186],[-71.12564822013502,0.5562429675779867],[-71.12382521938139,0.5620182626466317],[-71.12123080857714,0.5630730518058158],[-71.11945378434632,0.5666023189164662],[-71.117438781602,0.559543191283808],[-71.11461587041049,0.5645400890632573],[-71.10617827499004,0.5645396663733777],[-71.10663518320473,0.5613766698097606],[-71.10531584880488,0.5602312614949483],[-71.10217242967309,0.5648153002812819],[-71.0922764935051,0.5594523726102807],[-71.0921853385309,0.5622943449554327],[-71.08730197977701,0.5616071355506733],[-71.08725614929307,0.565686953652687],[-71.08333421151588,0.5643116061595492],[-71.07977896594718,0.5651366690279929],[-71.07585789823236,0.5577567578324079],[-71.07234802651914,0.559819099785841],[-71.07052487149917,0.5572064906911578],[-71.06578640898334,0.5671539641706431],[-71.06040762787092,0.5641285649884935],[-71.05452566891489,0.5648620615057212],[-71.05228939470578,0.5632116138663719],[-71.05051165570745,0.5661000029077172],[-71.04723161312921,0.566236549220946]]]}}]}