{"type":"FeatureCollection","features":[{"type":"Feature","properties":{"code":"973007"},"geometry":{"type":"Polygon","coordinates":[[[-71.25954720917372,1.6635820581721532],[-71.2602338405938,1.6612379651347169],[-71.25749525140435,1.6563666103619425],[-71.25886032784211,1.6502986904865793],[-71.25566371663473,1.646392632890354],[-71.2567619081251,1.6385788032841333],[-71.25918072368216,1.6338903930088122],[-71.26374300371009,1.6320508127333255],[-71.26556659170438,1.6285566340245055],[-71.26342319613917,1.618353569953399],[-71.25995197021047,1.6133909398786273],[-71.25643418874586,1.5965691282897865],[-71.24940039370927,1.586137581314972],[-71.23844371164307,1.5786481111663306],[-71.09121487754447,1.3402906525892035],[-70.97474912768399,1.16090929092627],[-71.00642995905866,0.9042255615648855],[-71.0113569659415,0.9141100809924865],[-71.01374644003351,0.9326249239115896],[-71.02016346266493,0.9426190465152899],[-71.02286874060121,0.9429400985017082],[-71.02558478324528,0.940596762397945],[-71.02772818189584,0.9278715932022692],[-71.03079475683109,0.924050810974336],[-71.0385894409514,0.9202747875932573],[-71.04991348988437,0.9212538113920914],[-71.05876294979407,0.926422284236935],[-71.06911418157887,0.9298882723078918],[-71.08004431440145,0.9416495450657862],[-71.08482398352368,0.9526183884647708],[-71.09277549175829,0.9588952981443413],[-71.09587032315176,0.9594211192068656],[-71.10027589013714,0.9588739990998079],[-71.10273835485162,0.956246874567455],[-71.10253527550651,0.9343743385745711],[-71.11272085091264,0.9265869234860133],[-71.11598887716843,0.9147056695385913],[-71.12646916820489,0.9086723495548767],[-71.13904471238385,0.9099347905145692],[-71.14374463710163,0.9158592416301303],[-71.14830028161845,0.9292641804773893],[-71.14652810135192,0.9430106167483245],[-71.13840992989333,0.973942739912502],[-71.14568304350405,0.9849903116147516],[-71.14895023672142,0.9956646532994],[-71.15299197571073,0.9986610791989392],[-71.16458438232081,1.0028666819916339],[-71.17370706238381,0.9999778106107442],[-71.17557552543894,0.9931288853160254],[-71.17233627294786,0.9824083850742227],[-71.1729280398016,0.9788425311209608],[-71.17861430877201,0.9704933179936575],[-71.18758696889637,0.9638634386141121],[-71.18973763349334,0.958201389464989],[-71.18855383650458,0.953313290619576],[-71.18103070029008,0.9522239848726031],[-71.17807599933201,0.9475160218481165],[-71.18055956768694,0.9429878161776628],[-71.19195684686946,0.9413223152251362],[-71.19640632012289,0.9460807233551805],[-71.20172789206327,0.9559592767877234],[-71.21008670775836,0.9600047582793536],[-71.2151747903369,0.9653284704086786],[-71.2116994578372,0.9775979377527619],[-71.21829619874194,0.9921930242212511],[-71.22447720718509,1.0267040337623712],[-71.22776640804398,1.030541904591189],[-71.23825736814308,1.0325023556589485],[-71.24172770755433,1.031331610634254],[-71.24338121172485,1.025118413997177],[-71.24738107870547,1.0204426885318298],[-71.24766702069275,1.0168152761231681],[-71.24275519876375,1.007638533922318],[-71.23081376858767,1.0028030213997567],[-71.22857733908376,0.9973419515160913],[-71.2337874638506,0.987794660447264],[-71.2395023554048,0.9802399767584689],[-71.241884946131,0.9794254420561401],[-71.24866730856905,0.979191788143396],[-71.27843082586901,1.003479266578836],[-71.29286650066177,1.0063579265539602],[-71.30431088148327,1.0117063665551882],[-71.306236122793,1.014598226590067],[-71.31386589512692,1.0192765581286949],[-71.3188550600471,1.0192677124946385],[-71.32774372110026,1.0155122857318588],[-71.32942194285829,1.013238282080522],[-71.3288271205019,1.0111458890366976],[-71.3206633828691,1.007151542735528],[-71.29470071658108,0.9888854574359129],[-71.28627007548891,0.9803816868815716],[-71.28439318948955,0.9756718130108766],[-71.28688791747425,0.9739850479808752],[-71.29364779610194,0.9790060359978838],[-71.29739363058133,0.9780042311688248],[-71.30155925884179,0.9735754512073527],[-71.30833447463277,0.9810370299949227],[-71.31605549244387,0.9828016697209137],[-71.31875628328538,0.9811725170123395],[-71.31948111620284,0.9719774716199936],[-71.32172407631674,0.9677500442485893],[-71.33643311935856,0.9543662717767916],[-71.33848314776975,0.9544017921244858],[-71.34104636385553,0.9606534761659873],[-71.33862030703466,0.9786055717939917],[-71.33919252936676,0.9865434387670575],[-71.34969841525219,1.0056910576853397],[-71.35354312728066,1.0052764287426044],[-71.35510746548482,0.9977724781232382],[-71.35866254753114,0.9921951695523603],[-71.36680313595127,0.988535252189422],[-71.36929024831915,0.9902832578861194],[-71.37051119779386,0.9990813131533969],[-71.37280885253779,1.0026870480506886],[-71.37833221312792,1.0054453761373452],[-71.39264510422532,1.0087358409520562],[-71.39794002922008,1.0123651364390298],[-71.3973217696871,1.01776187107248],[-71.39008935668909,1.0294800777998603],[-71.38742687327448,1.0379291814920748],[-71.38819692989483,1.0459223807295643],[-71.39454463858584,1.0591698393160982],[-71.39359104302832,1.069192329449777],[-71.39725320856655,1.0787384316390671],[-71.39922147682597,1.079614316022969],[-71.4016325656944,1.0783604121646704],[-71.40462342669144,1.0690233090356287],[-71.40919341489604,1.0662306669643158],[-71.44067240619893,1.0683980900320762],[-71.44712686208118,1.0705813007210168],[-71.44696622655886,1.0890236374141296],[-71.4440444851266,1.097575091705835],[-71.4359800991549,1.1053194870438006],[-71.43318017879591,1.118594416358519],[-71.43494269375964,1.122013734736413],[-71.46025658971047,1.1419206712782284],[-71.46464353880094,1.1517903626215684],[-71.47140321276856,1.158795786014366],[-71.47393612168179,1.1572021012029268],[-71.47029704879179,1.1427530042068383],[-71.47360090907034,1.1368726743037882],[-71.47698797857618,1.144076363930651],[-71.48137514055423,1.1470572325802095],[-71.50096739116884,1.1480186494430882],[-71.50620853479057,1.1462346307746998],[-71.50831910349905,1.1488987699817699],[-71.51676565768224,1.149813832883467],[-71.51731476268338,1.151790070543882],[-71.51389664758324,1.1524340575949168],[-71.51727687588948,1.157763544428974],[-71.51585777228092,1.163737451288398],[-71.52257176591718,1.1624940036051612],[-71.52334980119457,1.16442359111295],[-71.51987818754304,1.165849552376244],[-71.52029019498576,1.169295478618949],[-71.51860382487769,1.1717778508952392],[-71.52321971761415,1.1717758947975767],[-71.52499748438044,1.1749000985093971],[-71.52952246382665,1.1761843630193312],[-71.53271922827196,1.1747592800459188],[-71.53368039008109,1.1788940704574884],[-71.53619060949546,1.1798122711372798],[-71.53368068421565,1.183489301783709],[-71.53258205358037,1.1897854042575773],[-71.53418406671932,1.1936898657110646],[-71.53751824754016,1.1929532694680915],[-71.53601507389794,1.1998927223871192],[-71.53870830568695,1.2043030263787387],[-71.54442316638784,1.2075168496000401],[-71.54249989454553,1.204025393178597],[-71.5481607877253,1.201312384439916],[-71.54852746245024,1.2064128350681926],[-71.55054149228795,1.2076530421290386],[-71.55309804200931,1.204618629676645],[-71.55565396335231,1.204709680778194],[-71.55834685164155,1.207143686431266],[-71.55615707126185,1.2103156612980683],[-71.55817157521153,1.2134390823650847],[-71.55588230844478,1.2161970504969304],[-71.5553407182731,1.2206088889248008],[-71.54826081712997,1.2228168151443128],[-71.54506333688869,1.2260351984797353],[-71.54392663228293,1.230860325789763],[-71.54484200474582,1.2381663248784207],[-71.54584971283492,1.2392226639004775],[-71.54822205101766,1.237704867862476],[-71.54950363437797,1.2410128028302552],[-71.54932092230854,1.243173061767493],[-71.54708504404977,1.2439546636834962],[-71.54859603282671,1.2502499310620578],[-71.55297558535864,1.2500639012370698],[-71.5549440397661,1.25199304754301],[-71.54672727049484,1.2566373510040307],[-71.54562857095385,1.2603139589606371],[-71.5522505570371,1.2595762232033394],[-71.55070148297682,1.2683073392039432],[-71.55550052898451,1.2740948953642715],[-71.55669144073858,1.278276353411968],[-71.55363150748508,1.280620653166352],[-71.5536702807965,1.2753822256613603],[-71.55207525489601,1.2782779824649424],[-71.54745909476452,1.2748334158231955],[-71.53910478673299,1.275434942596405],[-71.53526703211816,1.278055107658247],[-71.53207077572347,1.276448268038564],[-71.53006364056444,1.2773683466543844],[-71.52837710693399,1.2842611669042867],[-71.53467947159436,1.282190682771386],[-71.53646475113328,1.2900017808343023],[-71.5343211375382,1.2961143597975706],[-71.52796527329804,1.292165453172231],[-71.52701187417301,1.2929465388100994],[-71.52719458727086,1.2964848870682317],[-71.53057542544349,1.2963911990401016],[-71.53126205686357,1.3020430460394437],[-71.52769860020982,1.3040665365198265],[-71.52664547507061,1.3002528649435021],[-71.524776841294,1.3006676718067638],[-71.52669914845723,1.3104077721936278],[-71.52327314006078,1.3063658059185173],[-71.521304494363,1.306918269812968],[-71.52135041226455,1.3103186936448878],[-71.52633312679325,1.3150494798657633],[-71.52674477942332,1.31739323660247],[-71.52386846326868,1.3189566142413582],[-71.52336500054656,1.3153264744030935],[-71.52044284465194,1.315649239774757],[-71.5225940049582,1.32313885596227],[-71.51665834896141,1.325300950669373],[-71.5150640378285,1.3370649971366788],[-71.51359937113102,1.3331136952687075],[-71.51186732480534,1.3338041432389787],[-71.51040258920222,1.3460493609368882],[-71.51050133408222,1.351380914940421],[-71.5135154461077,1.3522073929457292],[-71.51223265638436,1.3556549225303343],[-71.50707499966944,1.364710932778621],[-71.50146796808133,1.3679301337258494],[-71.49681413712881,1.3758369273366498],[-71.49256445323283,1.378320098712777],[-71.49466973986057,1.3863172266006814],[-71.49234240735086,1.3875128445076825],[-71.48805512051109,1.4007049276352745],[-71.48221051355893,1.4076016960760285],[-71.48312661210224,1.4142197452812866],[-71.48130289555263,1.420562539045477],[-71.48399528401876,1.421067560886513],[-71.48527797912539,1.4259390462714805],[-71.4836372255852,1.4331555461783978],[-71.48751272095518,1.4362796203064363],[-71.48810765644026,1.442024430281947],[-71.4913045401849,1.4439540949229581],[-71.4906713661785,1.4462062935359654],[-71.47181920542607,1.4579786117665208],[-71.46064103797903,1.467679979979664],[-71.45584991097871,1.488548616206117],[-71.45671940153551,1.4952585598357473],[-71.45238650944066,1.498523644746001],[-71.45138644370792,1.5090493271214314],[-71.4427577780657,1.5237133079258456],[-71.44335976866648,1.5424657148961387],[-71.44518421849563,1.5516114999487627],[-71.44053746117072,1.5660909843359718],[-71.44099545336383,1.572203606493872],[-71.4383478792804,1.5726180523738549],[-71.43510537793946,1.5696315817979212],[-71.43140475585005,1.5606703538405782],[-71.42752123862851,1.5606258922136362],[-71.42332459871233,1.570417130876308],[-71.42122666339179,1.5710146508374692],[-71.41889957050915,1.5682580515626796],[-71.41588588940107,1.5689480603879815],[-71.41178116962033,1.577865844876385],[-71.40721085848475,1.5779135718083808],[-71.40351804227413,1.5866934483256614],[-71.40036780559683,1.5862348267257858],[-71.40050479105497,1.5896361730706303],[-71.39772001451206,1.5903264225515272],[-71.39398173908518,1.594279913973594],[-71.3942105500621,1.599519693880552],[-71.39854319430225,1.6001617094072458],[-71.40055741954399,1.6026892735047227],[-71.39795604824076,1.6149613911451297],[-71.39311878736589,1.6242476768724714],[-71.39462974323271,1.6322444273218935],[-71.3924860103383,1.6435521343032633],[-71.38746561470418,1.6527917020007408],[-71.38655778895247,1.6594566317297677],[-71.39711674041502,1.709460255696115],[-71.39131840617705,1.7160341456365131],[-71.38848737748873,1.7223321517574846],[-71.38853384560707,1.7299616052742977],[-71.39114232550497,1.7398424027683745],[-71.38721304773355,1.7355232455233818],[-71.38127730534757,1.7383755043506426],[-71.37717279228383,1.7365832128906504],[-71.3744336590483,1.7381471253195855],[-71.37292337578293,1.737274341689897],[-71.36333249726329,1.720730551024019],[-71.36269185059354,1.7262004613995714],[-71.35881591813552,1.7270750520028173],[-71.35333029212984,1.7173332032636495],[-71.34219168166743,1.7043285363015457],[-71.33830808011356,1.7059387697815396],[-71.33712452583728,1.7097078419196237],[-71.3340651767391,1.7108579810700348],[-71.33096077363115,1.710583072214149],[-71.32735126229295,1.7072745685176187],[-71.32110332589599,1.706632656863576],[-71.3192261179941,1.7089774050189135],[-71.31931739329605,1.7141715004806883],[-71.31661655103244,1.7149602202474057],[-71.31045933766381,1.6988223517299161],[-71.307858388022,1.696478501404897],[-71.30297526169613,1.6956528153003205],[-71.30114407556852,1.6870119225050075],[-71.29479623112309,1.67864852407007],[-71.27826969875116,1.6756653630221194],[-71.26918300594878,1.6650964932599663],[-71.25954720917372,1.6635820581721532]],[[-71.29137172733806,1.0098866681304912],[-71.29184685852573,1.0116761776534986],[-71.299918480619,1.0145830652904806],[-71.30045800053585,1.0129580644043017],[-71.29137172733806,1.0098866681304912]]]}}]}