{"type":"FeatureCollection","features":[{"type":"Feature","properties":{"code":"973047"},"geometry":{"type":"Polygon","coordinates":[[[-70.54553070966529,1.9301190968159858],[-70.54759557953042,1.9240856914715323],[-70.54413751972288,1.9176161452522251],[-70.54870522889888,1.9119146244792091],[-70.54305242236268,1.9065431021140853],[-70.54841908430848,1.906088034811546],[-70.5470895755268,1.8966653848053738],[-70.55200967950339,1.8960646190795956],[-70.55380249855443,1.8890903400115917],[-70.56249396501062,1.8881769020490538],[-70.56319040160167,1.8814689196593122],[-70.56722795688682,1.8837238909534335],[-70.5701538614544,1.8822686345050101],[-70.57159680538899,1.8800832023802627],[-70.57130668483978,1.8749699784959262],[-70.57947370114732,1.872977584003479],[-70.58311994639541,1.8608185261344943],[-70.58950881438443,1.8609559641073474],[-70.59007482286682,1.8530796823292235],[-70.59503187981159,1.8507308265744769],[-70.59484183494698,1.8426385872940045],[-70.58408273211529,1.8273321549032175],[-70.57262015094653,1.818146866345046],[-70.56022005083378,1.8150826640266473],[-70.55320275098677,1.8077820889438385],[-70.55063128884882,1.799776485661198],[-70.5447830782341,1.7955369092983346],[-70.54057574045885,1.7809386120322301],[-70.54057668971132,1.7776424979827539],[-70.54619523059966,1.7665786038692772],[-70.54326479677127,1.7589471037518933],[-70.84673168416737,1.3345906744800118],[-70.97474912768399,1.16090929092627],[-71.09121487754447,1.3402906525892035],[-71.23844371164307,1.5786481111663306],[-71.24940039370927,1.586137581314972],[-71.25643418874586,1.5965691282897865],[-71.25995197021047,1.6133909398786273],[-71.26342319613917,1.618353569953399],[-71.26556659170438,1.6285566340245055],[-71.26374300371009,1.6320508127333255],[-71.25918072368216,1.6338903930088122],[-71.2567619081251,1.6385788032841333],[-71.25566371663473,1.646392632890354],[-71.25886032784211,1.6502986904865793],[-71.25749525140435,1.6563666103619425],[-71.2602338405938,1.6612379651347169],[-71.25954720917372,1.6635820581721532],[-71.24863671446099,1.6700651561785662],[-71.24749973114729,1.6781548942868199],[-71.24416524899277,1.678109932836776],[-71.23037953855896,1.691947565219607],[-71.2277776756602,1.6919482285650247],[-71.22289386953383,1.6956724266706829],[-71.22175700860481,1.700452188352756],[-71.2181026314617,1.70128108731177],[-71.21727892819428,1.7036711229334287],[-71.21426487581846,1.7047290221027538],[-71.21244170331494,1.7107501889811942],[-71.20970319948623,1.7113483794868785],[-71.20856573280457,1.7179672298489095],[-71.20258383391837,1.7258742322335365],[-71.17419444849253,1.7496426639572746],[-71.16287176635961,1.7524947674896794],[-71.15999562092645,1.756493590601167],[-71.15634146695538,1.7535988005335525],[-71.153693409504,1.7537831673669757],[-71.15026839355454,1.7600807425705511],[-71.13889940579725,1.7660579743845801],[-71.1378546984601,1.7683102491023988],[-71.13899169720048,1.7722628282959931],[-71.13406254190124,1.7761249405434683],[-71.12927162161787,1.774884984422556],[-71.12425129591782,1.7789303363304612],[-71.11611795801741,1.7757601437544963],[-71.11050185350939,1.777047603635367],[-71.1049326644922,1.774979988857126],[-71.1043912141887,1.7810013007459702],[-71.09671576460869,1.7868861815071568],[-71.09776841563587,1.7894601191061952],[-71.10489451955914,1.7951581411177813],[-71.10443700867717,1.7963991843024019],[-71.09357229302628,1.791667003513453],[-71.08717836818539,1.794563387666983],[-71.07919050245084,1.8014126873147802],[-71.07567243713606,1.793094299695099],[-71.06918808237293,1.7998517470846878],[-71.06658572685018,1.798932454198905],[-71.0642129238114,1.8003124965321717],[-71.06375510336818,1.7976459055181522],[-71.05932990958576,1.7979687233403752],[-71.05923830826754,1.8004509464925036],[-71.05485161423081,1.8046339389764512],[-71.05124252455403,1.81208003250498],[-71.04526866191765,1.8066571013836779],[-71.03357978637092,1.8061531048998631],[-71.02891893218441,1.8099228496393494],[-71.02891875940605,1.8160360487534604],[-71.02129698424113,1.8086828657504839],[-71.01832865950502,1.8133257458470666],[-71.02125072181133,1.8175079536293879],[-71.01956447203099,1.8195764652094795],[-71.01412471250472,1.8188870333404452],[-71.01412465182665,1.811625358067431],[-71.01266697339611,1.809878829214199],[-71.00905921041016,1.8118554350571117],[-71.00431345829378,1.8193939588285843],[-70.99672891377645,1.8193487227844116],[-70.99609640208706,1.8225201196664784],[-70.99883502727192,1.8295979279291146],[-70.99678305099064,1.8296908919336943],[-70.9941734583179,1.827208650269597],[-70.98974844554135,1.8366777519390212],[-70.98546072984107,1.834149689046967],[-70.98668807211448,1.8386540070829938],[-70.98235543815872,1.8368160990551132],[-70.97737299925262,1.8370923952799671],[-70.9757778951905,1.8389769184934721],[-70.97614459562658,1.8422860084021977],[-70.97435899007138,1.840815464155753],[-70.97166585084221,1.8412752149855578],[-70.96285314746814,1.8508361174910988],[-70.95833674728937,1.8534107102080384],[-70.95587265249355,1.8524914666875247],[-70.95472797642981,1.8552955008166236],[-70.95746740277139,1.859753357933414],[-70.95427065580964,1.8608109300580509],[-70.95368246793589,1.8660969549112565],[-70.95185211587517,1.862051620486909],[-70.94902160449345,1.864074334493182],[-70.94779244290521,1.8695905741473666],[-70.94487017491042,1.8670625709049204],[-70.94271854974812,1.867706035507183],[-70.94149062949003,1.8731296721400668],[-70.93778988604447,1.8718430051883956],[-70.93824801604882,1.876623465182945],[-70.93518799640617,1.8802546992840234],[-70.93322793203276,1.8797945597029297],[-70.92469003158504,1.885402876844239],[-70.92605542066929,1.879703062257363],[-70.91678608264624,1.8841163466754551],[-70.91619893761322,1.8862304912785248],[-70.92098932310648,1.8872415675169236],[-70.92094386389027,1.8912862385958533],[-70.91861729551334,1.8956066299718373],[-70.91724309267676,1.8912861964296894],[-70.91619815291159,1.8916082295502292],[-70.91537484765138,1.8958828408359523],[-70.91363524433007,1.8963423931763828],[-70.9113992971657,1.9013982700773795],[-70.9134589332869,1.9025934303274994],[-70.91112453640551,1.903191285560922],[-70.91194831577769,1.9060405382506929],[-70.90806527986723,1.9069594187309917],[-70.90843188568653,1.908293107103077],[-70.91098747175727,1.908200780732841],[-70.90925521048712,1.9107749600158854],[-70.91026273757029,1.9131188977584657],[-70.90843097448646,1.9161065572139933],[-70.90628790390906,1.9151414574984074],[-70.90464696833453,1.916842174379667],[-70.90975922445443,1.9239659427099696],[-70.90865982762949,1.9258048061610111],[-70.90569253030742,1.925896305663457],[-70.90286186363085,1.9200595570405312],[-70.89852849639561,1.9188183338785052],[-70.89701706744529,1.9202432872680788],[-70.89724592161673,1.925070026147523],[-70.8949190015125,1.9306769024408368],[-70.8922263281678,1.9309065845085343],[-70.89103625150904,1.9266328165456912],[-70.89263771340279,1.9220364580464206],[-70.89181416645863,1.9184975935101534],[-70.88998334131435,1.917347969609466],[-70.88596944020713,1.9186818564709256],[-70.88295565522634,1.907604433196127],[-70.88058310209908,1.9058121756747255],[-70.87715735389855,1.9076042779013278],[-70.87496808156948,1.9146368501197344],[-70.8734119595926,1.9141773738840584],[-70.8712675376417,1.9085700666733487],[-70.86756771568065,1.908754417051739],[-70.8666973972276,1.9146833100105027],[-70.86208932888184,1.9176711586994202],[-70.84592951442943,1.9082490599384414],[-70.84510549337324,1.9098117906869447],[-70.84934747320631,1.915970347201437],[-70.84702025073994,1.9169816918633273],[-70.84259502404734,1.915235180493596],[-70.83742967458244,1.907421452703204],[-70.83309629809116,1.9063641490020586],[-70.8262454321254,1.9079272078237182],[-70.82515410034665,1.9108685441713078],[-70.82272744497226,1.911696254250785],[-70.82122437314587,1.90516947109154],[-70.81657032724883,1.907053804043187],[-70.81337352680805,1.902319434728554],[-70.81177158154634,1.9053991181921788],[-70.80816292278695,1.9049396512124872],[-70.8064769239466,1.9091680689740542],[-70.8086206835805,1.912569251796583],[-70.80757512983513,1.9156025782136794],[-70.80250227951876,1.9147751530127834],[-70.80090767630816,1.9127987436024227],[-70.796245098452,1.9133043681107438],[-70.79136253262732,1.91036291966293],[-70.78908152219714,1.9107303688051616],[-70.7888070586568,1.9134880715987492],[-70.78657155269428,1.9152804155093577],[-70.79076733180403,1.921302142888976],[-70.78725055821309,1.9220830547200762],[-70.78478596462264,1.9193251297828624],[-70.78282522764783,1.9199690931797022],[-70.78168030270098,1.9233237904003886],[-70.7827338495016,1.925484212859942],[-70.78036039134491,1.9278281146071095],[-70.7767972956745,1.9276439637465614],[-70.77154876269327,1.9202902037873173],[-70.7681231286499,1.9186352669963753],[-70.77260155256022,1.9146828009314731],[-70.77003737796599,1.9077423062001913],[-70.76478796566641,1.9107758043671765],[-70.75866961199841,1.907833631895869],[-70.75533524194412,1.9112352970578854],[-70.75237515606096,1.9060873694092493],[-70.74894954567179,1.9073734162100209],[-70.7488581161034,1.9146358587011605],[-70.75150527880982,1.9203350356536362],[-70.74232710296008,1.921529566496929],[-70.73931314622939,1.9245175715090568],[-70.73689429776215,1.9185418473917366],[-70.73584154183385,1.9223569402756766],[-70.72862455958739,1.9175301756851582],[-70.73008888175661,1.9143128866125494],[-70.72593047316263,1.914680483850475],[-70.72716654485617,1.9082922277847274],[-70.72575554228933,1.906591062502514],[-70.72196330756879,1.9107279920744986],[-70.72196314507488,1.916564557634615],[-70.71780562196994,1.9101758644807774],[-70.71653098368199,1.91045150558773],[-70.71634824487302,1.9150017847199479],[-70.71310597698852,1.9149095879334936],[-70.71246428850651,1.9104051135741997],[-70.70570499917636,1.9085207292004043],[-70.70571222707042,1.9065442159173358],[-70.70885543228621,1.9073713912067092],[-70.71054924626122,1.9060848877774106],[-70.71050405341163,1.9022242647147323],[-70.70749030956858,1.9028672027544076],[-70.70652831472097,1.8986843059156513],[-70.70346969787391,1.8999252370000477],[-70.70210384393363,1.9032803116591026],[-70.6996389654646,1.90199350689619],[-70.6987693710351,1.9004768205476807],[-70.70050186473327,1.8983169668168216],[-70.69822006960146,1.8957423833558664],[-70.69762522050547,1.891927565066112],[-70.69159729881659,1.8963860793576828],[-70.6881335260108,1.9029575545150124],[-70.68525727670493,1.9004297590180386],[-70.68616535442504,1.894868297717892],[-70.68233503647804,1.8973500662984293],[-70.68370073306664,1.9009350389981137],[-70.67233327871713,1.895694560778736],[-70.66630570978401,1.901714591228199],[-70.66580193750059,1.905805834298178],[-70.66347500094128,1.9040126192967932],[-70.65977391296747,1.9046557547974317],[-70.66027757212214,1.9017601018665573],[-70.66443561870432,1.9002901798278344],[-70.65740132487315,1.8987268114449307],[-70.6566234788292,1.9018978031207325],[-70.6527477335477,1.8956002711117321],[-70.65164905251874,1.8954164030728862],[-70.649779616557,1.8999206532317316],[-70.64694876064698,1.8972085063278996],[-70.64069331867654,1.8960128472832025],[-70.63900669248625,1.8971158529129752],[-70.64192883089731,1.9001497830258245],[-70.63680874421607,1.9015742448198694],[-70.63918176219931,1.9055272796135228],[-70.63813691807934,1.9103987032919463],[-70.63370453754055,1.9139368355771467],[-70.63133065772246,1.9137988792692227],[-70.62973659650106,1.9106733889758516],[-70.62146654979358,1.9125568014714531],[-70.62119186410968,1.9153145546587211],[-70.62466300364923,1.9174294315129146],[-70.62397591662909,1.922254661667182],[-70.6156214008522,1.9198640655444024],[-70.61329495485995,1.9145779902975164],[-70.61179141097836,1.9160948298839457],[-70.61210462828967,1.9198179337267902],[-70.60959479659812,1.9176113773926886],[-70.6051238340383,1.9186216792137998],[-70.60288069086164,1.9275841053066642],[-70.60160588905131,1.9285490414998208],[-70.59882108885421,1.926480116485834],[-70.59786054719586,1.9306163446599953],[-70.59461755528781,1.929972693909633],[-70.59357207250503,1.9317651581479822],[-70.58557586610164,1.928684603593581],[-70.58220459141603,1.920594838745842],[-70.58041855391497,1.9220653058590642],[-70.58028113856784,1.9262014764404398],[-70.5773132365216,1.924868409247722],[-70.57342973678351,1.9287287988539106],[-70.57110280948018,1.9254653769352217],[-70.56804371029358,1.9254184079654237],[-70.5638933153237,1.93364472632544],[-70.56219895833101,1.9335988516184557],[-70.56097121805033,1.930794716701996],[-70.55749887214773,1.9348391718079938],[-70.5527924199053,1.9321264818865416],[-70.55014401895414,1.933597301755583],[-70.54804578949899,1.9298735088562466],[-70.54553070966529,1.9301190968159858]]]}}]}