{"type":"FeatureCollection","features":[{"type":"Feature","properties":{"code":"973048"},"geometry":{"type":"Polygon","coordinates":[[[-70.11015889688508,2.07992101490629],[-70.10232403357247,2.077120179233418],[-70.10391813798844,2.076158344822886],[-70.10255260286539,2.0731337642809535],[-70.10733685267058,2.0708008123613695],[-70.10702346463785,2.0634242024662512],[-70.11386712739221,2.05914424842166],[-70.11316543340297,2.0532630823948352],[-70.11587443738648,2.0469946573659854],[-70.11456170353074,2.0411396250920006],[-70.1172163255307,2.0341464298807637],[-70.1204060338319,2.0315441946858073],[-70.11905557876145,2.0222596418841476],[-70.12325194202657,2.0172808734893692],[-70.12353444387361,2.008455328982052],[-70.126364550049,2.005258314625223],[-70.12819627199514,1.995840506526406],[-70.13732822758118,1.981219289390367],[-70.14102927236047,1.9722607929763853],[-70.14136429882382,1.9599148650448228],[-70.14611026691313,1.9526497691720692],[-70.15153452575373,1.9525193503193918],[-70.15454835084375,1.9463496084640042],[-70.15506027559098,1.9406803396483951],[-70.1603091119627,1.9320441951721818],[-70.15695183849357,1.9204252845699443],[-70.16796218263352,1.8932302510384034],[-70.17453107640011,1.8854644671813503],[-70.17527046589299,1.879611132865989],[-70.17195989502704,1.8678096562331348],[-70.16703823604536,1.866294686355218],[-70.16608533674338,1.8689000140768144],[-70.15897441674542,1.8715433232090959],[-70.15665509580299,1.8686599755929478],[-70.15145913988869,1.8690644064996604],[-70.14190681047995,1.8628339124878721],[-70.13762665074688,1.8567005497296805],[-70.13858777861742,1.8559245651666743],[-70.13272088120209,1.8501553265960524],[-70.1324461440961,1.847183083493917],[-70.12389312348643,1.842279097268488],[-70.12403051312248,1.8394442695134785],[-70.12161906635606,1.8361949454848627],[-70.10805405660142,1.8303247035744334],[-70.10413975398149,1.8270732157027396],[-70.09822745699961,1.82116719222023],[-70.08986507466591,1.8072091261331593],[-70.08094661963293,1.8030828913349524],[-70.07667340497215,1.796949581027377],[-70.07430110072801,1.7984097410896993],[-70.0662824753062,1.7979882555206927],[-70.06214678809278,1.7915356703753673],[-70.06287899185776,1.7892960794391684],[-70.0609720825359,1.7834404866640057],[-70.05728699609921,1.7815604608296098],[-70.05838543647269,1.777858554215527],[-70.05560845758089,1.7773517737377915],[-70.05410491267094,1.774606050242653],[-70.05260177399572,1.7768450467390835],[-70.05083201468284,1.7702585779182414],[-70.04645979494614,1.769521091044055],[-70.04568981648742,1.7675077173526574],[-70.04122609930516,1.767639981231241],[-70.03909043968457,1.7644362449741493],[-70.03298631349031,1.764519825469165],[-70.02862266787889,1.7619533924151938],[-70.02319722118716,1.7643240933174411],[-70.01968809920857,1.7630393639515205],[-70.01737577578899,1.75814333992804],[-70.01432488871586,1.756905313165305],[-70.00484835860613,1.7578987176758574],[-70.00321570507924,1.7558390033930777],[-69.99956847046946,1.756795030188698],[-69.99956896000805,1.7586239506574657],[-69.99114587591157,1.7508855501109224],[-69.99151897840227,1.7483251056776794],[-69.97426181886772,1.743181642497973],[-69.9740405556305,1.741352307566899],[-69.9699433496508,1.7385577515640875],[-69.95645328250248,1.741877862262811],[-69.94753445517335,1.7402661200576404],[-69.94146884517988,1.744099099613834],[-69.93541109145883,1.7418047585117051],[-69.93103926047337,1.743262447226698],[-69.9289034548139,1.741842172222107],[-69.92643852389432,1.7433474747403466],[-69.92134175200499,1.7417864409219987],[-69.91947316965047,1.745213093123482],[-69.9145514427916,1.7435605433475985],[-69.91245361751436,1.7447469926895565],[-69.91036310034968,1.7431436168643017],[-69.91059242760468,1.7407663596409861],[-69.90654821418269,1.7385199347041862],[-69.90021609462337,1.7378259530054265],[-69.90066563507582,1.7402503694604547],[-69.89852233207046,1.741252915796565],[-69.8975679168442,1.7386453131600774],[-69.89489068453548,1.7379104467574393],[-69.8895648856963,1.7320963259268751],[-69.88819940405222,1.7345177598986083],[-69.88792421751685,1.7312713545898077],[-69.88296548421079,1.7317675904463954],[-69.88379061701329,1.7289791259086087],[-69.87783058384349,1.7242612044751695],[-69.87632025018439,1.728375066081469],[-69.8743138966417,1.7282803794356596],[-69.87277214714902,1.7258096594130734],[-69.87139911570841,1.7260822419320334],[-69.87040730631219,1.7221482837186954],[-69.86830869016268,1.7212304203679878],[-69.86740063918211,1.7225096599078142],[-69.86548542415846,1.7207247166695652],[-69.87004840249892,1.7187642141796573],[-69.8701861634027,1.717255525000212],[-69.86622677900499,1.7167929490387905],[-69.87027752406544,1.7144203609445299],[-69.86982772650231,1.7105795220305708],[-69.8719713822635,1.7093475178272115],[-69.87193339159688,1.7067414917931387],[-69.87807442242246,1.707572406499537],[-69.87839535305261,1.705789583909791],[-69.87435141422475,1.7034982756846375],[-69.87759398344292,1.6930314089083822],[-69.88224025842828,1.6918944276515617],[-69.88362181977112,1.6860890866347518],[-69.88603295800482,1.6854979430171966],[-69.88743615366451,1.6883803856039208],[-69.89158735081952,1.6845905985766194],[-69.89700370916466,1.687478971162875],[-69.90005568124462,1.6863846671852798],[-69.90551838738037,1.6885870974079467],[-69.90615946188217,1.6863928268481914],[-69.90902834445427,1.6855280753545685],[-69.9074866196442,1.6834683014220673],[-69.9109430761099,1.6834272963903913],[-69.90995150839768,1.6808196402749331],[-69.9156883808538,1.681101468492102],[-69.91495608350056,1.6793173881171697],[-69.91819886560637,1.6743827532762339],[-69.91969486277674,1.6779520957065301],[-69.92275358349644,1.6747544272602681],[-69.92735501941644,1.6763613255012046],[-69.92753772222989,1.6726117783443328],[-69.93242117457203,1.6680001423314366],[-69.93610522948086,1.6684623480535379],[-69.93989021471003,1.6656770644884205],[-69.9398900954107,1.6641228379311315],[-69.94517727417644,1.6614776848014117],[-69.9500530934182,1.6626729653792722],[-69.95205980588736,1.6594283187072278],[-69.95328722735081,1.6618533470855823],[-69.95706406217306,1.6630017800497967],[-69.96047440327618,1.6625945980593428],[-69.96139813491988,1.659120443126369],[-69.964122146965,1.661181612655355],[-69.96417562906134,1.6586211425110946],[-69.9669064740786,1.6600875843003564],[-69.96873017314465,1.6575747804099024],[-69.97924373326816,1.6622986205300094],[-69.97856474420439,1.6579533716983406],[-69.98011314566332,1.6574526065809323],[-69.98097557184843,1.6597850165113073],[-69.98120491555858,1.658322520856018],[-69.9836682698758,1.6580514192943383],[-69.98321127012974,1.6558100532662934],[-69.98717895200173,1.6552207114800694],[-69.9913214187082,1.6562774032578886],[-69.99441178049051,1.662226071109444],[-69.99818746859933,1.6613161247092876],[-70.00278855073503,1.6633339124759345],[-70.00415437690737,1.6611864885013574],[-70.00656567146427,1.662835515861616],[-70.00680203943682,1.6606868371871428],[-70.01108188755182,1.660920705015883],[-70.01353843460805,1.658545472795879],[-70.01659067408303,1.6634883865991128],[-70.01718532468959,1.660379158038836],[-70.0225564459621,1.6590597310791964],[-70.02911087057095,1.6615833490427008],[-70.02852333678663,1.6590219049633106],[-70.03667952359444,1.6558306807378926],[-70.04215756895036,1.648795989927919],[-70.04952787140746,1.6524629222972749],[-70.05372337592308,1.6501818326769353],[-70.05850744472241,1.6500044191433858],[-70.0633753624403,1.652708310739115],[-70.07498764575894,1.651762194015589],[-70.07640723273545,1.6485173838211153],[-70.08437163558239,1.649486998399368],[-70.09393952532639,1.648309881144769],[-70.10290424381759,1.6546313162147612],[-70.1152876780194,1.6583953212165738],[-70.11856803118724,1.6588564337042726],[-70.11943826325108,1.6557478931720198],[-70.12590024116196,1.6573104346871332],[-70.13786317401417,1.6715008537071299],[-70.14100712793612,1.6701781521865087],[-70.14378424258229,1.672971043140933],[-70.15229825025347,1.6757704842457315],[-70.15889009577177,1.6820430384712495],[-70.16066770621484,1.6808557005549574],[-70.1657270119432,1.6823715404952964],[-70.1698615113055,1.6896012240068217],[-70.17718610257799,1.69326850913194],[-70.17945969485237,1.6973862664784747],[-70.18742552003528,1.6999107534759332],[-70.18805812634139,1.703569577604469],[-70.19334570105752,1.7042615600109343],[-70.19548260920732,1.7028014164037018],[-70.20212781032353,1.706695841286603],[-70.20740764806652,1.7140646802700417],[-70.21122984131762,1.715623845408345],[-70.21373194220672,1.7187362014623773],[-70.21509821678,1.7181891574600172],[-70.21446477537853,1.7154905901111874],[-70.22225441087448,1.715544814742998],[-70.22830419210914,1.718570246835327],[-70.2344088530935,1.7160623897534037],[-70.24005449447066,1.7189037316633176],[-70.24473913139036,1.7247625300938125],[-70.25093361860121,1.7250435581827332],[-70.2537114932664,1.7298947236004096],[-70.25630559245258,1.7274732896286764],[-70.25790035198645,1.7281611623788535],[-70.27067158923631,1.7499889343826567],[-70.27390716298845,1.7524623612659411],[-70.28000230162354,1.754893170519665],[-70.28287975523557,1.7515580846693979],[-70.28743400621278,1.751608560628199],[-70.28916550129327,1.7490042500362506],[-70.29262957543273,1.752163963811313],[-70.29722320958774,1.7527170221455322],[-70.30682819525339,1.7585355375110225],[-70.31548851121414,1.7553446063917022],[-70.32646001108014,1.760158644006026],[-70.33324188500796,1.7613551402029657],[-70.34850945049908,1.7571643768073386],[-70.35588665689085,1.7595503973893756],[-70.36754482417246,1.7604317356040156],[-70.36904799781473,1.7627659195977685],[-70.37728754400246,1.764558608036566],[-70.38607706216834,1.7643850367642244],[-70.38621457418913,1.7690956274593646],[-70.38940346179311,1.7688245156132325],[-70.39103611737693,1.7703354889635534],[-70.3948662882566,1.768921779536015],[-70.39855192696695,1.7748251846038556],[-70.40246598070377,1.7735486930624802],[-70.4055630510166,1.7772105418404749],[-70.40904276468143,1.7773100282275323],[-70.41310878931239,1.7875998599370746],[-70.41793854152837,1.7870562283069944],[-70.42968843868357,1.7930595496508772],[-70.43852330705079,1.7935263144586315],[-70.44613778644447,1.7886408525397997],[-70.4639457468819,1.787882110844123],[-70.46700630337153,1.7845927536619683],[-70.46927837046564,1.7854637179768815],[-70.47350516740175,1.793516681037545],[-70.47924310943813,1.7971360767368196],[-70.48752864140465,1.7989734674581541],[-70.4903136997408,1.7972844182572771],[-70.49473122442737,1.7973343594259745],[-70.49983546692317,1.7925382177399456],[-70.50717430418143,1.7888870359677185],[-70.5166126945004,1.7890138799542115],[-70.5229980133343,1.7868020240558735],[-70.52741624250399,1.787721154447695],[-70.53780707035418,1.7665738596639358],[-70.54326479677127,1.7589471037518933],[-70.54619523059966,1.7665786038692772],[-70.54057668971132,1.7776424979827539],[-70.54057574045885,1.7809386120322301],[-70.5447830782341,1.7955369092983346],[-70.55063128884882,1.799776485661198],[-70.55320275098677,1.8077820889438385],[-70.56022005083378,1.8150826640266473],[-70.56957880267782,1.8167333944876987],[-70.57870256157702,1.8221510250162964],[-70.58993051901172,1.8339260305671132],[-70.59484183494698,1.8426385872940045],[-70.59503187981159,1.8507308265744769],[-70.59007482286682,1.8530796823292235],[-70.58950881438443,1.8609559641073474],[-70.58311994639541,1.8608185261344943],[-70.5795741758676,1.8728709129169943],[-70.57161466840705,1.8746669242536314],[-70.57157576859726,1.8802007266206147],[-70.57000535229781,1.8824053669662817],[-70.56722795688682,1.8837238909534335],[-70.56319040160167,1.8814689196593122],[-70.56249396501062,1.8881769020490538],[-70.55380249855443,1.8890903400115917],[-70.55200967950339,1.8960646190795956],[-70.5470895755268,1.8966653848053738],[-70.54841908430848,1.906088034811546],[-70.54305242236268,1.9065431021140853],[-70.54867545548797,1.9117609473989887],[-70.54412593740324,1.9177010534665442],[-70.5475184751379,1.9254425054020317],[-70.54553070966529,1.9301190968159858],[-70.5412858872171,1.9316188745410159],[-70.5401495590213,1.933962744406415],[-70.54018823977287,1.9417761348676663],[-70.53341267122613,1.9424212778881156],[-70.5314972669691,1.9397951334614731],[-70.52862069061848,1.9393924570777017],[-70.52838492942709,1.9352303697448292],[-70.5245545919397,1.935132572060411],[-70.52420390126832,1.9403528454980687],[-70.5202061374527,1.9425546010624544],[-70.51640604543132,1.9472778210317188],[-70.51888593401895,1.9512585055024942],[-70.51383505534852,1.9519297318820463],[-70.51072950449867,1.9543047923521613],[-70.50937175057169,1.9489066580084682],[-70.505312475609,1.9483992841193754],[-70.50646502645714,1.937836395778902],[-70.50446628236057,1.9375596768641685],[-70.49867440057102,1.9413957160368795],[-70.4991709706714,1.945191558533736],[-70.49698116355222,1.9482996434659299],[-70.4901070763828,1.9463714176160352],[-70.48632294270402,1.9472822073390716],[-70.4821336170711,1.9441678159973321],[-70.48163041351643,1.947734685023363],[-70.48444568338005,1.952630391258083],[-70.47788470964923,1.9537669745076869],[-70.47902150270107,1.957015267008444],[-70.47446670767778,1.9586108359266063],[-70.47523675504209,1.9613562591165419],[-70.48084420212103,1.9588463245807475],[-70.4811110027361,1.9614993360397648],[-70.47358816168457,1.9656527978252143],[-70.45906201788875,1.9623905575869571],[-70.45974061100208,1.965409349025947],[-70.46374669697462,1.9671058513497428],[-70.46255642182649,1.9720435447787281],[-70.46073259420507,1.9723159545193312],[-70.45750517188833,1.9667785711154693],[-70.4549575665315,1.967827819026354],[-70.45317226230998,1.9710273489535552],[-70.45900041932407,1.9742802499052914],[-70.45726890676008,1.979537693312409],[-70.45913031264263,1.9805458672860254],[-70.46191513032329,1.9787198408545237],[-70.4615877626714,1.9817832481868436],[-70.45735269500051,1.9858488830380452],[-70.45306542461583,1.9871249364629193],[-70.44609884755386,1.9845558993924897],[-70.44153616951866,1.988713163329919],[-70.43981281970287,1.9871564541123234],[-70.43775957535195,1.987748666281675],[-70.43698217770896,1.9899428833624029],[-70.4385229563519,1.9949744797640392],[-70.43428129327913,1.9974395916894991],[-70.43177090108645,2.0019183272178793],[-70.42926799904058,2.000498587003449],[-70.43018401942226,1.9959717265357995],[-70.42749760003647,1.992859387965325],[-70.42094439927422,1.9915716174948557],[-70.41675603214969,1.987222353623622],[-70.40965244186162,1.9879464841148433],[-70.40814125459525,1.9923799486319922],[-70.40362510844182,1.9942960326895331],[-70.40071854476423,1.9904054171576604],[-70.39783371516245,1.998405035933331],[-70.39277602100344,2.000823505933681],[-70.39123458004354,1.9967064304445898],[-70.38717573599826,1.9972043087238376],[-70.3874120422642,1.9938205929690866],[-70.38391008852994,1.99098118041735],[-70.3846801626338,1.9875518563221704],[-70.38172752164604,1.9862682047640305],[-70.37716533520637,1.9877729035865173],[-70.37443360470013,1.9869923013166044],[-70.3706502536661,1.9896860082460535],[-70.37059626249072,1.994258483224712],[-70.37596765115836,1.99888338100385],[-70.37368603703237,2.0058327079994456],[-70.36202053798405,2.005544873677991],[-70.35842756914377,1.9989099199630687],[-70.35971667556106,1.9930571533479338],[-70.35639048162483,1.9914071458819649],[-70.3588999255935,1.9888036786128396],[-70.35839635179957,1.9868820440510717],[-70.35224682501035,1.9868291234843696],[-70.34846276023723,1.9918555046539836],[-70.34701324044113,1.9858177603105673],[-70.34528146973804,1.985129665416764],[-70.34400729836301,1.9863625211705198],[-70.3445491723848,1.9886953959569382],[-70.3419933713696,1.990979448520136],[-70.3423519471097,1.994043984053917],[-70.33666783992544,1.9895098617536746],[-70.3348438899194,1.9904222105955682],[-70.33747617106252,1.997925045354748],[-70.33469161974853,2.0026777507709994],[-70.33232598495408,2.0026751148728295],[-70.33118977091539,1.997964173478806],[-70.32699345804394,1.9993763566976668],[-70.32494847928558,1.9974077881330459],[-70.32330812066732,1.9979544701236591],[-70.32503243824743,2.0018895390549005],[-70.3237580323875,2.003214257351317],[-70.31569373897565,2.0007348685867896],[-70.31778449679587,2.0066825450197143],[-70.3161895408295,2.009424943560248],[-70.31441230062575,2.010016949012652],[-70.31108523765556,2.0064002169795003],[-70.3095361471402,2.0077242626745146],[-70.31222198751283,2.011797461720448],[-70.31135206501017,2.016141005394445],[-70.30643951494386,2.0116536967692014],[-70.30205997989549,2.0118318425538746],[-70.29901571907754,2.0081238516738154],[-70.29682587904819,2.009219078164392],[-70.29946523381898,2.01397795423577],[-70.29732163770746,2.0163986302453623],[-70.29281211575227,2.0141529900102455],[-70.28998238804371,2.0180366872092463],[-70.28533569139694,2.0159728807536794],[-70.27481369598792,2.0171493511178937],[-70.27066369593996,2.0213518253884786],[-70.27326530172809,2.016736267924273],[-70.27016742820166,2.0159089373401002],[-70.26729146480278,2.0213477836093716],[-70.2599971745322,2.0244486293346995],[-70.2594638406971,2.016673737590679],[-70.2555037682713,2.014473953550578],[-70.25276455687418,2.017534818572983],[-70.24847665913956,2.0189012319859785],[-70.24747007102434,2.02361009798301],[-70.24978879649859,2.026311309457526],[-70.24891884931333,2.0286879814970575],[-70.2417704446425,2.0303255211543956],[-70.24259447598308,2.0246101894268236],[-70.23503341183692,2.0239610653054],[-70.23357606867864,2.025376454179593],[-70.23301929561006,2.031366436624012],[-70.22645778914602,2.035153837664666],[-70.2167146404555,2.0296083182520306],[-70.21917907875115,2.0261364886275715],[-70.21316694982556,2.0247567465995076],[-70.21466995274636,2.0225181892480464],[-70.21394520107583,2.0208709040693975],[-70.20811617297096,2.0207717293004634],[-70.20852023466682,2.0262151500820664],[-70.20501870465085,2.0189394293695955],[-70.20169229782698,2.017700393704729],[-70.20091407948684,2.020626392889028],[-70.2028665539545,2.0259331058919656],[-70.20136330317905,2.027806178426431],[-70.19963179987099,2.0276209662132487],[-70.19763340750183,2.0241892129369035],[-70.19275788342304,2.023862190841669],[-70.19102592348656,2.025278510456303],[-70.19188798663146,2.0294862740067288],[-70.1900640561658,2.0299870987738586],[-70.1886602979481,2.0230802773075425],[-70.18729538503271,2.022895402423501],[-70.18036688399809,2.0270024557402735],[-70.17549127250174,2.0253496570813354],[-70.17603393842427,2.0304261018042666],[-70.16964787191267,2.0350373254117358],[-70.17178399844619,2.03892669241435],[-70.17005202925367,2.04034234045605],[-70.16595421957823,2.039238902880413],[-70.16767936299772,2.0434030152165974],[-70.1670382185618,2.0456886022159892],[-70.16171255856239,2.041063394875664],[-70.15838642633264,2.0448547235383217],[-70.15828703559077,2.0474607752834686],[-70.15491511401478,2.0507061017560204],[-70.15679135723758,2.056759589497517],[-70.15328932739857,2.0609315601629987],[-70.15193914795077,2.0657054535520274],[-70.14678128451891,2.0658386306875514],[-70.14495777365778,2.072068920039328],[-70.14340940819437,2.068126897808156],[-70.14441612383649,2.0635461850049523],[-70.1409448649976,2.0629634859289467],[-70.13697747520331,2.0658310222697764],[-70.13517734186911,2.0630753712189858],[-70.13191874643115,2.0680715881695164],[-70.1242589271206,2.0691648575339627],[-70.11015889688508,2.07992101490629]]]}}]}