{"type":"FeatureCollection","features":[{"type":"Feature","properties":{"code":"050032"},"geometry":{"type":"Polygon","coordinates":[[[-75.60061261538499,6.259113004697383],[-75.59789524399321,6.25849747979305],[-75.59904175376994,6.254171812506968],[-75.60232961971042,6.250745382449054],[-75.60220730498474,6.233831476917999],[-75.61139488388443,6.233161324232356],[-75.62001803707477,6.23779349207166],[-75.6202226549699,6.241753308415298],[-75.6162863375094,6.242677785679803],[-75.62101274359355,6.245260728321512],[-75.61770831047255,6.2532674454074595],[-75.61286077854226,6.2557712092881275],[-75.60627319488975,6.2560878883369355],[-75.60061261538499,6.259113004697383]]]}}]}