{"type":"FeatureCollection","features":[{"type":"Feature","properties":{"code":"050007"},"geometry":{"type":"Polygon","coordinates":[[[-75.51747118403961,6.299177569900962],[-75.51464049062355,6.2975118714874725],[-75.50669819826231,6.299037637954996],[-75.50017500950963,6.29313995411286],[-75.50060976301558,6.288970266589786],[-75.49850398479236,6.288488965775457],[-75.4948873648595,6.2819968215886774],[-75.4961848798228,6.276130949530511],[-75.49416276951229,6.277557937179438],[-75.49284271211735,6.276527559131921],[-75.49610842643443,6.270193079296973],[-75.49327800864097,6.268548663472984],[-75.49091270294815,6.260959251337226],[-75.48584645111896,6.255728545378702],[-75.48586932779432,6.2526673347995825],[-75.48010910249394,6.248635062623634],[-75.47754566837835,6.244558070681705],[-75.47787365515262,6.240917479810548],[-75.47342580992375,6.236687260217707],[-75.47793493592854,6.2352752394928075],[-75.48153572813106,6.2305072833024155],[-75.48555656608306,6.231278537029823],[-75.49147201626971,6.228333263804302],[-75.49699412833064,6.231778672740461],[-75.50551358880404,6.2417557201129625],[-75.50965161572412,6.250719178762097],[-75.52171313301938,6.259524715948714],[-75.53094119244503,6.260236497930578],[-75.54130211215835,6.257253099312436],[-75.54232969489914,6.25867173189431],[-75.5428339536358,6.2611268884962215],[-75.53936976225395,6.261839358506165],[-75.53899639545347,6.265131833926034],[-75.53674610357285,6.263500897898098],[-75.53307889249561,6.266143906725176],[-75.53698689384822,6.272552405624992],[-75.53524385450044,6.275183292200097],[-75.53853087608962,6.279470957506703],[-75.53685642460187,6.280799980863492],[-75.53754438682654,6.283184964775444],[-75.53609766130882,6.285990183670322],[-75.53689241803312,6.290960948725399],[-75.53539478049697,6.291707501320445],[-75.5375371527619,6.29439206128211],[-75.53530737522419,6.29561752767637],[-75.53596820610676,6.298557931226583],[-75.53320940082278,6.3000289321014975],[-75.52732023042785,6.295819247420411],[-75.52935481883145,6.29212400819921],[-75.525932603331,6.287129031550364],[-75.52160642285207,6.288613344585258],[-75.52032456284076,6.294726648600488],[-75.51747118403961,6.299177569900962]]]}}]}