{"type":"FeatureCollection","features":[{"type":"Feature","properties":{"code":"050022"},"geometry":{"type":"Polygon","coordinates":[[[-75.55086025226728,6.199400674580488],[-75.55437154323118,6.192222451247233],[-75.55132477095657,6.182232995715708],[-75.55531962016613,6.181735764326731],[-75.55410811385065,6.179459134033209],[-75.5574072371229,6.175646375713825],[-75.56585632744543,6.1762624292376245],[-75.56891770874597,6.178897983913316],[-75.57265285050846,6.179409510653272],[-75.58027597807535,6.183984717175235],[-75.58048336865141,6.186653049342397],[-75.58318595926738,6.1889267969115735],[-75.57805629881472,6.213542662185432],[-75.57043367621316,6.210524623566357],[-75.57166765605456,6.2033598676879365],[-75.55961521887832,6.198807934820138],[-75.55961803989618,6.200630545794013],[-75.55688875091244,6.197685573902163],[-75.55564031836832,6.1996325821978076],[-75.55086025226728,6.199400674580488]]]}}]}