{"type":"FeatureCollection","features":[{"type":"Feature","properties":{"code":"050031"},"geometry":{"type":"Polygon","coordinates":[[[-75.57917875126407,6.250742355742716],[-75.58032328334588,6.247837993960559],[-75.59000071044562,6.239089514764942],[-75.60303120468473,6.238578061044393],[-75.60232961971042,6.250745382449054],[-75.59904175376994,6.254171812506968],[-75.59789524399321,6.25849747979305],[-75.59173537518598,6.253631731060466],[-75.58317611810094,6.253055732287407],[-75.57917875126407,6.250742355742716]]]}}]}