{"type":"FeatureCollection","features":[{"type":"Feature","properties":{"code":"050036"},"geometry":{"type":"Polygon","coordinates":[[[-75.60148241653144,6.285122688292063],[-75.598216673418,6.2829932013834195],[-75.59313660240667,6.274131126597808],[-75.59430908858457,6.271699077042399],[-75.60614932207369,6.27637712987314],[-75.6179274787724,6.272578786204065],[-75.62754830965196,6.277161624797941],[-75.62898408637062,6.2758172817614195],[-75.63410574965422,6.277006599429569],[-75.63965876949817,6.275254743244091],[-75.63845593501003,6.277124771588774],[-75.64541116012344,6.282028415342836],[-75.64406903132368,6.283457547294404],[-75.64257875023685,6.2825042633549515],[-75.64250464066896,6.283991123841986],[-75.63671995900546,6.281659168483145],[-75.63704370139749,6.284155770290113],[-75.63525342362794,6.284853633330954],[-75.63407932999439,6.2829005304849375],[-75.63070611669463,6.286737620725887],[-75.63035052549463,6.281443279886503],[-75.62231500996131,6.283857858260376],[-75.62156540700585,6.280766834161113],[-75.61919899265195,6.281434732500713],[-75.61766007960375,6.279976015343209],[-75.60148241653144,6.285122688292063]]]}}]}