{"type":"FeatureCollection","features":[{"type":"Feature","properties":{"code":"050026"},"geometry":{"type":"Polygon","coordinates":[[[-75.62001803707477,6.23779349207166],[-75.61139488388443,6.233161324232356],[-75.60220730498474,6.233831476917999],[-75.60185469935345,6.227007409078908],[-75.59943330446254,6.2245534588400915],[-75.60012374420529,6.215552280004715],[-75.60226989702488,6.214550378502054],[-75.60515290834036,6.217253887517188],[-75.61557547598358,6.220133280771847],[-75.61593019814956,6.221948025188908],[-75.61115036961877,6.222610495408901],[-75.61099463873882,6.224592829676567],[-75.60844493330234,6.225580089243067],[-75.61029516927073,6.227720255498809],[-75.61246324025734,6.226413422846235],[-75.61541479109599,6.227981093204164],[-75.6144256114273,6.22912634005354],[-75.61702162865879,6.232873516650386],[-75.61636605825964,6.23456122167687],[-75.62347580788997,6.235280656299551],[-75.62001803707477,6.23779349207166]]]}}]}