{"type":"FeatureCollection","features":[{"type":"Feature","properties":{"code":"050044"},"geometry":{"type":"Polygon","coordinates":[[[-75.56634459801467,6.312797998309179],[-75.55660116444562,6.311339638021252],[-75.55797443139954,6.309500794110647],[-75.55759368346713,6.30406113022957],[-75.56190558813546,6.295347438102112],[-75.5659581977622,6.2986037082314965],[-75.56409932493358,6.30128950026733],[-75.56502322112806,6.3017708751295345],[-75.5699235183302,6.300125487427351],[-75.57438646315211,6.302348941072012],[-75.57532240138005,6.3043654072900495],[-75.57878013002914,6.30174417573329],[-75.57586399875083,6.310921704692703],[-75.5716574281937,6.310437404939989],[-75.56634459801467,6.312797998309179]]]}}]}