{"type":"FeatureCollection","features":[{"type":"Feature","properties":{"code":"050037"},"geometry":{"type":"Polygon","coordinates":[[[-75.64877703651433,6.284598384182232],[-75.63845593501003,6.277124771588774],[-75.63965876949817,6.275254743244091],[-75.63410574965422,6.277006599429569],[-75.62898408637062,6.2758172817614195],[-75.62754830965196,6.277161624797941],[-75.61946207750424,6.272770829332444],[-75.61894606366957,6.269957146355637],[-75.62067339458633,6.269971852055221],[-75.61798264134376,6.265008077323955],[-75.61864695350431,6.262425380479954],[-75.6225438908723,6.263619562681242],[-75.62431660592898,6.262604152586107],[-75.6236269292906,6.257513673736526],[-75.62645673927454,6.259469156398495],[-75.6283238725535,6.263696328716151],[-75.62957360196367,6.259786293104241],[-75.63206233001472,6.259208548035815],[-75.62875973266358,6.254876022066583],[-75.63179311050283,6.255026405045442],[-75.63209457271608,6.252334026863707],[-75.6297645210044,6.251943173455118],[-75.62941472096423,6.250383893131243],[-75.63653291102236,6.251062183882482],[-75.63847753950199,6.246935629238692],[-75.62347708007337,6.24453483816518],[-75.6218490997893,6.2412434600935285],[-75.6241893310251,6.239025676252481],[-75.63559036505126,6.237899886507137],[-75.64041491231967,6.2420398674680655],[-75.66450389723519,6.242575176941273],[-75.67117969760164,6.260377310223362],[-75.68268986583416,6.276577877738987],[-75.66995905974505,6.296285811681912],[-75.66995905974505,6.308955437782458],[-75.67173985938831,6.311938924846686],[-75.66888550665209,6.323369640752389],[-75.66133189974266,6.326806919850412],[-75.65714720827168,6.318215656605673],[-75.65736132794717,6.3105233097151086],[-75.65469064373195,6.300524690760767],[-75.64824367593968,6.2900761508302026],[-75.64877703651433,6.284598384182232]]]}}]}