{"type":"FeatureCollection","features":[{"type":"Feature","properties":{"code":"050034"},"geometry":{"type":"Polygon","coordinates":[[[-75.56973946414325,6.275728358507479],[-75.57298705730312,6.262542020259787],[-75.57917875126407,6.250742355742716],[-75.58317611810094,6.253055732287407],[-75.59173537518598,6.253631731060466],[-75.59789524399321,6.25849747979305],[-75.59518107208606,6.270615627247139],[-75.59293620112595,6.273689689243952],[-75.59077975976737,6.274045624972132],[-75.58435909542095,6.284362061461195],[-75.57542441362193,6.27723284649926],[-75.56973946414325,6.275728358507479]]]}}]}