{"type":"FeatureCollection","features":[{"type":"Feature","properties":{"code":"050041"},"geometry":{"type":"Polygon","coordinates":[[[-75.59044480632343,6.296935409915363],[-75.58510585164754,6.292130516183477],[-75.58692670809853,6.289339639947912],[-75.5848276013819,6.28726464300928],[-75.58416646093809,6.283052183590314],[-75.59102997468995,6.275525881829708],[-75.59096902301565,6.273837848730068],[-75.59324383296592,6.27333194859915],[-75.59797292122818,6.282653809181568],[-75.6023489359178,6.287196981775992],[-75.6006550777197,6.287981550748668],[-75.59622117097229,6.284944056054087],[-75.59952128257783,6.290303493191175],[-75.59784461068267,6.290791954022325],[-75.59729933045924,6.294929114993863],[-75.59039061151645,6.295180772821254],[-75.59044480632343,6.296935409915363]]]}}]}