{"type":"FeatureCollection","features":[{"type":"Feature","properties":{"code":"050011"},"geometry":{"type":"Polygon","coordinates":[[[-75.53551728342757,6.2750318756365004],[-75.53698689384822,6.272552405624992],[-75.53307889249561,6.266143906725176],[-75.53674610357285,6.263500897898098],[-75.53899639545347,6.265131833926034],[-75.53936976225395,6.261839358506165],[-75.5428339536358,6.2611268884962215],[-75.54164468738975,6.257404695853495],[-75.54661703418947,6.257523392518351],[-75.55282907074337,6.261420255838459],[-75.55636543616436,6.261330809107278],[-75.5545799159699,6.271058304902681],[-75.54899495578667,6.269792284963046],[-75.54177740995368,6.272436226587445],[-75.54029162316067,6.274887569724513],[-75.53551728342757,6.2750318756365004]]]}}]}