{"type":"FeatureCollection","features":[{"type":"Feature","properties":{"code":"050043"},"geometry":{"type":"Polygon","coordinates":[[[-75.57586399875083,6.310921704692703],[-75.58118187138354,6.291200277583982],[-75.58739709096704,6.29267901028976],[-75.59044480632343,6.296935409915363],[-75.58689088641711,6.298806784491262],[-75.586498548966,6.301438333383317],[-75.58407073865067,6.303071320125639],[-75.58554030073452,6.306907747021171],[-75.58736937444121,6.30716347542409],[-75.58536446586021,6.307611081376194],[-75.58699272073846,6.309735090799904],[-75.58188864073657,6.308905752695921],[-75.57586399875083,6.310921704692703]]]}}]}