{"type":"FeatureCollection","features":[{"type":"Feature","properties":{"code":"050048"},"geometry":{"type":"Polygon","coordinates":[[[-75.66875887143948,6.3731286074994955],[-75.66601269851492,6.37078991789906],[-75.6640899192966,6.360227192052548],[-75.6601304639363,6.358827571259042],[-75.65503388333724,6.34997480696353],[-75.65498083010147,6.3364126182267455],[-75.64460384200225,6.325791574547168],[-75.65765125206389,6.328481804312446],[-75.66888550665209,6.323369640752389],[-75.67173985938831,6.311938924846686],[-75.66995905974505,6.308955437782458],[-75.66995905974505,6.296285811681912],[-75.68268986583416,6.276577877738987],[-75.70349325046806,6.263754498453466],[-75.70775517488687,6.257839776404126],[-75.71004406215832,6.259196116222654],[-75.71054752385209,6.2640271200532425],[-75.70848793092546,6.2790553721124525],[-75.70643540339898,6.282717996336089],[-75.70881498695928,6.291723651981727],[-75.70784646561549,6.30314321751365],[-75.71082986937586,6.3097345138436935],[-75.7106848106439,6.314640653627748],[-75.71800935255118,6.322241120492151],[-75.71900070634734,6.328803480563465],[-75.71563624715026,6.3339486180476],[-75.71935962558729,6.341808537305269],[-75.71797046611107,6.3456842723023215],[-75.71386600446942,6.347376381119659],[-75.71724602503025,6.364271027007703],[-75.71389624890702,6.3709744657384135],[-75.7103563672411,6.372250973734822],[-75.69988114951161,6.373146237061178],[-75.69315151840681,6.369370919191624],[-75.68871850948972,6.3722054445845515],[-75.68594948560082,6.369499527985511],[-75.68009640119698,6.36952096586981],[-75.67698472494351,6.371571348065174],[-75.66875887143948,6.3731286074994955]]]}}]}