{"type":"FeatureCollection","features":[{"type":"Feature","properties":{"code":"051048"},"geometry":{"type":"Polygon","coordinates":[[[-75.45346567205041,6.335628740367383],[-75.45287818865978,6.329147461675802],[-75.45675427024196,6.32592460564382],[-75.46375051478526,6.323427949329414],[-75.46616916682001,6.318360232998089],[-75.47488969294801,6.316878108488879],[-75.48294683354214,6.320083705198499],[-75.48306140820938,6.3114672060312955],[-75.49111087250861,6.306014746268374],[-75.49001226244218,6.300667224666313],[-75.48748688584197,6.299347434666458],[-75.49082862263003,6.293290716587023],[-75.4931176220017,6.297423664029566],[-75.49740520914668,6.298084395153239],[-75.50396681948342,6.296304881063122],[-75.50679707272604,6.299059956186113],[-75.51464049062355,6.2975118714874725],[-75.51952372904964,6.300820537677907],[-75.52427683967227,6.304832364416541],[-75.52648926429936,6.310764228545793],[-75.52857987608076,6.31144431084391],[-75.53505761898691,6.329380257867456],[-75.53319567008668,6.331281455219539],[-75.52867151133762,6.3316106154467775],[-75.52878599961565,6.333751648679538],[-75.52724456791174,6.334464393283611],[-75.5283970868781,6.337275937099946],[-75.52052954891826,6.3392685300817675],[-75.51913402235442,6.33696499881728],[-75.51188625985185,6.338042710931745],[-75.50970392128221,6.340182101741846],[-75.50722446566891,6.339021696678174],[-75.50587729133014,6.340138450527547],[-75.50381923078288,6.3381722854331315],[-75.5031528164858,6.339806930024793],[-75.50572101846097,6.3416314662430295],[-75.50487034428846,6.345028256587568],[-75.49914287385383,6.348308130501209],[-75.49892298255895,6.350036901237502],[-75.49431493581045,6.351130880227288],[-75.49009569278462,6.3477331879386725],[-75.49077441548172,6.355570165729091],[-75.48670785503225,6.362462851252985],[-75.48995081711547,6.365246154037777],[-75.48850851698586,6.366272779298583],[-75.48860761153634,6.370714456957671],[-75.48303830116288,6.374969311862628],[-75.47960461544301,6.352012721350263],[-75.47614880483923,6.352133921244217],[-75.46420070109968,6.342556500923422],[-75.46090446775088,6.3368361884487285],[-75.45346567205041,6.335628740367383]]]}}]}