{"type":"FeatureCollection","features":[{"type":"Feature","properties":{"code":"051030"},"geometry":{"type":"Polygon","coordinates":[[[-75.45218974615244,6.376622668965865],[-75.45192211558424,6.385412278663182],[-75.44713231733164,6.386657506580434],[-75.44144462705361,6.385402335680908],[-75.44065282504471,6.389216242770601],[-75.43301853167742,6.394001755503268],[-75.43277413465415,6.395975780983861],[-75.43309334675689,6.384664390121372],[-75.43434865443925,6.381657993471606],[-75.43789354976246,6.3791477349764705],[-75.43696727272356,6.377129952351993],[-75.4384494990486,6.370253750704819],[-75.44145408255417,6.373207059151696],[-75.4455592599918,6.368494403344016],[-75.44904800029656,6.368733675638225],[-75.45096796878153,6.365193271523481],[-75.45498149347878,6.363427400751789],[-75.45585023224407,6.369909861123858],[-75.45318427783599,6.3679626965049465],[-75.45116044077042,6.3707938383219584],[-75.45300549544544,6.371439735190734],[-75.45260496027896,6.375121648882271],[-75.45424701274203,6.375177789502459],[-75.45218974615244,6.376622668965865]]]}}]}