{"type":"FeatureCollection","features":[{"type":"Feature","properties":{"code":"051028"},"geometry":{"type":"Polygon","coordinates":[[[-75.24374882889452,6.442223110181942],[-75.2445957183985,6.4375686066280196],[-75.25414805603475,6.429369429894507],[-75.26601203729007,6.426304412021182],[-75.2668054858355,6.423304465762897],[-75.27165819597383,6.424072963264393],[-75.27887585904921,6.41465048500811],[-75.28591045524252,6.411807670368489],[-75.28683354925181,6.409953304174962],[-75.29269322597224,6.4090455987510495],[-75.2973928627261,6.405814911129312],[-75.3026346666079,6.405675892440286],[-75.30622821343286,6.399099374829234],[-75.31034033388596,6.3956688361435],[-75.30561051337259,6.390884128681364],[-75.3080442701426,6.389704185266737],[-75.31228644743658,6.391328119657999],[-75.31844319492075,6.386307172778629],[-75.32196062157271,6.391169265398105],[-75.3279804710163,6.392407921567667],[-75.33369489874286,6.3980962844470355],[-75.33549558332226,6.398358587682992],[-75.3381202210806,6.395805036900015],[-75.34728316158288,6.395388146412188],[-75.36880678919528,6.381010265975135],[-75.37027144663676,6.377920457494952],[-75.37578010461266,6.375142584886646],[-75.37707741388749,6.372006851305741],[-75.38437915625258,6.373503821382712],[-75.38729331703502,6.372585640243301],[-75.38806430336734,6.36971679160979],[-75.39071130872202,6.368140454566742],[-75.40299535321037,6.364782347030712],[-75.40509380686598,6.366029026080355],[-75.40511651076304,6.375982219757077],[-75.40387246246934,6.377796856187729],[-75.41118941241393,6.394541885286515],[-75.41929236806544,6.393225852187186],[-75.4213749322841,6.394604699470278],[-75.4212226364022,6.399441561309402],[-75.41626337550514,6.4001652619116385],[-75.4143908634718,6.40377828126725],[-75.40726885274972,6.405139204854095],[-75.4043016315324,6.408290595443873],[-75.39705474217749,6.410997571338726],[-75.3870057655352,6.411048132658266],[-75.38334357325743,6.413506230605776],[-75.3753632573194,6.412607736941538],[-75.3736005613498,6.414215695506641],[-75.36718411156079,6.414629624080021],[-75.36169862645175,6.419621222295234],[-75.3566247044983,6.421177517050467],[-75.3533133067645,6.426941076561491],[-75.34669228124665,6.429291323798964],[-75.34540877058504,6.427536963355919],[-75.34311205995135,6.4293609678694565],[-75.3410968751727,6.42802794078591],[-75.33943268034221,6.429560946460299],[-75.34028044093702,6.431404231185695],[-75.33531625071498,6.4351783673747605],[-75.32987507090962,6.434040194153056],[-75.32944419360354,6.4313892807168145],[-75.32782364175972,6.430641763442736],[-75.3287485653683,6.42935175508137],[-75.32690511609206,6.429378489444616],[-75.32766000627055,6.4322550328850525],[-75.32449039887842,6.43126612061144],[-75.32576441701553,6.43535880350089],[-75.32444011523836,6.436475058555629],[-75.3272975934114,6.436289328007433],[-75.3265974256309,6.438465845592418],[-75.32746084014929,6.4373473433907975],[-75.32788533905489,6.438709107215118],[-75.32574738189368,6.4410372532228735],[-75.32658488377439,6.444945176413853],[-75.32094394135106,6.443867003557159],[-75.32066675243811,6.446532868490749],[-75.31724090036488,6.449356150950052],[-75.31606580811365,6.448823340592128],[-75.31527256422828,6.451552118439906],[-75.31190053158053,6.451894778003634],[-75.30375953384026,6.457064082858494],[-75.29506150489237,6.457779890164431],[-75.2892933009349,6.463414598169152],[-75.28912575427887,6.466605184760226],[-75.28514298309824,6.469355044651195],[-75.28228186629559,6.474890146969585],[-75.27687983826848,6.4768805329137535],[-75.2725995746627,6.483391943942706],[-75.26899832583166,6.485368982759894],[-75.26455814044266,6.491690865202372],[-75.26514167564244,6.495782658489077],[-75.26681284639858,6.496792418321036],[-75.2633793252295,6.508207479274688],[-75.24828800084748,6.506789289951541],[-75.24300069249801,6.499681944819827],[-75.22791689014463,6.49600626657525],[-75.22502528722038,6.4939017811042845],[-75.22453699094001,6.490060571951062],[-75.21720491774818,6.487382916952413],[-75.2169072443171,6.484877023167314],[-75.21985216478686,6.479570258742228],[-75.2289926338201,6.478341589777983],[-75.23238012498734,6.475701924417592],[-75.22895444569247,6.47044005150849],[-75.23772890334618,6.463115244263065],[-75.2366684176439,6.4558274259812265],[-75.24374882889452,6.442223110181942]],[[-75.33164725837526,6.433827954470473],[-75.33191276726654,6.4334916969614255],[-75.33149112948803,6.4334444451699255],[-75.33164725837526,6.433827954470473]]]}}]}