{"type":"FeatureCollection","features":[{"type":"Feature","properties":{"code":"051038"},"geometry":{"type":"Polygon","coordinates":[[[-75.42091578617851,6.404616319994943],[-75.42093261149813,6.393700698496275],[-75.41083873716923,6.393915636812039],[-75.40387246246934,6.377796856187729],[-75.40511651076304,6.375982219757077],[-75.40509380686598,6.366029026080355],[-75.40299535321037,6.364782347030712],[-75.40577261492382,6.362715180653424],[-75.40020287466143,6.358243233874077],[-75.4017977720066,6.353387957771645],[-75.40617724534837,6.350909903925469],[-75.4070695621869,6.348055439089023],[-75.4160882183744,6.348850404587154],[-75.41608023148984,6.337853039391803],[-75.42259623554304,6.332469768099372],[-75.42360335741989,6.329065785856301],[-75.42100141533109,6.324129823296062],[-75.42423642035453,6.318358380773134],[-75.42815041444169,6.322956453686061],[-75.43162191496452,6.3241396120119475],[-75.43248447793252,6.334440834750808],[-75.44115147054214,6.3328248625615515],[-75.44621772237127,6.335481767703925],[-75.45972966140664,6.336336456916001],[-75.46404053660399,6.342425847585844],[-75.47152503628996,6.347165353970809],[-75.47553827405176,6.351688086270144],[-75.47960461544301,6.352012721350263],[-75.48317561160889,6.375413039557998],[-75.48053565417081,6.376334367731488],[-75.47775827212956,6.374485326813328],[-75.468642660552,6.375743009169469],[-75.46701212664516,6.37842696235009],[-75.45901477352834,6.377646100912671],[-75.45191054766275,6.379677121649195],[-75.45163953351869,6.377678799214095],[-75.45424701274203,6.375177789502459],[-75.45217445218373,6.374169642268441],[-75.45191310334246,6.368608693132671],[-75.45406055919875,6.368017827194592],[-75.45585023224407,6.369909861123858],[-75.45498149347878,6.363427400751789],[-75.45291528458142,6.3647322783351115],[-75.4530216718178,6.363517267087502],[-75.45051393917743,6.367592426344913],[-75.4472658071137,6.369479804514867],[-75.44569126161753,6.368411531445872],[-75.44145408255417,6.373207059151696],[-75.43982166659748,6.370783390374413],[-75.43796872685368,6.370970132910088],[-75.43789354976246,6.3791477349764705],[-75.43434865443925,6.381657993471606],[-75.43309334675689,6.384664390121372],[-75.43227768179622,6.397007333512761],[-75.42091578617851,6.404616319994943]]]}}]}