{"type":"FeatureCollection","features":[{"type":"Feature","properties":{"code":"051050"},"geometry":{"type":"Polygon","coordinates":[[[-75.51819795351429,6.349681349118384],[-75.52289436815778,6.346105019449567],[-75.53076861156285,6.34446943177619],[-75.53947372956503,6.33911947585068],[-75.55187938840965,6.335678718560018],[-75.55364334524978,6.339610487219261],[-75.55464271986915,6.338965834765929],[-75.55949170293184,6.342914772244569],[-75.55715262869387,6.347835609500692],[-75.55107273671916,6.350919618593537],[-75.54329561325488,6.349932607910091],[-75.54116231699521,6.346790554549955],[-75.53935360953574,6.347406949516653],[-75.53897270219477,6.349708638840582],[-75.53649758558043,6.3475020033164355],[-75.53498650630053,6.350949253164686],[-75.53306565335504,6.351457483746401],[-75.53206664177588,6.350033143308508],[-75.52543571749874,6.349807623347715],[-75.52228866487945,6.353287663028766],[-75.51692727884381,6.355190420528174],[-75.51819795351429,6.349681349118384]]]}}]}