{"type":"FeatureCollection","features":[{"type":"Feature","properties":{"code":"051054"},"geometry":{"type":"Polygon","coordinates":[[[-75.55129246243484,6.350708693260458],[-75.55715262869387,6.347835609500692],[-75.55928752521015,6.342603490462068],[-75.56424126645624,6.344460519293307],[-75.56297428080904,6.3429466200240086],[-75.56357650383785,6.339877082145847],[-75.56464240120465,6.34077686342016],[-75.56774754170596,6.337787162506288],[-75.56819945786066,6.335281890928854],[-75.57453155376578,6.335333835503604],[-75.57676550678013,6.33848897888015],[-75.57664015609214,6.347932206992709],[-75.57215176348853,6.350399282214937],[-75.57881743883837,6.364546262908334],[-75.57651116985988,6.365418144593946],[-75.57069111080222,6.355659577493213],[-75.56942545184592,6.357716878021449],[-75.56600911595132,6.357379811128169],[-75.56360803280018,6.354600310495357],[-75.55690211038075,6.353409317494311],[-75.55597506920907,6.350904601275886],[-75.55268839523347,6.352072163270975],[-75.55129246243484,6.350708693260458]]]}}]}