{"type":"FeatureCollection","features":[{"type":"Feature","properties":{"code":"051040"},"geometry":{"type":"Polygon","coordinates":[[[-75.48412136323532,6.387162353586234],[-75.48152712932318,6.379371356432387],[-75.4739432296393,6.375687794147495],[-75.47807111097399,6.3744720568195135],[-75.48045143604139,6.376313119080635],[-75.48295401207093,6.375744722554714],[-75.48844010704642,6.371031340666548],[-75.48852351270625,6.36621277893363],[-75.48995081711547,6.365246154037777],[-75.48670785503225,6.362462851252985],[-75.49077441548172,6.355570165729091],[-75.49009569278462,6.3477331879386725],[-75.49431493581045,6.351130880227288],[-75.49892298255895,6.350036901237502],[-75.49914287385383,6.348308130501209],[-75.50487034428846,6.345028256587568],[-75.50572101846097,6.3416314662430295],[-75.5031528164858,6.339806930024793],[-75.50381923078288,6.3381722854331315],[-75.50587729133014,6.340138450527547],[-75.50722446566891,6.339021696678174],[-75.50970392128221,6.340182101741846],[-75.51188625985185,6.338042710931745],[-75.51913402235442,6.33696499881728],[-75.52052954891826,6.3392685300817675],[-75.52644252467218,6.337212417404658],[-75.52842808927784,6.337266806587309],[-75.52724456791174,6.334464393283611],[-75.52878599961565,6.333751648679538],[-75.52867151133762,6.3316106154467775],[-75.53319567008668,6.331281455219539],[-75.5349963526092,6.328866347197732],[-75.53581992423597,6.336226862995886],[-75.52432195538864,6.338202677966478],[-75.51957298938936,6.345787696595778],[-75.51757622710159,6.345837422820011],[-75.51864236409551,6.349041786427051],[-75.51616589199392,6.360378362818324],[-75.51421319641116,6.359816494845518],[-75.51307402148649,6.361805134494318],[-75.51238188378517,6.360762619796617],[-75.50997103660069,6.362084864688768],[-75.5034091506414,6.367943768020382],[-75.50470604134011,6.371921076114347],[-75.49873980254813,6.376128715223217],[-75.49596260151282,6.374155421993692],[-75.4948870552983,6.375706434668189],[-75.49365113787115,6.3749911734652756],[-75.49201056533684,6.377279438529001],[-75.49429175677295,6.37939748195771],[-75.4913317809332,6.379341206611514],[-75.49125499947161,6.383478260624997],[-75.48933231384154,6.382793108105261],[-75.48412136323532,6.387162353586234]]]}}]}