{"type":"FeatureCollection","features":[{"type":"Feature","properties":{"code":"051059"},"geometry":{"type":"Polygon","coordinates":[[[-75.53243235593555,6.393331249033395],[-75.53147124554852,6.389368907863457],[-75.53482049716604,6.385657695901443],[-75.53527071741905,6.38170042186772],[-75.53168448693413,6.379457391819756],[-75.52722882657054,6.3728731711742626],[-75.51563213855428,6.361567419262087],[-75.51692727884381,6.355190420528174],[-75.52228866487945,6.353287663028766],[-75.52543571749874,6.349807623347715],[-75.53206664177588,6.350033143308508],[-75.53306565335504,6.351457483746401],[-75.53498650630053,6.350949253164686],[-75.53649758558043,6.3475020033164355],[-75.53897270219477,6.349708638840582],[-75.53935360953574,6.347406949516653],[-75.54116231699521,6.346790554549955],[-75.54329561325488,6.349932607910091],[-75.54804635948818,6.349682989484165],[-75.55268839523347,6.352072163270975],[-75.555751754229,6.350817097272625],[-75.55690211038075,6.353409317494311],[-75.56360803280018,6.354600310495357],[-75.56600911595132,6.357379811128169],[-75.56942545184592,6.357716878021449],[-75.57069111080222,6.355659577493213],[-75.57651116985988,6.365418144593946],[-75.57881743883837,6.364546262908334],[-75.57215176348853,6.350399282214937],[-75.57493339813959,6.353123698438026],[-75.58782483769414,6.357420843927741],[-75.59555256197888,6.3618147915696],[-75.6077547085041,6.360606658545521],[-75.61397816179846,6.362829321317918],[-75.6153117576107,6.363496120252478],[-75.62126440039259,6.3825840884762215],[-75.61512229998675,6.39802338124224],[-75.61564888003988,6.402697261681624],[-75.6123608752597,6.409781748649948],[-75.61013238121825,6.411715498264641],[-75.60032079893409,6.414173146782787],[-75.59233993894998,6.430304880640676],[-75.5881367756229,6.431848552292422],[-75.58212411396408,6.424096511512744],[-75.5780190321716,6.424948864103385],[-75.56833718893961,6.418291937714059],[-75.56599542223915,6.4035913464128384],[-75.5616534911631,6.398089728125967],[-75.55399375001411,6.3825274326063095],[-75.55008748672935,6.381557793345451],[-75.54577660844666,6.382677429919227],[-75.54148108481075,6.385039961902578],[-75.53915422641307,6.389587879730755],[-75.533485163286,6.39097117194234],[-75.53243235593555,6.393331249033395]]]}}]}