{"type":"FeatureCollection","features":[{"type":"Feature","properties":{"code":"051440"},"geometry":{"type":"Polygon","coordinates":[[[-75.75128318173773,6.4947592769360085],[-75.75353603649711,6.496264254466439],[-75.75232349042619,6.497717138297958],[-75.75054668422524,6.496820872240164],[-75.75054316592337,6.4993075269511],[-75.74683427309924,6.500737519709048],[-75.75420939895179,6.502586714893596],[-75.75116591872171,6.501994313490854],[-75.75079152347877,6.503383578896603],[-75.74787404494077,6.503536314951987],[-75.747137507319,6.505697079882907],[-75.74949682644791,6.507896751822727],[-75.74707536779357,6.507069724629105],[-75.74725173334423,6.509171130943173],[-75.74496702257784,6.51025725263213],[-75.74502942538453,6.506638459600197],[-75.73773459003945,6.499083313112294],[-75.74114708778654,6.499099211805174],[-75.73914640301899,6.496985174160102],[-75.73998394089517,6.495951663476603],[-75.74361668166455,6.497299325297149],[-75.75128318173773,6.4947592769360085]]]}}]}