{"type":"FeatureCollection","features":[{"type":"Feature","properties":{"code":"051457"},"geometry":{"type":"Polygon","coordinates":[[[-75.75168286535376,6.647467611636614],[-75.74759493901092,6.650237092153986],[-75.74159047918118,6.650644617644218],[-75.73478420339774,6.6466835363163455],[-75.73137395588282,6.652707329836971],[-75.72121189787185,6.654262625974525],[-75.71746515116394,6.648633958012681],[-75.71732768336625,6.635354958122491],[-75.7212721975136,6.624477084578018],[-75.72690287196679,6.620531830980497],[-75.73524213594112,6.619121636769478],[-75.73695900039837,6.6169351906004295],[-75.74683246509733,6.615666800100769],[-75.752157763085,6.607916715418753],[-75.75483591790669,6.606667288370716],[-75.75645274370322,6.602104059090323],[-75.75989451812347,6.602669162543293],[-75.76067179543872,6.598900333117626],[-75.76338133935457,6.596872361713167],[-75.76569315472352,6.5901107450176255],[-75.76531118602986,6.578536037903291],[-75.75942916742417,6.573125797762714],[-75.75836060844813,6.566559826829689],[-75.75968867123959,6.563429780535955],[-75.75717858038058,6.561034272571646],[-75.75631630949022,6.555941266838829],[-75.7545162882563,6.554240369980107],[-75.75582741774167,6.552804163372457],[-75.75437771796817,6.54767003845086],[-75.75682745776334,6.548076539612339],[-75.7573921230998,6.544760289686792],[-75.76335849764621,6.544174807645334],[-75.76876023256722,6.540006704952191],[-75.77517645712726,6.541526354243558],[-75.77855713177752,6.539799400765219],[-75.78301230980156,6.542463114197062],[-75.7859724152251,6.539936084889746],[-75.78813982492312,6.54029196302514],[-75.79357976648367,6.537448062350279],[-75.79834817107502,6.540049167286895],[-75.80154466915366,6.5365202796714925],[-75.80303981271675,6.549302590161972],[-75.79939376595809,6.556270158642519],[-75.7964094160306,6.5717417897550945],[-75.79924817346443,6.57695176539778],[-75.79813410282162,6.585262602192472],[-75.79900380935135,6.587632252026538],[-75.80480187927958,6.592098338740357],[-75.80319195536077,6.599447401802593],[-75.80945660600554,6.602703250270565],[-75.81077613683783,6.613046506483613],[-75.81491124606657,6.620997862508773],[-75.81663541657946,6.63489275240039],[-75.81787236656282,6.637325500268275],[-75.82392153690262,6.641108461522549],[-75.82231920391808,6.644126132987651],[-75.8240900492662,6.649071193150405],[-75.82186198717062,6.655471761729984],[-75.81893225576846,6.657779743065305],[-75.80708302752106,6.653923023970435],[-75.79783611880094,6.655561373012006],[-75.7831036015586,6.661369678000142],[-75.78277449481044,6.66488997503518],[-75.7716814062992,6.665383863985937],[-75.76931697889626,6.660724147256872],[-75.76020678823926,6.655570713326938],[-75.75168286535376,6.647467611636614]],[[-75.81231159020541,6.6282280725828855],[-75.81368465147085,6.627779456700239],[-75.81135421306476,6.623760763050882],[-75.81049093327232,6.624432266081499],[-75.8123469861116,6.625627670072504],[-75.81231159020541,6.6282280725828855]]]}}]}