{"type":"FeatureCollection","features":[{"type":"Feature","properties":{"code":"051447"},"geometry":{"type":"Polygon","coordinates":[[[-75.64684564820368,6.503879610093122],[-75.65011193124946,6.501446989752139],[-75.65653584855954,6.5050471546047675],[-75.66879634479949,6.502995625695917],[-75.67164973285662,6.506402572938782],[-75.67740322802916,6.508324860561572],[-75.68307894209403,6.507554149851785],[-75.69047248529523,6.504226381370074],[-75.6928528874958,6.501366132572912],[-75.71323193366118,6.497271159341892],[-75.7194345990469,6.490930475941752],[-75.73277135421205,6.491054295278786],[-75.73280938807324,6.4860981711314025],[-75.73858550075369,6.479007963965785],[-75.74355152571718,6.4783023845207595],[-75.74644104501692,6.475616426905674],[-75.7529917199243,6.485400530234131],[-75.75279315029968,6.492300451879601],[-75.75128318173773,6.4947592769360085],[-75.74605352376204,6.496966469875986],[-75.73998394089517,6.495951663476603],[-75.73914640301899,6.496985174160102],[-75.74114708778654,6.499099211805174],[-75.73783746720147,6.499763568188769],[-75.74502942538453,6.506638459600197],[-75.74496702257784,6.51025725263213],[-75.74731386361367,6.508983126508554],[-75.75848447817884,6.515379072239],[-75.76790382585614,6.515143730652142],[-75.77113315181998,6.52229845304538],[-75.77369530861,6.536272960843064],[-75.77328987394338,6.541560746389848],[-75.76876023256722,6.540006704952191],[-75.76335849764621,6.544174807645334],[-75.7573921230998,6.544760289686792],[-75.75682745776334,6.548076539612339],[-75.75427856788184,6.547994105830696],[-75.75582741774167,6.552804163372457],[-75.7545162882563,6.554240369980107],[-75.75631630949022,6.555941266838829],[-75.75717858038058,6.561034272571646],[-75.75968867123959,6.563429780535955],[-75.75836060844813,6.566559826829689],[-75.75942916742417,6.573125797762714],[-75.76531118602986,6.578536037903291],[-75.76567711102024,6.590196599399064],[-75.76000104419961,6.60254853343497],[-75.75645274370322,6.602104059090323],[-75.75483591790669,6.606667288370716],[-75.752157763085,6.607916715418753],[-75.74683246509733,6.615666800100769],[-75.73916444395763,6.6162665353270995],[-75.73524213594112,6.619121636769478],[-75.73225206375952,6.618666039819004],[-75.72466776915371,6.621702053556419],[-75.72114302616171,6.624603307385257],[-75.71738120968558,6.635208203488844],[-75.71002627730184,6.621795198566872],[-75.69939042405002,6.613947299745348],[-75.69321857183058,6.60405852976487],[-75.69254707085685,6.595233702081941],[-75.69632370821813,6.588255208456474],[-75.69683459732374,6.583721955190185],[-75.68799259567919,6.5751885613775585],[-75.67515178017919,6.570378444186133],[-75.67303077689292,6.565597191262441],[-75.67319106994387,6.550763241819823],[-75.6666677330955,6.55012680250843],[-75.66166297698669,6.5419045135861325],[-75.65513857261499,6.5389119618295695],[-75.6517814986637,6.5278671083009385],[-75.64676208622058,6.524544283542355],[-75.64610557788188,6.520208987977412],[-75.64923431496828,6.510543043438304],[-75.64684564820368,6.503879610093122]]]}}]}