{"type":"FeatureCollection","features":[{"type":"Feature","properties":{"code":"051467"},"geometry":{"type":"Polygon","coordinates":[[[-75.73275404346754,6.804208301817027],[-75.72700883034258,6.79775465737589],[-75.72069988879235,6.764617959686348],[-75.72170676075768,6.755835050292035],[-75.71725088442116,6.748130710733278],[-75.71730421225107,6.730673563351843],[-75.71358870757001,6.717383491249507],[-75.7156639667615,6.696674198821597],[-75.7134439347451,6.68782468337605],[-75.71269670337801,6.669585604976987],[-75.71619794748693,6.665926212119757],[-75.71761841275338,6.657806574102153],[-75.72197420003556,6.653635318204238],[-75.73137395588282,6.652707329836971],[-75.73478420339774,6.6466835363163455],[-75.74159047918118,6.650644617644218],[-75.74759493901092,6.650237092153986],[-75.75137174915056,6.647356673542106],[-75.75159642064631,6.657132091673532],[-75.76118803655919,6.667422130100022],[-75.76183508631209,6.68220442190335],[-75.78211274655706,6.698673893199043],[-75.78641209394226,6.699607528744195],[-75.78830570344542,6.710010285499152],[-75.79204162785271,6.716548154240343],[-75.78425844891888,6.740209014990398],[-75.7755412899117,6.753596081563558],[-75.77678659804741,6.762001913536835],[-75.77305067158329,6.771030399577967],[-75.7704731519189,6.785767823519507],[-75.76378370412027,6.787393341712232],[-75.76315850774245,6.789899148079769],[-75.75785563905765,6.791478009949174],[-75.75656583535635,6.794752650118824],[-75.75376647241319,6.793613843376534],[-75.74960848650909,6.797332576338704],[-75.74882967475759,6.801808658485356],[-75.74320698616054,6.802877948684056],[-75.73994079053239,6.805787690249019],[-75.73275404346754,6.804208301817027]]]}}]}