{"type":"FeatureCollection","features":[{"type":"Feature","properties":{"code":"051430"},"geometry":{"type":"Polygon","coordinates":[[[-75.5174319150189,6.571309504511191],[-75.5117717530618,6.565872391167545],[-75.51655782629564,6.562015753319656],[-75.51856837382695,6.56455354939169],[-75.52153822888556,6.564141564574697],[-75.52470607764099,6.566509859949917],[-75.5198754152533,6.565814194690745],[-75.51890924081533,6.5684693494239355],[-75.51997326641674,6.569786872736472],[-75.5174319150189,6.571309504511191]]]}}]}