{"type":"FeatureCollection","features":[{"type":"Feature","properties":{"code":"051420"},"geometry":{"type":"Polygon","coordinates":[[[-75.67000121868921,6.611626406314258],[-75.66676875906097,6.60762258085839],[-75.66586447115156,6.60878371611625],[-75.66645588010726,6.607092570949533],[-75.66055733957256,6.60046344850366],[-75.66293990972991,6.602048865665665],[-75.66523574515907,6.601351368750386],[-75.6664522785016,6.6031277779725315],[-75.66786970369196,6.602174766570386],[-75.67080476859701,6.609133877139698],[-75.66945721476293,6.609945502378139],[-75.67000121868921,6.611626406314258]]]}}]}