{"type":"FeatureCollection","features":[{"type":"Feature","properties":{"code":"051847"},"geometry":{"type":"Polygon","coordinates":[[[-75.28436158789918,6.822858163812214],[-75.28509930617292,6.817428674312964],[-75.28323570353712,6.808653890643029],[-75.27824522529585,6.803811528693302],[-75.26554707328512,6.804649682606566],[-75.25351483780531,6.799939499174627],[-75.24776422947093,6.8011185015643605],[-75.22993868266644,6.79358511486322],[-75.23315460185364,6.7871891300519565],[-75.24011581147408,6.785024268834434],[-75.24257734647654,6.78211182349412],[-75.24934390072457,6.779209365359122],[-75.25818068096646,6.77739119622845],[-75.25794594204689,6.775228800187676],[-75.2530850547621,6.77160286462248],[-75.25391371306557,6.765054359728765],[-75.24911008431798,6.759556808932075],[-75.25133047834612,6.755621084882932],[-75.25123888525542,6.7502082520387034],[-75.25621347405979,6.7495284011401395],[-75.25864736041353,6.7460362546337365],[-75.25852535010688,6.74162476176258],[-75.25567169465467,6.7402597274909795],[-75.25748783775356,6.732336941599044],[-75.25622140952225,6.730301338122615],[-75.26358367367266,6.729355779843388],[-75.25990614423159,6.719133001557623],[-75.26187514371361,6.7148701443414325],[-75.2603718569427,6.712566160562233],[-75.26165370049893,6.708584096950062],[-75.25908986837607,6.708741692396302],[-75.2586931477029,6.700276135680667],[-75.26433168974137,6.694609962477045],[-75.26543022370305,6.686114833925217],[-75.27297601342093,6.683992426814939],[-75.27656998910646,6.681295281802136],[-75.2833679848992,6.681051589261983],[-75.2873810848497,6.677155518871018],[-75.29089808984025,6.68067038572957],[-75.29692558986773,6.680359425849588],[-75.2983907913553,6.684372079456011],[-75.30708841509687,6.68647949290289],[-75.31133833964833,6.685387403161997],[-75.31249796515255,6.687199419121043],[-75.30969761181922,6.697321522140214],[-75.31464913471478,6.697176851131076],[-75.32302654362212,6.703506591902851],[-75.32665808831285,6.711471020460863],[-75.33076297984348,6.710831098843073],[-75.33621823182779,6.712499778711447],[-75.33622612409567,6.7155791351303264],[-75.34080370014925,6.716788943487245],[-75.35103472448708,6.729131880707939],[-75.35565068715766,6.727455315770783],[-75.3599923343836,6.727867754130955],[-75.36640854248861,6.734434439831546],[-75.36861339983562,6.7334115755850235],[-75.37049074657727,6.729471921856998],[-75.3796844735063,6.727571742663031],[-75.38166808612806,6.728795931731668],[-75.38021836064354,6.7389722244155905],[-75.38144699566914,6.740193949335946],[-75.3953554990544,6.736798203889009],[-75.39376845181096,6.745622266410692],[-75.4033013683387,6.7726014823081755],[-75.40060940873309,6.77412527622289],[-75.4007016404866,6.777276622589682],[-75.39677405141776,6.777124559135757],[-75.39779235760705,6.7872376581406115],[-75.39633816045438,6.792078054736692],[-75.39238738206365,6.797599843866692],[-75.38833418931,6.797680864568292],[-75.38468194824202,6.800553045355571],[-75.38648678567233,6.803271524379966],[-75.38569127715652,6.809475190440253],[-75.36967627049609,6.809319290895758],[-75.36164616662734,6.8102164064470685],[-75.35934927601619,6.812274621260656],[-75.35329569365797,6.806681151744044],[-75.35164484184065,6.806792830317136],[-75.33837542394946,6.814942324021047],[-75.33737622005151,6.817412922687367],[-75.32812677930588,6.810548200515541],[-75.32329342959792,6.8106860827755895],[-75.31636860010315,6.807097862254409],[-75.31246188944584,6.811278837962561],[-75.31347999611728,6.81483249767291],[-75.31156212771197,6.816881647794162],[-75.3084994865693,6.817813832206923],[-75.3066369360302,6.8156206147722855],[-75.30624941786073,6.817730260967835],[-75.30342039566375,6.81806402244689],[-75.30098884695985,6.821991446964887],[-75.28959575662367,6.819717087472441],[-75.2882681967406,6.8221059609540475],[-75.28436158789918,6.822858163812214]],[[-75.27873442557717,6.730789103726636],[-75.28715360056367,6.728951267689695],[-75.28742122187589,6.730676167368301],[-75.29234477319181,6.729806309657533],[-75.29086726638951,6.724546114138207],[-75.29243032521117,6.722835850225067],[-75.2889326981346,6.723660458521863],[-75.2880569309931,6.72192568888039],[-75.28442542641164,6.722521166354738],[-75.2848395843277,6.72017751966132],[-75.28052043428181,6.720401742756167],[-75.27587625320547,6.723379494196422],[-75.27463330945903,6.727532165109551],[-75.27739652676144,6.727734435070374],[-75.27873442557717,6.730789103726636]]]}}]}