{"type":"FeatureCollection","features":[{"type":"Feature","properties":{"code":"051838"},"geometry":{"type":"Polygon","coordinates":[[[-75.2359275369094,6.697556271344183],[-75.23250046716026,6.692588195666303],[-75.23371314075797,6.691047431421566],[-75.23260346979225,6.692112313715597],[-75.2294206263449,6.690492148566193],[-75.22615904019614,6.686268566541401],[-75.22692669848851,6.68457393084077],[-75.2248971206568,6.68564518330777],[-75.2249874024833,6.682163138163787],[-75.2234524756783,6.681416115570528],[-75.22637686637847,6.6758003175383465],[-75.21593099217091,6.67738976928041],[-75.21477199504511,6.672031190892824],[-75.21204700597951,6.674546331404656],[-75.21415842829532,6.678226639697357],[-75.21320938668123,6.6793792759062285],[-75.21416328974311,6.680593039653047],[-75.21580998048194,6.679568797293598],[-75.21814928714787,6.682576223414287],[-75.21513441716024,6.684615102480109],[-75.21457879903261,6.6885061458440305],[-75.20826886709222,6.691990037042331],[-75.19999060004363,6.692614683203374],[-75.19647342330319,6.6972809295139655],[-75.19350568477932,6.698276515351097],[-75.1938720581706,6.699580949675749],[-75.18922517126197,6.700085307142899],[-75.19050704772837,6.6963553456453155],[-75.18847764678878,6.690402034375836],[-75.17854418481022,6.6825260374762365],[-75.17189089396516,6.674007368903631],[-75.1648637940894,6.670412168343034],[-75.16166196353623,6.671322166165339],[-75.15911506369099,6.66858496228798],[-75.16093780630553,6.666073251631985],[-75.15707322065384,6.665756217770479],[-75.15462415346008,6.662248034759898],[-75.15576855287281,6.661461246408237],[-75.1518612899419,6.660472975882726],[-75.1527755177483,6.657789229419052],[-75.15024237023641,6.657430817201316],[-75.14984812193904,6.654662879347711],[-75.1478254069043,6.654357605726432],[-75.14903949769581,6.652870018130557],[-75.14723165309965,6.650521005024132],[-75.15183862821101,6.648193189146468],[-75.15241569964957,6.642484862140861],[-75.15679898337089,6.638951648896239],[-75.15608731348925,6.624262835318746],[-75.15385621543135,6.621613020259133],[-75.15579623648853,6.619550893250164],[-75.15420831198361,6.615611344423257],[-75.16402508995941,6.602153009868914],[-75.16118918542509,6.599893280999709],[-75.1598914452328,6.593212591417512],[-75.16274383364384,6.584850355122626],[-75.16760396193808,6.5838701588993445],[-75.17296720636938,6.585071066086243],[-75.1781018393416,6.5832810320575845],[-75.182130784506,6.585149259599405],[-75.18833337173004,6.578803580025465],[-75.19359053951462,6.578060725709747],[-75.19726012629411,6.575127832875296],[-75.19968641965676,6.580444057943055],[-75.19664978474009,6.582677153236318],[-75.19880895764197,6.586023061387209],[-75.19762614590121,6.590746151772748],[-75.20240993187883,6.5947913494142085],[-75.20426405638841,6.598886037766647],[-75.21034517632347,6.602093064011342],[-75.21032208367518,6.6073582371925],[-75.22348313252132,6.615268208690679],[-75.22814472718642,6.616133288257515],[-75.22994553312202,6.622201112487744],[-75.23219632585415,6.622722497877646],[-75.23801777125237,6.63070770097454],[-75.23419494756604,6.640182214308481],[-75.23490457804616,6.6415841182443955],[-75.23839153708855,6.642910611632544],[-75.24415931938455,6.63800496241555],[-75.24824089406638,6.642028626527576],[-75.26101333870776,6.640639991557123],[-75.26498840479701,6.643549482182095],[-75.27264104557884,6.644287130521718],[-75.27451771149151,6.646855778840916],[-75.28474924285149,6.648416477387002],[-75.28891479603567,6.653134527375755],[-75.29329408940004,6.661543869423326],[-75.29382825935892,6.667785049981376],[-75.29107412526082,6.67135371981027],[-75.29144743446847,6.674484206277384],[-75.28698447627676,6.675556295896627],[-75.28503850876501,6.68033894441686],[-75.27656998910646,6.681295281802136],[-75.27297601342093,6.683992426814939],[-75.26543022370305,6.686114833925217],[-75.26433168974137,6.694609962477045],[-75.2586931477029,6.700276135680667],[-75.25908986837607,6.708741692396302],[-75.26165370049893,6.708584096950062],[-75.2603718569427,6.712566160562233],[-75.26187514371361,6.7148701443414325],[-75.25990614423159,6.719133001557623],[-75.26153160380306,6.723573661058651],[-75.25947907627659,6.721099227330171],[-75.25838786482564,6.7218748241703],[-75.25792249664278,6.719197667966284],[-75.25599242679544,6.720400185694189],[-75.25249023343406,6.7157843196972635],[-75.24753847708206,6.714766632630358],[-75.24434216103771,6.71016352651975],[-75.24249534258382,6.7007046177441225],[-75.2392377807306,6.696185221712312],[-75.2359275369094,6.697556271344183]]]}}]}