{"type":"FeatureCollection","features":[{"type":"Feature","properties":{"code":"051840"},"geometry":{"type":"Polygon","coordinates":[[[-75.27873442557717,6.730789103726636],[-75.27739652676144,6.727734435070374],[-75.27463330945903,6.727532165109551],[-75.27587625320547,6.723379494196422],[-75.28052043428181,6.720401742756167],[-75.2848395843277,6.72017751966132],[-75.28442542641164,6.722521166354738],[-75.2880569309931,6.72192568888039],[-75.2889326981346,6.723660458521863],[-75.29243032521117,6.722835850225067],[-75.29086726638951,6.724546114138207],[-75.29234477319181,6.729806309657533],[-75.28742122187589,6.730676167368301],[-75.28715360056367,6.728951267689695],[-75.27873442557717,6.730789103726636]]]}}]}