{"type":"FeatureCollection","features":[{"type":"Feature","properties":{"code":"052047"},"geometry":{"type":"Polygon","coordinates":[[[-75.65369361190466,7.02450847258001],[-75.64630861608924,7.008886973738299],[-75.64436252002213,7.007699086633693],[-75.63079777149187,7.009229170502863],[-75.6299660031782,7.006113607765087],[-75.62299234426104,7.002942883484366],[-75.61701098427869,6.992394408765847],[-75.61418014585223,6.991369785882625],[-75.61305843182464,6.984447712613758],[-75.60613136135356,6.98207808026325],[-75.60692439852193,6.979448953353312],[-75.60284263254982,6.975288210194833],[-75.60269782372939,6.968816631773052],[-75.6007897779786,6.964958749509719],[-75.6040329940871,6.95736217735714],[-75.60236906150942,6.948492671045869],[-75.59866138224749,6.944472100488952],[-75.591298815735,6.9409225164963],[-75.5879115662517,6.930716557359517],[-75.58899517751246,6.929160658554622],[-75.58775178227978,6.922200949431783],[-75.58477545420396,6.915834639300954],[-75.57896189284611,6.913537272520898],[-75.58029709714242,6.909282808424109],[-75.57645947211137,6.907531754423815],[-75.57629976527267,6.9022545176119365],[-75.57396428852661,6.899248343105796],[-75.57399518808211,6.889473501930581],[-75.57665067191692,6.886002852958143],[-75.57733743189232,6.881181387931974],[-75.59310810015074,6.8670952807513],[-75.59789193652205,6.868449071060809],[-75.60254612948631,6.863452242186952],[-75.61019836609023,6.86846557242103],[-75.62052053614633,6.866301605948536],[-75.62512988078925,6.868202690171927],[-75.63154561478223,6.867978110207559],[-75.63811530044961,6.871065711650147],[-75.63913777594485,6.868676667447062],[-75.64123561047802,6.868872829487771],[-75.64517299649032,6.875081310715927],[-75.64646938325222,6.881628773797388],[-75.6570828853628,6.887280921101933],[-75.6622548446278,6.88261260556493],[-75.67179985769644,6.879925523862198],[-75.6791096568802,6.883352735536448],[-75.68966164578683,6.884309013272059],[-75.70020581133122,6.888781535979206],[-75.70687341398241,6.888800777110248],[-75.71097838367461,6.876781587423807],[-75.71375542118761,6.877530800599573],[-75.72168267771923,6.864349443099002],[-75.7222933638015,6.8535337563883445],[-75.72547489392775,6.845534489340025],[-75.7267715388287,6.831139740388835],[-75.73129630435892,6.822177994096478],[-75.73221973364048,6.8145790781234155],[-75.73453882215495,6.812826146187035],[-75.73275404346754,6.804208301817027],[-75.73994079053239,6.805787690249019],[-75.74320698616054,6.802877948684056],[-75.74882967475759,6.801808658485356],[-75.75035526021924,6.796272428993973],[-75.7547496151243,6.7933430770871155],[-75.75656583535635,6.794752650118824],[-75.75785563905765,6.791478009949174],[-75.76315850774245,6.789899148079769],[-75.76475306055937,6.7871970829979205],[-75.76289141402123,6.794577803577795],[-75.75691748350766,6.800509883679979],[-75.75342302711937,6.8067074397632155],[-75.75903810729864,6.813386502349374],[-75.76126610048857,6.819690160790401],[-75.75742120436894,6.822535156756601],[-75.7611131237777,6.827248382321443],[-75.75979342942298,6.828189451449134],[-75.76064769491677,6.830002077274628],[-75.75814459335305,6.831234822984982],[-75.75899917663554,6.832520861558237],[-75.7575425667568,6.832671667226975],[-75.75817595673612,6.835043048958198],[-75.75501742361303,6.838615354331409],[-75.75767229552451,6.84181268750541],[-75.75628342092693,6.8432270088562746],[-75.75786304898605,6.846029266865116],[-75.75626878104771,6.849348229822056],[-75.75829805343193,6.855160930373529],[-75.75552098917944,6.860147907796431],[-75.75238511778724,6.859549372762501],[-75.75252954814084,6.863322856919012],[-75.75023340726426,6.8665042317504685],[-75.75210945919679,6.867620230722991],[-75.75014139148368,6.869504144070106],[-75.7513083662381,6.876369908054187],[-75.74132198883507,6.890959718612578],[-75.74104681155563,6.8967377709356015],[-75.73625577197294,6.901202470280509],[-75.73875024901764,6.904788200942335],[-75.73679724181682,6.910867736047521],[-75.73918458086217,6.916368508954633],[-75.73752163147554,6.917818131594913],[-75.73968804255588,6.918671733743224],[-75.7347833497904,6.920850070643041],[-75.73666675303002,6.922618185476324],[-75.73585067566387,6.92688613553986],[-75.7179435651401,6.933146084145392],[-75.70524829893913,6.933083474621753],[-75.70278364467055,6.93602897513307],[-75.69622946997328,6.953439773695493],[-75.6892788409694,6.962438828797076],[-75.68646383850086,6.970956169650435],[-75.68771499950299,6.973878576484992],[-75.68722604604784,6.982042304861807],[-75.68351060307333,6.9863782997676935],[-75.68258804282567,6.991609566227396],[-75.68046653971635,6.9927083758117305],[-75.67910804531073,7.001129349544158],[-75.66869348100721,7.012678036034288],[-75.66399421449267,7.022800742749212],[-75.65796625783668,7.025702271172236],[-75.65753171927525,7.027269327549959],[-75.65369361190466,7.02450847258001]],[[-75.67477072577088,6.9246633287855275],[-75.6784914477409,6.9121420616889395],[-75.67770131489414,6.908651509268452],[-75.6746988335251,6.908289736100528],[-75.6764593810783,6.910239525304689],[-75.67288657691046,6.919124864488538],[-75.67439511182357,6.921554659697961],[-75.67107710943196,6.923057781918089],[-75.6713101010277,6.92459092231843],[-75.67477072577088,6.9246633287855275]]]}}]}