{"type":"FeatureCollection","features":[{"type":"Feature","properties":{"code":"052468"},"geometry":{"type":"Polygon","coordinates":[[[-75.36474954643501,7.582928319308962],[-75.36053764648875,7.58091692639789],[-75.36125297145509,7.569860114139601],[-75.3591415501678,7.5694662967596855],[-75.35811246384407,7.565914358662155],[-75.35223604613634,7.559619387475038],[-75.3506187194883,7.554109729852996],[-75.34417423435622,7.552535117508114],[-75.33750400300602,7.53688237458266],[-75.27430569292403,7.536680765910376],[-75.27359675355729,7.528789440075059],[-75.26887121650702,7.527459810965638],[-75.26403461897763,7.5235923734428525],[-75.2657971154294,7.522966081773745],[-75.2650628691776,7.520070663327772],[-75.25804682403043,7.516259869333567],[-75.25935747117632,7.51309903558456],[-75.2584640518474,7.510150909459526],[-75.26316831659261,7.506618196037948],[-75.26329461653302,7.504753300649895],[-75.25686842327963,7.502493537842156],[-75.2569822903784,7.497884917222734],[-75.25479384594553,7.493127670204274],[-75.25889689450713,7.490265613405143],[-75.25786367075915,7.487304294419459],[-75.25442288775747,7.484607029078916],[-75.25587250217023,7.483464102395885],[-75.2591072223151,7.484266823379016],[-75.25983238639105,7.478981954495225],[-75.25474298329232,7.474319437317149],[-75.25586455025268,7.472028119836011],[-75.2535071090598,7.471112297943762],[-75.2524163295547,7.468184981324612],[-75.24999776390916,7.467905486643531],[-75.25290475644721,7.462400138195676],[-75.25213413006975,7.461485721155896],[-75.25131021185786,7.462666534632831],[-75.25024972821245,7.457055289515722],[-75.24593899699704,7.45429129779609],[-75.24315414434938,7.454400321959042],[-75.24300894780612,7.453009618790645],[-75.23982761514083,7.454541271034657],[-75.23756137211677,7.452532324788365],[-75.23740117368249,7.450157393901975],[-75.23000038510378,7.449146066723699],[-75.22714697853468,7.450537785993276],[-75.22525483970429,7.444751152345873],[-75.21725906421835,7.446991175227993],[-75.21348230550086,7.441537025734021],[-75.21481737198587,7.438332169502985],[-75.20684461201506,7.428264445382013],[-75.20931702999621,7.407107985118557],[-75.21379548167448,7.402233958452086],[-75.21866298493,7.392387797873596],[-75.21347486986144,7.389484320552015],[-75.21301736000794,7.387195985554229],[-75.21142241124062,7.390113317024941],[-75.21070548396085,7.388844986174945],[-75.2076917853692,7.391889048503515],[-75.20534159263917,7.389604339794005],[-75.19955873954649,7.392793229454867],[-75.19732311222776,7.3887871085153165],[-75.19450756776996,7.388937656044959],[-75.19262296742329,7.385857276325794],[-75.1882819413766,7.3850611620573545],[-75.18469605439151,7.379511257365834],[-75.18335305347244,7.3687924612532925],[-75.1841852691586,7.361100279941979],[-75.18217852069392,7.358437117755329],[-75.17509817937741,7.361218636192348],[-75.17486919562214,7.356243486886797],[-75.17335875809039,7.35560527968272],[-75.17119145946418,7.357625469891104],[-75.16921590983173,7.354927117486795],[-75.16456903217909,7.358107130660301],[-75.16585856025785,7.352852556607786],[-75.16486687016095,7.344166901880271],[-75.17236694560887,7.334875309389531],[-75.17302281734169,7.326253493174477],[-75.18314756551496,7.318955663004772],[-75.18768763529829,7.307778244263886],[-75.18897711092649,7.2991887581678725],[-75.18735162461547,7.295411561333879],[-75.188923256534,7.293397281584646],[-75.1881756456716,7.291080243784563],[-75.18996138081059,7.290518716226188],[-75.19268496296672,7.284077391498045],[-75.18988529868989,7.277979589196832],[-75.19117449869549,7.270910104119537],[-75.20850904338738,7.2513577848425825],[-75.21302599378288,7.2535603765308],[-75.21614616599999,7.25790560993579],[-75.22514961460803,7.258483061898119],[-75.23216084355886,7.253539413786939],[-75.24319355529514,7.250711039508701],[-75.25246391867535,7.250860121507799],[-75.26090208179608,7.241288259918804],[-75.26569361400277,7.238991980202513],[-75.27388798276752,7.246211892481654],[-75.28761381624946,7.24482300657121],[-75.29000139697882,7.247945745780896],[-75.28152517428583,7.252969759475775],[-75.28258568261384,7.2594217429822265],[-75.28005999028176,7.268028014288632],[-75.28019728530114,7.284353324682684],[-75.2772138311471,7.2866167765137675],[-75.28375281369154,7.290580548247306],[-75.28436294852861,7.297824714286435],[-75.28956609119922,7.300514992388514],[-75.28913150944322,7.309373348326005],[-75.28364553068172,7.312260582426404],[-75.2855073931928,7.3215557857787985],[-75.28180657158555,7.329464630103985],[-75.28159283963288,7.335023848370952],[-75.27937297011039,7.336815226574004],[-75.2808835464819,7.339387665732318],[-75.2783198974218,7.342150676317772],[-75.28050217119954,7.34447836261171],[-75.27916689799758,7.347353353103927],[-75.28079177958438,7.349481395050816],[-75.27921244463141,7.34998734763235],[-75.27983037711971,7.352488717298854],[-75.28323322293375,7.353458219776826],[-75.28697921065111,7.359734539130386],[-75.28517140924947,7.3613621193503604],[-75.2866743072691,7.362300513499008],[-75.28389677918904,7.3632165349091565],[-75.28082993480183,7.3702016033676045],[-75.28893232172464,7.3768537392717235],[-75.28895530227271,7.3786481688637195],[-75.28546846355812,7.379550307328259],[-75.28311084958693,7.38258627889951],[-75.27477929070392,7.382086565878751],[-75.2758168966455,7.387201716035918],[-75.27468046663387,7.388070371497406],[-75.27857895180784,7.389717682387072],[-75.27908257702393,7.392195597393481],[-75.28695644607592,7.393537194488488],[-75.28685692575027,7.396280059941944],[-75.28448399312776,7.396399475488067],[-75.28644503143619,7.397799940632865],[-75.28593386465116,7.40548665988598],[-75.28267596649721,7.409492384875193],[-75.28404174330427,7.412188331752418],[-75.28250042370058,7.4121755543826],[-75.28350763196659,7.4137266195075995],[-75.28223332072338,7.414706409496091],[-75.2854990000734,7.417086458940844],[-75.28823794407549,7.416017935960326],[-75.28851235310833,7.417639922481442],[-75.29325082488015,7.41751513949373],[-75.29993433445173,7.420129806501848],[-75.30010936097023,7.424691234979377],[-75.30480956645278,7.429540781628589],[-75.30427529982029,7.434474796318682],[-75.30686193148534,7.434402098802366],[-75.3073268852059,7.431827764224522],[-75.3088073888897,7.434175243923164],[-75.31114216835164,7.433095251751638],[-75.31370582563932,7.434730043410525],[-75.32316647556809,7.4324232756374045],[-75.32152588555027,7.42933049598679],[-75.3227314464396,7.425865888085696],[-75.32172424537265,7.422754383582117],[-75.32347904804595,7.419977552786065],[-75.32161764319181,7.413601567067985],[-75.33010173244162,7.407594395235321],[-75.32858371220317,7.406794074636991],[-75.33168101597249,7.401008768708891],[-75.33194823927744,7.388175604821242],[-75.33686168614565,7.388621722617017],[-75.33873142344106,7.390325015746782],[-75.34762755407223,7.382570606463958],[-75.35053444273763,7.382387195053639],[-75.35140412252787,7.38488767717422],[-75.35521884517249,7.381742180588503],[-75.359461084173,7.381252040310699],[-75.35933914380047,7.382737231635531],[-75.36342865497323,7.3836464437276845],[-75.36402365833555,7.386455044141599],[-75.36831129793109,7.386188440987439],[-75.37402612057963,7.383918717713868],[-75.37474350551634,7.380906329358027],[-75.37842839449206,7.380092217345521],[-75.37933651334987,7.377291715916499],[-75.38204506687549,7.37724541132053],[-75.3837766730278,7.374453802833955],[-75.385463068847,7.3759517818130576],[-75.39100232298779,7.374294811791231],[-75.3952213058177,7.3692393143854815],[-75.39632733712534,7.370830479512733],[-75.39959337848711,7.370051323232985],[-75.4042776348831,7.375167601591613],[-75.40711583181582,7.371346642471565],[-75.40826790958033,7.373942172221291],[-75.41063333560095,7.372910252538418],[-75.41160964739686,7.374442980533331],[-75.41615689159516,7.367782900939233],[-75.41940754437155,7.370761978041855],[-75.42641888439414,7.366780371058212],[-75.43056193936974,7.371773657976007],[-75.43357576548823,7.3688526220553285],[-75.43613890032708,7.370526255931281],[-75.44466132374339,7.361447060474859],[-75.44664505772135,7.362978900923849],[-75.4493690090884,7.360810092544],[-75.46125611590219,7.359859478441308],[-75.46259905717159,7.36224292277484],[-75.46558996650543,7.361518430271872],[-75.4724409713109,7.364411333147473],[-75.4750430234431,7.370729812473655],[-75.47555394751578,7.368881875074294],[-75.47939922415918,7.368817897722124],[-75.4805359812155,7.37200304693755],[-75.48360304980321,7.371553885980404],[-75.48571694449481,7.373392457353702],[-75.48963089435892,7.372488612703023],[-75.49107296103205,7.3748377204261715],[-75.49561208979048,7.3758403274404145],[-75.49745878585969,7.378709044433265],[-75.50648425856423,7.383457683387803],[-75.53258582629883,7.331079601618683],[-75.56436294149063,7.38385549832384],[-75.55648944164949,7.383245467359416],[-75.55371973693167,7.385961879214335],[-75.54476992571477,7.381788047067914],[-75.53678947916455,7.406394391020967],[-75.52351386593557,7.412884977117358],[-75.52174370964389,7.421643122644241],[-75.52458957567245,7.430516203821696],[-75.52211747650847,7.436467646411131],[-75.52259781058683,7.43900727311086],[-75.52049978887709,7.44131236760802],[-75.52276585912284,7.4455715892798935],[-75.5172037879563,7.452052843288811],[-75.51452560742354,7.450563248173182],[-75.51531889450348,7.456560581924691],[-75.51220614969822,7.460002269955794],[-75.5134115974588,7.461851431201751],[-75.51180930766884,7.464859985523901],[-75.50857463071856,7.464069335370596],[-75.50866610348146,7.469227163835399],[-75.50102092610706,7.471649536775146],[-75.49714502553076,7.478633674493153],[-75.4925218164542,7.4898439221476565],[-75.49487462245668,7.49704803240752],[-75.481597492275,7.513301322000473],[-75.47885564395125,7.519129292866467],[-75.47889394417905,7.524015037606944],[-75.47494993088321,7.525141730324833],[-75.4754422771702,7.530929984797638],[-75.472901952158,7.540831841709178],[-75.4708971340799,7.541693596321352],[-75.46797982009275,7.539227148449015],[-75.46848796119991,7.5430515209698115],[-75.46639475465804,7.544432178311695],[-75.46296811994006,7.552197859324508],[-75.45663244196965,7.553365885147173],[-75.45104345440546,7.562241154850312],[-75.44954911919825,7.56756905582597],[-75.45037911344855,7.580462577976618],[-75.4488083073694,7.5831059652705335],[-75.44378733477902,7.586047173062809],[-75.43981414559732,7.583142059489205],[-75.43535373794305,7.583396668946648],[-75.43141783288803,7.580078903096819],[-75.42195690939349,7.582243814708022],[-75.40591166652302,7.58287492257341],[-75.40179282108431,7.581757591767769],[-75.40290938467177,7.5785959332078505],[-75.40187188671666,7.573771740752136],[-75.40587827402288,7.573569388515921],[-75.40720260253954,7.570392607737233],[-75.40489903527958,7.568589815879079],[-75.40388861415909,7.569515199201476],[-75.40345286512081,7.567253542002561],[-75.3994571952141,7.571487436220536],[-75.3998612939339,7.576733765249401],[-75.39254091721881,7.576332327110379],[-75.39803330214875,7.5838877183676345],[-75.38635644498129,7.592580693548996],[-75.38253871517071,7.591963882063055],[-75.38009357559895,7.594561127254906],[-75.37017104802123,7.588964487050021],[-75.36474954643501,7.582928319308962]]]}}]}