{"type":"FeatureCollection","features":[{"type":"Feature","properties":{"code":"052427"},"geometry":{"type":"Polygon","coordinates":[[[-74.8718048077177,8.199763723727017],[-74.82411098440144,8.198392080683789],[-74.81972641821227,8.189882244375497],[-74.81673038414931,8.190277655841328],[-74.81588998206075,8.186013988212494],[-74.81169279912694,8.183051609930999],[-74.80924429140589,8.171700336067659],[-74.80602085019012,8.164856311301492],[-74.79968179481449,8.159559292397773],[-74.79402310764397,8.158531835127008],[-74.7896382658322,8.155655424355643],[-74.78507708726619,8.146611968305194],[-74.78764184807261,8.125140246186731],[-74.78157847802697,8.12462295399797],[-74.77660188993036,8.121932693379392],[-74.7673275372216,8.1252089543745],[-74.76344940595351,8.124224312194201],[-74.76135415795324,8.125597600745436],[-74.76047676587257,8.130575161748652],[-74.74940035869895,8.125563204485388],[-74.74480714414847,8.131424939119256],[-74.73887292694275,8.135060146093792],[-74.73805084347231,8.128900960172473],[-74.74199054862248,8.119001136491761],[-74.72599240636242,8.116678301361162],[-74.72351879024575,8.110196184488927],[-74.72548420457713,8.10631094565457],[-74.71635056851602,8.096732431070905],[-74.70891179852663,8.100074539126695],[-74.70176457450776,8.095408817321811],[-74.69802737586025,8.088390488003824],[-74.68983411884182,8.089652735616312],[-74.67350346568884,8.075774415990566],[-74.66852869485018,8.066855442622568],[-74.6674915023425,8.060444259487724],[-74.65980578067865,8.058284085911282],[-74.65067548088507,8.051632199918686],[-74.64323253850438,8.057180398424123],[-74.63719843073369,8.054905633725298],[-74.63148489878051,8.055233189582168],[-74.62823953836937,8.049765176683081],[-74.62621217888818,8.035460770236455],[-74.61516765446112,8.03134103313812],[-74.61284800544547,8.031165436862466],[-74.60288861643096,8.037520888697202],[-74.60386757235261,8.032060769094414],[-74.59891068921462,8.025766226767814],[-74.59754689524476,8.01790624683207],[-74.59207558104515,8.009845761742838],[-74.59062806876886,8.003311595394678],[-74.58143730581116,7.99728754990565],[-74.5783097750878,7.9875173686035055],[-74.57518340033386,7.985195137168716],[-74.57351608109497,7.977984194965188],[-74.5622338949147,7.96719384804976],[-74.57013930938405,7.960432747632353],[-74.57406802665434,7.950863159929725],[-74.58367837050554,7.950513735271102],[-74.58434050648168,7.947771001458364],[-74.58697998980779,7.948921742247649],[-74.58777003729381,7.9465180149707635],[-74.59168567586056,7.94603174163683],[-74.59852983021045,7.941645936174439],[-74.59838054972198,7.93876638762498],[-74.6023572962863,7.938267527183086],[-74.6036882613426,7.936130911110922],[-74.60249026567647,7.929152304356762],[-74.60603778249964,7.930380956865974],[-74.60469063592876,7.931777260932336],[-74.60713950566156,7.932473783912542],[-74.61048704080855,7.929775190852695],[-74.6147792816559,7.930930337489713],[-74.61407739843327,7.926375473560768],[-74.61596529082448,7.922298636913581],[-74.61597324377044,7.916664559344099],[-74.62004289468973,7.914971984642307],[-74.62619579065665,7.915731331062204],[-74.62972193850118,7.912451407783294],[-74.63104451866559,7.907911970492137],[-74.6335083028718,7.90754707805803],[-74.63429797909004,7.901655407519343],[-74.63891993758045,7.901202844474312],[-74.64370336257474,7.907046261518474],[-74.64561832768686,7.906451473100674],[-74.64571105823495,7.904200033478162],[-74.64687227885355,7.906219267235031],[-74.6496818686291,7.905931794925266],[-74.64980311171763,7.91288567997816],[-74.65465888867158,7.912215609567966],[-74.65629026692977,7.909449988795359],[-74.65524305224977,7.907178653952371],[-74.65658799383982,7.907112365689841],[-74.65814152208469,7.9108263287355385],[-74.66224974782597,7.912597277956422],[-74.66175261105371,7.9145521024151435],[-74.66403087451397,7.917251152103518],[-74.6673695609415,7.918708900468175],[-74.66733872206413,7.923286252321191],[-74.67454665710176,7.925313741386162],[-74.68025471671228,7.9299111509536715],[-74.6839455953372,7.923186799872781],[-74.69619434470673,7.919277745394993],[-74.69997785823466,7.92092329764796],[-74.69939746801214,7.93004591291907],[-74.70349428626895,7.932996280020404],[-74.70745542930342,7.931348193685039],[-74.71604921634605,7.933159296387146],[-74.72070598453041,7.930947207032318],[-74.72831984171643,7.930950153520143],[-74.7263861445523,7.935120100210725],[-74.73401067902853,7.937551599549408],[-74.73408895173174,7.94152634682149],[-74.73832587368446,7.9447090164620136],[-74.74976005544147,7.945655916858755],[-74.7567329399414,7.9522165707439285],[-74.7566878921022,7.9578889505981465],[-74.75969926538528,7.960917409396814],[-74.75907911660335,7.963631942287293],[-74.76583472925148,7.967048625795428],[-74.77446471335702,7.967944121549749],[-74.77707670127239,7.967569036221846],[-74.7780651610313,7.965162422106857],[-74.77840613292085,7.969697182041443],[-74.78897706985248,7.972913703895927],[-74.78929594051226,7.977723176253903],[-74.7876758751218,7.97866396873053],[-74.79115491618518,7.987706009644057],[-74.79336738297843,7.988315947020226],[-74.79390782849356,7.986180122848793],[-74.79528226170135,7.987689949485684],[-74.79312915352494,7.991528281056787],[-74.79548492966939,7.9920870184505475],[-74.79435297338273,7.994756134290981],[-74.80338463319748,8.000963098566388],[-74.80869726385862,7.996954081532692],[-74.8103902345108,7.993327845662293],[-74.81271968766902,7.996594412558181],[-74.81293346281626,8.000756363108167],[-74.80651527393098,8.008500217485391],[-74.79337293348271,8.008178503182023],[-74.79005099524159,8.00986589864732],[-74.7878396401947,8.032877388449776],[-74.78269895895204,8.044607098306699],[-74.77400616889031,8.056052282341795],[-74.75898294900031,8.068117019690533],[-74.7533820171048,8.074519656468055],[-74.75158305619505,8.085225190814299],[-74.7549920963184,8.094880236947972],[-74.75954612412357,8.098751440627268],[-74.76365845232203,8.09893215443293],[-74.7719748252228,8.09399852438031],[-74.77627443794614,8.101365517309432],[-74.78016680594408,8.10251843222619],[-74.78169382916832,8.076916602194956],[-74.77897131350704,8.074217949485444],[-74.78916371982831,8.064376009634998],[-74.79920811167386,8.05821162082293],[-74.80431377547723,8.058590272789502],[-74.80869138733806,8.064654772065012],[-74.81111785450747,8.065503806900153],[-74.81394877109557,8.063004505431536],[-74.81676192750984,8.056654739855503],[-74.82047657138452,8.05534045613689],[-74.83060623037085,8.065381582677446],[-74.83975392935497,8.067005663107523],[-74.844012289192,8.064835778976772],[-74.85123650036093,8.056980228542898],[-74.85587393485434,8.048488659430632],[-74.86100300909482,8.048448394877596],[-74.87373769549754,8.053983178378758],[-74.88633384452231,8.05235496052444],[-74.89546839486889,8.046933760271884],[-74.90233170396067,8.039036316232057],[-74.91256962194876,8.030852787251433],[-74.91859053891568,8.030447338186605],[-74.91846852038145,8.09248167039567],[-74.90965621090089,8.103747244143904],[-74.90020293799029,8.109620335868556],[-74.89397016700667,8.116667892494434],[-74.89208545455978,8.122929165733979],[-74.87745967833803,8.143324109563821],[-74.87572702111748,8.154166647880174],[-74.8676242804105,8.161331662926159],[-74.86725813944719,8.166055133835414],[-74.87020374177428,8.166359064310768],[-74.87488769580818,8.17821065283374],[-74.87608448511122,8.197176326900717],[-74.8718048077177,8.199763723727017]]]}}]}