{"type":"FeatureCollection","features":[{"type":"Feature","properties":{"code":"052430"},"geometry":{"type":"Polygon","coordinates":[[[-74.80062922897287,7.616471749559594],[-74.79883118234852,7.61147479521577],[-74.80589129934293,7.6121083579734545],[-74.80385489265291,7.606468894450472],[-74.80613661579383,7.604416013139769],[-74.80800592320026,7.604918033985541],[-74.80586025272015,7.601653217498779],[-74.80166898230243,7.602545071538145],[-74.80223164320438,7.59930166002556],[-74.79519491196442,7.5990318553298835],[-74.79591195340134,7.5966257091561715],[-74.79834116034164,7.596756221597104],[-74.80019537226883,7.593382944533914],[-74.79776833020003,7.588373488442869],[-74.80198411560212,7.586037241393399],[-74.80475707842584,7.587549287409274],[-74.80650139407078,7.586827663232441],[-74.80707463250405,7.5906557175774765],[-74.81134064601031,7.590848505298254],[-74.81563182550502,7.596606307588047],[-74.8144653300048,7.601703180264792],[-74.80655454809391,7.61512369693088],[-74.80062922897287,7.616471749559594]]]}}]}