{"type":"FeatureCollection","features":[{"type":"Feature","properties":{"code":"052448"},"geometry":{"type":"Polygon","coordinates":[[[-74.81563182550502,7.596606307588047],[-74.81937997398006,7.59268170511632],[-74.82617069662734,7.5925559564211085],[-74.82690764151232,7.590050226158326],[-74.81931579916693,7.588241356204946],[-74.81725389635841,7.579324416067834],[-74.80586737365616,7.57012351060996],[-74.80439530422944,7.560130664303472],[-74.80139194559894,7.5547830830517455],[-74.79430805512726,7.548142536666376],[-74.78716974050599,7.545096940930023],[-74.78061397172274,7.537719502110292],[-74.77745295799633,7.525585214279317],[-74.7801225047541,7.519703970090859],[-74.78080400116073,7.51070654404225],[-74.77952837968172,7.49234419755129],[-74.77208142431834,7.493318878237346],[-74.76997359538075,7.488708794144259],[-74.7604608682081,7.487734602996852],[-74.76007423758449,7.477900281848633],[-74.75814561475579,7.472954212783748],[-74.7609947121507,7.471898707828586],[-74.76316737101939,7.474245059325767],[-74.76415631208937,7.4723266479028325],[-74.75708520824355,7.468626050496084],[-74.75943253161893,7.463426888926449],[-74.75831191288262,7.460397448993604],[-74.75421898111006,7.458485800608685],[-74.7519209345295,7.455149535134808],[-74.74269119874253,7.458070304688874],[-74.74355395197239,7.45466716576874],[-74.73816166946659,7.45455082629411],[-74.72867019917237,7.447823166713647],[-74.7292018617884,7.440938385798972],[-74.72015147095004,7.438254879990836],[-74.71808179620143,7.440265084022371],[-74.7183365856364,7.442647218120101],[-74.71355834090701,7.440333749015565],[-74.70778510478033,7.444606170747136],[-74.70464172884306,7.442917622397772],[-74.70413204507213,7.437964659682677],[-74.70004671348977,7.436779106114159],[-74.69809605833694,7.434148455052423],[-74.69615307228003,7.437411782354388],[-74.68934255725651,7.434284897492944],[-74.68415039115285,7.434669459918609],[-74.68307955931886,7.432789123494615],[-74.6804439521926,7.434736634698652],[-74.68064021913443,7.440442798889592],[-74.67661868389837,7.43994636762892],[-74.67320897117361,7.426970471346294],[-74.66741923471517,7.419014640567752],[-74.6642453387177,7.417953097626537],[-74.65997737939824,7.420592098613099],[-74.6564562647514,7.4181508383265395],[-74.65193471310408,7.41953662039748],[-74.6493558379525,7.4167810814469135],[-74.64426607078514,7.41565851586887],[-74.6418091370345,7.410331425305856],[-74.64173886972787,7.404499657430108],[-74.63727692660893,7.402750000054709],[-74.63610246376453,7.393908576394892],[-74.63143903332951,7.39075430719447],[-74.63077712155382,7.386998264394663],[-74.62623588243139,7.385990003003485],[-74.62170020101229,7.389573820762223],[-74.61697328379216,7.385775142849354],[-74.61099893058872,7.39065355479471],[-74.60696512500499,7.386053766439659],[-74.61179880895673,7.383994473818234],[-74.62096103469145,7.383633140823747],[-74.84521053374124,7.308670800729487],[-74.91400643225217,7.288398160312454],[-74.91116952704328,7.291831086013303],[-74.90543880570186,7.294270364491126],[-74.90293434350872,7.304109570741332],[-74.90559526369066,7.314177934553584],[-74.89915368082342,7.322074783125231],[-74.89555263870938,7.323461264537059],[-74.89340191754803,7.330000928938887],[-74.893155208586,7.342863794246512],[-74.89647516398998,7.352032439519405],[-74.90464663036829,7.353516123147472],[-74.90735928532268,7.358907604496551],[-74.90655483141387,7.36217753131416],[-74.90044127028801,7.369324581526257],[-74.89853074187693,7.375684144045749],[-74.89367184565685,7.379110650208361],[-74.89027044891827,7.391589289390993],[-74.89237021178121,7.405615381808502],[-74.89705005718724,7.406891840439698],[-74.90053367379141,7.420894830952932],[-74.90468126831229,7.427181040838207],[-74.90469251433126,7.433203620796689],[-74.9023273094258,7.437472062455754],[-74.90369321478818,7.442883060558472],[-74.90783772500993,7.447342831606818],[-74.90673720923951,7.457632655088844],[-74.91185375499316,7.460474523561288],[-74.917287456993,7.472017806614474],[-74.92165218658283,7.475350194860027],[-74.91979511558549,7.487484828247659],[-74.91560853178026,7.492408958576732],[-74.91067966135961,7.493821831880496],[-74.90556741449569,7.489843154929531],[-74.9015909353264,7.482234519146232],[-74.89803972228083,7.481256684226992],[-74.89613555375831,7.4820829801979585],[-74.89253964665772,7.492760590272951],[-74.88431616268525,7.491838813698507],[-74.87552045021005,7.494040474646226],[-74.87209703246026,7.491153427722338],[-74.87377950888504,7.481601717436035],[-74.8722378241842,7.482228332036016],[-74.86946788395306,7.478079881850988],[-74.87035013850993,7.482247441526454],[-74.86803280246153,7.482577183852186],[-74.86720500907819,7.485089834504663],[-74.86402892249822,7.482363898243534],[-74.8652603178636,7.485173564123841],[-74.86402875074833,7.487656466048065],[-74.86161755080809,7.487141939341257],[-74.86076712037647,7.490016344649689],[-74.86455723650539,7.492513032845864],[-74.86462447607727,7.495540354187085],[-74.86249268957118,7.495620104762168],[-74.86249479170772,7.496793205948677],[-74.86758082665716,7.501412106879513],[-74.87303558910287,7.503542880369707],[-74.87371648078528,7.509338252693169],[-74.86355023598475,7.5211735393738195],[-74.86356945963234,7.531920168226236],[-74.86143633306563,7.538211133629716],[-74.85527508820235,7.541817129751394],[-74.84880346761446,7.541938182578065],[-74.84628476149243,7.5445522057811445],[-74.84613358352749,7.5548098205003384],[-74.84851274748326,7.568747421609771],[-74.84377730756,7.5912380793243415],[-74.84131339479848,7.594548194590232],[-74.82722857214253,7.6004359601327],[-74.81720694487211,7.600285782842377],[-74.81451162740166,7.601600178661215],[-74.81563182550502,7.596606307588047]]]}}]}