{"type":"FeatureCollection","features":[{"type":"Feature","properties":{"code":"052438"},"geometry":{"type":"Polygon","coordinates":[[[-74.56107980963031,7.649158499533428],[-74.56200970164468,7.628243806565706],[-74.55787111113807,7.600761344947443],[-74.55482298131938,7.523983767812183],[-74.56037652258368,7.5184294428746625],[-74.58221619469583,7.503672524805211],[-74.59361798668414,7.4895541574395565],[-74.59451080231725,7.477337607576885],[-74.60064413010838,7.475609111434721],[-74.59857250748962,7.460785225302175],[-74.5954103213387,7.453968023345396],[-74.58331214418149,7.4474232136456635],[-74.58252136650128,7.4455874962002895],[-74.58553841575866,7.440599749502383],[-74.58527288938382,7.438106754443311],[-74.5781720923456,7.434573766427604],[-74.5636023847531,7.433265237873343],[-74.56121934356906,7.428492567302442],[-74.56407709325089,7.423712004463653],[-74.575118396596,7.418996925645388],[-74.58312331390749,7.412824816315322],[-74.58529713594464,7.407736360412173],[-74.590866367128,7.401640332174338],[-74.59135842853641,7.395813373295766],[-74.60669062032696,7.386060960395071],[-74.61099893058872,7.39065355479471],[-74.61697328379216,7.385775142849354],[-74.62170020101229,7.389573820762223],[-74.62623588243139,7.385990003003485],[-74.62988030013707,7.386402545236365],[-74.63143903332951,7.39075430719447],[-74.63610246376453,7.393908576394892],[-74.63727692660893,7.402750000054709],[-74.64173886972787,7.404499657430108],[-74.6418091370345,7.410331425305856],[-74.64426607078514,7.41565851586887],[-74.6493558379525,7.4167810814469135],[-74.65193471310408,7.41953662039748],[-74.6564562647514,7.4181508383265395],[-74.65997737939824,7.420592098613099],[-74.6642453387177,7.417953097626537],[-74.66741923471517,7.419014640567752],[-74.67320897117361,7.426970471346294],[-74.67661868389837,7.43994636762892],[-74.68064021913443,7.440442798889592],[-74.6804439521926,7.434736634698652],[-74.68307955931886,7.432789123494615],[-74.68415039115285,7.434669459918609],[-74.68934255725651,7.434284897492944],[-74.69615307228003,7.437411782354388],[-74.69809605833694,7.434148455052423],[-74.70004671348977,7.436779106114159],[-74.70413204507213,7.437964659682677],[-74.70464172884306,7.442917622397772],[-74.70778510478033,7.444606170747136],[-74.71355834090701,7.440333749015565],[-74.7183365856364,7.442647218120101],[-74.71808179620143,7.440265084022371],[-74.72015147095004,7.438254879990836],[-74.7292018617884,7.440938385798972],[-74.72867019917237,7.447823166713647],[-74.73816166946659,7.45455082629411],[-74.74355395197239,7.45466716576874],[-74.74269119874253,7.458070304688874],[-74.7519209345295,7.455149535134808],[-74.75421898111006,7.458485800608685],[-74.75831191288262,7.460397448993604],[-74.75943253161893,7.463426888926449],[-74.75708520824355,7.468626050496084],[-74.76415631208937,7.4723266479028325],[-74.76316737101939,7.474245059325767],[-74.7609947121507,7.471898707828586],[-74.75814561475579,7.472954212783748],[-74.76007423758449,7.477900281848633],[-74.7604608682081,7.487734602996852],[-74.76997359538075,7.488708794144259],[-74.77208142431834,7.493318878237346],[-74.77952837968172,7.49234419755129],[-74.78080400116073,7.51070654404225],[-74.7801225047541,7.519703970090859],[-74.77745295799633,7.525585214279317],[-74.78061397172274,7.537719502110292],[-74.78716974050599,7.545096940930023],[-74.79430805512726,7.548142536666376],[-74.80139194559894,7.5547830830517455],[-74.80439530422944,7.560130664303472],[-74.80586737365616,7.57012351060996],[-74.81725389635841,7.579324416067834],[-74.81931579916693,7.588241356204946],[-74.82690764151232,7.590050226158326],[-74.82617069662734,7.5925559564211085],[-74.81937997398006,7.59268170511632],[-74.81563182550502,7.596606307588047],[-74.81134064601031,7.590848505298254],[-74.80707463250405,7.5906557175774765],[-74.80650139407078,7.586827663232441],[-74.80179898772121,7.586053364286784],[-74.79776833020003,7.588373488442869],[-74.80019537226883,7.593382944533914],[-74.79834116034164,7.596756221597104],[-74.79591195340134,7.5966257091561715],[-74.79519491196442,7.5990318553298835],[-74.80223164320438,7.59930166002556],[-74.80166898230243,7.602545071538145],[-74.80586025272015,7.601653217498779],[-74.80800592320026,7.604918033985541],[-74.80613661579383,7.604416013139769],[-74.80385489265291,7.606468894450472],[-74.80589129934293,7.6121083579734545],[-74.79883118234852,7.61147479521577],[-74.80062922897287,7.616471749559594],[-74.79481965900044,7.61524490505235],[-74.7892516259526,7.619681006496137],[-74.78278005781527,7.638341802892228],[-74.77691491800823,7.669390548352737],[-74.77312305558388,7.673156776847236],[-74.77141416155621,7.678100623447847],[-74.77103526070658,7.68903686624742],[-74.77379890481262,7.697716278328869],[-74.75891664736804,7.694881561645673],[-74.75426690550296,7.691904888013141],[-74.74305767600652,7.674975090988312],[-74.73878558131963,7.674656152451291],[-74.73598558896964,7.679821992483312],[-74.72845134763281,7.670248276612426],[-74.7242187163423,7.668271135979467],[-74.71108910184171,7.663289472519011],[-74.70545718502996,7.662647836487565],[-74.70385818728448,7.659574864639808],[-74.69999446963823,7.658354181531706],[-74.69028290030371,7.659920921149137],[-74.68798758629498,7.658637991557612],[-74.6842595284445,7.653566374343825],[-74.68209346909151,7.653146697805198],[-74.68111993409042,7.649868955852924],[-74.67411606364578,7.649226139169457],[-74.67447239943812,7.646342152890497],[-74.67829935849181,7.644078746310868],[-74.67757651149691,7.634223218677903],[-74.67555015166187,7.632319378228544],[-74.67043617290074,7.631999731094652],[-74.66397998614968,7.629198852227205],[-74.66221973787327,7.625946201186991],[-74.6603251410653,7.631013142072675],[-74.65532315866596,7.632641738393829],[-74.65181414981606,7.631275385658967],[-74.65189279275853,7.626521619918435],[-74.64922580682264,7.62532258346846],[-74.64265966311126,7.6275656721377345],[-74.63651510781318,7.634003300643485],[-74.63252097337119,7.634539676611553],[-74.62813214223092,7.632575305120895],[-74.62733382298171,7.630113570600656],[-74.63011054064907,7.6271477634917915],[-74.62635303334713,7.6262607205065365],[-74.62939444229397,7.624821524216486],[-74.62583305280964,7.621304260058423],[-74.61915972070523,7.6208164965112815],[-74.61661282085998,7.622771504032869],[-74.61458117071663,7.621414362029157],[-74.61289280234473,7.622790769846574],[-74.61042066821369,7.616507576383185],[-74.6072409388903,7.6174054581241535],[-74.60041093282416,7.614704556210825],[-74.59575067307742,7.615126031495379],[-74.59518460391695,7.6210796111884065],[-74.5888636511865,7.62588371404803],[-74.58739377131388,7.630688869004302],[-74.58262311751878,7.628423798404697],[-74.58212391049176,7.64090546120832],[-74.5744422676309,7.638565668089029],[-74.57455605759651,7.640485793925677],[-74.56657166491237,7.643921675370336],[-74.56107980963031,7.649158499533428]]]}}]}