{"type":"FeatureCollection","features":[{"type":"Feature","properties":{"code":"052837"},"geometry":{"type":"Polygon","coordinates":[[[-74.83531756874368,6.990948000008416],[-74.83792641271026,6.989798920153817],[-74.83754718275901,6.9857432550243175],[-74.83928943123453,6.984167220343409],[-74.83832234045423,6.982085819293218],[-74.84081701495995,6.9775045110217775],[-74.83968080914877,6.973986903363937],[-74.84124938967835,6.9678677577951476],[-74.83907897281438,6.966550045249164],[-74.83875798150609,6.96318030499981],[-74.84206013457003,6.961394941128617],[-74.84406110113082,6.95690595099984],[-74.84173384369745,6.9543927593866215],[-74.84082390861016,6.948414338692999],[-74.83692985396652,6.946728657641415],[-74.83916702497748,6.942823634658282],[-74.83389794885699,6.934202965156658],[-74.82747897527008,6.927454478586753],[-74.82849328390324,6.921217564008259],[-74.82350508880438,6.912197304478866],[-74.82308412979796,6.902612699458587],[-74.8208140352566,6.901701891223581],[-74.81953316666392,6.898372026775974],[-74.82029832995471,6.895501250841164],[-74.81653796872473,6.894758863438369],[-74.81566549568464,6.892943960641162],[-74.81719673449476,6.88743184812688],[-74.82184247571843,6.885949741101172],[-74.82178273657786,6.868199932917548],[-74.75608720145271,6.883544841399839],[-74.73447291971763,6.890846756543226],[-74.73104093401327,6.889898656982496],[-74.72779315984747,6.895110028221723],[-74.72268242068026,6.8955475389820435],[-74.71361772523494,6.900568812906101],[-74.70805182826223,6.899824579448989],[-74.70375988977696,6.896421415846191],[-74.70247846171151,6.901148582977839],[-74.69819126948846,6.903132066015871],[-74.69505445090073,6.915352812952506],[-74.69098783388688,6.915726501655399],[-74.6896485281618,6.917339924335693],[-74.68754949652146,6.914783754109578],[-74.68262610667102,6.916917102819866],[-74.67804365374309,6.914536950530817],[-74.67113647849254,6.917617556507366],[-74.66589140004976,6.916706275188858],[-74.66053022278794,6.917960614078368],[-74.65607098550123,6.916859528550788],[-74.65596636410072,6.9131174088057605],[-74.65417903590429,6.9114355124225995],[-74.65111716197981,6.912171575932348],[-74.65032818510247,6.9106591216248034],[-74.64815936849504,6.91341047172898],[-74.64286919079092,6.913030210249929],[-74.64321341050197,6.916229524204198],[-74.6409999872572,6.916695531049868],[-74.6373437311496,6.921798351209645],[-74.63492943251208,6.922185464172799],[-74.63506473543828,6.924253647679734],[-74.62908726296871,6.924308053317418],[-74.63064925426704,6.918957913300744],[-74.62358951471106,6.920055586456044],[-74.62327845918594,6.916072945887606],[-74.61735045377304,6.918784351284387],[-74.61674822868736,6.915314038612621],[-74.61470703254054,6.9165912449215625],[-74.61384284051957,6.9144854327597045],[-74.6105986340209,6.917639055069799],[-74.60519018748403,6.916206234094943],[-74.60232258120908,6.917862955233659],[-74.6015279674383,6.911594321431039],[-74.59397014185765,6.91280284629164],[-74.58902404811016,6.905249011067951],[-74.58965550667443,6.901353481637727],[-74.58841387007845,6.8999419885038265],[-74.59043757550336,6.898160803194571],[-74.58949827426841,6.895496667072905],[-74.59324873468222,6.8887834745933105],[-74.59268311289424,6.886554084778425],[-74.59125674745303,6.884215989617758],[-74.58872057426328,6.884728429614711],[-74.58566632726848,6.879808280386612],[-74.58207952805486,6.880327440226949],[-74.58176598267039,6.877371007371664],[-74.58402297999623,6.878637926170086],[-74.58544187585943,6.875027535513539],[-74.58385060685947,6.87390234123643],[-74.58471315234391,6.8708757439187025],[-74.58287128995454,6.871267605200956],[-74.581766499977,6.8692207392505225],[-74.58050615601161,6.8709151744048995],[-74.57533276618307,6.869263589308105],[-74.57186216863272,6.861746426287709],[-74.57325421700392,6.847869932147432],[-74.57534051961119,6.845532672082072],[-74.57401852565903,6.842762639291095],[-74.57472040888166,6.836891348369363],[-74.57701498241181,6.83424530769372],[-74.579590867881,6.834102498165578],[-74.58421080239657,6.825366452840001],[-74.58159488480231,6.8201326790373855],[-74.58576880333794,6.821349008748314],[-74.58691190279927,6.816899122060988],[-74.59108567426762,6.815866184219999],[-74.59133539759466,6.808726070852742],[-74.58572984799218,6.803026429044223],[-74.5820592965336,6.793103176414547],[-74.57802294966842,6.79292875153493],[-74.58061094093449,6.788832279863186],[-74.57888271218746,6.782871927876215],[-74.58263398301398,6.782984485767656],[-74.58588208422447,6.7852778015126205],[-74.58957326418306,6.782543233533431],[-74.59043554227247,6.784798335439746],[-74.59600430037233,6.7842623564504265],[-74.60146242068282,6.790193772178725],[-74.59843704824016,6.792206613136898],[-74.60061207561193,6.794372120216281],[-74.60448014357002,6.792634136691902],[-74.60341871170061,6.791363737644019],[-74.60468494864165,6.790677435325563],[-74.61013885748002,6.792091108757575],[-74.61347330466754,6.788431078266001],[-74.62296122477818,6.793011660457012],[-74.6272901285729,6.792927667556512],[-74.62778542957523,6.795964095756233],[-74.62851872143239,6.7949969124161385],[-74.63425532032278,6.797794533177694],[-74.63756841498667,6.79636210095407],[-74.64154381840513,6.799052033499493],[-74.64448251782602,6.7950803088199905],[-74.64366122831319,6.793782613879216],[-74.64147127515514,6.794510776893503],[-74.64117167236594,6.792600998217097],[-74.64768694211119,6.787306133900415],[-74.64264831527652,6.782763860164778],[-74.6490012258298,6.781368520777505],[-74.65192708720281,6.779129446119441],[-74.6542616157248,6.781707046002282],[-74.65368474174721,6.784378505663199],[-74.65799150934515,6.785266289127037],[-74.66144581225217,6.781488281880343],[-74.66449187387298,6.783339356029387],[-74.66171092416465,6.78569814859577],[-74.66582576793354,6.790092105493557],[-74.66564925017337,6.791864520244985],[-74.67172798412184,6.792785089427923],[-74.67437903125563,6.795145184002479],[-74.6772448778654,6.793329893482451],[-74.67655502536337,6.791402546950906],[-74.67976721233265,6.786229993246138],[-74.68782079657262,6.790408634389735],[-74.68978526370842,6.787609960503062],[-74.69238319795676,6.788162768925702],[-74.70032362060948,6.78113165401038],[-74.70148317000894,6.7824751465249165],[-74.7018318973835,6.781084520489742],[-74.70425199643682,6.781854499976873],[-74.70448496129308,6.779692043257967],[-74.70666493444492,6.780587779667883],[-74.70631281218158,6.778020338740191],[-74.70792879362682,6.777333327824806],[-74.71005176946585,6.778743374968542],[-74.70962400422684,6.78107109725795],[-74.71747160994221,6.785455197562669],[-74.71971311480996,6.790525877865321],[-74.7242591711572,6.789715151485609],[-74.72323322055468,6.790264668892235],[-74.72452279182801,6.795376122826951],[-74.72754800280518,6.793246141237489],[-74.72742413204605,6.795315756336436],[-74.73030218935384,6.795187576403123],[-74.73072482883538,6.793316469222248],[-74.73664909380284,6.79493489836068],[-74.74147014642358,6.793877222363392],[-74.7433948046064,6.791547451416477],[-74.74886610954997,6.7926566102178185],[-74.75595026844513,6.789635861652755],[-74.7594808190521,6.791624646311902],[-74.7610982464875,6.789181091570072],[-74.75980895186524,6.7829112791723105],[-74.77126449437333,6.773840905695806],[-74.77233860899588,6.769067581035472],[-74.77620166123978,6.769222548811115],[-74.7802608518702,6.766605924676867],[-74.78462908022146,6.768565074764865],[-74.79020864416685,6.767705906685592],[-74.79735482945875,6.77617657373213],[-74.7964707525017,6.7832902766955385],[-74.79720191342597,6.781482262406314],[-74.80106241410397,6.781967914560937],[-74.80282723894959,6.779881658233592],[-74.80080957973826,6.775389336979515],[-74.80254776997958,6.774182212857625],[-74.80128674518522,6.77155842150745],[-74.80237307256272,6.765343979426461],[-74.8160980534658,6.758111495465926],[-74.81689699183738,6.753362270299135],[-74.815689562268,6.752265517599881],[-74.8214322855336,6.7488379356863675],[-74.82167820979402,6.7466246070583225],[-74.83045903350688,6.738295105060331],[-74.83286769113721,6.733524158159128],[-74.84784286527804,6.727760572937029],[-74.84916015616255,6.729711496513289],[-74.8497173508926,6.728163377876115],[-74.85142985269664,6.728353949303255],[-74.85198915984762,6.731041813650791],[-74.85381878582791,6.731658289864413],[-74.85817083472148,6.730982291511566],[-74.86387394135284,6.727183619769335],[-74.86985402400956,6.727305122025371],[-74.87350329185023,6.731447055998615],[-74.87528825154351,6.7324014280302436],[-74.8785439529442,6.730878272778341],[-74.88412376577264,6.735058775402933],[-74.8855803242293,6.73017732029615],[-74.88866230009126,6.7292590342556196],[-74.89187932074043,6.733078290274875],[-74.89153407464374,6.736560999792744],[-74.89913372492475,6.736666992107132],[-74.90396597008544,6.740218971342415],[-74.90839165443498,6.736989318333826],[-74.90945160431869,6.739699973995982],[-74.91342823878279,6.740667424731157],[-74.91272943266017,6.743904342657686],[-74.91565169962655,6.7484144518535345],[-74.91532832336003,6.751686903497557],[-74.9195731725477,6.751445666878112],[-74.92251999872144,6.747525624520506],[-74.92240319336236,6.766927707885884],[-74.91106359540697,6.768110166870883],[-74.9133260465635,6.7764256059458035],[-74.90574545846454,6.778562161339892],[-74.90343001475037,6.783604477197855],[-74.90515385719004,6.788698706777325],[-74.9025062399121,6.7939190213526786],[-74.9084848837777,6.795389383564782],[-74.9120206814984,6.798788576351058],[-74.90830745378906,6.803690906784027],[-74.90823676379256,6.808295409519587],[-74.90304315169874,6.818403639877602],[-74.89775329281179,6.822555905584409],[-74.8951856791058,6.8297425827151415],[-74.88426867743732,6.836102431141683],[-74.88059286240991,6.8410565210297705],[-74.87527692941984,6.852265568491873],[-74.87523770770747,6.860674256450011],[-74.86403231224477,6.878658278019088],[-74.86474378466545,6.884270790177368],[-74.87853681863845,6.901932081341897],[-74.87575081104984,6.915832415808211],[-74.87900923473785,6.932388769927911],[-74.87803126303572,6.935618225475537],[-74.86814519888753,6.939078430614188],[-74.85980635760302,6.944341930519329],[-74.85512281700306,6.943355040163681],[-74.84700768562055,6.974409059477466],[-74.83801089720629,6.992385808929498],[-74.83531756874368,6.990948000008416]]]}}]}