{"type":"FeatureCollection","features":[{"type":"Feature","properties":{"code":"052820"},"geometry":{"type":"Polygon","coordinates":[[[-74.69887211694783,7.037142759338735],[-74.69787173754008,7.033887081592184],[-74.69894192351222,7.030212178793363],[-74.68759078231795,7.031534982129756],[-74.68679504445953,7.025177531002782],[-74.69141644450565,7.02650257325854],[-74.69301664141511,7.02334042618844],[-74.69387827878484,7.026210969695228],[-74.6948890701446,7.024839705118893],[-74.69857006543697,7.026238624514576],[-74.70145573836163,7.033294852967799],[-74.70277190207315,7.0331528631083415],[-74.70118432826717,7.037091528503083],[-74.69887211694783,7.037142759338735]]]}}]}