{"type":"FeatureCollection","features":[{"type":"Feature","properties":{"code":"052850"},"geometry":{"type":"Polygon","coordinates":[[[-75.1522422744161,7.0878170491835135],[-75.14344113382123,7.082509791106077],[-75.14185457920178,7.0831782900560825],[-75.14094569004055,7.080547253328405],[-75.13673803344813,7.081952361891183],[-75.13539413469874,7.0792169433900085],[-75.13941827909349,7.078609084496236],[-75.14484812751914,7.073329058548211],[-75.1436866137945,7.070034007908305],[-75.1453580714861,7.066534234472215],[-75.14547108909136,7.0643155785118665],[-75.14440957288969,7.061461285425366],[-75.14464996310085,7.060942653176028],[-75.14624536026912,7.064916839946932],[-75.14487852622312,7.069609635501138],[-75.14769273987628,7.071370183054398],[-75.14883817595904,7.068692409784887],[-75.14836038110525,7.071792444069047],[-75.15153412077939,7.071774091512282],[-75.15084395974458,7.073559108798349],[-75.14741996606705,7.072565200350994],[-75.14697081950806,7.073722085055863],[-75.15188310937839,7.075009882265817],[-75.15488497676728,7.072173742218183],[-75.16036800492714,7.077169970481577],[-75.1529954861764,7.079922830339399],[-75.1522422744161,7.0878170491835135]]]}}]}