{"type":"FeatureCollection","features":[{"type":"Feature","properties":{"code":"052848"},"geometry":{"type":"Polygon","coordinates":[[[-75.069564413536,6.990056769205182],[-75.05118477378414,6.980145297384524],[-75.04913091236773,6.973890820093175],[-75.04635964647412,6.97324779669276],[-75.04525041876713,6.971195484110751],[-75.04484810542357,6.965274372348063],[-75.03856182560418,6.96554821368062],[-75.03788027160482,6.956195312646059],[-75.03138555836858,6.951565882520754],[-75.02917657182485,6.952342204412901],[-75.0224479300818,6.9482215633135525],[-75.01606886932058,6.938373634842321],[-75.01150362223598,6.9374785113841995],[-75.00898473510807,6.939391123419796],[-75.00254960674607,6.937733309046678],[-74.99934497471554,6.934807905330615],[-74.99876614464023,6.931711262849831],[-74.99602257264684,6.937359430081813],[-74.99251533991708,6.933790364302581],[-74.97607252482305,6.939703004784235],[-74.97296474328135,6.942799862209483],[-74.96588416953682,6.93617116451037],[-74.95644644873397,6.935448402876148],[-74.95354150793872,6.936366938828257],[-74.95113968430894,6.9396680408239035],[-74.94808554015839,6.934164062261516],[-74.94155166588797,6.935014546172113],[-74.93857284692439,6.932944930044698],[-74.93313215562921,6.932895953555089],[-74.92532102465617,6.92783881886885],[-74.91560306972207,6.927505628175425],[-74.91536913093074,6.924711116395599],[-74.9111339665863,6.92199139501264],[-74.91201416940038,6.920544357876793],[-74.9088072274879,6.9224463892957715],[-74.90254723774467,6.919141308255973],[-74.89966062276665,6.920870930542662],[-74.89712506252857,6.919925933793024],[-74.89321562752713,6.916474266784121],[-74.89105439568328,6.910519604141143],[-74.88102458303888,6.907155032843889],[-74.86432138686791,6.883569630978286],[-74.86403231224477,6.878658278019088],[-74.86585119408608,6.874444189547148],[-74.87523770770747,6.860674256450011],[-74.87527692941984,6.852265568491873],[-74.87971277272453,6.842554370425091],[-74.88426867743732,6.836102431141683],[-74.8951856791058,6.8297425827151415],[-74.89775329281179,6.822555905584409],[-74.90304315169874,6.818403639877602],[-74.90823676379256,6.808295409519587],[-74.90830745378906,6.803690906784027],[-74.9120206814984,6.798788576351058],[-74.9084848837777,6.795389383564782],[-74.9025062399121,6.7939190213526786],[-74.90515385719004,6.788698706777325],[-74.90343001475037,6.783604477197855],[-74.90574545846454,6.778562161339892],[-74.9133260465635,6.7764256059458035],[-74.91106359540697,6.768110166870883],[-74.92240319336236,6.766927707885884],[-74.9225247994911,6.747687226778794],[-74.92766204984957,6.750943429030997],[-74.9355276039438,6.75109584729762],[-74.93625008069944,6.754338191286877],[-74.94102657707651,6.757460380279781],[-74.94203442297692,6.76285068097684],[-74.95407811736328,6.767037989834023],[-74.95441466077932,6.7715388697867525],[-74.96289436475024,6.774770539571136],[-74.9616529163593,6.778178004120548],[-74.96360908602088,6.779528398512866],[-74.96238510366919,6.7804098920223055],[-74.96633386425572,6.783545703764787],[-74.96722774124152,6.786389856408107],[-74.97097584035129,6.787040745336924],[-74.97149245891018,6.790067515432952],[-74.97355964379943,6.789653474759348],[-74.97443482164334,6.791536972615631],[-74.97928666069089,6.791368641257975],[-74.97962798636468,6.7928259319656945],[-74.98241864559884,6.7932535861328915],[-74.98744794137451,6.797891443316246],[-74.98729625638742,6.7993032994903615],[-74.99110502640679,6.8011869166460315],[-74.99040872454168,6.802485648256834],[-74.99693762012186,6.811667193284279],[-75.00253993013041,6.811263233404247],[-75.0044039801387,6.813099563801302],[-75.00593320217308,6.811903188960571],[-75.01049377807175,6.814540140261215],[-75.00973973018768,6.81547848504465],[-75.01210471809179,6.814983451437342],[-75.01601003520943,6.819020719787034],[-75.01700321551948,6.822447681549704],[-75.02298250730394,6.827727408220937],[-75.02662240809013,6.834707995755366],[-75.0318342966359,6.830608861445967],[-75.04062786480847,6.830326954038753],[-75.04000829503974,6.824120308580461],[-75.04324184378856,6.813799017842712],[-75.04934805566421,6.811554789659169],[-75.05088138735488,6.802622445510053],[-75.03665780414894,6.778250847675679],[-75.03449601077551,6.765534126106843],[-75.03228727517171,6.763710995769486],[-75.02706651116699,6.764080566588632],[-75.02559941425983,6.762236747073075],[-75.02636095846145,6.759389536870174],[-75.02368652557323,6.757283604380575],[-75.02678062471563,6.753695012591663],[-75.02703237304604,6.7508849569316],[-75.03688274612512,6.7535170724955265],[-75.0379834182188,6.7555830859887465],[-75.03964527437103,6.754992140860622],[-75.04436773534968,6.762517524222005],[-75.0450724447324,6.760990421807662],[-75.0500295078478,6.765058134112792],[-75.0565604191753,6.764899289108939],[-75.06013387023347,6.771235595457711],[-75.06344303727542,6.770685320089001],[-75.06543959181784,6.768166707555224],[-75.06678352450581,6.770803995156541],[-75.0684201066831,6.770286462312299],[-75.06804647043077,6.771686333017271],[-75.07155224894274,6.769976078360116],[-75.0786182866807,6.772475052783989],[-75.07894622203287,6.774713162762964],[-75.084016894108,6.775016893720476],[-75.08568294630572,6.779731774049367],[-75.0875848501978,6.779864571689586],[-75.08883697279367,6.777422009394741],[-75.09256772824887,6.77790472431758],[-75.09405600387277,6.779199006886074],[-75.09274687265122,6.780041424722015],[-75.09309808165756,6.782291925376455],[-75.09623396127728,6.782930675598209],[-75.09662820957465,6.784392231257016],[-75.10333912713935,6.781874904276435],[-75.10403142116394,6.7799137970623065],[-75.10521811836054,6.781858506788922],[-75.10818496008255,6.781691752033623],[-75.1107729606046,6.783873063189162],[-75.11455074365085,6.783327085681719],[-75.11578776253992,6.786843651527306],[-75.12117264437336,6.782851842393825],[-75.13200646252562,6.78577582583074],[-75.13170005041849,6.789414333077332],[-75.1336010914473,6.793037880599002],[-75.13711886365593,6.79507686250912],[-75.1374360713242,6.7932985043883605],[-75.14083001596828,6.792738457787266],[-75.14468631340168,6.8029563766820615],[-75.16304843569213,6.818042110450563],[-75.16764441572457,6.819771000486185],[-75.16902970722839,6.822886960202766],[-75.17345179922819,6.825931626227032],[-75.1756922705112,6.8361482955642145],[-75.17881159837702,6.839773315815648],[-75.17779638368597,6.84379764430156],[-75.18233265954484,6.848698666555663],[-75.18054222956584,6.852168780737998],[-75.18144699672945,6.856690486651701],[-75.17956365416796,6.857872360452916],[-75.17749901981614,6.863832694956386],[-75.17787112368916,6.874229853898726],[-75.18059423893243,6.877525750946802],[-75.17452239040665,6.89670271750083],[-75.17091077590351,6.898788100680463],[-75.17192914277086,6.902857466721116],[-75.16987134139112,6.906607366633807],[-75.1713210329371,6.910038423654612],[-75.16566097382423,6.9149378847329785],[-75.15816647253479,6.916085008489915],[-75.14424690619336,6.922065204275327],[-75.14056706584194,6.935778226448804],[-75.13586448157184,6.941545471897825],[-75.1153425487451,6.949144379643371],[-75.11029233959079,6.9531006283198735],[-75.08538200654124,6.965395641147666],[-75.07279303295985,6.985198356353067],[-75.0724237819864,6.989512826985504],[-75.069564413536,6.990056769205182]],[[-75.06605435876003,6.924306265884354],[-75.08283610017145,6.919453442617282],[-75.08360986741235,6.921136846697209],[-75.08489567664299,6.918454571934774],[-75.08729013868117,6.917814459026658],[-75.088180034566,6.919074852357312],[-75.08987373541237,6.916786208826693],[-75.09165678528791,6.918479871620718],[-75.09316571615136,6.916990491449553],[-75.09763524711923,6.917100775454571],[-75.10019085375882,6.914620380873259],[-75.10153227087642,6.915230024114862],[-75.1007753783203,6.914025751864017],[-75.10306782091754,6.915392910897822],[-75.10239593119258,6.914035893335722],[-75.10397561787289,6.913412019534974],[-75.10207731250114,6.912064494497315],[-75.1053511772252,6.911010999118844],[-75.10347780232854,6.902821640925993],[-75.09740435663156,6.900365309842755],[-75.04100100740845,6.888488019512749],[-75.04821056944212,6.897291928674861],[-75.04884368791261,6.900558972768124],[-75.05038636506049,6.900900616230615],[-75.05353886739664,6.91511693349014],[-75.06605435876003,6.924306265884354]]]}}]}