{"type":"FeatureCollection","features":[{"type":"Feature","properties":{"code":"053020"},"geometry":{"type":"Polygon","coordinates":[[[-75.00717202186496,6.60461981666765],[-75.00405259012643,6.603159302821098],[-75.00513176365774,6.601658165494996],[-75.00409410423714,6.601066649581298],[-75.00473278143949,6.596821106194909],[-75.00857605673372,6.593914347113298],[-75.0091079713182,6.590752814023347],[-75.01234834378317,6.588380176563817],[-75.01657336048527,6.588954343680712],[-75.01850244199937,6.587120956686135],[-75.022671833331,6.587276362578223],[-75.02052672335208,6.5935014243567025],[-75.02061271657328,6.594739317421897],[-75.02306304566599,6.59449007334905],[-75.02203936175084,6.598730374763875],[-75.0175928216155,6.599817731612291],[-75.0164213011451,6.597960822080381],[-75.00717202186496,6.60461981666765]]]}}]}