{"type":"FeatureCollection","features":[{"type":"Feature","properties":{"code":"053047"},"geometry":{"type":"Polygon","coordinates":[[[-75.13540537763237,6.5486193803700985],[-75.1367200315903,6.548283231875985],[-75.1360395440858,6.545768997422044],[-75.13010019083816,6.546873141537674],[-75.12746359332175,6.54486815170975],[-75.1228860182967,6.539216846699617],[-75.1217714221197,6.5345472785196534],[-75.13610580560885,6.534945651899932],[-75.13717050689701,6.5311471560214045],[-75.14210328231388,6.529307163340491],[-75.14564581016242,6.522538793891329],[-75.15398076187728,6.519009082493483],[-75.15497056992433,6.509529432089153],[-75.15700083475559,6.50650724781832],[-75.1605189463503,6.506089181820698],[-75.16680881646249,6.500290708743023],[-75.16987239143094,6.494338399176513],[-75.16823211097432,6.48122330217052],[-75.16553889872574,6.476662276842433],[-75.16520972821405,6.475117833858803],[-75.16713865751865,6.477877399161855],[-75.17101243950339,6.47387074857437],[-75.16458587498221,6.46976340523679],[-75.1653694206546,6.466543117225797],[-75.16772688241633,6.466221631236635],[-75.16937901875832,6.462151616248718],[-75.16763761566261,6.4443400840304434],[-75.16407865227421,6.437303026774202],[-75.16662324532285,6.432792172985955],[-75.16709277766944,6.425982616470833],[-75.16217353141394,6.42011550308257],[-75.16349256448007,6.41723418561196],[-75.16640669852302,6.418032667355078],[-75.16780344173435,6.420353228599254],[-75.1707100444927,6.418132015930837],[-75.17360189835694,6.419081932749464],[-75.17464723407244,6.42214345288977],[-75.17689017875972,6.4233998589487555],[-75.17695896408071,6.427298635171951],[-75.1782178085769,6.426916200593837],[-75.1798886769709,6.42926889449609],[-75.17956815977465,6.434419517692561],[-75.1829633724883,6.4366498300204285],[-75.18265794974286,6.439085878160313],[-75.18555710966274,6.440215379554672],[-75.18624415451671,6.438188734841049],[-75.18796823041288,6.437955582808286],[-75.19424753019291,6.4418747108805405],[-75.1935761588029,6.444855142442009],[-75.19604032250442,6.4443886779394575],[-75.19699401370707,6.4491104426625725],[-75.2095752143199,6.449846678950621],[-75.21564856437175,6.452725115753765],[-75.2363783526306,6.447975071946701],[-75.24374882889452,6.442223110181942],[-75.2366684176439,6.4558274259812265],[-75.23772890334618,6.463115244263065],[-75.22895444569247,6.47044005150849],[-75.23238012498734,6.475701924417592],[-75.2289926338201,6.478341589777983],[-75.21985216478686,6.479570258742228],[-75.2169072443171,6.484877023167314],[-75.21720491774818,6.487382916952413],[-75.22453699094001,6.490060571951062],[-75.22502528722038,6.4939017811042845],[-75.22791689014463,6.49600626657525],[-75.24300069249801,6.499681944819827],[-75.24828800084748,6.506789289951541],[-75.26357784137514,6.50902631389522],[-75.25412420542432,6.5171386273452185],[-75.25357517241412,6.5205855275229965],[-75.25120965794747,6.521062271308551],[-75.25086644508167,6.527756550730146],[-75.24889799581644,6.527957745968536],[-75.24494605734253,6.5326138178973],[-75.23612582885454,6.534924832109596],[-75.23583578029633,6.541230257414895],[-75.23105221029158,6.547237490954103],[-75.22103426176011,6.547992632072578],[-75.21719680127984,6.546505080472173],[-75.2075756608391,6.555664788579634],[-75.20308200980884,6.553086888391533],[-75.19861057313705,6.553608798287144],[-75.1979854199538,6.552229209497057],[-75.18663223421584,6.5538139129199635],[-75.18317589704947,6.550658353024232],[-75.18119219803856,6.551710305738936],[-75.17531014446581,6.549763563809904],[-75.17177712971062,6.550283173079606],[-75.16934377917545,6.546703749855737],[-75.1613458583584,6.544101257550153],[-75.16102671207597,6.54558027924827],[-75.15748553662934,6.545103813142248],[-75.15475440879044,6.548154578859112],[-75.15065619493708,6.549130706563801],[-75.13736237519021,6.55012737843623],[-75.13540537763237,6.5486193803700985]]]}}]}