{"type":"FeatureCollection","features":[{"type":"Feature","properties":{"code":"053448"},"geometry":{"type":"Polygon","coordinates":[[[-74.73303034499395,5.98997018684571],[-74.71760090059348,5.988387861181877],[-74.71775043099348,5.9839581617928275],[-74.72328380964223,5.978553566773144],[-74.72275630707617,5.972002010490485],[-74.72393541539543,5.970039629036137],[-74.72101521354165,5.969792103490704],[-74.72089366089187,5.967194892237444],[-74.71888506945822,5.9654848617807374],[-74.71784110157125,5.966689809718332],[-74.71723030441717,5.9651725731530405],[-74.7212922954966,5.964385706639803],[-74.72236864183935,5.962399705974519],[-74.7215780441366,5.960131051252688],[-74.72312695467457,5.95727871426385],[-74.72167860730298,5.9553431124242024],[-74.72341111951317,5.9545894604904674],[-74.72476510728364,5.948199620623257],[-74.72925400896634,5.944825029210506],[-74.72812753119297,5.942030069029727],[-74.72568811387532,5.942045353742458],[-74.72866823279026,5.9367070027623186],[-74.73030180985859,5.937799187119936],[-74.73143622412283,5.930997038476278],[-74.72945166327713,5.928994261856587],[-74.72520314357809,5.9288161242994875],[-74.72534809843734,5.926301106172332],[-74.72361899962789,5.926508822764731],[-74.72403759835873,5.923426089969041],[-74.72725063893535,5.920407937192863],[-74.72813852730036,5.913697614067928],[-74.72994535373846,5.911925501678638],[-74.73131760047744,5.903884298858145],[-74.73039666105518,5.900614373069004],[-74.73372197464465,5.896737061469537],[-74.73828371268337,5.895677144496005],[-74.74279047841264,5.889207816306509],[-74.7444453473264,5.88840444020542],[-74.75479048044701,5.894219724204504],[-74.84612306461742,5.924624988607718],[-74.84409809215134,5.926715345335367],[-74.84665597781958,5.933328239986736],[-74.84336574954665,5.936758538016932],[-74.83955780845196,5.938070339075296],[-74.83645401726727,5.942951579237558],[-74.83012325010986,5.9431229599273365],[-74.82792406050959,5.944624643356349],[-74.82792741220374,5.94877828717614],[-74.82464647385206,5.950485992324275],[-74.8229057258742,5.9558931810759645],[-74.81504202400498,5.959640298023146],[-74.81349003739547,5.967014962105054],[-74.81443801457152,5.969354453890617],[-74.80606559566723,5.969314688132215],[-74.80383061421037,5.9724913763510585],[-74.80161929207367,5.98340118303571],[-74.79685117133249,5.986321202855208],[-74.79203568567112,5.9880194627872925],[-74.78582767032742,5.987101796897548],[-74.78285678785471,5.9887761393704295],[-74.77880380181801,5.98690846924444],[-74.77258936693613,5.986711763157643],[-74.77135295071434,5.991909114668488],[-74.7685504510215,5.99378546896304],[-74.75069693572271,5.998120662712211],[-74.73976700858861,5.994896852285592],[-74.73303034499395,5.98997018684571]]]}}]}