{"type":"FeatureCollection","features":[{"type":"Feature","properties":{"code":"053418"},"geometry":{"type":"Polygon","coordinates":[[[-74.23201848567624,7.00884634717346],[-74.2277309766929,7.00545229145763],[-74.22478726155776,7.006880768291296],[-74.21733084349478,7.0025155717885355],[-74.21914962249184,7.001603980908783],[-74.21814498430365,7.001375971088578],[-74.2198240627543,6.998425449720912],[-74.2235639086129,6.996047356373822],[-74.22222605916244,6.995629533088618],[-74.22167068271881,6.990322967152963],[-74.22561772889168,6.9887619837282955],[-74.230361093993,6.973093536485578],[-74.2386339421779,6.964120890759489],[-74.23869298197758,6.959471935652914],[-74.23355704905401,6.953063732944486],[-74.23658361140463,6.944926956960785],[-74.23665805830166,6.939238180647521],[-74.23824571746837,6.937950185976547],[-74.23820204774216,6.9307083966681375],[-74.23396148098914,6.923309788387542],[-74.22835197599676,6.925678369669754],[-74.22671452170016,6.924882057940408],[-74.22714089442803,6.917325965285386],[-74.22413171789816,6.913784497761071],[-74.22623031039353,6.90973176986347],[-74.22457896595228,6.907901134981046],[-74.2247972220236,6.902258679718784],[-74.22009112253693,6.894787753417177],[-74.22353646462432,6.8901671288166995],[-74.2271358262633,6.876934858269237],[-74.23543810847309,6.872860924915301],[-74.24342875717309,6.872467168213518],[-74.24321094847426,6.855407740122928],[-74.2376054173838,6.851567719849243],[-74.2370892698516,6.825856990096554],[-74.23495931500162,6.820520455345957],[-74.23711836037666,6.809154620793436],[-74.23567609727104,6.802446805011357],[-74.23602369438726,6.780782220095773],[-74.23816746224873,6.766443693011752],[-74.24022292803545,6.764252517035516],[-74.23551007270993,6.758639806387805],[-74.23445050232147,6.7547654752148105],[-74.23062466427012,6.754209427198191],[-74.23016535258529,6.7496849979687],[-74.22856724341415,6.7481392149244925],[-74.23266200067218,6.7428085834338845],[-74.23193192475475,6.740238513807128],[-74.23559420445014,6.738747626967665],[-74.23504703086405,6.7371393824955135],[-74.23138005530012,6.736208035234995],[-74.22856478749338,6.738186917021153],[-74.22461039104184,6.736472292511735],[-74.2228470584663,6.738042797257208],[-74.21875768510483,6.7346598476921145],[-74.21686213287376,6.736581894659366],[-74.20792226463914,6.7241001033004295],[-74.21314590519762,6.726960652402852],[-74.21951897013895,6.72399523198834],[-74.22393596826294,6.720971529736346],[-74.23281125647804,6.708316261721791],[-74.23748221716914,6.708185937485837],[-74.2416846132781,6.7048750385467315],[-74.2529757088559,6.67604059564934],[-74.26342642805616,6.663265531564889],[-74.26974764715322,6.662242503796051],[-74.27901633005837,6.666346395680534],[-74.29973217777888,6.665980470690158],[-74.31158559487267,6.654653988462144],[-74.31520315377355,6.646559329256434],[-74.32113210741045,6.64157413206749],[-74.33125932076047,6.627726340729453],[-74.33739485353237,6.630588526083898],[-74.34328109492299,6.630065504441916],[-74.34921872552945,6.634697675366567],[-74.35932694663148,6.635007454594529],[-74.36368510344522,6.6328449978756225],[-74.36772587981233,6.634122170245973],[-74.37263314059874,6.640252292381717],[-74.38059557809203,6.645548622228944],[-74.38184808224008,6.651095337720278],[-74.38353138347571,6.651235597739401],[-74.38702866602404,6.647109000929447],[-74.39086695440056,6.647912514841778],[-74.38592353974582,6.656063870026628],[-74.38690691488495,6.656790043004662],[-74.39213619953591,6.653826519038205],[-74.39385525149038,6.655063124493381],[-74.39049931396806,6.658331784269819],[-74.39172576972402,6.663583480740215],[-74.39017380882558,6.66926644121105],[-74.39150367859054,6.67172964023348],[-74.39762583852433,6.672658231268031],[-74.39249362033513,6.6818812893777135],[-74.39355634495678,6.6846215600706955],[-74.39785363442843,6.687583577368855],[-74.3966581903282,6.689484359230107],[-74.39227611399838,6.687410816509214],[-74.39094727781816,6.691154046972144],[-74.40783883837861,6.717993099524051],[-74.41142826526288,6.71940468007557],[-74.41114433490918,6.721686923608388],[-74.41772628886736,6.7342828854566505],[-74.4204131885358,6.7374695495679475],[-74.42538030776217,6.739449716907245],[-74.43068664229821,6.739829118608384],[-74.43350963987893,6.737195795653008],[-74.44222360762899,6.739801500812973],[-74.44531631220332,6.743372024923758],[-74.44847471574263,6.751566461565744],[-74.45226228750477,6.754353125300668],[-74.45269633549913,6.756424599823674],[-74.4498328995586,6.760121663501991],[-74.45117065542081,6.761811539570601],[-74.45041356643219,6.765406413086453],[-74.44737203612914,6.768461616532818],[-74.44884718059899,6.770138966171544],[-74.4459844882224,6.778722221962823],[-74.44681842552131,6.78252270993454],[-74.45130456377899,6.785432053492229],[-74.4574192633907,6.777715443585748],[-74.46091290011037,6.779523427021729],[-74.46712812689299,6.787580792844778],[-74.47222490700989,6.784745362422484],[-74.47481772372828,6.786188884341755],[-74.48187162173076,6.7859457430467955],[-74.48457000704525,6.790556157269975],[-74.49035901948014,6.792080562079548],[-74.49175963169222,6.794290202712773],[-74.48443896804167,6.809669216405837],[-74.4739986998743,6.818410335038436],[-74.46363153545803,6.811442594807943],[-74.4564394548903,6.800996553992661],[-74.45361721527172,6.799748642868906],[-74.45224328805767,6.79380669691767],[-74.44497368554977,6.787097208888042],[-74.43962893148654,6.786703340086035],[-74.43688253538994,6.788477659512978],[-74.43393171063173,6.793710760714191],[-74.42609368588683,6.7974576195223335],[-74.42033880437373,6.804934009939018],[-74.41566104362067,6.82170388929444],[-74.41194124930587,6.82753870650231],[-74.41257879213612,6.830464567875254],[-74.4103502898671,6.836016920260022],[-74.4020281731149,6.8400870350068885],[-74.39801154149279,6.84558965293985],[-74.39804050860477,6.850042962283851],[-74.40341938433392,6.850540055861472],[-74.40492467039707,6.85397852178221],[-74.39443205553391,6.859060472786439],[-74.39054782354481,6.866796391701143],[-74.38939044827282,6.874931737121358],[-74.39207768424194,6.8758918992843405],[-74.3917005749392,6.880429106912175],[-74.39568892027825,6.883743873823562],[-74.39508903901304,6.889019342742756],[-74.38981289749245,6.893308774913635],[-74.38550367500221,6.893978431889934],[-74.38397601208669,6.897123850314017],[-74.38065837582064,6.8983748796755435],[-74.3826023954623,6.906103656056985],[-74.38006346707505,6.911866301282657],[-74.37276063764625,6.916091324155445],[-74.37116387059257,6.911936234345433],[-74.36406495251885,6.911101879498858],[-74.3588112495571,6.912031756086606],[-74.35676926870866,6.914178254462911],[-74.35264786759029,6.913545381790186],[-74.35232507650755,6.918692886748943],[-74.34865006058004,6.918309547141405],[-74.34739819612321,6.920781052894085],[-74.34928698531627,6.92060817993422],[-74.34892734102436,6.922649695926623],[-74.34415581613848,6.925569611873414],[-74.34281944867365,6.9215013493515585],[-74.33888693027984,6.923957310195533],[-74.33880756331376,6.925704779045191],[-74.33597396043382,6.926268065240265],[-74.33297732987421,6.9234179517441135],[-74.33221486418813,6.92528561158565],[-74.32875690928171,6.923781860987162],[-74.32881596450801,6.920990021100977],[-74.32632399686304,6.921653654489489],[-74.32439254787425,6.918059161497354],[-74.32690493833081,6.917556078270479],[-74.3267431375831,6.916411168750301],[-74.32216108986148,6.917227325306499],[-74.3159548238985,6.924962700175172],[-74.3145712900029,6.931410564769351],[-74.31167710157416,6.931995219943019],[-74.31288349858727,6.933300110896084],[-74.315455866783,6.932655709382743],[-74.31252382858429,6.936814307210113],[-74.31479519016676,6.93707432833213],[-74.31590178917469,6.940056601834158],[-74.318093267513,6.94114059053328],[-74.3130490901741,6.9423072742384875],[-74.31479997139604,6.946705488888313],[-74.31138299375334,6.94718870054885],[-74.31096463876338,6.95441929834584],[-74.30887496492153,6.955906695679801],[-74.30043213061492,6.954845908643904],[-74.30178019867026,6.95797956682776],[-74.29912810149665,6.9601893894952696],[-74.29906676929863,6.958382095115837],[-74.29370181765273,6.962502161315797],[-74.28978190487885,6.961599685522117],[-74.28980315352976,6.963628551671604],[-74.2870290707321,6.962524323223647],[-74.28166357709705,6.965700509562566],[-74.27933123710073,6.9647972336405815],[-74.27716180034247,6.967891703022303],[-74.27484956331205,6.966326136857788],[-74.27091078890237,6.969078876387812],[-74.269061626628,6.968517855851644],[-74.26946262150824,6.9671319596235435],[-74.26668935015175,6.968076837073852],[-74.26590463719714,6.96610821708714],[-74.26586551935748,6.968819733555733],[-74.25919219548064,6.96906420051306],[-74.25975657491006,6.973422340871707],[-74.25780681553067,6.973080636731083],[-74.25937574264537,6.975832271713841],[-74.25772659701425,6.974788547567755],[-74.25829099495564,6.977499884058886],[-74.25672344698239,6.978384384734227],[-74.25823235933387,6.982641642080864],[-74.2602024283961,6.982781065976269],[-74.26032392139615,6.985352394416623],[-74.25204332595376,6.988468265687175],[-74.25198438899832,6.992666215839108],[-74.24947169720815,6.992305389866715],[-74.24943267295674,6.995397835273593],[-74.2458941611763,6.9941342866812874],[-74.24294024389138,6.996725999880823],[-74.24181528307071,7.000181637706305],[-74.24469167841545,7.00389591031319],[-74.24338320951085,7.006723232494721],[-74.23836002268371,7.004064250926888],[-74.23604493378218,7.0077418575011166],[-74.23413967099685,7.00713775550787],[-74.23201848567624,7.00884634717346]]]}}]}