{"type":"FeatureCollection","features":[{"type":"Feature","properties":{"code":"053420"},"geometry":{"type":"Polygon","coordinates":[[[-74.39972498535019,6.498603650606867],[-74.3985247651629,6.489795131965423],[-74.40571919675023,6.475434641462925],[-74.40607129330249,6.469919557778212],[-74.41236724253844,6.471367418696445],[-74.4203042199087,6.45839707600345],[-74.41978964795044,6.4663447810576145],[-74.41629503421046,6.4669005143708205],[-74.41068838725982,6.479347991745101],[-74.41183102597893,6.482391789763938],[-74.40949429864679,6.486337942220189],[-74.41119933087288,6.49023911677142],[-74.41023426612435,6.494548539807909],[-74.40806730174194,6.496416043326178],[-74.40552885672264,6.495010382489795],[-74.40198481706364,6.502045690365321],[-74.39972498535019,6.498603650606867]]]}}]}