{"type":"FeatureCollection","features":[{"type":"Feature","properties":{"code":"053450"},"geometry":{"type":"Polygon","coordinates":[[[-74.75840333319496,6.415998726870214],[-74.75788334545842,6.413837208090911],[-74.75432383699547,6.412456264842035],[-74.75613941342255,6.409770623987242],[-74.7536089614585,6.407632207112272],[-74.75614629781677,6.4086098579402915],[-74.75743963318968,6.402317551447766],[-74.75925868369558,6.403619070137836],[-74.7574128453474,6.4077826055177525],[-74.75903875743359,6.410598526385456],[-74.76097345013005,6.410605419007254],[-74.75989478156407,6.41170867249167],[-74.76067903171958,6.4154060899541605],[-74.75840333319496,6.415998726870214]]]}}]}