{"type":"FeatureCollection","features":[{"type":"Feature","properties":{"code":"053857"},"geometry":{"type":"Polygon","coordinates":[[[-75.16967481631025,6.304213475476729],[-75.17118518493635,6.296491583489512],[-75.17427439897676,6.293320780018746],[-75.17599849132802,6.288187542642959],[-75.18106457037885,6.284143501999324],[-75.18891528713289,6.282301777421196],[-75.1906854012584,6.280315803495455],[-75.1940349788922,6.271406754597763],[-75.18916730285832,6.269556905323782],[-75.1908608072722,6.266876079636859],[-75.18950265739483,6.265244795995386],[-75.19214281229392,6.263466058379322],[-75.18952592179306,6.259942245099353],[-75.1940047437106,6.256872410001279],[-75.19159373506068,6.250548847083735],[-75.18829016891675,6.248573599813426],[-75.19164695901793,6.243123864394761],[-75.19463765135038,6.244022762236909],[-75.19706412674736,6.241931434659534],[-75.19495840920223,6.232807931842501],[-75.18980824057729,6.22666417050209],[-75.19089205032748,6.223278324842852],[-75.18957951598958,6.21909963227705],[-75.18539086295806,6.216067236600452],[-75.1867568279701,6.214760234254868],[-75.18613122741442,6.210169854091987],[-75.18862592763116,6.2078151197598],[-75.18846555744699,6.201313875913627],[-75.18209470777089,6.196608898457782],[-75.18205691456518,6.193087514358979],[-75.16933845390008,6.179630196934227],[-75.16425677029088,6.170086433423307],[-75.17576252753344,6.160109879703157],[-75.18081314086567,6.164703609503306],[-75.18478861318971,6.174891372406648],[-75.19166283097132,6.171759060454008],[-75.19522577134694,6.173013957787816],[-75.19788850055932,6.170631728044896],[-75.20377833532814,6.1709165634280225],[-75.20974499372466,6.164816013128416],[-75.20969141701164,6.159235624372172],[-75.21230123388483,6.157533795744541],[-75.22794160156144,6.1633159063017615],[-75.236555921459,6.164362992426447],[-75.24418501296401,6.172118091794175],[-75.25405050003434,6.172097575394389],[-75.2547754748768,6.174427355597288],[-75.25166974404954,6.180362693805364],[-75.25125776437471,6.193525844787985],[-75.2450397104036,6.195042555819157],[-75.24935802329725,6.203341545984415],[-75.2488619797594,6.207803126063197],[-75.25142566481503,6.208969367538089],[-75.25128807668955,6.211354182785499],[-75.25758258404903,6.217996444612993],[-75.25852883961232,6.223544237912051],[-75.26899653428484,6.2368128885851775],[-75.27161370966422,6.24333209006619],[-75.27605360194713,6.24582968534861],[-75.2842020270993,6.258623963824675],[-75.28352293519129,6.263887162396145],[-75.28107423926531,6.265750644704212],[-75.28156208817313,6.2694347232672385],[-75.27870114209196,6.2695610674306295],[-75.27509992822797,6.265487410727758],[-75.2639376656445,6.267622586980394],[-75.25458362920938,6.272646541025665],[-75.25485842596504,6.277091697905803],[-75.2515855351761,6.279648532505746],[-75.23236596744766,6.287080909696442],[-75.2300468624781,6.286124295660102],[-75.22836833424418,6.29168582483743],[-75.22958152000632,6.2935670395513625],[-75.22818505344605,6.29540653446611],[-75.2313435937682,6.304410990947815],[-75.23676076149764,6.309641533384024],[-75.24107910113082,6.319202711512105],[-75.24500088258475,6.320052814898986],[-75.24728171406599,6.3242640772108984],[-75.2499369490177,6.3249305285318655],[-75.2446574393478,6.335661320397946],[-75.24581694349581,6.341468530094801],[-75.23788946276375,6.349123471502537],[-75.2329000273632,6.347762667215022],[-75.23134333562916,6.349210395464183],[-75.22476646526235,6.349447597503627],[-75.21356642901355,6.336569817722591],[-75.21306269992482,6.332444909615219],[-75.20557814984511,6.328119297865044],[-75.20454050790806,6.3249029909550245],[-75.19768133521211,6.317699761041922],[-75.17648660660251,6.305242301604551],[-75.16967481631025,6.304213475476729]],[[-75.21887544881304,6.227408128336606],[-75.22028112610451,6.226104245257147],[-75.21460610418148,6.218288242551921],[-75.2104783431746,6.217410582047762],[-75.21057673529879,6.215590187367525],[-75.20863455245546,6.2144766638560895],[-75.20676672600621,6.215691792346149],[-75.20775112650256,6.21675318102092],[-75.20577792274753,6.2188439408980685],[-75.2090510295094,6.219776849334323],[-75.20728296712673,6.220015967362144],[-75.20829387470047,6.220615109177174],[-75.2071780690751,6.223758008945538],[-75.21278912907258,6.22500881204968],[-75.21140981590509,6.226248445239605],[-75.2156773473925,6.225801714492093],[-75.21887544881304,6.227408128336606]]]}}]}