{"type":"FeatureCollection","features":[{"type":"Feature","properties":{"code":"053850"},"geometry":{"type":"Polygon","coordinates":[[[-75.21887544881304,6.227408128336606],[-75.2156773473925,6.225801714492093],[-75.21140981590509,6.226248445239605],[-75.21278912907258,6.22500881204968],[-75.2071780690751,6.223758008945538],[-75.20829387470047,6.220615109177174],[-75.20728296712673,6.220015967362144],[-75.2090510295094,6.219776849334323],[-75.20577792274753,6.2188439408980685],[-75.20775112650256,6.21675318102092],[-75.20676672600621,6.215691792346149],[-75.20863455245546,6.2144766638560895],[-75.21057673529879,6.215590187367525],[-75.2104783431746,6.217410582047762],[-75.21460610418148,6.218288242551921],[-75.22028112610451,6.226104245257147],[-75.21887544881304,6.227408128336606]]]}}]}