{"type":"FeatureCollection","features":[{"type":"Feature","properties":{"code":"054048"},"geometry":{"type":"Polygon","coordinates":[[[-75.3581342904796,6.172821870436394],[-75.35662348990763,6.161710283329569],[-75.35225178850595,6.1572807392352615],[-75.35283960614044,6.152112706563798],[-75.35053497649932,6.146327789386987],[-75.35471655487476,6.1335380340011625],[-75.35329719415557,6.1234658186716615],[-75.36257504356894,6.109073963757737],[-75.37060934348318,6.112329632248247],[-75.37752903899298,6.11847173059715],[-75.38139728692846,6.117662296969684],[-75.38581505227057,6.110681466722838],[-75.38853865088186,6.110193447093536],[-75.38833265590222,6.107885276524826],[-75.39071304987522,6.105314293641129],[-75.38964505242882,6.104150678808423],[-75.39062940973054,6.1029538298556645],[-75.38685279808033,6.098191973357871],[-75.38702811050581,6.095062451569788],[-75.38300743504772,6.092981601764791],[-75.38061162472138,6.087272730713096],[-75.38161870648895,6.08495484959019],[-75.38042887048579,6.081688481183676],[-75.38208404690386,6.079887727698633],[-75.38103928917303,6.078736468574334],[-75.3854564343643,6.073223614552944],[-75.38461715327804,6.065035079114125],[-75.39722939845672,6.065654321838167],[-75.39963265162157,6.0669954880157775],[-75.40874260162309,6.061186296510186],[-75.42175846112508,6.065559101430722],[-75.42340681485547,6.06838006372368],[-75.42551232465524,6.068902569087527],[-75.4341570617687,6.062726917801456],[-75.43741459791084,6.063267955699473],[-75.44549465117586,6.069891037074001],[-75.44593703983907,6.079687170094587],[-75.44850815230654,6.085969209645498],[-75.4533302025165,6.088846414374473],[-75.45673284161364,6.097087957797555],[-75.46781862304078,6.1022948398851895],[-75.45925825935154,6.108586133361825],[-75.43047730163579,6.138848549156023],[-75.42092637296582,6.144476914755785],[-75.39927074578458,6.146969328744831],[-75.39036714146158,6.146095754242765],[-75.389820754634,6.1445479791053685],[-75.3877361767249,6.145742606622264],[-75.3878066970284,6.143048077967251],[-75.38599361971666,6.1444441999992705],[-75.38505234798583,6.143207679904833],[-75.38472745168127,6.144950073390703],[-75.38184122751142,6.144257547966561],[-75.38138359733011,6.142705026566944],[-75.37974541592462,6.143198774621055],[-75.38210139467225,6.139375492249371],[-75.38891077429525,6.136472252498038],[-75.38707335374909,6.133158072827257],[-75.38366711716003,6.131900413096844],[-75.38743676831126,6.128699397070193],[-75.38456307571352,6.124012952148519],[-75.37854400274404,6.12271227266757],[-75.3750858400922,6.129775457506014],[-75.37212911310235,6.129702067847859],[-75.37328302149461,6.130883713334811],[-75.37142744688111,6.131624211488713],[-75.37283473059978,6.1343010005387555],[-75.3718085383133,6.138966170070034],[-75.3738299852784,6.139348938891999],[-75.37462312323419,6.141315844464998],[-75.3728213053111,6.142323846688669],[-75.36924845589186,6.1384664045987165],[-75.3670883851596,6.138300387236711],[-75.36700934626674,6.1435559455086945],[-75.35549490999779,6.148908939453406],[-75.35617842215169,6.151072592250955],[-75.35991531329495,6.150296481189514],[-75.36340603643691,6.152771406513523],[-75.36044691831819,6.156081678102737],[-75.36547143183617,6.162079738963087],[-75.36379242846186,6.174180451231166],[-75.3581342904796,6.172821870436394]]]}}]}