{"type":"FeatureCollection","features":[{"type":"Feature","properties":{"code":"054038"},"geometry":{"type":"Polygon","coordinates":[[[-75.22373104578958,6.029246277051925],[-75.20844890932483,6.007656671766597],[-75.19270154146017,5.999289827020789],[-75.18321798091733,5.990151563996733],[-75.17897589824008,5.989869631906913],[-75.17292533950285,5.9858335874038175],[-75.17159043654021,5.982939701337159],[-75.17289500764764,5.978226708200282],[-75.17200221875402,5.973427671448576],[-75.18112719532917,5.9708451936628535],[-75.18431638735217,5.96766992777998],[-75.17934214101916,5.960695646655097],[-75.16613515884478,5.959835807002889],[-75.15894547249121,5.961825408245431],[-75.15630868574141,5.946739770122065],[-75.14864504268155,5.9414147127899355],[-75.13636989216411,5.9406890139239295],[-75.13916884064497,5.930484061632342],[-75.13859195843986,5.927162524483833],[-75.14097460984419,5.923013705087897],[-75.1403887051128,5.915245051876184],[-75.14770328449742,5.915659358916457],[-75.1537953398618,5.9110038557163875],[-75.1578223988626,5.9104129095597955],[-75.1552819710061,5.904659743488821],[-75.15725263450815,5.890639880347635],[-75.16009199358086,5.880573852128407],[-75.16538050829342,5.874126306351457],[-75.17545903928834,5.872549331674065],[-75.17870944009633,5.868576169231858],[-75.18221145245184,5.867175831613963],[-75.20835085350137,5.870722073168395],[-75.20920521361182,5.8617573207386044],[-75.21345503531904,5.855197408360482],[-75.22144311599806,5.850380457168512],[-75.2324755181732,5.84766484749872],[-75.233925149041,5.839157733477805],[-75.23846509746812,5.832038842021916],[-75.2383050450727,5.8277289201907365],[-75.24353103870766,5.8178997165724695],[-75.24701805842813,5.815504589131933],[-75.25743998946541,5.814027368236623],[-75.26666446991106,5.8106087121757355],[-75.26835836101935,5.8147096997385574],[-75.26606165038561,5.819112896163972],[-75.26564183706415,5.824480647230359],[-75.27012046871982,5.830035850457762],[-75.27060131393415,5.83330873301918],[-75.26609210154015,5.838463623223731],[-75.26582471368437,5.851093092757651],[-75.27002871313522,5.856590049114573],[-75.27622433780346,5.857718277297124],[-75.27643752776692,5.862450682286521],[-75.2795279810806,5.869848463699327],[-75.28459367343703,5.873925154307642],[-75.28324357215081,5.8766459339579455],[-75.28524215889564,5.892343171420521],[-75.28733280667257,5.894937875330925],[-75.29124645520307,5.8948242756271725],[-75.29045293466663,5.906991443793913],[-75.29437484776122,5.913477513999169],[-75.29438236978979,5.91718872698965],[-75.28637896943104,5.93002820757124],[-75.28642593428708,5.932746764757269],[-75.27829229813835,5.93617517456704],[-75.2614553129086,5.957929925095129],[-75.25869522721365,5.964012070387412],[-75.26083531325088,5.976386857444481],[-75.25994749790527,5.98171439949374],[-75.2545927412101,5.985920088675584],[-75.25278861854736,5.995043797181097],[-75.25023246786168,5.998946751966287],[-75.24443491524005,6.002850204517642],[-75.23864167693483,6.011226460540968],[-75.22946633752952,6.019572313746494],[-75.22714399296603,6.024454076357586],[-75.22783951630015,6.038946782401808],[-75.22298102322952,6.04297362748656],[-75.22038169235623,6.03925142867314],[-75.22373104578958,6.029246277051925]]]}}]}