{"type":"FeatureCollection","features":[{"type":"Feature","properties":{"code":"054018"},"geometry":{"type":"Polygon","coordinates":[[[-75.24636620276334,6.332298841981185],[-75.2499369490177,6.3249305285318655],[-75.24728171406599,6.3242640772108984],[-75.24500088258475,6.320052814898986],[-75.24107910113082,6.319202711512105],[-75.23676076149764,6.309641533384024],[-75.2313435937682,6.304410990947815],[-75.22818505344605,6.29540653446611],[-75.22958152000632,6.2935670395513625],[-75.22836833424418,6.29168582483743],[-75.2300468624781,6.286124295660102],[-75.23236596744766,6.287080909696442],[-75.2515855351761,6.279648532505746],[-75.25485842596504,6.277091697905803],[-75.25458362920938,6.272646541025665],[-75.2639376656445,6.267622586980394],[-75.27509992822797,6.265487410727758],[-75.27870114209196,6.2695610674306295],[-75.28156208817313,6.2694347232672385],[-75.28107423926531,6.265750644704212],[-75.28352293519129,6.263887162396145],[-75.2842020270993,6.258623963824675],[-75.28965002445005,6.260867079233378],[-75.29258705265192,6.2587459473917875],[-75.29908760024256,6.263173216571204],[-75.30240641613216,6.250888371954602],[-75.30732034533992,6.241081459827967],[-75.31541533981783,6.23708921977709],[-75.31971098378153,6.23847929353866],[-75.32437250234187,6.233871200510237],[-75.32853065999586,6.2325245085110055],[-75.3282255149299,6.228833303869749],[-75.32632605975948,6.229290952563076],[-75.32502863941284,6.227177402399718],[-75.32174016052062,6.228334425944354],[-75.32386916817501,6.2256093474043155],[-75.33058336132916,6.224287128223239],[-75.33297109632485,6.226643300318017],[-75.33671001144296,6.226872861029506],[-75.34257710529079,6.222899138086177],[-75.34475125540115,6.225178909243141],[-75.34528542741691,6.227317954496527],[-75.34303462440033,6.229589109362109],[-75.34511026103024,6.232218304149228],[-75.35106885438051,6.233419918904588],[-75.35355624854162,6.231405811933712],[-75.35711138201009,6.232217615092736],[-75.36072054882004,6.230859603026715],[-75.36300942786397,6.23383738737715],[-75.36907485685157,6.236707578128119],[-75.37230953380185,6.231145498734065],[-75.3777422711226,6.229064183044557],[-75.37980948069446,6.224993207491309],[-75.38077106622194,6.228222756627247],[-75.37808557037755,6.231134710372032],[-75.37674408743965,6.237298326823748],[-75.36137560088417,6.25101175728895],[-75.34713613646886,6.257914123542264],[-75.34411560490514,6.261651474399287],[-75.34316985019336,6.26732598827175],[-75.3348945152344,6.275364887380988],[-75.33459848936826,6.280062153574818],[-75.32752326661017,6.275856898395716],[-75.32904418294277,6.277363051435941],[-75.32807963344396,6.27925481488478],[-75.32995795309222,6.278817575633241],[-75.3301587071287,6.280130211786968],[-75.33000044113794,6.281243598515516],[-75.32664945042416,6.280977079693685],[-75.32732896502199,6.282464853437659],[-75.32956104627095,6.28216461507094],[-75.33313077333872,6.285651298490677],[-75.33090638895362,6.294320761419158],[-75.33365696772591,6.294650329938065],[-75.33336643579969,6.298960891460467],[-75.32268809038834,6.30994014372618],[-75.30783495123677,6.31251726641176],[-75.30035080739191,6.316508813292387],[-75.29384492115616,6.321510857398209],[-75.29134669749533,6.328006224723879],[-75.28456582115672,6.3318810125253435],[-75.26559289554154,6.347489989050928],[-75.26530315654452,6.35193188988211],[-75.25911558869501,6.350975260419091],[-75.26152627030018,6.346865293524672],[-75.25991633712539,6.343735229747381],[-75.26131281294164,6.334214463239562],[-75.2603593809065,6.3326684045727575],[-75.25722335421949,6.331443723908592],[-75.25465210394071,6.332719767049014],[-75.25080701755917,6.330861550366706],[-75.24636620276334,6.332298841981185]]]}}]}