{"type":"FeatureCollection","features":[{"type":"Feature","properties":{"code":"054037"},"geometry":{"type":"Polygon","coordinates":[[[-75.30795414772467,6.144151295456197],[-75.30552797571829,6.1447433677573144],[-75.3049860225064,6.1422810408541295],[-75.30286514983231,6.141825961210259],[-75.30269736046381,6.136578254068411],[-75.29813473487917,6.131073852816144],[-75.30195738373033,6.1202502974917365],[-75.29913447151034,6.1153725056972235],[-75.299661157493,6.110385404861233],[-75.29496845552706,6.109407199702616],[-75.28941428588439,6.103376020936253],[-75.2866598761637,6.096968963912786],[-75.28752242164819,6.093182366085728],[-75.29431277405615,6.0889473992022545],[-75.29568583943535,6.083526690545227],[-75.2862707875625,6.078677108929014],[-75.2840126280966,6.073994542264074],[-75.28166277886635,6.075034923971998],[-75.27974754738767,6.070717712540272],[-75.28141880350455,6.06733503139867],[-75.27346851397431,6.063335137678564],[-75.2685243670685,6.055326843990258],[-75.25528707155087,6.054191671763817],[-75.25260921806284,6.0525893295233],[-75.2537076327252,6.050226177389106],[-75.2508088440731,6.049553237624252],[-75.2462155349059,6.050445726212672],[-75.24497188050572,6.054323530436022],[-75.24157640348233,6.056062133082776],[-75.228064722586,6.05226546166125],[-75.22321704667377,6.0460419877980485],[-75.22298102322952,6.04297362748656],[-75.22783951630015,6.038946782401808],[-75.22714399296603,6.024454076357586],[-75.22946633752952,6.019572313746494],[-75.23864167693483,6.011226460540968],[-75.24443491524005,6.002850204517642],[-75.25023246786168,5.998946751966287],[-75.25278861854736,5.995043797181097],[-75.2545927412101,5.985920088675584],[-75.25994749790527,5.98171439949374],[-75.26083531325088,5.976386857444481],[-75.25861048046477,5.966827992283584],[-75.25917139712828,5.962013229617298],[-75.27829229813835,5.93617517456704],[-75.28518425449653,5.932728797866503],[-75.28642593428708,5.932746764757269],[-75.28654663744328,5.951319896713073],[-75.29535871449588,5.964335023963997],[-75.29809788064154,5.959886600750451],[-75.29801365531301,5.954951698514435],[-75.30037893632323,5.952185665336401],[-75.3082149700034,5.951998772648096],[-75.31472275371556,5.949121749953463],[-75.31745420962767,5.9534483613497855],[-75.3197814403216,5.95313915804968],[-75.31859095022895,5.958298372854983],[-75.32059004708128,5.9609009700617435],[-75.32049857534679,5.963642748451377],[-75.3244507729882,5.963914090668652],[-75.32902041357926,5.977162889315821],[-75.33423162129611,5.985290936907916],[-75.33394951745635,5.989286381585657],[-75.33984712210838,5.994163776401365],[-75.3421738622352,5.999976036779458],[-75.34523361448282,6.002276563963335],[-75.34247181231729,6.0075569704350755],[-75.33446798824019,6.0104378281918684],[-75.33825973136516,6.017127067216734],[-75.33864899788693,6.023922382888259],[-75.34131177235076,6.026804671208595],[-75.34102200661425,6.029892686085077],[-75.34772827150499,6.032770089303483],[-75.35981384407074,6.030487355203604],[-75.36394110422611,6.031811106763996],[-75.36856473496408,6.0377759232200106],[-75.37169933931511,6.045564719506842],[-75.36941866415714,6.05135600788509],[-75.36995319715624,6.057073933344668],[-75.37807902125559,6.063063031328511],[-75.38449564176602,6.063556143805158],[-75.3854564343643,6.073223614552944],[-75.38103928917303,6.078736468574334],[-75.38208404690386,6.079887727698633],[-75.38040552792592,6.081841087655221],[-75.38099302674317,6.08977938348886],[-75.38394608219323,6.093889013054138],[-75.38702811050581,6.095062451569788],[-75.38808849850608,6.101010679247963],[-75.39065965416808,6.103082585716834],[-75.38853865088186,6.110193447093536],[-75.38581505227057,6.110681466722838],[-75.38028319983056,6.117989319064918],[-75.37752903899298,6.11847173059715],[-75.36510799259139,6.109344774270198],[-75.361628995751,6.109803963570357],[-75.35326687258481,6.12353369176418],[-75.35471655487476,6.1335380340011625],[-75.3523512738646,6.142842888258144],[-75.34947447537041,6.145961905534307],[-75.34508747897155,6.140462132273342],[-75.3449730688551,6.129523417097914],[-75.34770499065166,6.126270301201714],[-75.34589655058727,6.122548757506195],[-75.32979774334507,6.117179119247737],[-75.3189103556789,6.110683811571789],[-75.31168544619749,6.111755893991926],[-75.30621475420566,6.109989667379125],[-75.3041244077624,6.113479590392785],[-75.30836644004603,6.117079382949157],[-75.30977798665896,6.126325808301317],[-75.30738969116203,6.134074566292497],[-75.30887717385679,6.1384852312674525],[-75.30795414772467,6.144151295456197]],[[-75.33922978817367,6.099236001922975],[-75.34357458037687,6.095534479946366],[-75.33959322124781,6.091590790609928],[-75.33894750435644,6.082554925493696],[-75.33583543523793,6.077281349937209],[-75.33659510561722,6.073815563440974],[-75.33403327381507,6.072192647207828],[-75.3325770074361,6.066823574592831],[-75.33079944327295,6.067058192156139],[-75.33040219295191,6.064647659675131],[-75.32816111591626,6.064812152885338],[-75.32715215826948,6.0725553583153555],[-75.32995585095568,6.077021433716311],[-75.32984031572312,6.082944749431363],[-75.33244651247867,6.085025294817342],[-75.3319053326556,6.090521606340815],[-75.32950612641201,6.090495213420468],[-75.33025840023271,6.092099614602944],[-75.32893196649422,6.093627126337424],[-75.33072265049856,6.093184004394686],[-75.33085638504991,6.097045677497192],[-75.33311547937006,6.094909038799301],[-75.33922978817367,6.099236001922975]]]}}]}