{"type":"FeatureCollection","features":[{"type":"Feature","properties":{"code":"054028"},"geometry":{"type":"Polygon","coordinates":[[[-75.25250920614167,6.17185347147722],[-75.25995554238267,6.168567663450233],[-75.26836383336195,6.168846192423814],[-75.270584175968,6.163977317225942],[-75.27241481085042,6.166139619678461],[-75.27572616744646,6.165193105976073],[-75.27989191603467,6.157307036510474],[-75.2828752591169,6.1553916137415285],[-75.28828472278343,6.158083683390487],[-75.2936563860452,6.151057075110202],[-75.31012871229734,6.153714635370477],[-75.31168494637444,6.149930958320169],[-75.30790849927502,6.146648874283528],[-75.30887717385679,6.1384852312674525],[-75.30737442187598,6.134309675451391],[-75.30970131626918,6.127362278842384],[-75.30915981248666,6.1194066558092],[-75.3041244077624,6.113479590392785],[-75.30621475420566,6.109989667379125],[-75.31168544619749,6.111755893991926],[-75.3189103556789,6.110683811571789],[-75.32979774334507,6.117179119247737],[-75.34402735630948,6.121542901642044],[-75.34725484753193,6.124259856514641],[-75.34770499065166,6.126270301201714],[-75.3449730688551,6.129523417097914],[-75.34515658310971,6.1407998573698706],[-75.3493450643914,6.14590458014834],[-75.35119152803259,6.144667303120173],[-75.35074865702984,6.1481105081040255],[-75.35283960614044,6.152112706563798],[-75.35225178850595,6.1572807392352615],[-75.35662348990763,6.161710283329569],[-75.35740324988313,6.168631179031763],[-75.3513424252327,6.167563764712213],[-75.34367649080292,6.170224489490124],[-75.33982612336905,6.169005201978507],[-75.34077916870984,6.166426424528993],[-75.33883760910265,6.165716035058267],[-75.33504510287332,6.1657336378804075],[-75.33574723806441,6.167128785977354],[-75.33172097302122,6.168132638435452],[-75.32868775150524,6.166059346654549],[-75.33011852896487,6.16901901601841],[-75.32739143673433,6.169328880607111],[-75.328316197849,6.172302670486772],[-75.32660142730072,6.173304977195755],[-75.32224831088377,6.1736890171727055],[-75.31775273769449,6.17629725744348],[-75.30971383858525,6.175587947837414],[-75.2938724721028,6.185281912292908],[-75.29103521516657,6.191665753254938],[-75.28512425515999,6.198758893538638],[-75.28205056237402,6.2093986219618955],[-75.27424810117145,6.2160188730625805],[-75.26857358729899,6.224294225505048],[-75.26289905491456,6.226658607656475],[-75.25868911517978,6.2237608567028815],[-75.25758258404903,6.217996444612993],[-75.25128807668955,6.211354182785499],[-75.25142566481503,6.208969367538089],[-75.2488619797594,6.207803126063197],[-75.24931992155882,6.2032161839836135],[-75.2450775961691,6.196107028793051],[-75.24590960616672,6.193937670196419],[-75.24890010000979,6.19486341861591],[-75.25125776437471,6.193525844787985],[-75.25166974404954,6.180362693805364],[-75.25480577073654,6.174083747809561],[-75.25250920614167,6.17185347147722]]]}}]}