{"type":"FeatureCollection","features":[{"type":"Feature","properties":{"code":"054420"},"geometry":{"type":"Polygon","coordinates":[[[-74.99047145850687,6.190574243555659],[-74.9875448576837,6.19065022386053],[-74.98574653235147,6.192748238371166],[-74.98419474217445,6.191018583174298],[-74.9862245606617,6.1901227140953665],[-74.98483478206316,6.187779797596193],[-74.98724150724996,6.185268411928007],[-74.98952282415604,6.186392436865958],[-74.99333710148505,6.18313642796096],[-74.996042304345,6.185353964975775],[-74.99919281150267,6.1822343234350114],[-75.00167500071615,6.184542367505287],[-74.99757572345328,6.186097116511405],[-75.00008468302553,6.187064517881311],[-74.99991239627792,6.192165200937552],[-74.99914712911442,6.189825912783533],[-74.99674342754861,6.189601276254848],[-74.99315354403586,6.190852268592437],[-74.99093832718734,6.193920036521035],[-74.99047145850687,6.190574243555659]]]}}]}