{"type":"FeatureCollection","features":[{"type":"Feature","properties":{"code":"054448"},"geometry":{"type":"Polygon","coordinates":[[[-75.0965486132659,5.984804051650656],[-75.10572780213153,5.976668827586707],[-75.11162875127866,5.9761164408254785],[-75.11368019276983,5.9745258516260265],[-75.11422771088417,5.9760539279754425],[-75.11719704349395,5.975456134448564],[-75.11943608318501,5.96649882485724],[-75.1169307756121,5.962609009453672],[-75.11759544464218,5.9607113725696195],[-75.11483021056398,5.951501256380595],[-75.11079965280175,5.9476888693289425],[-75.11054582907434,5.9441225597756215],[-75.11277207391203,5.941593635048719],[-75.11106636908454,5.938152093056431],[-75.08667124974136,5.927696617309493],[-75.08402070243068,5.922207674576725],[-75.08390362967651,5.912992491251373],[-75.07699175135832,5.912172012151245],[-75.06664260216968,5.916853579170095],[-75.06193730383973,5.915391549399203],[-75.05542844437667,5.91914617191992],[-75.06049694438121,5.912115461182452],[-75.06495356119632,5.909850614783352],[-75.06664355039368,5.89984783166517],[-75.07103727486344,5.8927413997903955],[-75.08086421076598,5.890097323440045],[-75.08771108946007,5.8907099738475495],[-75.09165399923711,5.888523882491143],[-75.10033932691994,5.893737338383346],[-75.1096723317055,5.883763448329319],[-75.11785126766182,5.885192639930551],[-75.12693242127278,5.8823276973217276],[-75.13197212488683,5.882581547788618],[-75.13394349390035,5.884503621495355],[-75.14211440903352,5.874255743041488],[-75.14490037342756,5.865357294300907],[-75.15147347763786,5.865818286460808],[-75.15713296699352,5.862143503989728],[-75.15986665359748,5.8620139294883415],[-75.16301521905564,5.87219496123538],[-75.15766756067075,5.888967606072697],[-75.15545539521116,5.902122226124675],[-75.15550045950545,5.907052966253843],[-75.1578223988626,5.9104129095597955],[-75.1537953398618,5.9110038557163875],[-75.14770328449742,5.915659358916457],[-75.1403887051128,5.915245051876184],[-75.14097460984419,5.923013705087897],[-75.13859195843986,5.927162524483833],[-75.13916884064497,5.930484061632342],[-75.13636989216411,5.9406890139239295],[-75.14864504268155,5.9414147127899355],[-75.15630868574141,5.946739770122065],[-75.15894547249121,5.961825408245431],[-75.16613515884478,5.959835807002889],[-75.17934214101916,5.960695646655097],[-75.18431638735217,5.96766992777998],[-75.18112719532917,5.9708451936628535],[-75.17200221875402,5.973427671448576],[-75.17289500764764,5.978226708200282],[-75.17159043654021,5.982939701337159],[-75.17292533950285,5.9858335874038175],[-75.17897589824008,5.989869631906913],[-75.18321798091733,5.990151563996733],[-75.19270154146017,5.999289827020789],[-75.20844890932483,6.007656671766597],[-75.2128897128078,6.013375283197377],[-75.20907859382578,6.014820880513639],[-75.16394912405275,6.016701273502008],[-75.13754431078553,6.010082388172975],[-75.12704346632535,6.012330679732884],[-75.11443284505742,6.008060469152724],[-75.10767243472492,5.9955054208047045],[-75.10042913771974,5.990193669461917],[-75.0965486132659,5.984804051650656]]]}}]}