{"type":"FeatureCollection","features":[{"type":"Feature","properties":{"code":"054447"},"geometry":{"type":"Polygon","coordinates":[[[-75.16730777769175,6.099543091773739],[-75.16110906769597,6.088124248208487],[-75.1561827478128,6.082251724184118],[-75.1560387062105,6.07624081087755],[-75.15821968826447,6.072709313075052],[-75.15628055372474,6.064981899379973],[-75.15265460170446,6.065429836490523],[-75.14491140244513,6.062784760494026],[-75.14356524626442,6.057672384046327],[-75.13800904339087,6.054479272628839],[-75.1369599065518,6.051114626255298],[-75.1201096780677,6.042548953745779],[-75.11997772580725,6.039958895310235],[-75.10800411566476,6.041109550738781],[-75.1062053892399,6.037338221169364],[-75.10734013877646,6.035627278484128],[-75.10540190001018,6.035391341429033],[-75.10367610147279,6.031365582379578],[-75.09977858303478,6.03202611398541],[-75.09389442732555,6.0276712841832705],[-75.09013870128604,6.018607569872074],[-75.08816621332699,6.020896404692962],[-75.08472986599787,6.020311664158555],[-75.08048005251817,6.015655265185046],[-75.07790278996447,6.015049697661198],[-75.0783191045245,6.009339329197189],[-75.06920634687492,5.9994284662145105],[-75.09665161178413,5.994400988725204],[-75.09336856203998,5.993291590296735],[-75.09219812246272,5.990017405727087],[-75.0965486132659,5.984804051650656],[-75.10042913771974,5.990193669461917],[-75.10767243472492,5.9955054208047045],[-75.11443284505742,6.008060469152724],[-75.12704346632535,6.012330679732884],[-75.13754431078553,6.010082388172975],[-75.16394912405275,6.016701273502008],[-75.20907859382578,6.014820880513639],[-75.2128897128078,6.013375283197377],[-75.22367765933842,6.02909271310034],[-75.22038936865118,6.0396876384536995],[-75.2216142220937,6.042379260730172],[-75.22394253779447,6.043164309985514],[-75.22321704667377,6.0460419877980485],[-75.22756044225207,6.051887929668624],[-75.24245392411831,6.056219608201275],[-75.24525435561321,6.053913823619212],[-75.2462155349059,6.050445726212672],[-75.2512203249533,6.049552350078386],[-75.2537076327252,6.050226177389106],[-75.25260921806284,6.0525893295233],[-75.25528707155087,6.054191671763817],[-75.2685243670685,6.055326843990258],[-75.27346851397431,6.063335137678564],[-75.28141880350455,6.06733503139867],[-75.27974754738767,6.070717712540272],[-75.28166277886635,6.075034923971998],[-75.28411977535194,6.0741999849700505],[-75.28241792101329,6.076511403360257],[-75.28067878254797,6.0754902802669335],[-75.27887047309576,6.0766345511243],[-75.27721449449251,6.079020451378597],[-75.27597859454892,6.082485791530701],[-75.27686391489294,6.086406366621588],[-75.27320872630872,6.088401163555716],[-75.27086658114143,6.087081867208269],[-75.26818108529704,6.087750024715433],[-75.26840217575597,6.090752195494815],[-75.26493050348319,6.0951084383770535],[-75.26255057436623,6.0948480902102915],[-75.26193247835556,6.097189873365835],[-75.25717144769709,6.097950685316334],[-75.25628662820458,6.096539983054754],[-75.25214361745202,6.096478943962779],[-75.25126630250452,6.099310618513016],[-75.24874831217846,6.09865271354937],[-75.24294219571601,6.102764164486359],[-75.23938673417439,6.103467984266274],[-75.23403804323317,6.112466082916342],[-75.22938428015783,6.113872855499096],[-75.23041410696021,6.119481637496392],[-75.22888038651826,6.124293546234696],[-75.22267784248879,6.1179227911752605],[-75.22071697798708,6.117802644406481],[-75.21980914297944,6.115633628281216],[-75.22108317757159,6.1131876196755],[-75.21670358390202,6.1121210363374985],[-75.21097387146273,6.104425717248091],[-75.20711326588355,6.105848706312486],[-75.20353510147334,6.104918210602364],[-75.19927751502507,6.107658566656028],[-75.19122831812092,6.10619367575805],[-75.18785594917244,6.107889024169367],[-75.18159174590022,6.105026838814922],[-75.17659473602049,6.100109678240813],[-75.16730777769175,6.099543091773739]],[[-75.18631148664844,6.061955864620302],[-75.18587883219368,6.064395260340632],[-75.18922920995573,6.06233538562077],[-75.18821211115801,6.053265902775536],[-75.1819250198975,6.052688605079595],[-75.18227747229088,6.062600219853778],[-75.18631148664844,6.061955864620302]]]}}]}