{"type":"FeatureCollection","features":[{"type":"Feature","properties":{"code":"054848"},"geometry":{"type":"Polygon","coordinates":[[[-75.11942793792025,5.564671216744898],[-75.12058821340014,5.559682280138929],[-75.1254751809588,5.5574189578916275],[-75.12961557329669,5.553050297594439],[-75.13208985892948,5.5473713418787725],[-75.13270458781926,5.5406876029645105],[-75.13105599343334,5.538700250925729],[-75.13398997950219,5.536317164490242],[-75.13599161043692,5.530615319757828],[-75.13856940880919,5.528042958761148],[-75.14884210255258,5.530368577885611],[-75.1556535318615,5.53002514184783],[-75.15862523297443,5.528012577540721],[-75.16638682078599,5.5276413005354925],[-75.18147831794636,5.5234511665466925],[-75.18930142718943,5.518917103896115],[-75.1968953295052,5.518898458233252],[-75.20164584639582,5.51613872220878],[-75.20328474668258,5.511695271514782],[-75.20854593979118,5.505883174659061],[-75.21232508449526,5.5069292961046585],[-75.22067684198936,5.502817777290431],[-75.2218543551943,5.498996791430898],[-75.22504663048795,5.497506808592391],[-75.2301863377956,5.49026522702934],[-75.23369473472223,5.4804613662916495],[-75.23686028182328,5.478035639600819],[-75.24371436270036,5.463736429874302],[-75.25074441009241,5.459187573078054],[-75.2547365370146,5.4487125888049945],[-75.2596650454235,5.441094982946083],[-75.2614835056034,5.4411095014691],[-75.26154303802701,5.437810563316475],[-75.26898869241063,5.426610019017119],[-75.27585497472973,5.418526329179315],[-75.27856656113238,5.4183118896581846],[-75.28102097931259,5.4297596077756225],[-75.28006621133056,5.438777550224017],[-75.28428397031382,5.44284319433126],[-75.28479446346904,5.456253207513896],[-75.28689258905149,5.457380227276474],[-75.28368238389095,5.464657800213956],[-75.2827324310768,5.473223679440423],[-75.28453757086919,5.489055176988472],[-75.27922936765304,5.495691682623146],[-75.27606581161672,5.5049694816427746],[-75.26879802636671,5.512005422010475],[-75.26593527228357,5.518387258538041],[-75.25652172090838,5.523555909303468],[-75.2535336994411,5.528834953088847],[-75.2552515985115,5.530916630790102],[-75.25317042783246,5.539091517768213],[-75.2549162604301,5.543872993863943],[-75.25291494008508,5.547084251121191],[-75.25125541952576,5.558613635802146],[-75.25241229703158,5.567256760317775],[-75.2483678326696,5.579986561618512],[-75.2550574851283,5.587748449735329],[-75.26634290987408,5.596971223994899],[-75.27075160332475,5.605566957879205],[-75.27014852463174,5.614679146800086],[-75.26347663337532,5.62633060143736],[-75.26330815392191,5.633939996211211],[-75.25976143002788,5.636984937858131],[-75.26357880605423,5.646704065216738],[-75.26091183451649,5.660547737642503],[-75.26145122587803,5.666328008315986],[-75.25876588841379,5.6659708950211325],[-75.25125921139335,5.657528354849035],[-75.2395332553516,5.64992616637187],[-75.2299080042261,5.639908711492808],[-75.20524183062957,5.622815633791447],[-75.19757163639082,5.611281316700172],[-75.19629640469157,5.608672061356572],[-75.1971552940629,5.606657777493581],[-75.18861830481518,5.599890482766909],[-75.17609318722981,5.593232158724163],[-75.1733072516322,5.579143679954996],[-75.16711314288824,5.5760859876778],[-75.16370316482528,5.56896892376426],[-75.15572731952687,5.565772044133382],[-75.13208131257215,5.5673774449620055],[-75.12675952465878,5.569646076029642],[-75.12351810832467,5.568896752810474],[-75.11942793792025,5.564671216744898]]]}}]}