{"type":"FeatureCollection","features":[{"type":"Feature","properties":{"code":"054838"},"geometry":{"type":"Polygon","coordinates":[[[-74.88011213855185,5.746509684936768],[-74.88709709593849,5.73932624842837],[-74.89738606581324,5.738280841750338],[-74.90260423505748,5.735852427739246],[-74.93068181419517,5.733512530747248],[-74.93897814995034,5.726308534644488],[-74.94559075252403,5.7254430498713305],[-74.95209323770035,5.719716524575404],[-74.96403714539446,5.718127280578756],[-74.97061517070222,5.714704997201068],[-74.98265316134638,5.717493666398923],[-74.99283375394845,5.7151742158727075],[-74.99385199123202,5.71334051314625],[-74.99152977522385,5.705392085096946],[-75.00000417963048,5.701687326611761],[-75.00251411519474,5.691093307316294],[-75.00982893729179,5.682113439866782],[-75.0167464483896,5.678012095434383],[-75.02670121455498,5.676468969885605],[-75.03111910948087,5.670445657676055],[-75.04115705607717,5.66712438483728],[-75.04763862787485,5.661344031888348],[-75.05038612851871,5.6618852775317805],[-75.05395899850686,5.66583039846023],[-75.05143966914864,5.673609049161598],[-75.05799590073099,5.682479004902234],[-75.05769568396158,5.693286824027666],[-75.05946447139627,5.6987897186116925],[-75.05833212738673,5.708083068710607],[-75.06484923598725,5.719415607436588],[-75.06597976376725,5.728999701320959],[-75.06146106090569,5.745189465047929],[-75.05851257174044,5.748138694691818],[-75.05693174657426,5.748121065130192],[-75.05260913273395,5.742925074248831],[-75.04322071649392,5.741949807350522],[-75.02963192811978,5.743389770858698],[-75.01675092417145,5.739510733532711],[-75.00679748058315,5.739782378112068],[-74.99986109550821,5.744920077899906],[-74.99508846710347,5.741956519994858],[-74.9934505314958,5.738740281990488],[-74.98883817043094,5.738942054185145],[-74.98315913038294,5.730413427203587],[-74.97743313062114,5.729207393230695],[-74.96895722674532,5.730548644769044],[-74.96786418980889,5.732201556556674],[-74.96231959290918,5.733453335652769],[-74.94999301820894,5.743652074094655],[-74.94261945764589,5.743993329834325],[-74.93947331622672,5.7488082735065404],[-74.93208815586053,5.751278650029292],[-74.93156652055904,5.754085768457458],[-74.92885781276698,5.755624682534119],[-74.92546119828614,5.756011762587093],[-74.92210999982694,5.752697218847686],[-74.91885238552317,5.754276415989409],[-74.9170542339977,5.7527554832017245],[-74.91475923777767,5.755639803724478],[-74.91221375204088,5.755415286495122],[-74.91101561033588,5.757088592297919],[-74.90746428621856,5.757419275648488],[-74.90644345417445,5.7557378523488865],[-74.90200918027301,5.758419461709025],[-74.8995056128249,5.755536510043214],[-74.90072978440998,5.751878375999638],[-74.89973797398534,5.749962954259104],[-74.89620094419053,5.748348411604923],[-74.89003242618173,5.750728408599116],[-74.88011213855185,5.746509684936768]]]}}]}