{"type":"FeatureCollection","features":[{"type":"Feature","properties":{"code":"055050"},"geometry":{"type":"Polygon","coordinates":[[[-75.57441542306503,5.88717977805328],[-75.56730168204928,5.87698478314212],[-75.56305880849965,5.8735755866955515],[-75.56196976500553,5.87481697029466],[-75.56285829923246,5.873285832271847],[-75.55886893573529,5.869279263959811],[-75.55869382488453,5.865981344993713],[-75.5678371139071,5.8717075967239225],[-75.57313887701622,5.878238201575584],[-75.57715797792878,5.885317935082583],[-75.57441542306503,5.88717977805328]]]}}]}