{"type":"FeatureCollection","features":[{"type":"Feature","properties":{"code":"055028"},"geometry":{"type":"Polygon","coordinates":[[[-75.28654663744328,5.951319896713073],[-75.28637896943104,5.93002820757124],[-75.29346681529262,5.920180944502363],[-75.29437484776122,5.913477513999169],[-75.29045293466663,5.906991443793913],[-75.29124645520307,5.8948242756271725],[-75.28733280667257,5.894937875330925],[-75.28524215889564,5.892343171420521],[-75.28324357215081,5.8766459339579455],[-75.2866005936516,5.872794117448564],[-75.29454294669091,5.873205228089432],[-75.29486349679735,5.871405431055962],[-75.29598512546426,5.873693679664598],[-75.2978085478793,5.874860491925119],[-75.2975031282192,5.869589287957069],[-75.30798628758185,5.867694959572589],[-75.30802470093835,5.870286163693095],[-75.31061838669063,5.8699369035852555],[-75.31496718673435,5.8776537109527],[-75.31655420003915,5.875229562921163],[-75.32056013071684,5.877376879937742],[-75.32287919249183,5.876838331899023],[-75.32345167296296,5.880288319461272],[-75.32682405013901,5.878914538286097],[-75.33085975114227,5.880470669518957],[-75.34080884544716,5.878972433429226],[-75.34459357253729,5.882571061788667],[-75.34600491243327,5.881627639584565],[-75.34772891839532,5.885942852752464],[-75.35511478530157,5.882069106763254],[-75.35802130989828,5.885783766064549],[-75.3813912900801,5.881887566089858],[-75.38680818321541,5.885294460882108],[-75.39372840323085,5.8937773005743],[-75.39722244515684,5.89454652209929],[-75.40186163725855,5.899234259773209],[-75.40782804471507,5.901306123047505],[-75.41152808264911,5.897578315108547],[-75.41121516564306,5.9012290999019115],[-75.41647983900111,5.901022122759684],[-75.41737241295027,5.90333654934426],[-75.41799799705086,5.9098384133412765],[-75.41425183449832,5.915985777315882],[-75.41398466467234,5.921289689869809],[-75.41204686505108,5.924572591518256],[-75.41379391223933,5.9283359444875146],[-75.40945719845212,5.939980482848853],[-75.40049863827471,5.9390376417147195],[-75.3817646990467,5.9243147815476505],[-75.36717990934466,5.924017655248008],[-75.35587512725385,5.931822692699143],[-75.33053075957963,5.938151935704752],[-75.32642546489956,5.942274010452934],[-75.31683943548637,5.947690505580965],[-75.31681678815369,5.951351013269914],[-75.31472275371556,5.949121749953463],[-75.3082149700034,5.951998772648096],[-75.30037893632323,5.952185665336401],[-75.29801365531301,5.954951698514435],[-75.29809788064154,5.959886600750451],[-75.29558737943393,5.9643819836778675],[-75.28654663744328,5.951319896713073]]]}}]}