{"type":"FeatureCollection","features":[{"type":"Feature","properties":{"code":"055070"},"geometry":{"type":"Polygon","coordinates":[[[-75.66797882452852,5.918297372598147],[-75.67234021785083,5.919774040191385],[-75.67482901172224,5.925970382712478],[-75.6772311068608,5.92542576480605],[-75.67518564987665,5.926440011732666],[-75.67662444096032,5.928678427159127],[-75.68753852802274,5.935067944095408],[-75.68781915090528,5.937471096472905],[-75.68403015372184,5.934941671922957],[-75.68046590413888,5.93612628549505],[-75.67712942166366,5.93370511583305],[-75.6759432479443,5.935870257815338],[-75.67626964268959,5.9334697331084385],[-75.67359020025782,5.930163675048277],[-75.67105535478737,5.9306849143993645],[-75.66734875333316,5.926341963108257],[-75.66810991495413,5.924406574156251],[-75.66561035740341,5.919711251718752],[-75.66797882452852,5.918297372598147]]]}}]}