{"type":"FeatureCollection","features":[{"type":"Feature","properties":{"code":"055067"},"geometry":{"type":"Polygon","coordinates":[[[-75.5902156528752,5.8396673051485095],[-75.58341720868145,5.834651391466878],[-75.58926939731191,5.835239845707235],[-75.59090922936758,5.832967287017652],[-75.5893219239851,5.826894016155848],[-75.59109279504429,5.823692986759454],[-75.58944435595316,5.820690817008483],[-75.5914131569458,5.816867676561799],[-75.59032159273903,5.808488329040301],[-75.59397105084156,5.8015983092394094],[-75.58915199031395,5.79341445218563],[-75.58235400172032,5.7872900512755905],[-75.57989982522412,5.769177575179015],[-75.57361419332352,5.7551825098438485],[-75.57239170838415,5.74734258967942],[-75.56803255295273,5.742138017473678],[-75.56881836839773,5.7339007472292565],[-75.56694521050252,5.723690669180144],[-75.56924116317407,5.7248768336435205],[-75.57287309455921,5.723348715127997],[-75.57864158339521,5.729603854736354],[-75.58389878511844,5.731411569748786],[-75.58724727774535,5.734731636224524],[-75.59981401228566,5.737113125488861],[-75.60437638075967,5.745155580952257],[-75.60167679936654,5.743838795033014],[-75.59939236936498,5.738523217884051],[-75.59750917592766,5.738679084518424],[-75.60201617819865,5.745057558038923],[-75.60499151896965,5.746442970899011],[-75.60493588537162,5.74858512204878],[-75.60586679040182,5.7482726225903775],[-75.60495747649384,5.754470064516568],[-75.6083107585776,5.747469505656852],[-75.61434508232122,5.748751681400051],[-75.60642555762047,5.745292588007715],[-75.61561267269258,5.747616758056722],[-75.62172354649817,5.7516613777135035],[-75.6286599408291,5.7529015683193165],[-75.63318860929866,5.757820313723357],[-75.63976366960662,5.761444654174227],[-75.64064776610411,5.766169442518333],[-75.64546176977984,5.772488137817447],[-75.64269233348551,5.783065813104429],[-75.65083299389659,5.79101448180927],[-75.6526795007324,5.799283977271614],[-75.65885962471503,5.797285870809446],[-75.66320818307469,5.798135251201188],[-75.66930449413422,5.807596263141761],[-75.66323896127398,5.8097757981771],[-75.66076698963684,5.80835448855936],[-75.66196446902484,5.81093639658792],[-75.65839448073262,5.81225823730216],[-75.65797430539942,5.814114739570812],[-75.65367942145474,5.814432930430144],[-75.65237437417841,5.8159743785891465],[-75.65327467584461,5.817787668788526],[-75.65026055559156,5.81982090479022],[-75.65052806480355,5.8225025912835235],[-75.64674325029586,5.8247198753015255],[-75.6350859695317,5.816917196069085],[-75.63039389080188,5.8028160623147755],[-75.6266241460624,5.8051800330891865],[-75.62187386982737,5.802960249955902],[-75.62078788903506,5.804838939843421],[-75.62246634939174,5.808069385781209],[-75.62193202208113,5.812271558718123],[-75.61450841750514,5.821608569287321],[-75.61354721250143,5.82765032969877],[-75.6004004343236,5.832645443130502],[-75.5902156528752,5.8396673051485095]]]}}]}