{"type":"FeatureCollection","features":[{"type":"Feature","properties":{"code":"055068"},"geometry":{"type":"Polygon","coordinates":[[[-75.60642555762047,5.745292588007715],[-75.60846705818625,5.7397299090316665],[-75.60901247827786,5.7351096114758775],[-75.606674145547,5.735455602164961],[-75.6081680930314,5.7317364423991535],[-75.6042762927338,5.737989238187026],[-75.60458766193386,5.744563204232179],[-75.60002834690567,5.738117326588963],[-75.5998140801629,5.716648499536177],[-75.59602234629392,5.712685598893415],[-75.5998751624494,5.696364500999891],[-75.5980371258662,5.683284430689241],[-75.60503317192013,5.675398118511225],[-75.60757375507137,5.675312324807862],[-75.61515771440492,5.669737407365801],[-75.62160440451771,5.675803896677621],[-75.62108577843901,5.678232412504542],[-75.62308454001908,5.678638379904385],[-75.6230238619105,5.688895047427991],[-75.6245342140815,5.692891009412335],[-75.62190952490101,5.700369233542062],[-75.64074338349042,5.700064262282922],[-75.6425621542599,5.70292144323605],[-75.6421183957113,5.7079700655035595],[-75.6400451707791,5.7092615486515115],[-75.64703388506632,5.710900165088162],[-75.65503755282015,5.707683979534352],[-75.65798282707414,5.710356093284702],[-75.658989519062,5.7097137846518535],[-75.66064550692124,5.71149456475473],[-75.65968450863443,5.715546646790472],[-75.66176646195828,5.72355227064196],[-75.65805144887275,5.734957268285598],[-75.65328967876411,5.737145506001525],[-75.64409622642921,5.749760405590337],[-75.64001492839839,5.762557492742928],[-75.6286599408291,5.7529015683193165],[-75.62172354649817,5.7516613777135035],[-75.61561267269258,5.747616758056722],[-75.60642555762047,5.745292588007715]]]}}]}