{"type":"FeatureCollection","features":[{"type":"Feature","properties":{"code":"055018"},"geometry":{"type":"Polygon","coordinates":[[[-75.41928470514023,5.973393307070239],[-75.41534294310503,5.968353587001161],[-75.41024629257191,5.953536439224024],[-75.40957498083156,5.945171229701771],[-75.41102441423845,5.939655430221023],[-75.40922380679223,5.940397681869456],[-75.41379391223933,5.9283359444875146],[-75.41204686505108,5.924572591518256],[-75.41398466467234,5.921289689869809],[-75.41425183449832,5.915985777315882],[-75.41799799705086,5.9098384133412765],[-75.41730397215753,5.900206511278043],[-75.42456750891148,5.904317030446123],[-75.42850399092276,5.901350195923158],[-75.43199876612823,5.902399436634937],[-75.43388287590784,5.904739660671623],[-75.43352456756281,5.90706388317119],[-75.4375910117983,5.908822460228521],[-75.43703392094096,5.912000328070974],[-75.44109335222691,5.916178269873683],[-75.44792951146468,5.914561349460428],[-75.44823460305162,5.916546057373466],[-75.44285552883309,5.918231728140654],[-75.44105498309347,5.922869257250795],[-75.44412205168112,5.92363123956892],[-75.4451598746241,5.9216082160014025],[-75.44603681007624,5.922315715548621],[-75.44554091360573,5.925806450003449],[-75.44810461511639,5.928387883920038],[-75.44783748745658,5.931506272817842],[-75.44534242317116,5.933893396918677],[-75.45416282443745,5.9352400179554365],[-75.45423123026313,5.9384807431761715],[-75.45574972461361,5.937333388019681],[-75.45960278348156,5.938030057038702],[-75.46742287527422,5.945522828487867],[-75.4707418824542,5.945895293344222],[-75.47890530024137,5.942651886973863],[-75.4823005633487,5.935253045236834],[-75.48482594714801,5.9355573973736],[-75.49355441799452,5.94135807646046],[-75.49973431777664,5.941284595270929],[-75.5014357658805,5.947930260214719],[-75.50566294334038,5.950797452027302],[-75.50579257029233,5.954019867885904],[-75.50803564250646,5.956632251751614],[-75.50834816253371,5.959211214320817],[-75.50562424716213,5.96183081785307],[-75.50791357152167,5.964419362421211],[-75.5075774435964,5.966460990513895],[-75.50058125973118,5.968936819838859],[-75.49239450658325,5.9785470783293135],[-75.48214814611055,5.979936109250161],[-75.47750427973762,5.985849834738701],[-75.47647381735777,5.983668712816552],[-75.46740123890055,5.977641219988186],[-75.45374114037907,5.983788425582645],[-75.44482167130178,5.982257401716993],[-75.43319091921245,5.9713720657936165],[-75.42679046170463,5.967473395499951],[-75.41928470514023,5.973393307070239]]]}}]}