{"type":"FeatureCollection","features":[{"type":"Feature","properties":{"code":"055427"},"geometry":{"type":"Polygon","coordinates":[[[-75.5589099633927,6.175697607577888],[-75.54677778592577,6.174578594240302],[-75.5370194265704,6.170226762348079],[-75.53900380023964,6.154011510730129],[-75.54117383246609,6.1495993061767535],[-75.54228421614249,6.135441910445991],[-75.54117383246609,6.13130539327949],[-75.54306208378375,6.1231481286639],[-75.54064369091657,6.104955424794866],[-75.54328360618848,6.102863408160999],[-75.54868552108695,6.107716626349941],[-75.55606301132883,6.104477174341071],[-75.56453995804537,6.105769115145961],[-75.56795017882075,6.099973226544307],[-75.57091808086699,6.100708758349299],[-75.5730550589509,6.099069554671985],[-75.57805158649109,6.108351376958751],[-75.59057278159668,6.112981823185294],[-75.58885477248293,6.123063034301424],[-75.59261652828093,6.134809200267171],[-75.59054950794251,6.1412837755704],[-75.59096141151252,6.14336519513256],[-75.59620374504226,6.148038734129045],[-75.5950159371277,6.148697731298682],[-75.59485514939587,6.15391513229639],[-75.59130824963819,6.155030271491],[-75.58876487632239,6.1527007360573975],[-75.58750540550471,6.146451169579052],[-75.58003618024702,6.145837150314549],[-75.57840869155842,6.147420249367144],[-75.57823173259646,6.145504346315533],[-75.57632364467946,6.1468645067980106],[-75.57609072198943,6.143910335487817],[-75.5752014606536,6.148081218061066],[-75.57364920047843,6.148512678494058],[-75.57448666019297,6.151459519066009],[-75.57224293286095,6.1529166390522505],[-75.5743935275238,6.156919704489098],[-75.56627676503149,6.158376287628357],[-75.56367203997718,6.16036095748899],[-75.56001250108113,6.167736198527109],[-75.5589099633927,6.175697607577888]]]}}]}