{"type":"FeatureCollection","features":[{"type":"Feature","properties":{"code":"055428"},"geometry":{"type":"Polygon","coordinates":[[[-75.48370313063003,6.198322683758079],[-75.48597655115447,6.190828112534518],[-75.48197878013968,6.184538991128477],[-75.4850307871867,6.179871967315307],[-75.47886578645137,6.170961231771912],[-75.47442565145599,6.1696292927805985],[-75.47493678327402,6.15849065043642],[-75.47855342788955,6.157958037539515],[-75.4873195705855,6.1602299925333455],[-75.4918057767203,6.15574901705719],[-75.49873382112645,6.15288420300368],[-75.50202953922559,6.155709484755164],[-75.50599729823074,6.152651264886913],[-75.5137869409258,6.156473458138009],[-75.51464168875907,6.153346804676119],[-75.51296294455227,6.151485703212529],[-75.52129473792013,6.143630281333969],[-75.51927308320961,6.137033256579116],[-75.52006660271758,6.132544016538873],[-75.53064846582248,6.133244297448016],[-75.53610399342944,6.131511898366568],[-75.53708834250358,6.1275192983608235],[-75.54306208378375,6.1231481286639],[-75.54117383246609,6.13130539327949],[-75.54228421614249,6.135441910445991],[-75.54117383246609,6.1495993061767535],[-75.53900380023964,6.154011510730129],[-75.5370194265704,6.170226762348079],[-75.52692490637963,6.193982623418947],[-75.52405642078628,6.195836806549721],[-75.51644928447217,6.195685717030813],[-75.50096899284517,6.189442425080301],[-75.49716911679678,6.193926202033936],[-75.48370313063003,6.198322683758079]]]}}]}