{"type":"FeatureCollection","features":[{"type":"Feature","properties":{"code":"055437"},"geometry":{"type":"Polygon","coordinates":[[[-75.47615771423676,6.1577846133344565],[-75.47675295928309,6.141868138666439],[-75.47518096638129,6.1380144092539695],[-75.47488373929428,6.122908177597651],[-75.47128211919551,6.118889063315294],[-75.4642859435578,6.11602902226349],[-75.45924263833814,6.109096937106699],[-75.46781862304078,6.1022948398851895],[-75.45673284161364,6.097087957797555],[-75.4533302025165,6.088846414374473],[-75.44934752800953,6.087097100498852],[-75.44659301441612,6.0817398786269905],[-75.44549465117586,6.069891037074001],[-75.43852873745931,6.064830239075491],[-75.44565483212659,6.056372222900393],[-75.44448531506225,6.041948203446623],[-75.45065985460201,6.037220501524871],[-75.45281907069847,6.028849547122775],[-75.45504680780624,6.027092409884972],[-75.45493239666138,6.016831020781694],[-75.45971648500108,6.013653781317657],[-75.45849600860993,6.0099436379074405],[-75.46194436711926,5.998773793645682],[-75.47151984882589,5.995463480918829],[-75.47755031282475,5.985762588874536],[-75.48132441610363,5.995316220291443],[-75.48140797705827,6.03692860896922],[-75.49889208814568,6.056859369381982],[-75.49656830993331,6.067616234322827],[-75.50003117153898,6.069650151153496],[-75.50205600310846,6.068436900599465],[-75.50584590223599,6.0649521300828155],[-75.50471575909347,6.0611889570909625],[-75.50659972694802,6.057118293155838],[-75.51290759994652,6.0530300839913025],[-75.51750567183103,6.052894303867788],[-75.53890207390475,6.079937397358492],[-75.54444232357798,6.0832845581524],[-75.55729014174307,6.081564494210511],[-75.56305010581906,6.083731723931066],[-75.56744855186844,6.0875389286608765],[-75.57405372291652,6.09870979622292],[-75.57091808086699,6.100708758349299],[-75.56795017882075,6.099973226544307],[-75.56453995804537,6.105769115145961],[-75.55606301132883,6.104477174341071],[-75.54868552108695,6.107716626349941],[-75.54518351798743,6.103915922405292],[-75.54133792972596,6.103476609813697],[-75.54060533926656,6.106640287206233],[-75.54306208378375,6.1231481286639],[-75.53708834250358,6.1275192983608235],[-75.53610399342944,6.131511898366568],[-75.53064846582248,6.133244297448016],[-75.52006660271758,6.132544016538873],[-75.51927308320961,6.137033256579116],[-75.52129473792013,6.143630281333969],[-75.51296294455227,6.151485703212529],[-75.51464168875907,6.153346804676119],[-75.5137869409258,6.156473458138009],[-75.50599729823074,6.152651264886913],[-75.50202953922559,6.155709484755164],[-75.49873382112645,6.15288420300368],[-75.4918057767203,6.15574901705719],[-75.4873195705855,6.1602299925333455],[-75.47615771423676,6.1577846133344565]]]}}]}