{"type":"FeatureCollection","features":[{"type":"Feature","properties":{"code":"055450"},"geometry":{"type":"Polygon","coordinates":[[[-75.60196501832553,6.159996553565122],[-75.60416778176364,6.157789645503726],[-75.60361057880607,6.155127111695435],[-75.60120504969791,6.153381410738405],[-75.60353951137114,6.152650043097196],[-75.60303074908467,6.151296020359666],[-75.60445692632089,6.151609540033064],[-75.60875234608409,6.147238257207505],[-75.6157937155998,6.147702807778501],[-75.61245375904576,6.1424868496856675],[-75.61201539159282,6.138494545871367],[-75.61493372888032,6.140573720343525],[-75.6157960254817,6.1390009519960245],[-75.6173088006633,6.14233175026942],[-75.62081582050541,6.139264359779247],[-75.62106293364536,6.142224524852452],[-75.62242636663194,6.141124274420179],[-75.62454668394707,6.142316421333703],[-75.62464653748805,6.145462589492354],[-75.62607458134744,6.147135490088829],[-75.62740162598084,6.146544747563837],[-75.62823801817206,6.1495550337832015],[-75.63205400580097,6.150366539722313],[-75.63173168368803,6.151851292930644],[-75.62479723311344,6.153538928023011],[-75.6089523185043,6.161723430938707],[-75.60499226767581,6.1629683163845925],[-75.60196501832553,6.159996553565122]]]}}]}