{"type":"FeatureCollection","features":[{"type":"Feature","properties":{"code":"055440"},"geometry":{"type":"Polygon","coordinates":[[[-75.63238961847651,6.075925919261863],[-75.63570773811057,6.075842063144194],[-75.63611722278381,6.079690861174811],[-75.63828804896792,6.0793992493839255],[-75.63733100607107,6.081252639585557],[-75.63916506978086,6.081628152745509],[-75.63933092464896,6.085172453628957],[-75.64320943541236,6.085126728046134],[-75.63997767821036,6.089091755507923],[-75.64676478896752,6.089241667460158],[-75.64541848057729,6.091301560691932],[-75.64201199201983,6.090783405639968],[-75.63945199084537,6.0957422006525235],[-75.63917059251719,6.098262356878536],[-75.64168454209255,6.100268023421677],[-75.64280568019234,6.104393709031569],[-75.64176556485103,6.109527902858872],[-75.63538184524526,6.1123990891422295],[-75.63539884745694,6.095574423625351],[-75.63062481111439,6.095885651928825],[-75.62356365539307,6.100378913179327],[-75.62062493848862,6.100094887180489],[-75.62216261637735,6.099196265989349],[-75.62140634500054,6.097901494910673],[-75.62334079498459,6.097670504664109],[-75.62113034188178,6.096859981915998],[-75.62147511592332,6.095439464198989],[-75.62439183649923,6.09637162084374],[-75.62582652204037,6.094879235563553],[-75.62439547307196,6.094930602153568],[-75.62387220254686,6.094601094312793],[-75.62740296192766,6.093586107936005],[-75.62535002610946,6.091866568499768],[-75.62916854370701,6.090006447141889],[-75.62737548811418,6.089047797817841],[-75.62981982550082,6.087930674757615],[-75.62847817492678,6.085544513278933],[-75.63061611254756,6.086335286845326],[-75.6296365940679,6.084654382909207],[-75.63238961847651,6.075925919261863]]]}}]}