{"type":"FeatureCollection","features":[{"type":"Feature","properties":{"code":"055810"},"geometry":{"type":"Polygon","coordinates":[[[-75.77036484149505,6.330264532285469],[-75.76956019115374,6.32866351365044],[-75.76345922742024,6.329889983804605],[-75.76239558954165,6.3248721644189345],[-75.76443742023753,6.32403779311727],[-75.76530169350542,6.325738449320397],[-75.76761614991477,6.325653833183765],[-75.76685876062095,6.323228054042374],[-75.76888133373069,6.322885057149506],[-75.77216479073803,6.32865202903281],[-75.77036484149505,6.330264532285469]]]}}]}