{"type":"FeatureCollection","features":[{"type":"Feature","properties":{"code":"055820"},"geometry":{"type":"Polygon","coordinates":[[[-75.73098771195362,6.21203606897177],[-75.731535622933,6.210045805412278],[-75.72675295178709,6.210273519040982],[-75.7322737937215,6.2070522642940205],[-75.72900492722812,6.207012375122474],[-75.73256131951018,6.2047006152894255],[-75.72926423049722,6.200536790917113],[-75.73606083069348,6.201896480372966],[-75.7381580512465,6.1976259437764725],[-75.74109054401686,6.196440564014722],[-75.73891790366014,6.205671417718747],[-75.73577502960285,6.208524555864301],[-75.73816897741983,6.210710477527698],[-75.73971515641443,6.209679348717145],[-75.73678866357778,6.212424486000032],[-75.73559213241379,6.211638466923432],[-75.73700814863787,6.21607741098228],[-75.73098771195362,6.21203606897177]]]}}]}