{"type":"FeatureCollection","features":[{"type":"Feature","properties":{"code":"055830"},"geometry":{"type":"Polygon","coordinates":[[[-75.70495280374934,6.112812568286188],[-75.70515981894391,6.111274926392923],[-75.7075508984347,6.111752197769476],[-75.7090243696286,6.104573619623579],[-75.71225823822306,6.1039095080093375],[-75.7099997301151,6.112132592946125],[-75.71301058403475,6.112622740422978],[-75.71682060361172,6.110893365990933],[-75.7186240351611,6.112076517117771],[-75.71341882532101,6.115887285400902],[-75.71554288616687,6.1188374612119105],[-75.71292928051145,6.121053590288966],[-75.70495280374934,6.112812568286188]]]}}]}