{"type":"FeatureCollection","features":[{"type":"Feature","properties":{"code":"055847"},"geometry":{"type":"Polygon","coordinates":[[[-75.67426978684665,6.082642085997179],[-75.67163003509705,6.077611196135592],[-75.66907366638156,6.063991432101204],[-75.672782553035,6.0593816472849085],[-75.67190455828705,6.054506784494663],[-75.6775199819661,6.053792546592092],[-75.6844178086742,6.046482212618173],[-75.67778672293156,6.0409846124562705],[-75.67447638449363,6.0408268781702645],[-75.6695701326093,6.03536416380706],[-75.66510653575477,6.023327103903341],[-75.65988109439343,6.017891805760769],[-75.66031571934406,6.014814811674341],[-75.6644970910026,6.012436872593582],[-75.66877700905172,6.000264248539338],[-75.67107300491784,5.997981937129339],[-75.67713895121204,5.997846098384571],[-75.68766039537587,5.989089418388232],[-75.68912520914063,5.985608195998282],[-75.6939086917277,5.985110662247223],[-75.69636991099827,5.994935254329221],[-75.69478789798097,6.0039318175145695],[-75.69561899986388,6.012607918011099],[-75.69898136309507,6.023937307646122],[-75.69751583456281,6.025116955897715],[-75.69477474111585,6.024406061461718],[-75.69653040768088,6.026853846187635],[-75.6933971691015,6.02784421884968],[-75.69620801049166,6.029928635293345],[-75.69457968773617,6.031560265519943],[-75.69644525161186,6.031394908418008],[-75.69743289890118,6.033260055774463],[-75.69677372175414,6.038395367518774],[-75.70069619946366,6.044128333950198],[-75.69679868719629,6.044723820680531],[-75.69686879303748,6.048368859565528],[-75.70200047849346,6.047474632909257],[-75.7062409876537,6.049901187496289],[-75.70484633629445,6.046041760512253],[-75.70590299824744,6.045892760788604],[-75.71282104619229,6.050492469953554],[-75.72128172089134,6.052653914685038],[-75.72469857923471,6.05540554452557],[-75.72513482809609,6.059869290504253],[-75.7323668142904,6.064750312636704],[-75.74016701703323,6.063333665977325],[-75.74582053422324,6.064639245986882],[-75.74740787354432,6.068716961952418],[-75.74102173915549,6.0728517780749485],[-75.7332620981856,6.074083447006046],[-75.7287144991746,6.0769740153170915],[-75.72218423576584,6.071884938234689],[-75.71778215211526,6.07436442161594],[-75.70827530969069,6.072805793324619],[-75.69917251250695,6.08723661901098],[-75.69067377515034,6.090902017972496],[-75.68689646518766,6.0900289247815635],[-75.68337957229738,6.084934789818817],[-75.6786723168413,6.082248991612346],[-75.67426978684665,6.082642085997179]]]}}]}