{"type":"FeatureCollection","features":[{"type":"Feature","properties":{"code":"056060"},"geometry":{"type":"Polygon","coordinates":[[[-75.87654722649262,5.668187375825539],[-75.87432152467261,5.667451477894986],[-75.87485019760624,5.663140059680018],[-75.87300164519826,5.6605826409247015],[-75.87505712435478,5.655589344750922],[-75.87433975895846,5.649016387607844],[-75.87610046900562,5.645355107558601],[-75.8742684169294,5.64281731148651],[-75.87695487025377,5.6451364802195485],[-75.87598608048643,5.646632617258092],[-75.88439037699504,5.646530913548929],[-75.88398870539959,5.651624225757644],[-75.882472771871,5.652504973646273],[-75.8863745244069,5.655227409089036],[-75.88457969886451,5.656282159167404],[-75.88516395294562,5.659230692555695],[-75.88391941202798,5.659116682503395],[-75.88530205323548,5.664646638495412],[-75.87654722649262,5.668187375825539]]]}}]}