{"type":"FeatureCollection","features":[{"type":"Feature","properties":{"code":"056030"},"geometry":{"type":"Polygon","coordinates":[[[-75.62381104929784,5.617995707315231],[-75.621536714488,5.618150572246634],[-75.6202723040609,5.615763915058665],[-75.62275728138206,5.614163780884212],[-75.62070159345171,5.611569493492993],[-75.62111212507949,5.608912843404369],[-75.62738232725695,5.612613164160109],[-75.63115009224464,5.611305302036612],[-75.62733381150957,5.614296187716263],[-75.62763805668834,5.618160488489366],[-75.62424167257859,5.620170242063068],[-75.62381104929784,5.617995707315231]]]}}]}