{"type":"FeatureCollection","features":[{"type":"Feature","properties":{"code":"056057"},"geometry":{"type":"Polygon","coordinates":[[[-75.81273494959669,5.65345254150219],[-75.78839696846296,5.6539039773742275],[-75.77750971860809,5.642444489760635],[-75.77634972286461,5.637060512956623],[-75.77332851150038,5.636212960107173],[-75.76979591017903,5.638054927397718],[-75.76727019007905,5.643597825310394],[-75.76407370948391,5.6444313687158],[-75.76341009152202,5.642581087495955],[-75.75754183450573,5.639707570761857],[-75.75537587079782,5.633313317847751],[-75.75185809756078,5.630614639427165],[-75.75120306400862,5.621533150543939],[-75.75290358240045,5.612792660289813],[-75.75929813561976,5.605240287511322],[-75.76015999204776,5.595657069860067],[-75.75848128280796,5.593298250554199],[-75.750256403239,5.594288771311938],[-75.74187954557681,5.587712021272864],[-75.74039099330184,5.580141795760767],[-75.73302172545789,5.5720530141040285],[-75.73084665283466,5.56733912622218],[-75.73102973617182,5.563135531977707],[-75.73707278007953,5.560795531113058],[-75.74616024010004,5.55173539475345],[-75.75656611097895,5.55142350413297],[-75.76446262427834,5.5482453082174175],[-75.76697311828684,5.548755636821795],[-75.76933883844202,5.54455592906163],[-75.77036109076522,5.535646252814047],[-75.77237492314191,5.534810056026913],[-75.77606089712452,5.539863581908321],[-75.78243078315,5.541389822487815],[-75.78848140976442,5.537368174123117],[-75.79050340900318,5.533503873350014],[-75.79773689055293,5.526793092568141],[-75.80394693192841,5.527310634668424],[-75.80699047695038,5.514703989359248],[-75.81606259158002,5.513042693708201],[-75.82811786725762,5.503385699704381],[-75.8295978968294,5.490886512240252],[-75.83784599863043,5.4888873711648785],[-75.84468153463206,5.488901096758752],[-75.84827544346876,5.490623629991148],[-75.85385229232588,5.495464190109601],[-75.85485217602428,5.501857158498979],[-75.86222160944749,5.506580379496654],[-75.86509053418575,5.500701280639305],[-75.8669148708862,5.488604550500668],[-75.87220982056357,5.491528466060402],[-75.88624852888546,5.482473741365311],[-75.90369732839895,5.481994869732205],[-75.8965479600775,5.485002484057873],[-75.89355682860003,5.48967863324151],[-75.89103174613439,5.490229623377786],[-75.89029909396851,5.4962641281272795],[-75.88659150006725,5.500469790569639],[-75.88379168049562,5.501330975424651],[-75.88672092030225,5.510208270131102],[-75.88344802848485,5.5146712992853395],[-75.88492001049394,5.519097533851607],[-75.88386722165552,5.524974270376504],[-75.87887801868294,5.5292213173458435],[-75.87684009606869,5.528044121929668],[-75.87174409859654,5.530979962280412],[-75.87361354381426,5.534035062882481],[-75.87086615629909,5.543952946013803],[-75.87322412096921,5.553046110804928],[-75.87176626976037,5.55720304564079],[-75.87391815511859,5.563932730224565],[-75.87365869449775,5.5755485976653745],[-75.87732056898676,5.584125719825408],[-75.8802126192835,5.585265149803888],[-75.88258541409476,5.589924943666119],[-75.88273101584434,5.59431231853182],[-75.87924311680553,5.598252652060353],[-75.87994498254466,5.606964984586796],[-75.88156989087094,5.609447785723603],[-75.87896873348376,5.618773750820196],[-75.87906023195774,5.622563193319252],[-75.88118858449428,5.62433959637076],[-75.87888495449931,5.626060527289724],[-75.8779236384238,5.630012793836784],[-75.87991534180281,5.632427438031016],[-75.87563470795772,5.636076732611173],[-75.86990403803844,5.63721189661004],[-75.8651661781899,5.635029957076085],[-75.85868071990791,5.635148598205035],[-75.8558583435065,5.632445120043201],[-75.83872949965968,5.6273900946926005],[-75.82805579252408,5.633305856497316],[-75.82553055476359,5.6383462584237805],[-75.81375776550641,5.647906084150009],[-75.81273494959669,5.65345254150219]],[[-75.82092389538406,5.60333292053258],[-75.82553868151638,5.603027060699105],[-75.83516554935352,5.597203678743597],[-75.83192781998582,5.59661202707548],[-75.82788566653414,5.599201785205821],[-75.8229294899362,5.5985239932491595],[-75.81855437204848,5.592356027514029],[-75.81101962574638,5.589233942393776],[-75.81470068377371,5.601565109089904],[-75.81619337552979,5.599678217373253],[-75.82092389538406,5.60333292053258]]]}}]}