{"type":"FeatureCollection","features":[{"type":"Feature","properties":{"code":"056068"},"geometry":{"type":"Polygon","coordinates":[[[-75.87921212366177,5.6193941083759],[-75.88156989087094,5.609447785723603],[-75.87994498254466,5.606964984586796],[-75.87924311680553,5.598252652060353],[-75.88273101584434,5.59431231853182],[-75.88258541409476,5.589924943666119],[-75.8802126192835,5.585265149803888],[-75.87732056898676,5.584125719825408],[-75.87365869449775,5.5755485976653745],[-75.87391815511859,5.563932730224565],[-75.87176626976037,5.55720304564079],[-75.87322412096921,5.553046110804928],[-75.87086615629909,5.543952946013803],[-75.87361354381426,5.534035062882481],[-75.87174409859654,5.530979962280412],[-75.87684009606869,5.528044121929668],[-75.87887801868294,5.5292213173458435],[-75.88386722165552,5.524974270376504],[-75.88492001049394,5.519097533851607],[-75.88344802848485,5.5146712992853395],[-75.88672092030225,5.510208270131102],[-75.88379168049562,5.501330975424651],[-75.88949824063695,5.497451421820529],[-75.89067329072202,5.490704693887324],[-75.89355682860003,5.48967863324151],[-75.8965479600775,5.485002484057873],[-75.90404074695329,5.482216391108523],[-75.90864882558344,5.486118338020049],[-75.91565296445157,5.488187937692317],[-75.92518235444987,5.4962794529492385],[-75.92474769350378,5.506169156755561],[-75.92784493865184,5.506375677269318],[-75.92935553559221,5.508395686471772],[-75.95267950839798,5.508273158858572],[-75.96057616773618,5.505260082474649],[-75.96375009458689,5.512834147162721],[-75.96845001621932,5.512675587037393],[-75.97850585360169,5.518580318796069],[-75.98236644272572,5.5182507975855515],[-75.98637864587437,5.52649847772517],[-75.99090396162131,5.53054432945612],[-75.99513845542123,5.527419598153244],[-75.99764086689999,5.541301095666427],[-76.00140227097069,5.550104962662374],[-76.00527384900306,5.56706663832],[-76.0031891497377,5.58607715659457],[-75.99241020722133,5.598553227756213],[-75.98619875173745,5.60302076868777],[-75.97013877025717,5.610230745183799],[-75.96393070966201,5.615917557171883],[-75.95986603948984,5.623667708702612],[-75.9564413834953,5.625331793489806],[-75.953356415894,5.622154254748978],[-75.93586566929554,5.624890487776554],[-75.9270304965093,5.618066642081089],[-75.909394375447,5.615423232161447],[-75.90052874019335,5.615638954150427],[-75.89630975839196,5.614064611257447],[-75.89585060200193,5.6103144151533115],[-75.89216001751151,5.608851948294387],[-75.87921212366177,5.6193941083759]]]}}]}