{"type":"FeatureCollection","features":[{"type":"Feature","properties":{"code":"056468"},"geometry":{"type":"Polygon","coordinates":[[[-76.04064359159219,5.853729989550857],[-76.03155437293503,5.849572725613427],[-76.02214954480922,5.849321165487993],[-76.01461880531917,5.844538810073914],[-76.00844366619748,5.844543425723941],[-76.00542016449174,5.843004465367358],[-75.99672781357498,5.832611846998759],[-75.98464243744178,5.82215667875613],[-75.97938043700583,5.820108685632704],[-75.97178695326613,5.821742653509148],[-75.96738770606004,5.81948518824197],[-75.95915337099052,5.82025013967359],[-75.95552769870659,5.825999529303601],[-75.93826955289563,5.82321706778481],[-75.93033694332075,5.825154465285095],[-75.91558185485047,5.840941502234614],[-75.91521303273754,5.847536922619156],[-75.91352180940919,5.846849906561545],[-75.91140153014646,5.849488838642458],[-75.9074642120114,5.84893590989202],[-75.90752461449739,5.847023882011797],[-75.905137472913,5.845577998788485],[-75.90805900865678,5.840761918687349],[-75.90633563107303,5.835972291156168],[-75.90332050294631,5.83536702496599],[-75.90139792941653,5.831963619679186],[-75.90446572202774,5.8273365858249235],[-75.90605282069328,5.828726547486269],[-75.9107979516304,5.828203017793669],[-75.91047006872878,5.826328610340795],[-75.9139347887301,5.82451630950311],[-75.91526186113146,5.819035725951096],[-75.92041954150051,5.819249794204495],[-75.93355056085358,5.810150891732576],[-75.93979883149433,5.810641609995059],[-75.94832108521763,5.806547350503195],[-75.95275373932208,5.796244894661697],[-75.95609578669973,5.798103836396024],[-75.96224519316121,5.794917747184115],[-75.96486228215144,5.791314370505518],[-75.9736285708862,5.787421289796953],[-75.97799313798214,5.783085484124513],[-75.97916811813315,5.779548273323826],[-75.98809486344123,5.772975520840816],[-75.99619757946562,5.771090136820931],[-76.01308209108106,5.759414736956501],[-76.08426694843428,5.741898323518058],[-76.09253734892604,5.769746953867525],[-76.10761338036775,5.803380209316174],[-76.1100951880291,5.813452638561671],[-76.09376142383752,5.818036789448229],[-76.07280690751861,5.833181871549186],[-76.06723270073036,5.83999293473255],[-76.06355165607272,5.842631224036893],[-76.05910818378146,5.8429137166279475],[-76.05294363864613,5.8491094698514985],[-76.0451176333089,5.853359938449103],[-76.04064359159219,5.853729989550857]]]}}]}