{"type":"FeatureCollection","features":[{"type":"Feature","properties":{"code":"056457"},"geometry":{"type":"Polygon","coordinates":[[[-75.86866027153798,5.765927931304759],[-75.87392465178993,5.762893493141291],[-75.87844886504655,5.755547229499598],[-75.88539152259239,5.755985619578269],[-75.89211374582572,5.75012423770022],[-75.89461660673385,5.750526119097913],[-75.89234241076377,5.753567037477694],[-75.89878966343463,5.755147897610925],[-75.90272672240218,5.762080259418724],[-75.90494728098116,5.763173151344745],[-75.90402348865933,5.765758073738368],[-75.90787628733136,5.765981879285505],[-75.90878445761126,5.762192212586001],[-75.91260667657343,5.759165710913464],[-75.91672675922848,5.764421277413021],[-75.92962128205369,5.768396153240417],[-75.93232244210611,5.771806676377878],[-75.93738105157888,5.773972028162461],[-75.94056974172196,5.777383515979011],[-75.94554428938864,5.791178798127362],[-75.95309017886541,5.7961540245660785],[-75.95099877415487,5.798089160521272],[-75.94832108521763,5.806547350503195],[-75.93979883149433,5.810641609995059],[-75.93355056085358,5.810150891732576],[-75.92041954150051,5.819249794204495],[-75.91526186113146,5.819035725951096],[-75.9139347887301,5.82451630950311],[-75.91047006872878,5.826328610340795],[-75.9107979516304,5.828203017793669],[-75.90377885715122,5.827701304452205],[-75.90142178002696,5.832979642726059],[-75.90332050294631,5.83536702496599],[-75.90633563107303,5.835972291156168],[-75.9080520728404,5.840847798779862],[-75.90356537511002,5.8391511504171945],[-75.90102489480302,5.84143995232796],[-75.88509428007876,5.83978455788008],[-75.87723492954979,5.831644621492501],[-75.8704908992213,5.829725940617607],[-75.87120855772378,5.82605691433929],[-75.86976638923483,5.821330015631133],[-75.87554183034229,5.80907625774654],[-75.87427514500035,5.803003814780993],[-75.87639626861437,5.793023883655621],[-75.8758622097273,5.779332688117677],[-75.86866027153798,5.765927931304759]],[[-75.90178908827255,5.802006129892675],[-75.91325399063601,5.801979692749285],[-75.91437354082058,5.800216925817097],[-75.91164257033336,5.799616278362237],[-75.90812972230748,5.796042842730742],[-75.90202136818601,5.797452697555684],[-75.90178908827255,5.802006129892675]]]}}]}