{"type":"FeatureCollection","features":[{"type":"Feature","properties":{"code":"056417"},"geometry":{"type":"Polygon","coordinates":[[[-75.84365519939206,6.158382090101043],[-75.84470778151353,6.153875540344757],[-75.84318229992465,6.14609822764703],[-75.84645604432086,6.143916831130753],[-75.8443039522457,6.133666593429723],[-75.84595258057027,6.1286743390682545],[-75.85567238053028,6.113908407728502],[-75.85424582482722,6.106738179507374],[-75.85560392431091,6.1018050780742215],[-75.85413843691629,6.095384010578357],[-75.85501649439931,6.089048505386245],[-75.86081545701558,6.07277148242531],[-75.85983049704657,6.066488261194024],[-75.86393535258168,6.060417635486374],[-75.8656981596231,6.054102144814124],[-75.86360747893605,6.043993346755826],[-75.84880627201795,6.030235150244721],[-75.84419734903645,6.014708682577066],[-75.84119140592986,6.011681180229971],[-75.84081824276103,6.008485597465153],[-75.83283817467765,6.000325238265987],[-75.83209021105955,5.995681176488972],[-75.83434807844776,5.990067580352218],[-75.83455451257231,5.9796656885174],[-75.84251978548161,5.964698837561912],[-75.84664748478195,5.9611573792935815],[-75.84892876260727,5.956532533965003],[-75.85525362753305,5.955669695374411],[-75.85787020024515,5.957591001863079],[-75.86689612135063,5.950026913067461],[-75.87218364464462,5.950201268013018],[-75.87347331773373,5.951947822577267],[-75.88326211898766,5.954212421121781],[-75.88803819370327,5.957102265409333],[-75.89637722422117,5.957056968687027],[-75.91096504371484,5.971824760479308],[-75.91338394566111,5.971836678071213],[-75.9157263150289,5.969066103291027],[-75.92050936772699,5.967199088282939],[-75.92710188584675,5.967431069948134],[-75.92867368231606,5.965532380967318],[-75.9305431007943,5.969218218167043],[-75.93944726150465,5.97386009141843],[-75.9402551966914,5.97670740343716],[-75.94371216223612,5.979123995501482],[-75.94375820046548,5.985248216434115],[-75.94646627165156,5.992304672173134],[-75.94603922837922,5.996298756221449],[-75.94306369323255,5.997917700609605],[-75.93978250394093,5.99615352471119],[-75.93861531321357,5.998316404119919],[-75.94154506107083,6.003532359127462],[-75.94059896080239,6.00956861325767],[-75.94214013436726,6.018637650787298],[-75.93864601427964,6.03120404902694],[-75.93985925249234,6.039978557074278],[-75.9427045148251,6.044095899958506],[-75.96191641345774,6.045738333973759],[-75.96479970142417,6.050682912825437],[-75.96694408840801,6.048213476299111],[-75.96915631351726,6.050105332307794],[-75.97494769651217,6.046797965040298],[-75.98218791847421,6.052193230029388],[-75.98937483626054,6.061161808265354],[-75.99804977256014,6.068533025007923],[-75.99922466632194,6.070424967405756],[-75.99724913622993,6.078785168412878],[-75.99193821895403,6.076591063432431],[-75.98794800390647,6.080670708756088],[-75.97846377076223,6.080961076131473],[-75.97459687625707,6.082654020044174],[-75.9698655213075,6.0890984640385],[-75.96631021608914,6.090209949176824],[-75.96631698015557,6.1049727869614685],[-75.95677322487217,6.110346991504684],[-75.95273668774513,6.1190461239714296],[-75.94415305965765,6.119782921789124],[-75.93580678170531,6.115106849738709],[-75.92808538954114,6.123423762571747],[-75.92063842595024,6.122721707599226],[-75.91869378512928,6.12707407531002],[-75.91864770473381,6.1363611951042],[-75.91067416006132,6.140443821882741],[-75.90724147501601,6.144670791597207],[-75.90442515511256,6.152006854117587],[-75.89769565153466,6.149931820155018],[-75.89301901178396,6.1524076433093455],[-75.89108123067462,6.155547244862532],[-75.88649585696993,6.154033989398272],[-75.87540255351422,6.154906322570184],[-75.87087788362913,6.157532589381503],[-75.86632325315668,6.156930072218131],[-75.86266103413936,6.158624748027989],[-75.84740922747295,6.1599695168397375],[-75.84365519939206,6.158382090101043]],[[-75.90850794232813,6.051146820619863],[-75.91272335029186,6.0506145933889],[-75.91284598486311,6.04863206885932],[-75.91549871967106,6.046840943653137],[-75.91452831524896,6.045204665894801],[-75.91209823207566,6.045198277209863],[-75.91136548323618,6.041001718540656],[-75.90931152720304,6.043049601620737],[-75.9064810456461,6.043177966673738],[-75.90098827299335,6.0369642301042745],[-75.90361745955295,6.041374174141026],[-75.90269726369468,6.047889748305295],[-75.90850794232813,6.051146820619863]]]}}]}