{"type":"FeatureCollection","features":[{"type":"Feature","properties":{"code":"056838"},"geometry":{"type":"Polygon","coordinates":[[[-76.54088136382336,6.5882245331014815],[-76.53142112732843,6.589193001994715],[-76.52933881302124,6.585449537046884],[-76.52356986858518,6.58657339640564],[-76.5168098110085,6.5745680701243145],[-76.5180159910202,6.565314837511096],[-76.51372789582462,6.555407774623518],[-76.52306755154797,6.545400721412079],[-76.51863442435996,6.541922472249382],[-76.51846591096796,6.537992349098204],[-76.51535335539609,6.532082111058287],[-76.51079907048029,6.526963668856581],[-76.50317597479517,6.522423747169],[-76.49511971249092,6.52317738059071],[-76.4852691573775,6.515020071752133],[-76.4844684346582,6.509808630578789],[-76.48861163567261,6.5056620696426535],[-76.48945076249248,6.499327935364477],[-76.47080411540861,6.489689563369325],[-76.46460885069524,6.4956385140425255],[-76.45945158376003,6.496372519638783],[-76.45662047691008,6.498483742436747],[-76.45341644960376,6.51152062741761],[-76.45394954381175,6.517220020343018],[-76.45223275031708,6.519200357375325],[-76.45224845669122,6.525628111804508],[-76.4471968961634,6.530124691839035],[-76.44911205153738,6.537639883335089],[-76.43362396225916,6.554050582226182],[-76.43340231849817,6.560284723095151],[-76.42720005214818,6.560167047673701],[-76.42440746149896,6.564426667352848],[-76.41831869817906,6.567339198053901],[-76.41902897349269,6.571224774217399],[-76.41240562575155,6.573198426373381],[-76.41366468519226,6.578273742894908],[-76.40444894445108,6.579937510921752],[-76.39793738532643,6.578530462716401],[-76.39474540313881,6.572065504379168],[-76.39724907343123,6.5664893270950415],[-76.38665336440471,6.56286269424578],[-76.3828330593741,6.564942398365815],[-76.3802209840411,6.563954981447637],[-76.38069775250926,6.55899274835167],[-76.37788630022425,6.5536147858795175],[-76.37939242241123,6.547494037997296],[-76.37478484154718,6.545696249512048],[-76.37593641331802,6.5411460907076275],[-76.37183009019543,6.537924725917264],[-76.37418476282107,6.534403861182],[-76.37033965998444,6.53290099710091],[-76.37272554172671,6.527574388877497],[-76.36998128170524,6.516352630894289],[-76.3669330665258,6.5125307132657895],[-76.36615848578685,6.499667218551394],[-76.36340274011934,6.4967267008440786],[-76.36532131506465,6.489549381511779],[-76.3601815388514,6.4879042920579195],[-76.36016591783795,6.4837970135122305],[-76.35466471298503,6.481718584660939],[-76.35420032696476,6.4785363140560435],[-76.35213254763573,6.476909217204081],[-76.35108679025876,6.4717775913977675],[-76.354299425629,6.462171840570875],[-76.3502563568635,6.455192519049206],[-76.34732506839936,6.45615804865372],[-76.34464790396783,6.454857811403031],[-76.34396866499253,6.450279400254146],[-76.34531160626193,6.446718855121162],[-76.34235112340002,6.445253180550026],[-76.33745262700074,6.445518455984882],[-76.33382156464955,6.442136023726334],[-76.33299745823263,6.43701375571851],[-76.33112794410926,6.435953134261808],[-76.33336372672284,6.432252648955284],[-76.33366871649395,6.42766550015881],[-76.33117414586098,6.4244689516864355],[-76.33475294790554,6.421761646690015],[-76.3349963473396,6.419876770720691],[-76.3276170048727,6.410891966747101],[-76.32687045330613,6.406872922398861],[-76.32919163572961,6.404184127310884],[-76.32824804280398,6.402780128437598],[-76.32013890826983,6.403917609517464],[-76.31642398157345,6.402928160396868],[-76.31477762713536,6.404151504085746],[-76.3147036378952,6.4115819601457815],[-76.31145446813292,6.413486698425459],[-76.31096818657147,6.4167150586818025],[-76.30849605449737,6.41340022080783],[-76.30844416545852,6.410039175011491],[-76.3064388208179,6.408740195546045],[-76.30378846274061,6.410338323229155],[-76.30191041871495,6.40959492589576],[-76.30146417133545,6.4128412777255335],[-76.29899999837795,6.413684886497947],[-76.29493226139022,6.411172184423322],[-76.28395516782535,6.420974615625937],[-76.2804063767619,6.419729912214393],[-76.27669829229359,6.4218794177566],[-76.27600420569371,6.418523859729532],[-76.26969405058122,6.418586234768327],[-76.2638728047009,6.410336608815442],[-76.26081311210294,6.409036509376051],[-76.26321655552971,6.407385725435972],[-76.26258312132734,6.402194791406487],[-76.26012721293392,6.402041676884323],[-76.25991329894691,6.3966208468710875],[-76.25757827985785,6.393669531545754],[-76.25479379744945,6.393428849256907],[-76.25314561649742,6.387719779715837],[-76.2482021586481,6.388227170059963],[-76.24695073230777,6.384525988497842],[-76.24472250463293,6.38545591547927],[-76.24122834340761,6.383993393084438],[-76.23903899394531,6.385327977229906],[-76.23747883944537,6.384097523917944],[-76.23426454931109,6.3856602207278],[-76.23202450791706,6.383890392509329],[-76.22824785307228,6.383782814336541],[-76.22719298677993,6.382883527743104],[-76.22899360245367,6.3790936286155215],[-76.22559703939493,6.376684886652924],[-76.21856094270402,6.378772268096384],[-76.2153973702126,6.375524210080471],[-76.21416314251655,6.378055546505095],[-76.20607387749186,6.378244534130772],[-76.20957164237973,6.372083461017382],[-76.2078488684918,6.372572756943896],[-76.20569640617731,6.370441051684736],[-76.20239577006606,6.371289562014169],[-76.20194320599262,6.36514350827531],[-76.20062775910554,6.364359535799281],[-76.19900223062837,6.367223107494226],[-76.19526344509399,6.3626974132804435],[-76.18778268791038,6.364517015031538],[-76.18574224149813,6.368639747982968],[-76.17747419305442,6.370129087016437],[-76.17025656288922,6.356492887442187],[-76.17148545708238,6.3533757388460685],[-76.16954719980413,6.350679111139868],[-76.16742686192015,6.350675363495327],[-76.16135789097655,6.356306521316526],[-76.15891253748873,6.351088205004942],[-76.15586149409239,6.349442462490117],[-76.15507872900787,6.346739415245679],[-76.15346565702652,6.346848845643478],[-76.15435207574717,6.339823362479308],[-76.15763516354366,6.336730600312194],[-76.1560761629562,6.3328006941623585],[-76.13651630725246,6.320450138239494],[-76.13661994237663,6.31871199427809],[-76.13962017659878,6.3185461404384],[-76.14157314986102,6.314702971073757],[-76.13837066419,6.3135589419003395],[-76.13893646595545,6.308643502938992],[-76.13682102962855,6.307246848173747],[-76.13726380807145,6.304500565205842],[-76.1340328365996,6.301815014854014],[-76.13334617946845,6.290464337487322],[-76.13106185436794,6.286608954339272],[-76.13052095530969,6.279985954211725],[-76.13087593047254,6.274021353728699],[-76.13312388676025,6.270992828081262],[-76.131774259586,6.26836879401867],[-76.13626190451197,6.2668661531096745],[-76.13389065339294,6.264418008428834],[-76.13589576354866,6.260589214633683],[-76.12762363115968,6.253230043009921],[-76.12713469724497,6.248813552936554],[-76.12527288718451,6.24849711968551],[-76.12632642575755,6.246729177630584],[-76.12467045641029,6.245628773960391],[-76.12573902258544,6.24430274645664],[-76.1238155697373,6.24061149142176],[-76.12461693009101,6.2352932228386635],[-76.12251931153071,6.234865595410952],[-76.12422026083993,6.231688364174431],[-76.12052033603459,6.228030048096514],[-76.11919260234475,6.216629816255477],[-76.11524042938595,6.211407993983414],[-76.11425634050772,6.2066899779333085],[-76.10367514074824,6.194084632575482],[-76.09999581873183,6.186583608903561],[-76.09256278642329,6.187010021740662],[-76.08800040766482,6.1803074541007845],[-76.08283938280067,6.178884939148361],[-76.07746050809999,6.172906095764915],[-76.07106369847781,6.1703554050805565],[-76.06903912093367,6.171107084461482],[-76.06510134617008,6.168131778657539],[-76.06341888002981,6.169356804878362],[-76.06312847048827,6.160710596063666],[-76.0595903196911,6.1571124572428175],[-76.06170045851059,6.154319357514623],[-76.05372051281188,6.146998735001773],[-76.04152727157043,6.131972579936871],[-76.03127918434274,6.116297218475097],[-76.02612607951443,6.1070953061720274],[-76.02178277443909,6.089577235912657],[-76.0224014350647,6.085091845332784],[-76.01741177032142,6.077213333891223],[-76.01295291355848,6.077234573286148],[-76.00718597869911,6.066546112114111],[-76.02955280576379,6.048782250263457],[-76.05258675983612,6.047984630355188],[-76.0711191973499,6.050548717531797],[-76.07813083664928,6.054778377651928],[-76.08318931036769,6.054226223318722],[-76.08375391399761,6.051415227662176],[-76.0809538445144,6.046630565451551],[-76.08328857049736,6.042167347063867],[-76.0835403969894,6.035073803630723],[-76.0947637922531,6.008221897604244],[-76.09333714090485,5.991110847869891],[-76.11186188155483,6.005940309189327],[-76.1170347900723,6.006723798297344],[-76.12319957586317,6.003519925257422],[-76.1342168815305,5.9906247133756665],[-76.14464664621448,5.9897845786821335],[-76.15278748968836,5.992999515706742],[-76.1570295466546,5.9969678269855535],[-76.17121308025196,6.000209474719213],[-76.17576795138001,6.006561540921211],[-76.18256595642873,6.011012436510612],[-76.18329076672046,6.012823020877647],[-76.1801320361364,6.021392819498544],[-76.18044480710364,6.027558408503069],[-76.18246662533653,6.0345270013123695],[-76.18813542004011,6.042575672682403],[-76.19593865154616,6.0726171173170655],[-76.19718482974429,6.0914614526503215],[-76.19460560183688,6.107266439007162],[-76.1984237101143,6.113819882481835],[-76.19553277876304,6.125951602291821],[-76.18653650045627,6.137286228756125],[-76.19664694505099,6.139185830993824],[-76.20175633078787,6.1426954682221435],[-76.20351096068282,6.148172563297123],[-76.20108584694378,6.156760136490107],[-76.20184158250203,6.162057044322069],[-76.21218392442967,6.1665182634174585],[-76.21411402821559,6.172759219775003],[-76.21087330299486,6.176756196832173],[-76.21080185503621,6.184552699238793],[-76.213560771392,6.187206238288809],[-76.224436854418,6.188695236907847],[-76.22742548575167,6.1955259495139785],[-76.23769296734838,6.208030059104033],[-76.24745093692405,6.204141879952488],[-76.26442734604916,6.203370670448123],[-76.39998152076197,6.180273513440795],[-76.45419196828226,6.178353636487202],[-76.4545930320682,6.1861193432110895],[-76.4609405402129,6.205047421533379],[-76.46733462960464,6.21048243479737],[-76.47069956188528,6.210113347346237],[-76.4736738485027,6.21259090136931],[-76.47752748226998,6.212577226169174],[-76.48207492598618,6.215238586524549],[-76.48590518531194,6.212928082419751],[-76.4941292452122,6.217413194291737],[-76.49255812237271,6.212417820664086],[-76.50005818959312,6.212767470551626],[-76.50304872663077,6.2078167231017005],[-76.50067606243175,6.204468566775461],[-76.50155311821169,6.200823219357687],[-76.51032796153135,6.196150016661875],[-76.52677705938072,6.195621610094861],[-76.5397247969072,6.198650533749515],[-76.54563008916705,6.20239321399572],[-76.54991082585644,6.223509023011729],[-76.55998883851635,6.2431724675597025],[-76.56801501373474,6.277944464958807],[-76.57338534104963,6.332230470094089],[-76.56864058755093,6.374488152973356],[-76.56933446640545,6.387960645067437],[-76.56454997285937,6.432580369362995],[-76.56498472842219,6.44068150672814],[-76.57452933628446,6.467940922818229],[-76.58891852753226,6.494981162380952],[-76.5713170372149,6.5405533704876575],[-76.55903363138941,6.564182646739539],[-76.55225059429307,6.571201285618713],[-76.5476880355572,6.583768415080954],[-76.54088136382336,6.5882245331014815]]]}}]}