{"type":"FeatureCollection","features":[{"type":"Feature","properties":{"code":"056857"},"geometry":{"type":"Polygon","coordinates":[[[-75.83127852822827,6.3972612940229965],[-75.83118661632034,6.395111702091583],[-75.83680201531683,6.392744294262229],[-75.84327962349704,6.3836527307561255],[-75.842883635075,6.372624594560591],[-75.85031501261955,6.367449714518841],[-75.85119206839948,6.362486283287353],[-75.8494754291712,6.355725510943103],[-75.84546267374895,6.351733581481824],[-75.85123024829954,6.3440334636796365],[-75.85180311649356,6.336320955201927],[-75.85743361096934,6.331548414214751],[-75.85612093779167,6.328276023248861],[-75.8419835380688,6.31677794950042],[-75.84218168294672,6.313252613097063],[-75.84563847571309,6.308670488242228],[-75.84537130383023,6.301299537866328],[-75.84740011033006,6.2958856632098446],[-75.84587516250281,6.291690617379572],[-75.83505181389535,6.285162129062655],[-75.83962029748858,6.283427687494338],[-75.84800473991436,6.286186261378759],[-75.8524843146518,6.286210552162629],[-75.85645086215169,6.2841241611092755],[-75.86953474284189,6.286704078073171],[-75.87854215918117,6.286735105155515],[-75.89122154725811,6.282764785328482],[-75.90278698810533,6.276459133765798],[-75.91580177082801,6.286391787388595],[-75.91972929510501,6.294266679740872],[-75.93641850959989,6.300768560193035],[-75.94480271239854,6.299294227164296],[-75.94892593283174,6.300774645487365],[-75.95762121172436,6.3007643826595086],[-75.96187995517045,6.297327566360593],[-75.97839496898621,6.293323115611656],[-75.98248965219636,6.285427086708751],[-75.986237235028,6.282844268508541],[-76.00195370436569,6.290253269200775],[-75.99620126746049,6.300745729797541],[-75.9975828956521,6.307681943122589],[-75.99403444088938,6.314532163226488],[-75.98999873063008,6.317224716243402],[-75.99155512000203,6.324814507874464],[-75.98915967271586,6.329515333507857],[-75.98939632453852,6.341601380185637],[-75.98755777167713,6.345176606335542],[-75.97811127928804,6.3472642459180975],[-75.96916245846131,6.346383958771753],[-75.95799971456671,6.353342842055213],[-75.94936278641728,6.351367793274335],[-75.94210756359269,6.345719427552922],[-75.93592722363712,6.349547023212551],[-75.9304496287391,6.349715691899405],[-75.92603932577589,6.354504268362291],[-75.92276592590787,6.365055456112202],[-75.91505230671225,6.369916721863888],[-75.91039832869245,6.3754142644330045],[-75.91003261041902,6.378778842929421],[-75.91190855950725,6.382910204513564],[-75.90898621335083,6.394331048399522],[-75.90459232535869,6.396612834275402],[-75.9038512276228,6.401566579635244],[-75.89846552714914,6.4067390387233445],[-75.89693161850221,6.406172718622884],[-75.89467303634643,6.408284140938633],[-75.89085091200099,6.407501184563785],[-75.88611311077369,6.412345002788129],[-75.88427438616242,6.412176858606983],[-75.88364848324466,6.410268943468395],[-75.87820101142796,6.4093849076490415],[-75.87129635174779,6.410401550846757],[-75.86983887077821,6.409060118302534],[-75.86848823470189,6.410783658380126],[-75.86252216148915,6.408056208251651],[-75.86101055976047,6.410007638850118],[-75.85810396522965,6.407156336474429],[-75.85640298301024,6.407985139788252],[-75.85598325607793,6.4058844616114925],[-75.85318337582817,6.405661925162406],[-75.85236692822275,6.400344130691337],[-75.85028427555795,6.397821358107592],[-75.84788840763883,6.399674569360229],[-75.84522546142512,6.398896334564995],[-75.84366153974014,6.401454418722608],[-75.84144854844124,6.400063630193472],[-75.83795399846468,6.400785210147262],[-75.83574215079386,6.397066458673123],[-75.83127852822827,6.3972612940229965]],[[-75.85314466216647,6.304354371073373],[-75.85431233009115,6.303454243213935],[-75.85642177574039,6.304028761029713],[-75.85787645523254,6.303210641176747],[-75.85438496281557,6.302836235649352],[-75.85399586084463,6.297290661729278],[-75.85167450050062,6.301809456122214],[-75.85314466216647,6.304354371073373]]]}}]}