{"type":"FeatureCollection","features":[{"type":"Feature","properties":{"code":"056868"},"geometry":{"type":"Polygon","coordinates":[[[-75.84365519939206,6.158382090101043],[-75.84740922747295,6.1599695168397375],[-75.86266103413936,6.158624748027989],[-75.86632325315668,6.156930072218131],[-75.87087788362913,6.157532589381503],[-75.87540255351422,6.154906322570184],[-75.88649585696993,6.154033989398272],[-75.89108123067462,6.155547244862532],[-75.89301901178396,6.1524076433093455],[-75.89769565153466,6.149931820155018],[-75.90442515511256,6.152006854117587],[-75.90724147501601,6.144670791597207],[-75.91067416006132,6.140443821882741],[-75.91864770473381,6.1363611951042],[-75.91970867997469,6.123487060123466],[-75.92159985515445,6.122442394952429],[-75.92808538954114,6.123423762571747],[-75.93580678170531,6.115106849738709],[-75.94415305965765,6.119782921789124],[-75.95273668774513,6.1190461239714296],[-75.95677322487217,6.110346991504684],[-75.96631698015557,6.1049727869614685],[-75.96631021608914,6.090209949176824],[-75.9698655213075,6.0890984640385],[-75.9748625918653,6.082453401762052],[-75.97937966053172,6.080828459497127],[-75.98794800390647,6.080670708756088],[-75.99290722983648,6.0764314080158215],[-75.99724913622993,6.078785168412878],[-76.00236078659725,6.086962915489664],[-76.00690005522381,6.0895023539844715],[-76.01031050019964,6.1050542385805215],[-76.01036410262373,6.114440174217236],[-76.00837263990024,6.121109672287957],[-76.01364426655817,6.122879820352068],[-76.01634517567061,6.12853138350124],[-76.02511999636448,6.130603357847349],[-76.02772039578957,6.140359354870213],[-76.03104791538823,6.145005173227105],[-76.03277947011838,6.156247878527495],[-76.03218488018996,6.1623280420110405],[-76.02966250355661,6.167310458291411],[-76.01587045483149,6.164082127859899],[-76.0068561335292,6.1560725650735435],[-75.99195194866167,6.152591084544497],[-75.98543838098874,6.146460048123345],[-75.9765786736778,6.143948241822159],[-75.9697584049054,6.1498628486859275],[-75.95984166848751,6.152621305327898],[-75.94647622800358,6.164657651492519],[-75.93815219629141,6.167444271004399],[-75.91949633539099,6.179492026710307],[-75.917074387198,6.184804142121777],[-75.90996504791622,6.1900341960478045],[-75.90866068558256,6.198960520722892],[-75.90399834015443,6.2063729337874065],[-75.88224375829094,6.210532395506505],[-75.8746909021445,6.205871296550697],[-75.86584076243435,6.205984279188897],[-75.8582607338081,6.210534371144547],[-75.85021884604492,6.212720496439545],[-75.84436480724645,6.219635539275373],[-75.84458661555823,6.208475902305622],[-75.84846988389671,6.200270461328728],[-75.849987576062,6.190997194655267],[-75.84666179658808,6.184815873565583],[-75.84627183175382,6.179149895766045],[-75.84247199890001,6.17487843048599],[-75.84164048049786,6.167300486512772],[-75.84365519939206,6.158382090101043]],[[-75.98173354537039,6.108598360514918],[-75.98139847982623,6.117303093879627],[-75.9832656840677,6.115800341898819],[-75.98650071583069,6.109029644055795],[-75.9903892312829,6.107919784885098],[-75.98987084277445,6.1068371455025385],[-75.98492328349636,6.107996873850993],[-75.98378179046222,6.100772905394479],[-75.98403564195752,6.105862472015588],[-75.98173354537039,6.108598360514918]]]}}]}