{"type":"FeatureCollection","features":[{"type":"Feature","properties":{"code":"056817"},"geometry":{"type":"Polygon","coordinates":[[[-76.67173774577964,7.023031424463056],[-76.65748365999707,7.018008348707724],[-76.65153430308902,7.010178604981945],[-76.64547310408551,7.008010916575984],[-76.64044797761579,7.012710959564686],[-76.63023757252199,7.015806316492274],[-76.62222241912207,7.0136704326711765],[-76.61556796613701,7.016224631373007],[-76.61104972401768,7.013589764725339],[-76.60610989451357,7.0076935453853935],[-76.60316252429374,7.0004835092397],[-76.59834541883544,7.006350863283501],[-76.59678052424385,7.011061330565553],[-76.59286558398952,7.011732701955509],[-76.59058212483768,7.00816983151401],[-76.58894033771276,6.998854500513062],[-76.5849521476685,6.991593263356606],[-76.58404196061281,6.982829542642833],[-76.5731270878203,6.981513139304184],[-76.57155524815641,6.979006591429595],[-76.56344298612856,6.988986875310786],[-76.55830759622262,6.990533856490515],[-76.54812764948247,7.001077134489037],[-76.54319827101125,6.987613708115759],[-76.54568608683377,6.968400075529075],[-76.54381666012796,6.962061762688904],[-76.53616393295704,6.955778930208851],[-76.5309299092429,6.961861575324178],[-76.52308680193505,6.964599950597574],[-76.52121734848976,6.950040237409439],[-76.5145575270347,6.932021836035403],[-76.51290234033223,6.922907811344658],[-76.51781501998227,6.920551414020963],[-76.5294888782114,6.901563433035733],[-76.54075037624193,6.889328839149016],[-76.55001274142472,6.883494719225212],[-76.55519303313099,6.8840033694114595],[-76.55851232416109,6.886075412663217],[-76.56030480588294,6.885131311686962],[-76.56051056740608,6.8768592050091115],[-76.5635327187668,6.8703103288476655],[-76.56131228154402,6.862380315061671],[-76.57051407351935,6.854225263654371],[-76.57257400274659,6.846178856914776],[-76.57259732782296,6.828431513907844],[-76.57063569610312,6.823827037911826],[-76.57308540093129,6.822412234221417],[-76.57336764258235,6.8164119632380675],[-76.5772205019324,6.814040245206172],[-76.57716753611425,6.807322951297806],[-76.57928862578973,6.806498964180264],[-76.57999785826257,6.804085429675524],[-76.5782044715113,6.7953557020723],[-76.58044805280451,6.793029677741515],[-76.57648903864606,6.790059812398454],[-76.57613724445588,6.786850579116106],[-76.58053177111088,6.77657085391121],[-76.58383611167204,6.7739486473909665],[-76.5855298320588,6.766237448120592],[-76.59490495465087,6.759490167913725],[-76.60969360120055,6.766531435613672],[-76.61067210769278,6.783848499868043],[-76.61706109189583,6.794044011057281],[-76.63651228236301,6.801644008951882],[-76.6422021632236,6.80852552147627],[-76.65586328298849,6.809044172237577],[-76.66195310354732,6.804216323668641],[-76.67481067546129,6.807199987624983],[-76.68238768766554,6.802825892009082],[-76.6894165358936,6.805283935449154],[-76.69236639494432,6.808685793958375],[-76.70008175529313,6.812291545310757],[-76.71255450150011,6.811468049788687],[-76.72023877511691,6.815930676821949],[-76.72752529241893,6.830879605109658],[-76.729389757918,6.839232380761814],[-76.72222878362271,6.851665156550325],[-76.72140724728365,6.856095001978247],[-76.72620616884984,6.862534086758615],[-76.72621167821643,6.867007091805306],[-76.73320362181312,6.872832900885101],[-76.74055107844816,6.867625481950483],[-76.75414436728676,6.867619045957213],[-76.75824567983739,6.869286399134694],[-76.7608162225477,6.872956903284944],[-76.76108897990184,6.87737723047735],[-76.76553010528733,6.877947985221965],[-76.77190178285969,6.8842476975290765],[-76.77580687680529,6.892329971201548],[-76.78003927978159,6.892995011499352],[-76.78804388958883,6.8904157157147665],[-76.79143136738634,6.893162732990675],[-76.79240325585096,6.8995624315078885],[-76.79611915648235,6.905405537962395],[-76.79840810237505,6.92583853416545],[-76.79687947580891,6.934640355589238],[-76.79947503229818,6.940571153223573],[-76.80019159036709,6.948473768272379],[-76.80578900498926,6.9486527141853],[-76.80843887969854,6.950556856996798],[-76.8106838915553,6.96110491725301],[-76.81307386752724,6.963370677937576],[-76.81887647700074,6.962674309223701],[-76.8247497415037,6.955466444120191],[-76.82752264262086,6.954716455498726],[-76.82877368226679,6.9559262803107345],[-76.81876469455494,6.974366071608586],[-76.82178588946408,6.975956324507365],[-76.83046211748746,6.972561630128666],[-76.8286167141705,6.979018008169987],[-76.83196586088684,6.989061365402392],[-76.80611878536729,6.995115586423424],[-76.70866744952161,7.0251280084101495],[-76.69615491493045,7.022935288741735],[-76.68200570045991,7.02304788879934],[-76.67596636203064,7.027406114518726],[-76.67173774577964,7.023031424463056]],[[-76.82330572284667,6.977806382555173],[-76.82292059889136,6.975807855460005],[-76.82092490309844,6.976177467416846],[-76.81773378480261,6.976058195852602],[-76.81618686841472,6.9740894061728795],[-76.81634598184212,6.975939810805812],[-76.81967646438369,6.978498368047042],[-76.82330572284667,6.977806382555173]]]}}]}