{"type":"FeatureCollection","features":[{"type":"Feature","properties":{"code":"056867"},"geometry":{"type":"Polygon","coordinates":[[[-75.85565603549333,6.246595417368155],[-75.85902020158426,6.238331074402879],[-75.85791490149921,6.226516947927053],[-75.85522954449459,6.2230910968822855],[-75.8472717175091,6.223575447028679],[-75.84436480724645,6.219635539275373],[-75.85021884604492,6.212720496439545],[-75.87025724942237,6.20523914275924],[-75.8746909021445,6.205871296550697],[-75.88224375829094,6.210532395506505],[-75.90399834015443,6.2063729337874065],[-75.90866068558256,6.198960520722892],[-75.90996504791622,6.1900341960478045],[-75.917074387198,6.184804142121777],[-75.91949633539099,6.179492026710307],[-75.93815219629141,6.167444271004399],[-75.94647622800358,6.164657651492519],[-75.95984166848751,6.152621305327898],[-75.9697584049054,6.1498628486859275],[-75.9765786736778,6.143948241822159],[-75.98543838098874,6.146460048123345],[-75.99195194866167,6.152591084544497],[-76.0068561335292,6.1560725650735435],[-76.01587045483149,6.164082127859899],[-76.02966250355661,6.167310458291411],[-76.03015401269136,6.18552254830189],[-76.03994304740172,6.197817506622243],[-76.03685396191662,6.2135781187697035],[-76.0378451614464,6.222906048191476],[-76.04213292959724,6.226492546071427],[-76.04719948276005,6.22803498564906],[-76.04764227560116,6.2401035909700795],[-76.04484860097358,6.244507932051988],[-76.04976217639705,6.252175504790728],[-76.04725211330594,6.261077262030938],[-76.0291548869551,6.264840827887781],[-76.0262482667132,6.266287228417696],[-76.02060974112982,6.2749191511373965],[-76.0159708935563,6.274504017229333],[-76.00679154733899,6.281359873198198],[-76.0024045355135,6.282040222891396],[-75.99150983253571,6.257096060253616],[-75.9801800922018,6.248373861878065],[-75.97841675962627,6.243174994442995],[-75.97877595448881,6.236661695193618],[-75.9658442699216,6.239744575056591],[-75.95915984812149,6.230666825590333],[-75.95126336053318,6.229247498809741],[-75.94437362355399,6.225503320122812],[-75.94085693943754,6.22292021395873],[-75.93923178119968,6.218783880883393],[-75.93304376392075,6.216509132639715],[-75.92992335927562,6.217646012080706],[-75.92418575251156,6.215997089621567],[-75.92063085249953,6.218561411283076],[-75.91271123832428,6.219606256431518],[-75.91244356661838,6.2272824197506225],[-75.90553193615483,6.232543482247024],[-75.90263190720106,6.237597594340684],[-75.88950895186576,6.238804387304128],[-75.88322237174117,6.242679880617175],[-75.87655375196039,6.244188018551483],[-75.86993203224381,6.251322840581963],[-75.86337045687412,6.251421828174443],[-75.85565603549333,6.246595417368155]]]}}]}