{"type":"FeatureCollection","features":[{"type":"Feature","properties":{"code":"057040"},"geometry":{"type":"Polygon","coordinates":[[[-75.9541537272695,6.684446836942698],[-75.95276304055619,6.68326173794577],[-75.9527669198414,6.6820920933545835],[-75.95045721689331,6.682294706815185],[-75.95258142172116,6.680642954082259],[-75.95126463683039,6.67921142688806],[-75.94839303917001,6.679446657403162],[-75.94938408854716,6.677099509891434],[-75.9526634482396,6.6778980430566435],[-75.95402159400317,6.682089359754343],[-75.9528152895499,6.683179360728445],[-75.9541537272695,6.684446836942698]]]}}]}