{"type":"FeatureCollection","features":[{"type":"Feature","properties":{"code":"057027"},"geometry":{"type":"Polygon","coordinates":[[[-75.76219544331468,7.054496803300765],[-75.75669453979538,7.049431266239139],[-75.75551886955941,7.044822059407522],[-75.75774015216194,7.03730706742931],[-75.75632776942524,7.035990010001228],[-75.7584950608524,7.031134878909143],[-75.75847965375499,7.0245864778881355],[-75.75421455556261,7.022177700958537],[-75.75346671227226,7.014278007714836],[-75.74802719443,7.008486057019638],[-75.74866773619863,7.005954417204521],[-75.7470424144384,7.004793827021217],[-75.744868247873,6.9950030007639725],[-75.7418095281817,6.989259587413471],[-75.74201528867644,6.973778098679361],[-75.73878065594914,6.969493010649671],[-75.73697160498989,6.960226422681956],[-75.73906233915596,6.957930564627077],[-75.73874976564969,6.946135920966356],[-75.73536265500616,6.943042554075021],[-75.7384220195309,6.940487263167313],[-75.73676610880489,6.937832742983119],[-75.7393063751959,6.932087115395859],[-75.73762816475073,6.931315102677843],[-75.73824628750083,6.928276028295556],[-75.7351721864232,6.925693198782483],[-75.73666675303002,6.922618185476324],[-75.7347833497904,6.920850070643041],[-75.73968804255588,6.918671733743224],[-75.73752163147554,6.917818131594913],[-75.73918458086217,6.916368508954633],[-75.73679724181682,6.910867736047521],[-75.73875024901764,6.904788200942335],[-75.73625577197294,6.901202470280509],[-75.74104681155563,6.8967377709356015],[-75.74132198883507,6.890959718612578],[-75.75117188060301,6.876662189361127],[-75.75485645076157,6.878405848859757],[-75.76807914136697,6.875379975565579],[-75.77163444658532,6.876465491501904],[-75.78824395472816,6.874513904580169],[-75.79094443600849,6.8756308620611435],[-75.79363841856053,6.874545398575435],[-75.79583588449117,6.870561174205534],[-75.80116095827839,6.8686238744072625],[-75.81172815579299,6.86699084858418],[-75.82087273551099,6.863533172385644],[-75.8297468410172,6.862941324284975],[-75.84446900904243,6.873322938318665],[-75.83614292147365,6.878373381957886],[-75.83085513078464,6.890671358757004],[-75.83131308081158,6.898439322912168],[-75.83367870532157,6.902735138625758],[-75.83083981933243,6.906851214468759],[-75.83033668365493,6.915857422388058],[-75.82713965284307,6.9279358668187],[-75.83189317792801,6.937576298784222],[-75.82752849873185,6.942535817820328],[-75.82504898758265,6.9508689039404885],[-75.8265827255081,6.959299639649316],[-75.82306532353874,6.978054466544904],[-75.81205517788823,6.9869838323244835],[-75.81084230271574,6.990096043368112],[-75.81146007990918,6.997532149691381],[-75.8060432227694,7.007712571571972],[-75.8060425676515,7.00920081325728],[-75.81219243896896,7.014033626118248],[-75.81126960309876,7.016085533493879],[-75.80445580425823,7.017481811849166],[-75.79764268727513,7.021923410318209],[-75.79365229122169,7.0301627230495],[-75.78904361815171,7.030008779602667],[-75.78790665540686,7.032553828251366],[-75.79059226952211,7.035252929361832],[-75.7883731775022,7.042170408577988],[-75.77717258075228,7.04316648498218],[-75.77515801920975,7.046024302541241],[-75.77481415019764,7.053697217010381],[-75.76934324223288,7.055600627570755],[-75.76575107352085,7.06192078737206],[-75.76219544331468,7.054496803300765]]]}}]}