{"type":"FeatureCollection","features":[{"type":"Feature","properties":{"code":"057018"},"geometry":{"type":"Polygon","coordinates":[[[-75.84840234710492,7.019373495079492],[-75.84076522449232,7.01645482766196],[-75.8395597335371,7.012959829284455],[-75.82652061786439,7.00551667298771],[-75.82375948624343,7.001829923559455],[-75.8184341707722,7.00034096607817],[-75.81607543888396,7.000137995747991],[-75.81273460609691,7.003428688876966],[-75.80981257053008,7.008670872254015],[-75.81009460649267,7.011861699500628],[-75.8060425676515,7.00920081325728],[-75.81146007990918,6.997532149691381],[-75.81084230271574,6.990096043368112],[-75.81205517788823,6.9869838323244835],[-75.82306532353874,6.978054466544904],[-75.8265827255081,6.959299639649316],[-75.82504898758265,6.9508689039404885],[-75.82752849873185,6.942535817820328],[-75.83189317792801,6.937576298784222],[-75.82713965284307,6.9279358668187],[-75.83033668365493,6.915857422388058],[-75.83083981933243,6.906851214468759],[-75.83367870532157,6.902735138625758],[-75.83131308081158,6.898439322912168],[-75.83085513078464,6.890671358757004],[-75.83614292147365,6.878373381957886],[-75.84199454960287,6.875705851975852],[-75.84549719959273,6.8714557536175676],[-75.86419719199006,6.883344326990368],[-75.87014110432341,6.889308021415559],[-75.87265887147743,6.89394536129231],[-75.87092588515526,6.901768867514193],[-75.87548949393096,6.909467063157365],[-75.87719805988553,6.917099265700983],[-75.88970339229371,6.91777600453247],[-75.89721018861349,6.9221952096941095],[-75.90127689304495,6.927134678214884],[-75.90767065539194,6.943638196100153],[-75.90854031769862,6.9504885642997465],[-75.90340547903787,6.97152893397174],[-75.90754033835509,6.973794832467547],[-75.9144989974381,6.973436894361782],[-75.91771853571453,6.964421226828222],[-75.92093017246708,6.960858079735658],[-75.9314596467101,6.964454848671039],[-75.93767070315829,6.962212017112449],[-75.94404883420748,6.968057484870997],[-75.94800068012154,6.969383512374748],[-75.95383785040588,6.966953116554862],[-75.96209984132315,6.973552123118452],[-75.96734890909443,6.981648056564438],[-75.97523806388762,6.987305770828357],[-75.97806226783138,6.987306752990946],[-75.9826543366969,7.001799635927284],[-75.97877056956378,7.004065404839366],[-75.9643967072517,7.005073430717232],[-75.95881977200543,7.001126316667182],[-75.95640786038297,7.004158231032704],[-75.94839022329438,7.00535042628303],[-75.94140936836493,7.009499021478462],[-75.93785345122325,7.008029193027994],[-75.93144437845245,7.01372946424334],[-75.91719978827962,7.018638412703922],[-75.91323162303968,7.018763024970156],[-75.91072160211468,7.016094330791191],[-75.90796039438897,7.017544093299648],[-75.88967174403206,7.014956515467475],[-75.88575760390603,7.016094702058922],[-75.8762668226683,7.0112428444994634],[-75.8709034219138,7.011653956168743],[-75.86733968860898,7.015937813152732],[-75.85548322321159,7.0196530915764015],[-75.84840234710492,7.019373495079492]]]}}]}