{"type":"FeatureCollection","features":[{"type":"Feature","properties":{"code":"057067"},"geometry":{"type":"Polygon","coordinates":[[[-75.95272343523482,6.938211274621892],[-75.95764474865985,6.930278442903386],[-75.96099447336093,6.919245384581984],[-75.96750985623487,6.919060647509241],[-75.96863168956179,6.916640360250938],[-75.96612951976704,6.880209377082679],[-75.96805225681925,6.866908121696383],[-75.96226904274323,6.857956759588205],[-75.95587562698131,6.841691117372136],[-75.9574696871743,6.836938290599676],[-75.96506930248825,6.828498343131173],[-75.97813164862055,6.821657394436613],[-75.98449455357826,6.812868418259882],[-75.98750881267102,6.805873121940579],[-75.98312204150113,6.796415514144769],[-75.98577645678415,6.793512649774925],[-75.99213197752454,6.791275797581136],[-76.00004467336697,6.792389722185135],[-76.01241858624792,6.796140897366513],[-76.02063698662897,6.803321645526125],[-76.02546618142918,6.8031717376877054],[-76.02754196512632,6.800589415196782],[-76.0301437848305,6.8056659298538875],[-76.03349939530813,6.808312040463591],[-76.03894007014821,6.809855115618632],[-76.04444062605393,6.809854512951347],[-76.04678314968811,6.808355336865191],[-76.05536633863056,6.813972277496987],[-76.06639193457306,6.813701738493307],[-76.06948912624216,6.815167231030102],[-76.07154944319228,6.813423225974816],[-76.07335774544538,6.816493051816906],[-76.07778292071583,6.816069447656332],[-76.08099484234697,6.812944493181476],[-76.09295080441586,6.813334140226971],[-76.0940568943447,6.81705568392249],[-76.10305929291292,6.829337201527551],[-76.11037677764762,6.835731663215483],[-76.11485510796967,6.835398238037158],[-76.12107267034526,6.840077057057556],[-76.12410262861312,6.846531728912737],[-76.12210323762622,6.847208089277387],[-76.12127198044851,6.851809524168914],[-76.11869293149016,6.853956170640913],[-76.10918558101497,6.85443655716989],[-76.10202192659847,6.852896306117941],[-76.09384315416452,6.861127312118981],[-76.09372073042397,6.868401765790281],[-76.0981301900643,6.872573133788421],[-76.10258578049377,6.888484466243881],[-76.09679454662302,6.900073450197226],[-76.0954752564462,6.898767679925811],[-76.0926900417868,6.8998005138940925],[-76.09147720980889,6.898432799501279],[-76.08718173656666,6.899730298009558],[-76.0843744741565,6.898861014169711],[-76.08129994318989,6.90141773666943],[-76.07863664319194,6.900926164799671],[-76.07746560917491,6.903888059713154],[-76.07152739441312,6.9070941305348015],[-76.06562878805806,6.906536867927571],[-76.06192713238391,6.904032533261329],[-76.06079905024023,6.907479254490113],[-76.05852111485314,6.906594013336132],[-76.05521931454501,6.908008608252715],[-76.0433973749914,6.919297765216356],[-76.03518273151082,6.919728433748617],[-76.03123990812293,6.922007103443661],[-76.03208977085427,6.92482973901258],[-76.02992051510188,6.923881303151177],[-76.02834469536549,6.926644340476116],[-76.02196075567298,6.928142240265174],[-76.02001021364885,6.930547286005321],[-76.01716988784011,6.930300217088416],[-76.0125095262776,6.935759484112339],[-76.01034100174786,6.933995015107826],[-76.00524823769899,6.93459262968571],[-75.99937741883235,6.931214970428925],[-75.99867994042904,6.933559476900257],[-75.9939526180026,6.935078823829542],[-75.99317794367533,6.938527259471982],[-75.9870189295039,6.9385209952286],[-75.98395258493974,6.942124577595678],[-75.97528456697296,6.969424440273201],[-75.96603753792505,6.980433500916888],[-75.96209984132315,6.973552123118452],[-75.95383785040588,6.966953116554862],[-75.95705728378118,6.95812464304322],[-75.95763768325969,6.950418837953862],[-75.9551806106694,6.94071912450471],[-75.95272343523482,6.938211274621892]]]}}]}