{"type":"FeatureCollection","features":[{"type":"Feature","properties":{"code":"057058"},"geometry":{"type":"Polygon","coordinates":[[[-75.81837528523891,6.513289806688874],[-75.82130648114327,6.510511203886381],[-75.82002367393636,6.494811606148232],[-75.82359527276958,6.487905696910445],[-75.82210746200167,6.478278473232194],[-75.82606740690056,6.469131456105458],[-75.82277856702501,6.4568204252854],[-75.82494586667974,6.443340843108615],[-75.8183615946121,6.436596260506462],[-75.81770487030047,6.432172730744071],[-75.81987989047315,6.408165586198834],[-75.8213829869822,6.406050433722044],[-75.82955357404217,6.40376623409162],[-75.83127852822827,6.3972612940229965],[-75.83574215079386,6.397066458673123],[-75.83795399846468,6.400785210147262],[-75.84144854844124,6.400063630193472],[-75.84366153974014,6.401454418722608],[-75.84522546142512,6.398896334564995],[-75.84788840763883,6.399674569360229],[-75.85028427555795,6.397821358107592],[-75.85236692822275,6.400344130691337],[-75.85318337582817,6.405661925162406],[-75.85598325607793,6.4058844616114925],[-75.85640298301024,6.407985139788252],[-75.85810396522965,6.407156336474429],[-75.86071364634847,6.409932365085297],[-75.86252216148915,6.408056208251651],[-75.86848823470189,6.410783658380126],[-75.86983887077821,6.409060118302534],[-75.87129635174779,6.410401550846757],[-75.87820101142796,6.4093849076490415],[-75.88364848324466,6.410268943468395],[-75.88427438616242,6.412176858606983],[-75.88611311077369,6.412345002788129],[-75.89085091200099,6.407501184563785],[-75.89467303634643,6.408284140938633],[-75.90122727994941,6.404896571609754],[-75.9039204006666,6.401451464007266],[-75.90351594199194,6.399001629595375],[-75.9050185664459,6.398920314759209],[-75.90459232535869,6.396612834275402],[-75.91021575443432,6.396101315763019],[-75.91104614257813,6.39407692950914],[-75.91282446778871,6.397939128145765],[-75.92036259458138,6.397478197692408],[-75.92431533626888,6.394436961523866],[-75.92751929569806,6.394320983032628],[-75.9306542528048,6.3972719270901734],[-75.93375227339857,6.395029938854464],[-75.93587330239586,6.395748901421996],[-75.9366357927646,6.405909087667624],[-75.93886404615051,6.409222994801098],[-75.94205333998929,6.410682268346022],[-75.94287770454525,6.413364713829878],[-75.94153467791517,6.431564292837095],[-75.94312200078116,6.437637617177927],[-75.93971139228296,6.447186146491504],[-75.94168600500427,6.450327102503536],[-75.93304045130742,6.453620646475144],[-75.931050320417,6.462859472665514],[-75.92084303561779,6.47800620130289],[-75.91975197843317,6.487935630758386],[-75.91514083504427,6.495668319335152],[-75.90459396778135,6.504131851047532],[-75.89974248971714,6.511730366956442],[-75.89154365751187,6.513987447586146],[-75.88237978009846,6.523638154720857],[-75.87930288885627,6.532177110350574],[-75.8764177599777,6.53547265052913],[-75.86891742947603,6.539698595914899],[-75.86258424445026,6.54565345601884],[-75.8620126103873,6.550107079037787],[-75.85783243480745,6.555785213027889],[-75.8407640582385,6.559772753096468],[-75.83287079481744,6.555534232944069],[-75.82126719258213,6.536589848665699],[-75.81837528523891,6.513289806688874]]]}}]}