{"type":"FeatureCollection","features":[{"type":"Feature","properties":{"code":"057427"},"geometry":{"type":"Polygon","coordinates":[[[-76.49211460447964,7.549243216987634],[-76.49341780673012,7.540983105034854],[-76.4919995742124,7.538786560588676],[-76.48993121792711,7.537105223678282],[-76.48100429161309,7.5372220547483835],[-76.47714404804572,7.524435746701897],[-76.4740394721594,7.5197841546686846],[-76.46462445525356,7.5176174515106595],[-76.46219839431899,7.514101573693154],[-76.46308276541055,7.510061624193838],[-76.45322654974956,7.504111570001726],[-76.45282934673685,7.489392951131663],[-76.45554467255647,7.485564512149153],[-76.45382823181757,7.482240059366063],[-76.44564906240481,7.479738560115834],[-76.44087386803596,7.46948596111082],[-76.43796607434115,7.467736431262324],[-76.4393177368031,7.465216406676973],[-76.438355652481,7.460203931078638],[-76.42821636727268,7.448729484768592],[-76.42708763206798,7.4212470817715825],[-76.42176170467349,7.413245526438686],[-76.4209303076276,7.409745469152369],[-76.42227319747485,7.404585211506344],[-76.4174589264041,7.391086387169992],[-76.40344362132015,7.391231876819347],[-76.39633980066094,7.386298758931105],[-76.39210539427859,7.380594937532237],[-76.38923679658507,7.371675490052269],[-76.38901560431037,7.364667898702635],[-76.38540672854964,7.35868809886756],[-76.37142910251424,7.347201512822039],[-76.357627824546,7.345410685864181],[-76.35185134059782,7.3417473982951265],[-76.32071498211917,7.297652504671987],[-76.31769380366512,7.295717049899622],[-76.3118192649219,7.295705951976402],[-76.29895516651169,7.299636109066228],[-76.2941871928378,7.299214167897162],[-76.29043299197849,7.296450003399173],[-76.28447418162682,7.287755249012264],[-76.27527396831078,7.265751414848353],[-76.27186234165453,7.252604755969912],[-76.27229003901635,7.245092141750831],[-76.27701293194087,7.230374315809911],[-76.27438076392639,7.221937446469838],[-76.27429721942684,7.214793437362346],[-76.2828270363164,7.197853459784994],[-76.27686778681976,7.195912678708794],[-76.2621886580855,7.196874444213677],[-76.25810665248622,7.198865270331282],[-76.25115613558262,7.206296018469004],[-76.24281674305297,7.206394951553989],[-76.23260846580672,7.195210080718596],[-76.22969418469654,7.188106112992102],[-76.22307157023494,7.179891030366548],[-76.21339744649248,7.177001092490741],[-76.20898001642263,7.173890431310042],[-76.20637062121085,7.164994499168245],[-76.20262425399824,7.16076056689792],[-76.20212043029278,7.157956809419886],[-76.20992563435158,7.1633704269657414],[-76.22098122379168,7.164976852123061],[-76.22463586832981,7.166936604878401],[-76.22973228746338,7.166395688336593],[-76.23990277150392,7.171308032714364],[-76.2639974766168,7.160484874368819],[-76.27150558420078,7.1629110813422585],[-76.27285575644947,7.167922403028058],[-76.27875325825727,7.167427548369801],[-76.28103405477145,7.16963537997259],[-76.29769703781147,7.167392410602702],[-76.30845577965988,7.168927337407695],[-76.31594719665026,7.166021713726593],[-76.32175390035337,7.166376060511084],[-76.32694987066589,7.168591878998484],[-76.33122185530942,7.17813204090379],[-76.33714265751092,7.179406369630499],[-76.3390048542658,7.18177601020858],[-76.35217312380689,7.187747615413571],[-76.36097718723533,7.189991438390791],[-76.37895295349631,7.187423231273442],[-76.38657536732404,7.189134664525739],[-76.4071451319839,7.199353100727137],[-76.41740696743119,7.20631693801829],[-76.42226884613456,7.213893925539992],[-76.43333791948453,7.239115360394578],[-76.4317623661147,7.240863047274104],[-76.43431956066956,7.244679869998322],[-76.43232346789785,7.246550503067169],[-76.43699010707354,7.250455845895885],[-76.43806865428331,7.249434343307314],[-76.439541967097,7.252598657305782],[-76.44257145433818,7.272960930602096],[-76.45681500681252,7.293338730295147],[-76.47475242245196,7.2991649774915],[-76.48736796687422,7.316587954870215],[-76.48967106722131,7.353223359500987],[-76.51991346335348,7.379739932588279],[-76.55745659294854,7.484085534674023],[-76.57670607189925,7.498329207476161],[-76.56889146684739,7.508409702796314],[-76.56906634732701,7.51279066943664],[-76.56360429630922,7.51853260902908],[-76.55920145366804,7.53044555648961],[-76.55228117297446,7.533545445763366],[-76.55106054231697,7.531526505112652],[-76.54851284234343,7.532887602506264],[-76.54575036654808,7.531189961696612],[-76.53821957152212,7.533330437513541],[-76.53609188233105,7.536637071501502],[-76.53161230245132,7.538691864686882],[-76.53110854559463,7.542954414398764],[-76.52747738245608,7.547494456414086],[-76.51600186759424,7.5484143776782275],[-76.50461862665207,7.552362157130631],[-76.50241342374835,7.555649085131506],[-76.49211460447964,7.549243216987634]]]}}]}