{"type":"FeatureCollection","features":[{"type":"Feature","properties":{"code":"057420"},"geometry":{"type":"Polygon","coordinates":[[[-76.43333791948453,7.239115360394578],[-76.43859850581208,7.238377311990746],[-76.44097418231922,7.242386135677293],[-76.43946574613665,7.243778639648497],[-76.44202644150982,7.246652954454021],[-76.43699010707354,7.250455845895885],[-76.43232346789785,7.246550503067169],[-76.43431956066956,7.244679869998322],[-76.4317623661147,7.240863047274104],[-76.43333791948453,7.239115360394578]]]}}]}