{"type":"FeatureCollection","features":[{"type":"Feature","properties":{"code":"057827"},"geometry":{"type":"Polygon","coordinates":[[[-76.4118927373537,8.877281506842905],[-76.39052188796279,8.819739230549771],[-76.38219789327451,8.791461301553454],[-76.39591654925613,8.777019109520381],[-76.39896778085745,8.780089038206711],[-76.40118069605165,8.779597717276943],[-76.40751436650226,8.768162874231393],[-76.41754648800014,8.760346018947303],[-76.41042831131182,8.746002648927458],[-76.40669742730131,8.744215319702619],[-76.40162379948237,8.746284874123432],[-76.39397895738023,8.744391511446452],[-76.3934753054246,8.737917952244402],[-76.38872245294107,8.730144465352907],[-76.37160826645703,8.717797348541808],[-76.37600404164118,8.7088219712723],[-76.37609598851611,8.699051567826643],[-76.36761914670069,8.690344578059069],[-76.36225518544501,8.675320349266997],[-76.34635574589885,8.649744838108234],[-76.34497420203951,8.645307850147049],[-76.34690450431486,8.637980464596183],[-76.34033563008865,8.637053656880937],[-76.33436916915304,8.644500845700804],[-76.33088227901635,8.646410797155568],[-76.3300584297101,8.649101280946184],[-76.32686150174248,8.65073279804409],[-76.3268007033061,8.648805312672835],[-76.32322279703493,8.646284090980373],[-76.3197587660901,8.645932813068384],[-76.31398995843688,8.653795377480208],[-76.30154635520557,8.65333929819019],[-76.30085946358952,8.650490441450813],[-76.29154445963331,8.650748824263871],[-76.28167873190745,8.6483323185887],[-76.28103821482148,8.642981489515478],[-76.26641177731119,8.638595045390275],[-76.26911245502401,8.626716261761828],[-76.26833441871821,8.62275982385188],[-76.26369567604587,8.617911663543225],[-76.24961211014664,8.611022893300003],[-76.24276000285079,8.602431502528418],[-76.24107423643841,8.597725574791639],[-76.24068550367832,8.593300607266599],[-76.26128491730748,8.586263916135863],[-76.26886819478364,8.57944623081113],[-76.27967198344277,8.583078387425132],[-76.28679101373842,8.577119354929891],[-76.28836321438564,8.572900493456245],[-76.30704830876465,8.564566518761751],[-76.31645569051324,8.548818969891158],[-76.32073963388632,8.545225708973192],[-76.32074433798243,8.54743735918305],[-76.32454162029882,8.547060566640596],[-76.32344717850987,8.54877281133406],[-76.32542652618054,8.547972037192551],[-76.32522905390408,8.550233033102927],[-76.3271852060821,8.549676295001404],[-76.32909413937881,8.551194375917987],[-76.32830803082766,8.555477136582226],[-76.32952698923765,8.556262686689081],[-76.32774288418011,8.557071775788302],[-76.32799650941809,8.559733705900783],[-76.32551634623633,8.559998955624565],[-76.32719085840222,8.561810420338475],[-76.32475894562964,8.56235943689353],[-76.32610495577154,8.564356732942997],[-76.32461812716622,8.565243216455542],[-76.32699929555645,8.56626046334901],[-76.32545755429129,8.566779572795667],[-76.32632676099797,8.572790114834447],[-76.33169411714243,8.574382737264784],[-76.33671183162693,8.57304645618916],[-76.3394971840977,8.574117529707166],[-76.34024453579252,8.57164511995353],[-76.34119790920647,8.573596420968215],[-76.34787470510531,8.57330740599474],[-76.34804154727823,8.57689248153872],[-76.35049929041304,8.576540034287518],[-76.34954510864327,8.579135245220073],[-76.35128426253522,8.582273503627334],[-76.35187920727634,8.589429453980983],[-76.35920380780482,8.590169923338465],[-76.36140879576408,8.589011140128719],[-76.36214179348667,8.591098728289069],[-76.36634487865206,8.591924767149465],[-76.36754292471187,8.59551287557042],[-76.37078570167546,8.595596842759846],[-76.37173977957252,8.59423342005772],[-76.37225851980833,8.595548702394012],[-76.3724571727368,8.593747647575299],[-76.37452408200346,8.592951310134879],[-76.37608041995327,8.593784818573283],[-76.37575219972251,8.596271635778123],[-76.3780879171241,8.596887301579102],[-76.37648488685545,8.599189838339669],[-76.37782076272475,8.601371163893418],[-76.37642384776353,8.6014951899474],[-76.37878223512354,8.602765245495505],[-76.378125106634,8.60504011303857],[-76.38194081246968,8.606083414494776],[-76.38074204958542,8.60650955376616],[-76.38254308692058,8.60831199595384],[-76.38168124797613,8.61139342879818],[-76.38306177470582,8.612787129876494],[-76.38149043486499,8.612652049093924],[-76.38229408041798,8.615298020863861],[-76.38401033089502,8.615062687504519],[-76.383716413336,8.61805020812028],[-76.38642633674709,8.61965426477451],[-76.38609790157187,8.621031293771182],[-76.38899747389718,8.61890171635963],[-76.38959354683976,8.621456879740492],[-76.39042453867927,8.619712322411544],[-76.39306468740767,8.619730623546161],[-76.39796263153335,8.629703756666515],[-76.3973141882409,8.630971744016676],[-76.39964805341748,8.632120719998568],[-76.39890875751286,8.634028205248228],[-76.40408132047367,8.636649111817121],[-76.40685906452666,8.635999668878526],[-76.40610344004017,8.639430553120974],[-76.40874321647243,8.638457620787165],[-76.40886509822377,8.642100263401119],[-76.41187868265826,8.642318002165837],[-76.41068833963288,8.644362609656525],[-76.41577768411037,8.651179416691377],[-76.41715858107938,8.650565887993992],[-76.41798965108057,8.652645661019676],[-76.419615559053,8.651559016881947],[-76.42111053909366,8.65455984965763],[-76.42344536072181,8.653976204414505],[-76.422965258043,8.652505073955808],[-76.42529207427458,8.652600604952909],[-76.42566545444475,8.65472364147007],[-76.42975476609968,8.652887370722624],[-76.42971709630712,8.655641445171057],[-76.43137304817083,8.65424177192699],[-76.43133421315287,8.656365239361548],[-76.43312760916012,8.655603170654274],[-76.43289056035866,8.657409868537059],[-76.43683482356607,8.657396187166228],[-76.43781559571715,8.658998123172012],[-76.44242720704739,8.659253352780297],[-76.44468356673889,8.655347950301916],[-76.44442653632774,8.657605542067586],[-76.4470511997971,8.658225834831399],[-76.44683796766753,8.66213351222467],[-76.4494260967449,8.661527522010886],[-76.44750908914597,8.664206176655682],[-76.44921525060192,8.66469836044871],[-76.45094440083346,8.661604614062128],[-76.45184290272528,8.662865079383721],[-76.45391816191676,8.66062062699973],[-76.45478770492412,8.661554433266303],[-76.45343506132798,8.663622623972344],[-76.45780997661257,8.66351790795511],[-76.45718341754844,8.666753618490134],[-76.4563365033618,8.665173413474747],[-76.45497862910707,8.66559387162971],[-76.45617690862332,8.667599586509596],[-76.46117412522,8.666181483575656],[-76.46228706560447,8.671076817514177],[-76.46426424326143,8.669770178208807],[-76.46345528271746,8.667880391426479],[-76.46593460154793,8.666459271042129],[-76.46604959067753,8.669079142997873],[-76.46841421656984,8.668350600488282],[-76.47019211909054,8.670856725672934],[-76.47154240138264,8.669511753229585],[-76.4729769717382,8.67225012850298],[-76.47273355584912,8.678125373786202],[-76.46671344003892,8.679902490576865],[-76.46257032644206,8.68537022065425],[-76.46208953367835,8.68835867303892],[-76.45764890811597,8.687494782351678],[-76.45705363735857,8.689628641169406],[-76.4534755757926,8.691203850010993],[-76.4556115017798,8.694230481267311],[-76.45432978986423,8.701381055951856],[-76.45062950304708,8.705327050028018],[-76.45193369465926,8.708570447142392],[-76.44974412305339,8.715147628098862],[-76.44782988196482,8.718028554761304],[-76.44148161482951,8.71596332596971],[-76.4359497274225,8.720735591334233],[-76.43463741728505,8.72689372618737],[-76.42894575413362,8.736534218830968],[-76.43192903653772,8.736984603634767],[-76.43520987204516,8.74144407437791],[-76.44132067488823,8.744423313974494],[-76.44210684514593,8.749032210216455],[-76.44775998489752,8.75272708742591],[-76.45471872111375,8.750156292747192],[-76.46087530507549,8.75381227426061],[-76.46774218080594,8.761518586372176],[-76.47225107438277,8.762866232766044],[-76.47383038362466,8.77320505022118],[-76.47855285488777,8.772532273978754],[-76.47397580539683,8.780190695635952],[-76.4718618150601,8.779350983632241],[-76.4683073973876,8.781926463895104],[-76.46646076096806,8.781557299310805],[-76.4662694398063,8.779770237480989],[-76.46202048096234,8.779132667911256],[-76.45960892929475,8.77212523082801],[-76.46140236746817,8.762755934362815],[-76.45960190811769,8.761996913959194],[-76.45248267007668,8.76532017786269],[-76.45430641336577,8.771153591246502],[-76.45108683189477,8.775230289053923],[-76.4399469482205,8.775145993791284],[-76.4386810383242,8.781300802661292],[-76.45034687264473,8.78421477421034],[-76.45344381543072,8.788930350794772],[-76.46499582687551,8.797702335044221],[-76.46651334831938,8.800655606467217],[-76.47190015951094,8.803164230767209],[-76.47642420924518,8.802492317388044],[-76.47838492050892,8.804762513745175],[-76.47851464927669,8.81023826361735],[-76.48717447261345,8.818752960344966],[-76.48271135912694,8.821692152389858],[-76.48265039613972,8.824271043996532],[-76.47885078028725,8.827175080790823],[-76.43028657166923,8.852901261863849],[-76.436218372035,8.848894094998286],[-76.43400681849874,8.845817276775506],[-76.43115119049378,8.848393544825285],[-76.42983889681148,8.848310284175852],[-76.43097084384215,8.845191491100138],[-76.42907251173096,8.84622349511534],[-76.42770523442624,8.84357805813545],[-76.42573987254542,8.847921109185506],[-76.4232382838207,8.848243344909235],[-76.42146486222401,8.846203798384181],[-76.41720891717,8.85098846368021],[-76.42153417410753,8.853595165401032],[-76.42440666651294,8.852599802735881],[-76.42511453012878,8.855980487670593],[-76.42338933425873,8.856881354980146],[-76.42531049059477,8.856577065578392],[-76.41627962987985,8.867974360187588],[-76.41640088942347,8.88331422004552],[-76.4118927373537,8.877281506842905]]]}}]}