{"type":"FeatureCollection","features":[{"type":"Feature","properties":{"code":"057868"},"geometry":{"type":"Polygon","coordinates":[[[-76.39167200140213,8.102667545078532],[-76.40371221451056,8.098075838224759],[-76.41032736042257,8.093829077162468],[-76.41820864043137,8.080032164932732],[-76.42361027250814,8.077147981192809],[-76.4323545268619,8.068648356290282],[-76.50521843901163,7.988481056267517],[-76.53210500972165,7.96452355978488],[-76.54240859479296,7.961606453543027],[-76.55132050276086,7.952020261635994],[-76.55796203130882,7.950796744140291],[-76.5661107577946,7.951834283233097],[-76.57281749679737,7.950094120439076],[-76.57743310568367,7.94791279282839],[-76.57973102268045,7.942335729026809],[-76.58421606461837,7.94304183400601],[-76.58564998088451,7.940350273436081],[-76.587123307068,7.943555024765942],[-76.59008384135205,7.945006336108861],[-76.59303538087784,7.942582118143264],[-76.59392889379495,7.947233994026533],[-76.59509642082304,7.947358537387117],[-76.60958519410309,7.9341054131107285],[-76.61623727858506,7.933216630000686],[-76.61743291294715,7.927439180345004],[-76.62008732000265,7.928962259492209],[-76.62038660500315,7.92692589599676],[-76.62381036316737,7.930222275384438],[-76.6236871382701,7.927939463122925],[-76.62740725140213,7.923708020711899],[-76.62818895719084,7.925196229487085],[-76.63152741221882,7.922114357497776],[-76.63672681547246,7.923619727893254],[-76.64587384082671,7.921592722196294],[-76.64735097533281,7.918292887241762],[-76.65276927126371,7.916972727002644],[-76.65322355900685,7.915599982497497],[-76.66018483033389,7.915175316984232],[-76.6668590314722,7.9195932458486595],[-76.66930177477292,7.9232078500342595],[-76.67660557607991,7.926801206597361],[-76.68267758915653,7.932996150436622],[-76.69821397409538,7.935314273243591],[-76.709358253333,7.934146600176689],[-76.71889877622158,7.930469766991223],[-76.73026254360462,7.924401752499136],[-76.73838150902083,7.916307007932744],[-76.74005896973136,7.916650849176904],[-76.73980052624023,7.92007297006063],[-76.74260011338384,7.9234139571140645],[-76.74556115571852,7.93390263201394],[-76.7422561250724,7.946863701240773],[-76.74426343300979,7.953685142437678],[-76.74195944203149,7.953363418878325],[-76.74424794980769,7.954605126436775],[-76.74694868922705,7.953629685731698],[-76.74888729720419,7.961420767217874],[-76.74782667471908,7.964947354207311],[-76.74035714298549,7.970934899242991],[-76.73105638192976,7.984222023829034],[-76.73388674727266,8.003851901041685],[-76.73481743221623,8.002086147512443],[-76.73497792272815,8.004041567439401],[-76.72783670584204,8.016802541861352],[-76.72876742575266,8.023621984794431],[-76.73123944675496,8.024818729874426],[-76.72261649513939,8.03986702422145],[-76.71723862831237,8.062861171397685],[-76.71868051089427,8.06734376564242],[-76.72158755588293,8.069289173681511],[-76.72121298786163,8.074166879086818],[-76.7236704831418,8.081886184541133],[-76.72728801736014,8.085827876642213],[-76.72418032529293,8.085711327365345],[-76.72328606161273,8.083163028838271],[-76.72144472372906,8.08533254684346],[-76.71757946136216,8.085591389370393],[-76.7179598184864,8.088986825256086],[-76.72219548265394,8.08845034747219],[-76.72193520647818,8.089775866925322],[-76.72419154148707,8.09037689387543],[-76.72375975195246,8.092631304668373],[-76.69280594407775,8.086796740457373],[-76.66252720278698,8.068925305576158],[-76.6341372774288,8.070501311460703],[-76.61818295607605,8.086366491529702],[-76.61118999329284,8.10422665365246],[-76.57929031449231,8.124042249071977],[-76.55635717864004,8.140888759736356],[-76.54736800789954,8.158744993208757],[-76.52940341772342,8.182544816083464],[-76.52240192195256,8.202388322404545],[-76.50843067534618,8.218251240928453],[-76.46856999167284,8.222163448610956],[-76.45160988027624,8.236034369621223],[-76.4326202846363,8.271739151015026],[-76.3994051661478,8.287518118804542],[-76.39901913510619,8.28020183940447],[-76.40130027614862,8.27055986477518],[-76.42080866858868,8.232378467297906],[-76.42729465960389,8.212744566818174],[-76.42787498194929,8.204013880706498],[-76.42622677631459,8.187355964802805],[-76.41822289875847,8.17235919748282],[-76.41439253041784,8.153855523449465],[-76.40343724497654,8.128165722502047],[-76.40077492816965,8.117004306326749],[-76.39167200140213,8.102667545078532]]]}}]}