{"type":"FeatureCollection","features":[{"type":"Feature","properties":{"code":"057867"},"geometry":{"type":"Polygon","coordinates":[[[-76.41922108655518,8.42513516923242],[-76.42060133766228,8.416379944482287],[-76.41557361848896,8.41161127146745],[-76.39936823272006,8.400870856464735],[-76.38395680457569,8.393458383750556],[-76.38040099233513,8.389131531698695],[-76.3894045437874,8.371483259588047],[-76.39667527552524,8.36636616978825],[-76.40664701202058,8.353118733827444],[-76.40406087297947,8.33794882615257],[-76.40769309849918,8.324058650641405],[-76.3994051661478,8.287518118804542],[-76.4326202846363,8.271739151015026],[-76.45160988027624,8.236034369621223],[-76.46856999167284,8.222163448610956],[-76.50843067534618,8.218251240928453],[-76.52240192195256,8.202388322404545],[-76.52940341772342,8.182544816083464],[-76.54736800789954,8.158744993208757],[-76.55635717864004,8.140888759736356],[-76.57929031449231,8.124042249071977],[-76.61118999329284,8.10422665365246],[-76.61818295607605,8.086366491529702],[-76.6341372774288,8.070501311460703],[-76.66252720278698,8.068925305576158],[-76.69280594407775,8.086796740457373],[-76.72131840733357,8.093483541045032],[-76.7222376652523,8.096595846705327],[-76.7181267583614,8.097499828138893],[-76.72067708600554,8.099154502677038],[-76.71779383917675,8.102052023259489],[-76.71830459458482,8.103500296583206],[-76.72247611479247,8.103897339158891],[-76.73121370895251,8.100964115165937],[-76.7401018095045,8.097005628598481],[-76.74198316202973,8.093692235686262],[-76.74166057046489,8.105142262657125],[-76.74499441395659,8.122148071868537],[-76.74556658383813,8.13377626210763],[-76.74478799731554,8.143248000703636],[-76.73807470199176,8.165547225156217],[-76.74400242972519,8.181253191010455],[-76.74524014795514,8.189635890226157],[-76.74851082450738,8.1950184621777],[-76.74876270242152,8.206585302735164],[-76.75169281229051,8.215650920693463],[-76.75521780416562,8.219497652583016],[-76.75562178872832,8.236030785499054],[-76.76208391370642,8.249501363661636],[-76.76392270928022,8.260558590382232],[-76.77164460023903,8.268616284278494],[-76.77062876848248,8.273423446754578],[-76.76823340552858,8.272954785498769],[-76.76703528336407,8.274353054918777],[-76.76357207825856,8.270544880367709],[-76.75467462916407,8.27040661141325],[-76.75565204139343,8.267700557002911],[-76.75119622573504,8.270749616533692],[-76.75028045526489,8.269556482315352],[-76.75157828081785,8.266330801151753],[-76.74764078270539,8.269590456913932],[-76.74716046405365,8.263294768902426],[-76.74499362102745,8.263061270284481],[-76.7421398462759,8.266067480786148],[-76.74095802389684,8.264275093681022],[-76.74233027886334,8.262961827092056],[-76.74025554623444,8.261815151736016],[-76.73855468331436,8.263932853721826],[-76.73703550813497,8.262592239817877],[-76.73379286178357,8.263916311223909],[-76.73399910564626,8.266790611631222],[-76.73083253421646,8.269941156841242],[-76.73122995217363,8.27408259099144],[-76.7284446428975,8.275821797333947],[-76.72845197466421,8.278416767610963],[-76.72549114830247,8.282236515225748],[-76.72226454462594,8.281294428968408],[-76.72293636544532,8.279275333022895],[-76.71825891631033,8.279854310165433],[-76.71837273918612,8.282558993661894],[-76.71391014197775,8.285709334211901],[-76.70525794454221,8.28270510449056],[-76.70501352900698,8.285005977231151],[-76.70046602358428,8.28664045932885],[-76.70176366093227,8.2852775354213],[-76.70015364239674,8.284057645242399],[-76.7007182038605,8.282208036623956],[-76.69670472441476,8.283676847944776],[-76.69599544051971,8.28148468980595],[-76.69276777651896,8.282285145130231],[-76.6936758696657,8.280715046619548],[-76.69013545423815,8.278239845672942],[-76.6897698902311,8.273855409067494],[-76.68851869837567,8.275876114525602],[-76.68595519432597,8.275154785511802],[-76.68333734634513,8.277727921954124],[-76.6823762884087,8.285653093832764],[-76.67979695560018,8.289867294404928],[-76.6822467468175,8.293727142021908],[-76.66806275659161,8.293353298024158],[-76.66343241423777,8.281336683557754],[-76.65991527040751,8.285428840913085],[-76.65506234635313,8.284472073638824],[-76.65072082048334,8.285903893939121],[-76.64932458429422,8.28960943712599],[-76.64592250672672,8.292048103680543],[-76.64486194491968,8.29894905891075],[-76.63829902434719,8.303489747816457],[-76.63717091649244,8.30672763864959],[-76.63501924813556,8.305483139898115],[-76.63434075066738,8.309458405505211],[-76.63075388151964,8.30853552644038],[-76.62726775860108,8.31179782941365],[-76.61996573238588,8.310992642225301],[-76.62077420956183,8.312450398817475],[-76.61923267501362,8.312002194311845],[-76.61424315322387,8.316033414391086],[-76.61443395707903,8.317801261829288],[-76.61703581277874,8.318822618379045],[-76.61708180781346,8.324098407143879],[-76.61893618120615,8.323910686559373],[-76.61653247141277,8.327083731006383],[-76.61513532299512,8.327307001763472],[-76.61466304265008,8.325576117577782],[-76.61434975643317,8.32757959353836],[-76.61319825562487,8.32735219461307],[-76.6105126754482,8.324208214980047],[-76.6081171500004,8.327097525505906],[-76.60759815162555,8.324619541593847],[-76.60705589810846,8.330165862163199],[-76.6052784882117,8.330482456879736],[-76.60945912556224,8.333153563784833],[-76.60769705180036,8.334864833514757],[-76.60634676128075,8.332920427178749],[-76.60572849249172,8.334652273986592],[-76.60678122065212,8.336806537103882],[-76.6109247322562,8.338336095438933],[-76.61149704920496,8.340868406827042],[-76.60842122548615,8.339438446979273],[-76.60668293445747,8.34021393994675],[-76.60688868672463,8.341796454843973],[-76.6106497370111,8.343401304427402],[-76.60890988480668,8.34452262867535],[-76.6058351286112,8.343128816525223],[-76.60710916526028,8.345301440426795],[-76.60562138020344,8.347223238510992],[-76.6081623263949,8.349950032493155],[-76.60759754895821,8.353416778526253],[-76.61083243982455,8.351932180612778],[-76.61126732497115,8.357419771972104],[-76.61356397492676,8.358583188315436],[-76.61135836681666,8.361000323397434],[-76.61401348863973,8.363251410264127],[-76.60789568004623,8.364043195817942],[-76.61010018566589,8.371093664993055],[-76.60765102282699,8.373052756459856],[-76.60675837894377,8.371699982251528],[-76.60802508279767,8.368730227980336],[-76.60416408023974,8.366078690279437],[-76.59874755220153,8.370584955157199],[-76.59793842710684,8.37330771764465],[-76.59352003338631,8.370826053965288],[-76.59171990827969,8.371908794135209],[-76.59297937292672,8.37575751811795],[-76.59523721357544,8.374389390291299],[-76.59703832187313,8.375267497139475],[-76.59638239049065,8.37799044886043],[-76.5924825971378,8.378233141754436],[-76.5907582980696,8.37583162768584],[-76.58679917181092,8.377255246157063],[-76.59085012461674,8.384078694873722],[-76.58421287747501,8.38789154780983],[-76.58288535975805,8.393847082572108],[-76.58601295013108,8.395879697394548],[-76.58479973865792,8.398527323928477],[-76.58129811402523,8.393449491836577],[-76.56558867614905,8.400100715512167],[-76.55390754580293,8.398601348135685],[-76.55326623681617,8.40117390762174],[-76.55068032197556,8.401526425835414],[-76.54787949453026,8.3947031488687],[-76.54364564762062,8.396763380458083],[-76.53889190861963,8.395572416253458],[-76.5404796541755,8.393134549827153],[-76.53899106693353,8.392003462574394],[-76.53281863775783,8.393324018763963],[-76.52979718470965,8.391106923979407],[-76.52776839569339,8.392401509938395],[-76.5242428854832,8.391129628904878],[-76.52245054157265,8.392128426567979],[-76.52267881878788,8.389640111950825],[-76.52139725085425,8.389025746101197],[-76.52023809226296,8.38931567433167],[-76.52086403734688,8.391270637630157],[-76.51861278798629,8.390173421103327],[-76.51642285951084,8.3914394780669],[-76.51117381950746,8.386021802286848],[-76.50838895760381,8.386673270228812],[-76.50813686474521,8.388321813192647],[-76.50594758418856,8.38680872227917],[-76.50427619128885,8.388907269523031],[-76.50355898015891,8.386571276498898],[-76.50265178175715,8.388379352494667],[-76.49988149082708,8.388375287061365],[-76.50046221735039,8.383249693070468],[-76.4983024582362,8.384063625105512],[-76.49496049621928,8.380828645793088],[-76.49971341658005,8.381579324499512],[-76.50247579775868,8.378448305299116],[-76.49679573338193,8.379019612317336],[-76.49524858765136,8.37171972217726],[-76.4900587756527,8.377952226794207],[-76.48575682527951,8.375966511007505],[-76.48080157119449,8.369597315066926],[-76.48067792463576,8.367495355450785],[-76.48364379345117,8.366190549858459],[-76.48040389406981,8.365703260423345],[-76.4775883321285,8.36352110594487],[-76.47747338002284,8.361514884042776],[-76.47516955976602,8.366006035957696],[-76.47161417741444,8.364514400412077],[-76.47092718398261,8.36624589343569],[-76.46811195834204,8.366773851601806],[-76.47059950676947,8.371163864422499],[-76.4612528524948,8.371191119177695],[-76.45400527511185,8.374309101840709],[-76.43222170453907,8.368194815662832],[-76.43020804596915,8.380775783847639],[-76.43242046134026,8.383859094628008],[-76.43843190018089,8.385938247502907],[-76.43986664331487,8.392021962198442],[-76.44371996649255,8.394602697802554],[-76.4415601374443,8.396740856538486],[-76.44426186622542,8.40191908827444],[-76.44116319257068,8.403490634832167],[-76.44011846774998,8.407997114654393],[-76.44201784578723,8.410395008605292],[-76.44104869606508,8.413788428743715],[-76.44213299638227,8.416311563339207],[-76.43856935049507,8.421026426184596],[-76.43990479544698,8.421979057063027],[-76.44048501391961,8.428734936077774],[-76.43899641845007,8.428408146410561],[-76.43745495280757,8.432595102511982],[-76.43132885393891,8.436228619755411],[-76.42936066486959,8.439647447566244],[-76.4195401217658,8.437760607271741],[-76.41184968777833,8.4440402094138],[-76.40129766493305,8.472246275989164],[-76.39622435695975,8.480817451694577],[-76.38971589241862,8.475461540058461],[-76.38538182789938,8.468581464268254],[-76.3823237643544,8.461066230606093],[-76.38258993556263,8.45508487062375],[-76.39667482712429,8.44492715675392],[-76.40426609251347,8.434460504922185],[-76.41922108655518,8.42513516923242]]]}}]}