{"type":"FeatureCollection","features":[{"type":"Feature","properties":{"code":"057878"},"geometry":{"type":"Polygon","coordinates":[[[-76.61008436616305,8.371030368469803],[-76.61008461504616,8.367989020201094],[-76.60784897847145,8.367014399164702],[-76.60771941219758,8.364348125939443],[-76.61011587558494,8.36275062766316],[-76.61401348863973,8.363251410264127],[-76.61135836681666,8.361000323397434],[-76.61356397492676,8.358583188315436],[-76.61126732497115,8.357419771972104],[-76.61083243982455,8.351932180612778],[-76.60759754895821,8.353416778526253],[-76.6081623263949,8.349950032493155],[-76.60562138020344,8.347223238510992],[-76.60710916526028,8.345301440426795],[-76.6058351286112,8.343128816525223],[-76.60890988480668,8.34452262867535],[-76.6106497370111,8.343401304427402],[-76.60688868672463,8.341796454843973],[-76.60668293445747,8.34021393994675],[-76.60842122548615,8.339438446979273],[-76.61149704920496,8.340868406827042],[-76.6109247322562,8.338336095438933],[-76.60678122065212,8.336806537103882],[-76.60572849249172,8.334652273986592],[-76.60634676128075,8.332920427178749],[-76.60769705180036,8.334864833514757],[-76.60945912556224,8.333153563784833],[-76.6052784882117,8.330482456879736],[-76.60705589810846,8.330165862163199],[-76.60759815162555,8.324619541593847],[-76.6081171500004,8.327097525505906],[-76.6105126754482,8.324208214980047],[-76.61319825562487,8.32735219461307],[-76.61434975643317,8.32757959353836],[-76.61466304265008,8.325576117577782],[-76.61513532299512,8.327307001763472],[-76.61653247141277,8.327083731006383],[-76.61893618120615,8.323910686559373],[-76.61708180781346,8.324098407143879],[-76.61703581277874,8.318822618379045],[-76.61443395707903,8.317801261829288],[-76.61424315322387,8.316033414391086],[-76.61923267501362,8.312002194311845],[-76.62077420956183,8.312450398817475],[-76.61996573238588,8.310992642225301],[-76.62726775860108,8.31179782941365],[-76.63075388151964,8.30853552644038],[-76.63434075066738,8.309458405505211],[-76.63501924813556,8.305483139898115],[-76.63717091649244,8.30672763864959],[-76.63829902434719,8.303489747816457],[-76.64486194491968,8.29894905891075],[-76.64592250672672,8.292048103680543],[-76.64932458429422,8.28960943712599],[-76.65072082048334,8.285903893939121],[-76.65506234635313,8.284472073638824],[-76.65991527040751,8.285428840913085],[-76.66343241423777,8.281336683557754],[-76.66806275659161,8.293353298024158],[-76.6814460590652,8.293915075494056],[-76.68262794932144,8.29264704597773],[-76.67979695560018,8.289867294404928],[-76.6823762884087,8.285653093832764],[-76.68333734634513,8.277727921954124],[-76.68595519432597,8.275154785511802],[-76.68851869837567,8.275876114525602],[-76.68960193734023,8.273891408669442],[-76.69013545423815,8.278239845672942],[-76.6936758696657,8.280715046619548],[-76.69276777651896,8.282285145130231],[-76.69599544051971,8.28148468980595],[-76.69670472441476,8.283676847944776],[-76.7007182038605,8.282208036623956],[-76.70015364239674,8.284057645242399],[-76.70176366093227,8.2852775354213],[-76.70035958492582,8.286408665868635],[-76.70236588601796,8.286745106440435],[-76.70526513952609,8.28470219382308],[-76.70525794454221,8.28270510449056],[-76.71391014197775,8.285709334211901],[-76.71837273918612,8.282558993661894],[-76.71806138952644,8.27996376627425],[-76.7218977495732,8.279127473841982],[-76.72352323485575,8.280237667256529],[-76.72226454462594,8.281294428968408],[-76.72549114830247,8.282236515225748],[-76.72845197466421,8.278416767610963],[-76.7284446428975,8.275821797333947],[-76.73122995217363,8.27408259099144],[-76.73083253421646,8.269941156841242],[-76.73399910564626,8.266790611631222],[-76.73354123275254,8.264281151207456],[-76.73640291931235,8.26266403230477],[-76.73835555627386,8.263945107614461],[-76.74025554623444,8.261815151736016],[-76.74082787141077,8.263215970665044],[-76.74216257588404,8.262706252955468],[-76.74095802389684,8.264275093681022],[-76.7421398462759,8.266067480786148],[-76.74499362102745,8.263061270284481],[-76.74716046405365,8.263294768902426],[-76.74764078270539,8.269590456913932],[-76.75157828081785,8.266330801151753],[-76.75028045526489,8.269556482315352],[-76.75119622573504,8.270749616533692],[-76.75565204139343,8.267700557002911],[-76.75467462916407,8.27040661141325],[-76.76357207825856,8.270544880367709],[-76.76703528336407,8.274353054918777],[-76.76823340552858,8.272954785498769],[-76.77062876848248,8.273423446754578],[-76.77148354922593,8.269252474706775],[-76.77197956705271,8.277736261594555],[-76.75935214720471,8.303777703494177],[-76.75493431295695,8.318748284610706],[-76.75269086227593,8.335864598942294],[-76.75486585468065,8.345916227937892],[-76.75977164993651,8.350808382960565],[-76.76060209053088,8.35392051584256],[-76.75784815492221,8.377625549227218],[-76.7581313530248,8.391336330424508],[-76.76116717032966,8.400564687070016],[-76.76581329824774,8.406078186953323],[-76.76918581323503,8.416157811182643],[-76.7744661045212,8.419572921173767],[-76.77322366059786,8.421820179148938],[-76.77915922094951,8.424867150941395],[-76.78238221684967,8.424582802011628],[-76.78271433179225,8.427116591271613],[-76.7844732729182,8.426870480863101],[-76.78395754704746,8.437074761581698],[-76.7821732332161,8.43706549737152],[-76.78217047287637,8.438413771115336],[-76.78408140855066,8.438431032494577],[-76.78471950159764,8.431036300413894],[-76.7883478766285,8.431239334507495],[-76.7948858348442,8.435231576615251],[-76.79287872539618,8.439446874535577],[-76.79302591197569,8.447660252003402],[-76.79897176600849,8.459995128291666],[-76.79852120225576,8.466004088585862],[-76.8020630513322,8.46590038661293],[-76.815398462323,8.484174966847775],[-76.82936058458739,8.498201094232286],[-76.83753166324288,8.50455241069966],[-76.84866327618244,8.510063335362872],[-76.86833986216891,8.517276266574243],[-76.89994306258853,8.52545016213378],[-76.90529055745111,8.530521616853662],[-76.91166821541668,8.532471798922927],[-76.91266851254903,8.536292365177928],[-76.91726965536287,8.53768672754478],[-76.9157273957627,8.541219131405171],[-76.91610181671672,8.545829441755643],[-76.92098466741993,8.544497830837486],[-76.92328924461049,8.541086670065624],[-76.92570008151051,8.542971701329748],[-76.92821789905821,8.541415268763217],[-76.93468725295878,8.547855447806455],[-76.93522090663953,8.543364192018828],[-76.92959854611564,8.534240094762083],[-76.92452451411884,8.530080031404054],[-76.92476141585303,8.528236746678658],[-76.92244236333403,8.527015168825585],[-76.92075616600425,8.530191511487772],[-76.91683452133321,8.531702096086804],[-76.91861185512516,8.527878205905608],[-76.92218312691364,8.525159260996702],[-76.92670048148705,8.527160425018508],[-76.93637361278246,8.541174273827835],[-76.93792288636058,8.547210191657314],[-76.93697705348723,8.553378537916217],[-76.90400058919897,8.577657575923865],[-76.89147310413892,8.590179984591657],[-76.88578848890404,8.601388802711028],[-76.88823006080872,8.605749233411188],[-76.88631481904565,8.622544256129288],[-76.8680804797097,8.623343798196629],[-76.80918663659975,8.632041947472317],[-76.79229411958772,8.632888553126179],[-76.75962412705627,8.639266245030399],[-76.73134816238519,8.647047718806505],[-76.72772388158398,8.63938961596648],[-76.72162850229336,8.643179126342773],[-76.72309230612757,8.639074518662255],[-76.72253686077829,8.633166478404007],[-76.72751893870105,8.63139897549405],[-76.72634328594864,8.629232443057447],[-76.72251315826355,8.62939616493577],[-76.72561818049394,8.627413310276154],[-76.72517559539824,8.624641666944171],[-76.72100289145322,8.626834857639267],[-76.7216063568406,8.62277465193614],[-76.70627739847333,8.618407646402943],[-76.70582746104208,8.61347280484506],[-76.70897827364718,8.613371888922927],[-76.70964278635398,8.612023086559589],[-76.70338658744981,8.608789177855897],[-76.70288230711589,8.606011795814652],[-76.70009730842935,8.605441693102591],[-76.70201251419695,8.60252093280451],[-76.6980530444385,8.598323999782224],[-76.70116577073179,8.595299308168535],[-76.69904494845139,8.593221058266238],[-76.69842637935722,8.588380973288224],[-76.70296651598932,8.590370074707721],[-76.70520235105346,8.585768991543489],[-76.70311929523922,8.583994813013135],[-76.70334822654388,8.58100568905553],[-76.69628285215134,8.579029908023529],[-76.69954932545897,8.575964700916813],[-76.70268528221192,8.57851862193911],[-76.70678166029535,8.57147700251187],[-76.70221921571658,8.5692935480821],[-76.69921254755803,8.569239747168638],[-76.69710767539266,8.571216603951484],[-76.69489533715478,8.569962145762645],[-76.69824386372028,8.568800252542701],[-76.69897554297961,8.566095309878676],[-76.70215731478982,8.566437489159739],[-76.70038813963231,8.564281606245459],[-76.70158627310974,8.562329813635245],[-76.7007848099118,8.559310290973656],[-76.70614839064382,8.556646008813061],[-76.70591940791701,8.553941246126556],[-76.7027606331099,8.555127134967336],[-76.70298901316937,8.552071318569233],[-76.70615663669588,8.549370968929566],[-76.70219626087959,8.544831668421239],[-76.70432519242922,8.54014908324433],[-76.70346976273856,8.536027570025738],[-76.7046988626202,8.5342125479292],[-76.7067056367959,8.535942550739605],[-76.70707219222157,8.53437645904097],[-76.70499746782019,8.531883508204885],[-76.697839103712,8.53524560506952],[-76.69868574536133,8.528745576842368],[-76.7009147474534,8.530714300701788],[-76.70208191246968,8.527822146532344],[-76.70064754883106,8.520780778045037],[-76.69757205318535,8.520690718362118],[-76.69734383561979,8.52754173139516],[-76.6944978328084,8.528927910444963],[-76.69402477804618,8.525722210891047],[-76.69024854589128,8.525819017156891],[-76.68830344021433,8.518301285407802],[-76.68576240043456,8.52126206857497],[-76.68388483771997,8.516064657414518],[-76.68105466263893,8.515372338707266],[-76.6839690044273,8.513163542425389],[-76.6812225291406,8.51278550958125],[-76.68275614570985,8.510742574338167],[-76.67971994993815,8.510071503253357],[-76.67839931661541,8.507086428273908],[-76.67672177877165,8.506709465009976],[-76.67583547729345,8.512298471086126],[-76.67443994147368,8.508793416597655],[-76.67275333790911,8.512672720290254],[-76.67101414905011,8.512606485506694],[-76.6710219898959,8.506285336343751],[-76.66880235382985,8.506450255329128],[-76.66426216577565,8.501917873153673],[-76.6689768980088,8.502465392296415],[-76.66738275862576,8.501085992739775],[-76.66893852887534,8.495871822080005],[-76.66541425073933,8.496306583813464],[-76.66730691716066,8.495056347381194],[-76.6655666690059,8.491811977360157],[-76.66381172954976,8.494315743297705],[-76.66113407455111,8.49240397355652],[-76.660486027209,8.49120978724153],[-76.66310247033738,8.48830350227189],[-76.65968417628824,8.489986054801363],[-76.66095789309168,8.487913545665151],[-76.65758617000512,8.485418965776205],[-76.65745653482566,8.48355399325493],[-76.6600811653849,8.48248203116259],[-76.65732756402002,8.481078739857765],[-76.65808223102647,8.473516331537212],[-76.65685317331094,8.472680910195777],[-76.65525951729592,8.475138474381595],[-76.65414557623683,8.471841628081052],[-76.6493913620954,8.46989699651607],[-76.6502231221815,8.46507992499636],[-76.64273917476919,8.457448472187309],[-76.64083847004105,8.458879414197725],[-76.64083187875298,8.461684559044727],[-76.63970953634697,8.461414285379249],[-76.64001506913576,8.457267975383047],[-76.63742851563228,8.456415131196877],[-76.63786386460646,8.44992835342316],[-76.6344834655788,8.447997543097188],[-76.63662743192964,8.447211106472878],[-76.63481917287112,8.445284345125117],[-76.6364975365542,8.443184098894221],[-76.63346978635246,8.4421205381488],[-76.63423954986666,8.43900322705872],[-76.62802184145221,8.43880282474953],[-76.62918066477124,8.43497056715995],[-76.63127957505532,8.433840530975488],[-76.6288989486543,8.433210534856471],[-76.6268082237442,8.42830650749329],[-76.62883765965086,8.425392950406604],[-76.6255796226572,8.425806220776792],[-76.62549658620821,8.424023821905394],[-76.62686911679731,8.42085975678998],[-76.63030348128927,8.420066927366975],[-76.62874581664857,8.418471565165817],[-76.62873184011477,8.41291552581464],[-76.62496207892019,8.41327511045688],[-76.62391641513148,8.411621560006438],[-76.6277847237451,8.407505372063156],[-76.6255804330699,8.407630535574583],[-76.62640484287732,8.404359591627326],[-76.62115471478177,8.403182612184082],[-76.62215482268067,8.405910914891422],[-76.62033094260869,8.40493004709515],[-76.62036953594264,8.399142395289687],[-76.616905358959,8.401302637771835],[-76.61831685312137,8.395899738653895],[-76.6163028675067,8.394485763888156],[-76.61595169449583,8.384381452924572],[-76.61144226510044,8.382837936567682],[-76.61512003725397,8.377512319762786],[-76.60800191301615,8.375703475520481],[-76.6098943799197,8.373299566209255],[-76.61395363019977,8.374440227233436],[-76.61627223534629,8.372494509633157],[-76.61229759914596,8.371786837307582],[-76.61083955870367,8.369664860086232],[-76.61008436616305,8.371030368469803]]]}}]}