{"type":"FeatureCollection","features":[{"type":"Feature","properties":{"code":"057857"},"geometry":{"type":"Polygon","coordinates":[[[-76.4649418017616,7.86852715745664],[-76.46394962006917,7.857210411493952],[-76.46671249181492,7.846121923206113],[-76.46866542188258,7.842646149504617],[-76.47469275735926,7.83804952978096],[-76.47734036640969,7.828637615686205],[-76.48152903692477,7.822179084086258],[-76.4791573106653,7.811892301708838],[-76.48236862860068,7.8058300866040895],[-76.4834140342503,7.791693339942242],[-76.48102580765908,7.775361497909728],[-76.4841462637263,7.761014268145061],[-76.48674886093306,7.75665967899846],[-76.49603380248595,7.750834157882537],[-76.49947518918344,7.744998824396589],[-76.5029770287606,7.7272598631961955],[-76.51371205883828,7.731920432504069],[-76.52694215114451,7.729992817549032],[-76.53976008996909,7.732197298486085],[-76.54511639138497,7.731123579813925],[-76.55242447409813,7.732280972569413],[-76.55907051030965,7.7318980988463295],[-76.56947720702794,7.725913785177113],[-76.57918211719715,7.729600759834284],[-76.59103904950746,7.728326069095715],[-76.59892757489376,7.72932286026753],[-76.61575854579172,7.734417366498008],[-76.62138933440201,7.732998262889453],[-76.62579925786991,7.729924249229441],[-76.63297925732337,7.719546192578434],[-76.63949482223165,7.714773228901436],[-76.65300659568777,7.713545963761192],[-76.6687442581404,7.715728222112318],[-76.66191781151383,7.748883898680106],[-76.65163767390345,7.746310015588506],[-76.65192116614065,7.748878181568159],[-76.64997372384227,7.748413902505945],[-76.64978620483254,7.750124932608799],[-76.64570007620722,7.748465999290204],[-76.64409408608105,7.755342966098624],[-76.64250090006419,7.7563585931951025],[-76.64285226950761,7.757937866441523],[-76.65009415754656,7.758177301229637],[-76.64912433110919,7.763466495742705],[-76.65407689787389,7.761323008646116],[-76.65879549293714,7.76398243347262],[-76.65220211606788,7.795242596890148],[-76.64683518364177,7.801611594341296],[-76.64643866865708,7.799840127813866],[-76.64552600922559,7.800741113394395],[-76.64391345660772,7.799539143826337],[-76.64327976529472,7.800805469213401],[-76.6412837619975,7.798909149764199],[-76.62772589888988,7.804605845084893],[-76.62435067807036,7.80171677624304],[-76.6250586866966,7.798856942936652],[-76.62104840467862,7.79227924467358],[-76.6232999389178,7.791466787425122],[-76.62010359613396,7.787824015227443],[-76.61720907346142,7.787002576590396],[-76.61160285948506,7.789094096486565],[-76.60761417887375,7.7857475938959055],[-76.59704231120168,7.783673016561806],[-76.59568642698315,7.786114991615932],[-76.59213090682033,7.786593518720792],[-76.58838987208219,7.780957301990895],[-76.58346387101614,7.778938637991189],[-76.58366759930846,7.776265919516675],[-76.58053445945961,7.772277101094062],[-76.58096254454426,7.766756491587614],[-76.57571325154402,7.768026297224196],[-76.5722234149195,7.760190876495756],[-76.57063028443861,7.761987129516342],[-76.56197683847387,7.763375870416382],[-76.55530875348319,7.770169298895951],[-76.54826569526489,7.7731013206396256],[-76.54634370691883,7.776751744449655],[-76.54432178481329,7.7912237839414615],[-76.54014091297779,7.797674233011662],[-76.53361686958942,7.802795845901642],[-76.52174498886711,7.805163927360809],[-76.51609950072788,7.818288243325526],[-76.51532104378907,7.83164732392089],[-76.52147772133912,7.84581585665569],[-76.5192890701893,7.853465507755061],[-76.5146957435386,7.859884558475187],[-76.51682419994779,7.865002698314754],[-76.51438252519887,7.881869902271035],[-76.49594906704999,7.874366050382207],[-76.4841684770563,7.87555198344603],[-76.47250249566844,7.8727413837398785],[-76.4649418017616,7.86852715745664]]]}}]}