{"type":"FeatureCollection","features":[{"type":"Feature","properties":{"code":"057858"},"geometry":{"type":"Polygon","coordinates":[[[-76.75314532999653,7.879350049435573],[-76.75065019783392,7.879696217016715],[-76.74575919775214,7.876757103133457],[-76.74305080672036,7.872426148624356],[-76.73174459920818,7.863195311375478],[-76.72403807935132,7.853343377120666],[-76.72109349415382,7.843369950894214],[-76.71825505553716,7.841211026875385],[-76.72144396988068,7.838445818508262],[-76.72142815860536,7.836411386427869],[-76.71502028397015,7.826311764133777],[-76.71435687272526,7.818965801825698],[-76.70954239596597,7.814509624155505],[-76.70762705958617,7.813268055436765],[-76.70384362421981,7.814335027525999],[-76.70175210638058,7.811149292098321],[-76.69507652507235,7.807801153255582],[-76.68991096786203,7.8071081022972635],[-76.67948135950132,7.799158459657406],[-76.67227576005672,7.7969984753143535],[-76.65665871642796,7.788479282235983],[-76.65480823569027,7.788929519972498],[-76.6526524916157,7.793688002150418],[-76.65879549293714,7.76398243347262],[-76.66252494638411,7.762307831832288],[-76.66126095144779,7.755299224381417],[-76.6630969023496,7.754480472036278],[-76.66095684202344,7.752377297829526],[-76.6687442581404,7.715728222112318],[-76.67090579748856,7.713769208807207],[-76.67360768979205,7.712460715219947],[-76.69277961594923,7.72414935011119],[-76.7013184985596,7.718504699124139],[-76.71031387389382,7.720556071709666],[-76.71315138177005,7.723499407349493],[-76.71946942195126,7.724904026373622],[-76.7247490180103,7.7222444843046105],[-76.7302805866002,7.728612309331311],[-76.73412593214925,7.737438111977724],[-76.7372385648543,7.7375084399624825],[-76.74108371191392,7.742612302963039],[-76.75706777582428,7.745632325447673],[-76.75997479304505,7.7442330152438785],[-76.766223194298,7.7446965569128],[-76.77323487884883,7.7489287912245],[-76.77650885567311,7.748563822685696],[-76.78126138111196,7.75249478196065],[-76.79931265356578,7.75615780213468],[-76.80307463459269,7.759032232125719],[-76.80606481064706,7.768247930700738],[-76.81731103116397,7.78249842310521],[-76.81587655645353,7.792054898165702],[-76.82143082894044,7.80297084773747],[-76.82063758608354,7.80926469997911],[-76.8231940843828,7.817123731690913],[-76.82146140042278,7.822293536368875],[-76.82300372790013,7.824430644036511],[-76.819431689922,7.826610946289975],[-76.82079045995022,7.831413059113288],[-76.82325490750185,7.832517692767567],[-76.81944708673495,7.8337326207113165],[-76.8189816835851,7.835778074610175],[-76.82054576879239,7.8403474899723165],[-76.82235452664554,7.838765131398361],[-76.82216413622427,7.840579058203616],[-76.815677582651,7.842412778413575],[-76.81599892774352,7.845075845983558],[-76.81341995797521,7.845745580093023],[-76.8123590948345,7.848351244115349],[-76.81036053071546,7.845320916636638],[-76.80886434636858,7.845449923437741],[-76.80566716026186,7.8494488997871485],[-76.80384445055745,7.853068992770432],[-76.808255114504,7.856758723653513],[-76.80425742165085,7.868725371240146],[-76.8018755384931,7.869371419290019],[-76.80120397478436,7.865958775504055],[-76.79156064878157,7.871207845332265],[-76.78613569985606,7.878503149647145],[-76.77830740417738,7.884327326588675],[-76.77628599115087,7.884001495429914],[-76.77504185338267,7.880288884786069],[-76.77054011056669,7.879488765762517],[-76.76287294406279,7.875147429126173],[-76.75540329200146,7.876438078207286],[-76.75314532999653,7.879350049435573]]]}}]}