{"type":"FeatureCollection","features":[{"type":"Feature","properties":{"code":"057870"},"geometry":{"type":"Polygon","coordinates":[[[-76.7744661045212,8.419572921173767],[-76.77840585595123,8.421002308179084],[-76.78974258455207,8.421087739870643],[-76.79092968798346,8.42736919526618],[-76.79623909653424,8.434891226933416],[-76.79806008976806,8.452379144286567],[-76.8020630513322,8.46590038661293],[-76.79852120225576,8.466004088585862],[-76.79897176600849,8.459995128291666],[-76.79306040490934,8.44781850873818],[-76.79287872539618,8.439446874535577],[-76.7948858348442,8.435231576615251],[-76.7883478766285,8.431239334507495],[-76.78471950159764,8.431036300413894],[-76.78408140855066,8.438431032494577],[-76.78217047287637,8.438413771115336],[-76.7821732332161,8.43706549737152],[-76.78395754704746,8.437074761581698],[-76.7844732729182,8.426870480863101],[-76.78271433179225,8.427116591271613],[-76.78238221684967,8.424582802011628],[-76.77915922094951,8.424867150941395],[-76.77322366059786,8.421820179148938],[-76.7744661045212,8.419572921173767]]]}}]}