{"type":"FeatureCollection","features":[{"type":"Feature","properties":{"code":"057817"},"geometry":{"type":"Polygon","coordinates":[[[-76.4733127397086,8.677444816347645],[-76.47805057281761,8.677778947037552],[-76.48356675282213,8.675753354420635],[-76.48589424988262,8.671921261381897],[-76.48503915649263,8.669686753008591],[-76.48816788637998,8.66547276738089],[-76.50251952713455,8.658347672359753],[-76.50338966355326,8.65524558633274],[-76.506387516931,8.656245763137292],[-76.50744876779453,8.652161852862491],[-76.51053047626147,8.654025567598524],[-76.50979034526154,8.652295313848128],[-76.51274319399465,8.65148826620731],[-76.5127965557632,8.647715884541185],[-76.51478009125174,8.644995148085457],[-76.5128569829318,8.643000953818614],[-76.51436817945415,8.63868147775645],[-76.5111865526543,8.63762796386601],[-76.51487158972577,8.636951948029605],[-76.51321680822963,8.63477732380727],[-76.51561208273745,8.631570090845628],[-76.52173868245757,8.628552506798144],[-76.52570585627893,8.629783373544058],[-76.52768271306178,8.624500467957034],[-76.5345954552717,8.615591138294576],[-76.5434379567393,8.610956366438757],[-76.54381117955779,8.607210384892142],[-76.54663413497235,8.603173977348831],[-76.55092173857241,8.604963322320998],[-76.55701877468391,8.602293172895884],[-76.56412900562538,8.61106611256838],[-76.57063745371141,8.611558520561914],[-76.57643503924317,8.61719669338953],[-76.57428354263624,8.628790511022714],[-76.57039333128228,8.633523029140804],[-76.57095700520017,8.636614785491133],[-76.57395666657987,8.634601400486929],[-76.57825888537656,8.635156329558072],[-76.57879339266458,8.637168737541913],[-76.5854225912152,8.637733412134367],[-76.58788009472295,8.641269486506076],[-76.59284696300932,8.641687239857163],[-76.5962649217862,8.644669574037266],[-76.60558139950052,8.646064585351382],[-76.60580206007046,8.655763989239347],[-76.60196457285065,8.659288741487387],[-76.60226943303803,8.673262548915716],[-76.60067505299946,8.675758238494154],[-76.60696907904787,8.682428444133336],[-76.6050084027512,8.689867050600299],[-76.61201262595159,8.689245094844921],[-76.61576570580854,8.691711214644101],[-76.61839842609663,8.690884875478503],[-76.62405944886012,8.693618822278381],[-76.62106147515459,8.70056011816638],[-76.6247381180782,8.702518614164944],[-76.6251959652609,8.711829517720787],[-76.62735562975831,8.719069721170854],[-76.62915586696522,8.720160225053405],[-76.62812565244002,8.727655416427808],[-76.63198604204626,8.731044871920233],[-76.60986727223178,8.738068033889647],[-76.60837295656495,8.741194478577711],[-76.56167192583592,8.755359798458073],[-76.52346886524543,8.773955184881515],[-76.51336710584775,8.78141381718126],[-76.51380982978321,8.792094381971594],[-76.5102546448926,8.804162376397755],[-76.48905870169239,8.815628824510327],[-76.48717447261345,8.818752960344966],[-76.47851464927669,8.81023826361735],[-76.47838492050892,8.804762513745175],[-76.47642420924518,8.802492317388044],[-76.47190015951094,8.803164230767209],[-76.46651334831938,8.800655606467217],[-76.46499582687551,8.797702335044221],[-76.45344381543072,8.788930350794772],[-76.45034687264473,8.78421477421034],[-76.4386810383242,8.781300802661292],[-76.4399469482205,8.775145993791284],[-76.45108683189477,8.775230289053923],[-76.45430641336577,8.771153591246502],[-76.45248267007668,8.76532017786269],[-76.45960190811769,8.761996913959194],[-76.46140236746817,8.762755934362815],[-76.45960892929475,8.77212523082801],[-76.46202048096234,8.779132667911256],[-76.4662694398063,8.779770237480989],[-76.46646076096806,8.781557299310805],[-76.4683073973876,8.781926463895104],[-76.4718618150601,8.779350983632241],[-76.47397580539683,8.780190695635952],[-76.47855285488777,8.772532273978754],[-76.47383038362466,8.77320505022118],[-76.47225107438277,8.762866232766044],[-76.46774218080594,8.761518586372176],[-76.46087530507549,8.75381227426061],[-76.45471872111375,8.750156292747192],[-76.44775998489752,8.75272708742591],[-76.44210684514593,8.749032210216455],[-76.44132067488823,8.744423313974494],[-76.43520987204516,8.74144407437791],[-76.43192903653772,8.736984603634767],[-76.42894575413362,8.736534218830968],[-76.43463741728505,8.72689372618737],[-76.4359497274225,8.720735591334233],[-76.44148161482951,8.71596332596971],[-76.44782988196482,8.718028554761304],[-76.44974412305339,8.715147628098862],[-76.45193369465926,8.708570447142392],[-76.45062950304708,8.705327050028018],[-76.45432978986423,8.701381055951856],[-76.4556115017798,8.694230481267311],[-76.4534755757926,8.691203850010993],[-76.45705363735857,8.689628641169406],[-76.45764890811597,8.687494782351678],[-76.46208953367835,8.68835867303892],[-76.46257032644206,8.68537022065425],[-76.46671344003892,8.679902490576865],[-76.47000147053018,8.679897597247361],[-76.4733127397086,8.677444816347645]],[[-76.52235043709163,8.769102724654658],[-76.52358422358589,8.769897748774042],[-76.53309616091462,8.758988038762936],[-76.53783358264667,8.75921182785504],[-76.53618979828633,8.75683015244266],[-76.53546700065664,8.758768299677513],[-76.53283018099665,8.756268616656769],[-76.53555220197711,8.75051067655562],[-76.53348463142191,8.750113146498222],[-76.5298316879277,8.756545468240574],[-76.5273415046305,8.753277395704856],[-76.52758297779167,8.757119706319997],[-76.52455339182,8.754378016376393],[-76.52279006747199,8.75580101675365],[-76.52023886256637,8.754727103705875],[-76.52270618152954,8.756531654200671],[-76.52552161491548,8.76174714332376],[-76.52439056982888,8.762657266616031],[-76.52627961921792,8.764321562233874],[-76.52235043709163,8.769102724654658]]]}}]}