{"type":"FeatureCollection","features":[{"type":"Feature","properties":{"code":"057820"},"geometry":{"type":"Polygon","coordinates":[[[-76.436218372035,8.848894094998286],[-76.42370997178278,8.857426874830708],[-76.42511453012878,8.855980487670593],[-76.42440666651294,8.852599802735881],[-76.42153417410753,8.853595165401032],[-76.4171962930381,8.850918211800206],[-76.42146486222401,8.846203798384181],[-76.4232382838207,8.848243344909235],[-76.42573987254542,8.847921109185506],[-76.42770523442624,8.84357805813545],[-76.42907251173096,8.84622349511534],[-76.43097084384215,8.845191491100138],[-76.42983889681148,8.848310284175852],[-76.43400681849874,8.845817276775506],[-76.436218372035,8.848894094998286]]]}}]}