{"type":"FeatureCollection","features":[{"type":"Feature","properties":{"code":"861087"},"geometry":{"type":"Polygon","coordinates":[[[-76.62574461157669,1.0502677941120169],[-76.62091633106195,1.047650566282016],[-76.6179165215865,1.0473170557429512],[-76.60825760850895,1.036207667446206],[-76.59997242107067,1.0341126415895587],[-76.5975298423208,1.0255529597577038],[-76.59120602126416,1.0200715143708408],[-76.58916833827698,1.014125870140333],[-76.58689465961345,1.0119440427066024],[-76.58336954638213,1.0114849387671256],[-76.57985272239745,1.007112391985686],[-76.57229176109553,0.9924216737326788],[-76.56631066233763,0.9859018109631279],[-76.56656257316195,0.982194389840231],[-76.56437959181568,0.9796984647484805],[-76.56533353292991,0.9778455476304089],[-76.56123579318859,0.9683165690091187],[-76.5626020420508,0.9655022483979678],[-76.54981489890895,0.9611799019527325],[-76.54716720449778,0.9583091784684825],[-76.53332751111611,0.9523011160046053],[-76.52834464129262,0.9474967632335165],[-76.5170226554153,0.924397969974109],[-76.48619821429656,0.8754275512437744],[-76.48283389393924,0.8755426576157674],[-76.47654706287466,0.8719229112176095],[-76.47017644459811,0.8714752147625973],[-76.47163439145214,0.8703487102496865],[-76.46913821027817,0.8682111901765666],[-76.47217521543416,0.8659694785918646],[-76.46730734913842,0.8652113560185626],[-76.46585758868679,0.8632689551454291],[-76.46691813301032,0.8609246214524546],[-76.45766362512836,0.8546726700158729],[-76.45086518093467,0.8417206665098433],[-76.44891201021147,0.8432957807347066],[-76.44454846024519,0.8433763787464841],[-76.44060462795522,0.838963032621848],[-76.44032870196969,0.8409980529713721],[-76.4358584449214,0.8400785430842461],[-76.43420999657428,0.8350673941767468],[-76.43510251910129,0.8341598882707331],[-76.4326837467388,0.8347119983808966],[-76.43517173636815,0.8315851834535124],[-76.43142549565397,0.8312293639393715],[-76.43216622315049,0.8276777456874242],[-76.42965474595093,0.8241953097352734],[-76.43158510890441,0.8231262097984313],[-76.42842759291096,0.8230117996820354],[-76.42912893311598,0.820184277982662],[-76.43118139996432,0.820563687911374],[-76.42749666628345,0.8178166531519651],[-76.43004485785247,0.8159317514716236],[-76.429663154497,0.8127021149181246],[-76.4273275666792,0.8126911290951284],[-76.42501620896712,0.8089096919925964],[-76.42343713112479,0.8093353900621878],[-76.42600772628566,0.8072775722273491],[-76.42600033384082,0.8050479674679991],[-76.42426126530961,0.8034049472404945],[-76.42387926164889,0.7975198947294189],[-76.42113307124083,0.7945638753080289],[-76.41955441608837,0.7877798210820401],[-76.49279080235038,0.7873615586518667],[-76.49814680037571,0.7905621046803049],[-76.57884388610694,0.7909896086949288],[-76.58388956188662,0.794775521579254],[-76.58959429448561,0.7964170094273868],[-76.5985591847267,0.7964180635809726],[-76.60507874307729,0.7997004417521794],[-76.60833796586513,0.8062640565233892],[-76.60833702381183,0.8144680916193465],[-76.6018155073067,0.827593782611757],[-76.62707936850052,0.837441640120403],[-76.65560274147458,0.8538530229257617],[-76.66375088689034,0.8719029440061377],[-76.67189844403697,0.8956957559882426],[-76.68004776187723,0.9039007753037254],[-76.69142497717468,0.927245260395523],[-76.69099395897194,0.9377351468006623],[-76.6887966647912,0.9436840923316936],[-76.69117744751549,0.9535679741248941],[-76.697754180071,0.965853275369966],[-76.70029485783903,0.9776611797685177],[-76.70441481193876,0.9811326134426395],[-76.70254552201584,0.9865274629409555],[-76.70369776330273,0.9902022793506262],[-76.70983918287959,0.9933903226033749],[-76.71141853634452,0.998092459500981],[-76.71460813871607,0.9989734624433595],[-76.71479103281985,1.0157450130178631],[-76.71884256258193,1.0279330092024566],[-76.66484730328887,1.0565554952389675],[-76.63708329627514,1.0736777981913406],[-76.63544243063473,1.0656101263458027],[-76.6332906656043,1.0643872207734262],[-76.63000235126287,1.0570600604514766],[-76.62680514767266,1.0555059449660007],[-76.62574461157669,1.0502677941120169]],[[-76.61551728448967,1.0347879601418981],[-76.62316218932688,1.032075575667875],[-76.61790549359739,1.030700178809468],[-76.6169672177196,1.0265056492573876],[-76.6225819235458,1.021968990817868],[-76.61620394573458,1.0237427476868106],[-76.61678408501717,1.0271482705367703],[-76.61177853597923,1.028443529097217],[-76.61551728448967,1.0347879601418981]]]}}]}