{"type":"FeatureCollection","features":[{"type":"Feature","properties":{"code":"861047"},"geometry":{"type":"Polygon","coordinates":[[[-76.9624497872428,1.155181551039675],[-76.9642275169852,1.1600654857213613],[-76.9690569185023,1.1650038702637175],[-76.98637628955328,1.1760121451773102],[-77.00857854421764,1.1989733842498822],[-77.01613999608662,1.2014342312242547],[-77.01891689578832,1.2011320501296154],[-77.0231896970152,1.1968413344624764],[-77.03337514900818,1.1993331488695276],[-77.03449690520193,1.2020459066682179],[-77.03255099014069,1.2161366582953406],[-77.02388405820926,1.225921253219326],[-76.99528774912017,1.230103520651312],[-76.99003123542508,1.2339715875809247],[-76.98224902014186,1.2366411785617402],[-76.9792882020077,1.239647017795619],[-76.97683153462373,1.2379833361579244],[-76.97140709477725,1.252482887515555],[-76.97669414395921,1.2614756876297406],[-76.9815238210989,1.2636373596469639],[-76.98481965849732,1.2708828894008661],[-76.9798838080373,1.2790945935927311],[-76.9814402416323,1.2875822762207463],[-76.97568694289225,1.2930577607547207],[-76.97415344048011,1.2929663815800723],[-76.97156705872658,1.2858357463390462],[-76.9660964356404,1.286411578504385],[-76.96451711714246,1.2844793787525646],[-76.96212945105242,1.2844341087698012],[-76.96330430161964,1.277280492980708],[-76.96167916086534,1.2739912664107464],[-76.95641464383056,1.2768440065490836],[-76.94448167979328,1.2745000430954292],[-76.93822569583358,1.2750523784345091],[-76.9344639132961,1.2776291092834526],[-76.93592915797825,1.2848979270897303],[-76.93058835004894,1.291384651384476],[-76.9302145142787,1.2971352946859156],[-76.92620890138977,1.3033693748768087],[-76.91767860216066,1.3071659424256268],[-76.91258956827284,1.3156312399737544],[-76.90863009645744,1.3185510181092468],[-76.90389215124821,1.307597689794079],[-76.90460942305629,1.2954209817945639],[-76.91105640936053,1.2868322865708137],[-76.91481795947004,1.2758078743656824],[-76.9210053370577,1.2698649873894965],[-76.92614009858528,1.2609911647049898],[-76.93363244734451,1.2528475824886982],[-76.93368564559069,1.2382094844971334],[-76.93621918082539,1.2177146840409705],[-76.9451532414451,1.2028103798741085],[-76.94800708613076,1.1791886606178537],[-76.95400355804742,1.1762808432688416],[-76.95510264428276,1.168432993812587],[-76.9624497872428,1.155181551039675]],[[-76.96501889321894,1.1936930600535334],[-76.96943480119387,1.1981522315198845],[-76.9703867111341,1.1960264644878862],[-76.97114486661758,1.1972022272836398],[-76.97590204061657,1.190636668756099],[-76.97838863259256,1.1915168119205077],[-76.98037721053475,1.1893979200266926],[-76.97807550064198,1.1869786457842793],[-76.9807609707753,1.184688378342912],[-76.9781537640892,1.1818701033702723],[-76.97489776341172,1.182160470745714],[-76.96615232120683,1.188026636938389],[-76.96501889321894,1.1936930600535334]]]}}]}