{"type":"FeatureCollection","features":[{"type":"Feature","properties":{"code":"861027"},"geometry":{"type":"Polygon","coordinates":[[[-76.88011062950807,1.173379306618358],[-76.88043641952919,1.1712030800825914],[-76.87907335781034,1.172160888140695],[-76.87827192032347,1.171072098671857],[-76.87740980472796,1.1670776443842215],[-76.88706885047463,1.1704726925470936],[-76.89669747694848,1.1677057533112247],[-76.9087294450332,1.1694498190446438],[-76.91957087057477,1.1659189321369468],[-76.92871915474274,1.1664702164078449],[-76.94004900820528,1.1642230941870366],[-76.94539779479163,1.1596975264716889],[-76.9624497872428,1.155181551039675],[-76.95510264428276,1.168432993812587],[-76.95400355804742,1.1762808432688416],[-76.94800708613076,1.1791886606178537],[-76.9451532414451,1.2028103798741085],[-76.93621918082539,1.2177146840409705],[-76.93368564559069,1.2382094844971334],[-76.93363244734451,1.2528475824886982],[-76.92614009858528,1.2609911647049898],[-76.9210053370577,1.2698649873894965],[-76.91481795947004,1.2758078743656824],[-76.91105640936053,1.2868322865708137],[-76.90460942305629,1.2954209817945639],[-76.90389215124821,1.307597689794079],[-76.90863009645744,1.3185510181092468],[-76.89559079977892,1.3131655418360424],[-76.88697700644394,1.3042233554919562],[-76.88237611457004,1.3024090234803793],[-76.87313694385142,1.2944868587676979],[-76.86729259606676,1.2846114533977016],[-76.85796919899116,1.2537934667842592],[-76.85904466704403,1.2282957449607466],[-76.86282135685587,1.2164468345021078],[-76.8686733716795,1.2050638702109495],[-76.88634369359778,1.1884298388562797],[-76.88590924862461,1.1786761342317504],[-76.88011062950807,1.173379306618358]],[[-76.92378951813242,1.2083800100931512],[-76.92764028357357,1.2074125099927642],[-76.92793517095384,1.2057977410812555],[-76.92387790351091,1.204835979690131],[-76.92632274894811,1.2002956929054562],[-76.92651000570504,1.1957445354832998],[-76.92463080982378,1.1989515586427046],[-76.92244523063175,1.1972664144381042],[-76.92159382626511,1.1991966786611101],[-76.91800995091359,1.198057539731849],[-76.91504033959586,1.199663673840007],[-76.91653726236444,1.2026425781643297],[-76.91456044157712,1.2047552171275697],[-76.9165926347381,1.207137742033467],[-76.92378951813242,1.2083800100931512]]]}}]}