{"type":"FeatureCollection","features":[{"type":"Feature","properties":{"code":"861008"},"geometry":{"type":"Polygon","coordinates":[[[-76.87772440118067,1.1745019153909766],[-76.86286922879827,1.1721419010348768],[-76.85408793097338,1.1537092934079851],[-76.85478195072449,1.1473432506721792],[-76.85153538292184,1.1443728392262074],[-76.84650439124442,1.1438675849571496],[-76.84456668212601,1.1413550134947172],[-76.84598189822185,1.1345329901994319],[-76.83576300744886,1.1231273744618306],[-76.83248744373776,1.1112262911141784],[-76.83576458816498,1.1036721782110135],[-76.83773053934334,1.0914170668960423],[-76.83557125948346,1.0864632845123197],[-76.82755287780247,1.0813140096039433],[-76.81230920405949,1.082805436375736],[-76.80827326445757,1.0783415268746808],[-76.80357332842692,1.0768336542785732],[-76.80154415888688,1.0804429568429441],[-76.79277797093954,1.0747786276367606],[-76.78696442295143,1.074411249457114],[-76.7831572932979,1.0677039777211235],[-76.77707676883102,1.0700309441053264],[-76.75021955398427,1.071608725081603],[-76.74250947571625,1.0600475039340722],[-76.7326292284389,1.0514479185325172],[-76.72966124103186,1.0447365618228446],[-76.73008855889844,1.0352105821398823],[-76.73516985581318,1.0262362137725631],[-76.73175204307518,1.0110367856836433],[-76.72767730033695,1.0032862104345668],[-76.74182280110153,1.0068700631603633],[-76.75966125588809,1.0049576640123519],[-76.78103971163989,1.0131219611178608],[-76.80123522812403,1.01697229461314],[-76.81470911581465,1.0216552510577799],[-76.83713290933883,1.0323497748984778],[-76.84641812651438,1.0412927541717067],[-76.85623728224925,1.0443162918728603],[-76.8843143790474,1.0582484391516118],[-76.89954330903839,1.063731401491225],[-76.91225416334265,1.0718584844041743],[-76.92298923455803,1.0825834840819653],[-76.94395588444178,1.0920891797931063],[-76.95107403541908,1.1026996839937624],[-76.9587498099869,1.105159107603697],[-76.96293044939438,1.1099295567387344],[-76.97153685851202,1.11501072304128],[-76.97136907017199,1.1302874067038147],[-76.96873682399587,1.1368168000501555],[-76.97031587509872,1.1454950715888685],[-76.9633654188732,1.1511624203022848],[-76.96143544364259,1.1559683486473205],[-76.94593938496331,1.1594841647582825],[-76.94004900820528,1.1642230941870366],[-76.92871915474274,1.1664702164078449],[-76.91957087057477,1.1659189321369468],[-76.9087294450332,1.1694498190446438],[-76.89669747694848,1.1677057533112247],[-76.88706885047463,1.1704726925470936],[-76.87740980472796,1.1670776443842215],[-76.87916522960899,1.1720413440392008],[-76.87772440118067,1.1745019153909766]]]}}]}