{"type":"FeatureCollection","features":[{"type":"Feature","properties":{"code":"861001"},"geometry":{"type":"Polygon","coordinates":[[[-76.87163443663991,1.173472772502862],[-76.87772440118067,1.1745019153909766],[-76.88003507600689,1.1708892107387214],[-76.87917207903615,1.1747342940349768],[-76.88257107024765,1.1767891972636448],[-76.87960809032728,1.1794749646168725],[-76.87746026320326,1.1787654493223272],[-76.8748212868993,1.1813878512465976],[-76.87290296906463,1.180956467946828],[-76.86883807777735,1.1782419360848166],[-76.87163443663991,1.173472772502862]]]}}]}