{"type":"FeatureCollection","features":[{"type":"Feature","properties":{"code":"862027"},"geometry":{"type":"Polygon","coordinates":[[[-76.83659877229013,0.4883930685481914],[-76.83657048703554,0.4848372439663535],[-76.84145381699301,0.47621831561787076],[-76.85086817672402,0.46504359653863503],[-76.86557022532827,0.45711000994333517],[-76.89891811163216,0.45725620407580436],[-76.90299967088737,0.44467099459404835],[-76.9060484928479,0.4276728215683647],[-76.90820246800132,0.4295172026134537],[-76.91033041841678,0.42901145674892405],[-76.9064810331455,0.4268448080983376],[-76.90852148161463,0.42345978416466323],[-76.9063071574542,0.4219274017264638],[-76.90665479056594,0.42009100962280854],[-76.90948451621762,0.41837837206435324],[-76.90617000744521,0.41555077631710446],[-76.90367148759299,0.40687094977334937],[-76.90463252496056,0.38894538899080544],[-76.90022317844893,0.3732868405073759],[-76.90700647882653,0.36504771392418434],[-76.9107294119479,0.3729475974296861],[-76.91844969339417,0.38233885628488906],[-76.94774064649897,0.38360138054838444],[-76.95980679589928,0.3506152334738317],[-76.98913835088626,0.35460207831528123],[-77.00066524570792,0.3840122155666563],[-77.01507347136987,0.37882247247364376],[-77.0127642929275,0.3767194587039171],[-77.01160405550002,0.371518609460054],[-77.01448825569503,0.37093740985324075],[-77.016389624797,0.3675775868750861],[-77.02385379628811,0.36404646753942416],[-77.02221493816751,0.3591349253467797],[-77.02414241531125,0.35863761476775835],[-77.02425271371447,0.35464668495262686],[-77.02835376401231,0.35464258352385514],[-77.02374939086053,0.34812433129530973],[-77.02246474788376,0.3478916338341378],[-77.02131520317312,0.35103106466584677],[-77.01315761871189,0.34285149930269654],[-77.01324071686741,0.3396717524958035],[-77.01098564067217,0.33813305233519486],[-77.010276709533,0.33382631147674147],[-77.01500658146847,0.3327207100580267],[-77.01515709505952,0.33139919844541055],[-77.01124804778084,0.3306049888525422],[-77.01433766599922,0.32885416830868053],[-77.01310851366696,0.32474064197469943],[-77.02505575557171,0.32153483032055874],[-77.03010123286202,0.316782184553972],[-77.03559523450355,0.3193359081153062],[-77.03845053443536,0.32424545204412425],[-77.0489634312134,0.2848918398977389],[-77.06064455230359,0.2924803994546892],[-77.07763555605652,0.296719639516823],[-77.0812214934353,0.3022355860648531],[-77.0829229682787,0.3096135514471712],[-77.08059596178526,0.316927726653887],[-77.0806876577202,0.32360905489889547],[-77.0987088081211,0.34184741030281884],[-77.10616297698033,0.3437799350424484],[-77.10824594743383,0.3475790623847388],[-77.10946639605703,0.36087836064490375],[-77.11603567754645,0.37248080588238963],[-77.1131133992672,0.37385901450267056],[-77.11290763568718,0.3835051944333827],[-77.11014564325978,0.38299483086188957],[-77.10786419265617,0.37799306443554315],[-77.10505691996161,0.38266303473653807],[-77.10018895082158,0.38044262322483746],[-77.09813627725629,0.38353024317939344],[-77.09737363879185,0.39429942783311844],[-77.09040028943588,0.39345702850914677],[-77.08809571121691,0.39458002397611835],[-77.09093422696674,0.40009247279118654],[-77.09595438091691,0.4012403884488549],[-77.09334518419456,0.40473690377905314],[-77.09371905390338,0.4075691223753779],[-77.09932700800442,0.409228151339164],[-77.09879249248888,0.41172879698211773],[-77.09450453407612,0.4134130824372164],[-77.09027787392284,0.41849181750166053],[-77.08946171942353,0.42492226850708903],[-77.0955732123515,0.4308425276909702],[-77.09919699435812,0.42987301698542524],[-77.10178338331076,0.4268866945052423],[-77.10525472853874,0.4372991556438137],[-77.09829688809594,0.4594161236269656],[-77.02025276343005,0.5568132255849036],[-77.01579695599918,0.5529177228942217],[-77.01456871692392,0.5432307014541493],[-77.01639209922968,0.5383871341697954],[-77.00663374810188,0.5325381686782293],[-77.00900680105218,0.5266889687017624],[-77.00661104420482,0.5236164905064129],[-77.00143062291477,0.5216743045777434],[-77.00555058524202,0.5148544492392944],[-77.0008656994392,0.5111643213773505],[-77.00247593394766,0.5033849404817374],[-76.99824118303712,0.498119045333965],[-76.99903466654956,0.4918585022886077],[-76.98495780609557,0.4888774104670688],[-76.97757226006337,0.4835540150980364],[-76.97400154774766,0.48377063388886654],[-76.97094217396688,0.48912795860502456],[-76.96629556268084,0.483210588316183],[-76.95787236648408,0.4868660093284234],[-76.95541559522746,0.48121124052391906],[-76.95274537689664,0.4800003553876877],[-76.94577962567399,0.4827310872763064],[-76.9341059145122,0.47916603653658285],[-76.92442401882965,0.4797142961580221],[-76.91645907399351,0.47750921255362755],[-76.90185554709723,0.4820440434507418],[-76.8920058877573,0.48860138780787565],[-76.8833078855489,0.4825350373358219],[-76.86684318519804,0.48298054526520673],[-76.85487946044503,0.47978099682597986],[-76.84976810215545,0.48056902753620534],[-76.84642606197684,0.47868419373304505],[-76.84191698739414,0.48108319943031574],[-76.83659877229013,0.4883930685481914]]]}}]}