{"type":"FeatureCollection","features":[{"type":"Feature","properties":{"code":"862060"},"geometry":{"type":"Polygon","coordinates":[[[-76.4867312293145,0.4974987803380486],[-76.4907560051729,0.49264299824187674],[-76.49291182843757,0.494451763294137],[-76.49439426045109,0.49230874516734957],[-76.5003497149948,0.4941992642007449],[-76.50492225785064,0.4928703786552546],[-76.50537577220501,0.4957981519028749],[-76.50937741427742,0.4970576710573482],[-76.51133536108767,0.5006480677628815],[-76.50234315644173,0.5030437042825042],[-76.50130961799033,0.5083338717021775],[-76.5032949388551,0.508650622741925],[-76.50330381739934,0.5098532628545058],[-76.50139937633958,0.5093212598239916],[-76.50104160895523,0.5108156382257789],[-76.50237815434065,0.5132172818781555],[-76.5037795821076,0.5127290298208322],[-76.50338669032595,0.5147245456362839],[-76.50593490657764,0.5192132035780901],[-76.50256840695062,0.5189335823985743],[-76.50383282457682,0.520388713376974],[-76.50346431202507,0.5219079759739884],[-76.50200014103689,0.5217088458481953],[-76.50076896164444,0.5270441372118171],[-76.49913428105731,0.5242858636325991],[-76.50214414252991,0.5181819503259817],[-76.49638643691367,0.5148626726656289],[-76.49549728973506,0.5127102802852619],[-76.49670820263918,0.5089607485550118],[-76.49518339982234,0.5084231158301691],[-76.49371872386888,0.5115796424619248],[-76.4912933869578,0.5110368932355414],[-76.4898468383322,0.5139576545620343],[-76.48859828957404,0.5131436495075832],[-76.48988308990255,0.510259002968553],[-76.48816765600884,0.5071751100896904],[-76.49165002511222,0.5073636112620648],[-76.48574257106617,0.5041907107969905],[-76.48791651754487,0.5029158256828055],[-76.48797027629223,0.504887215265228],[-76.48953320038794,0.5052219650775669],[-76.49227829961848,0.5028503303494745],[-76.49220854550464,0.5013694399712563],[-76.48977621724134,0.5004381852705819],[-76.49100700685403,0.49884666738751093],[-76.4874945105555,0.5003294326164109],[-76.4867312293145,0.4974987803380486]]]}}]}