{"type":"FeatureCollection","features":[{"type":"Feature","properties":{"code":"862020"},"geometry":{"type":"Polygon","coordinates":[[[-76.90617000744521,0.41555077631710446],[-76.90948451621762,0.41837837206435324],[-76.90665479056594,0.42009100962280854],[-76.9063071574542,0.4219274017264638],[-76.90852148161463,0.42345978416466323],[-76.9064810331455,0.4268448080983376],[-76.91033041841678,0.42901145674892405],[-76.9048544721121,0.42784981549738177],[-76.90325091939468,0.431383469943853],[-76.90195736702037,0.4305972174107069],[-76.90252788933697,0.42464379198412416],[-76.89969604303684,0.4212692612494493],[-76.90058932352599,0.4203773794421295],[-76.90175261645618,0.42158301643615914],[-76.9009160885106,0.41808761696609054],[-76.90674741929826,0.4198048814874369],[-76.90617000744521,0.41555077631710446]]]}}]}