{"type":"FeatureCollection","features":[{"type":"Feature","properties":{"code":"862001"},"geometry":{"type":"Polygon","coordinates":[[[-76.86531704746278,0.6684203394212318],[-76.86954245085929,0.6619599113732875],[-76.8721919203623,0.6648534354281423],[-76.87181076105287,0.666835660680988],[-76.87821713930424,0.6660283302184098],[-76.87628881472386,0.6688355977707943],[-76.87777836664497,0.6705664870986539],[-76.88775122619955,0.6740966499828005],[-76.88885663735635,0.6789938094067907],[-76.88566001586463,0.6805615702676846],[-76.88651779143265,0.6858691163089929],[-76.89107933509581,0.6844194823558496],[-76.89398893679254,0.6848469915126998],[-76.89496922249032,0.6869247590754526],[-76.89288215369339,0.6861938789160149],[-76.88750132495193,0.6916294105150769],[-76.88391006949689,0.6903207729458813],[-76.88168436767688,0.6912091539348921],[-76.8811031012213,0.6806885716058559],[-76.87487526059112,0.677729915257828],[-76.87322057576858,0.6786426744482696],[-76.87521614609153,0.6755052778758568],[-76.87271280695762,0.66956122670274],[-76.87068473682262,0.6698997313587256],[-76.87179190044554,0.6695782258291274],[-76.87015247256772,0.6685539639292983],[-76.8691844315066,0.6704327258078138],[-76.86531704746278,0.6684203394212318]]]}}]}