{"type":"FeatureCollection","features":[{"type":"Feature","properties":{"code":"863007"},"geometry":{"type":"Polygon","coordinates":[[[-75.9863401996077,1.069338046384928],[-75.97440075638252,1.0604395719332729],[-75.95486881466564,1.0372033715542557],[-75.94482764595898,1.0292890908819459],[-75.93822011772068,1.0281676617328799],[-75.92648638253968,1.0341322437039366],[-75.92459492453827,1.033972399053937],[-75.9202838169129,1.02883277402168],[-75.92190125051894,1.017902783124157],[-75.93185691862845,1.0057668230456898],[-75.93230064221001,0.9933878337724877],[-75.93585627550152,0.9908594860018525],[-75.94575143930916,0.9880670938420621],[-75.94660566880748,0.9820162687382208],[-75.94359171207674,0.9797113470194745],[-75.93359738275615,0.9797164048997615],[-75.9132029901715,0.9750720860120623],[-75.91140963838728,0.9726444474466689],[-75.90807575890005,0.9503413961594447],[-75.90578675952838,0.9454513607567492],[-75.89662424171598,0.9404745998817816],[-75.87778548979713,0.9345999480099181],[-75.87093546818267,0.9288963775509842],[-75.86856249133712,0.9209634327037861],[-75.8693716503704,0.9047608299003969],[-75.86442626213449,0.8891339214510481],[-75.84727481003574,0.882179156051393],[-75.83301607877831,0.8790555200398558],[-75.82868246163156,0.8821163069006275],[-75.81869439038365,0.897501627003237],[-75.81146922482009,0.8994616173287682],[-75.8037244530721,0.8983878945428501],[-75.79638561684226,0.8879433264572754],[-75.78352978299614,0.8764120196172485],[-75.78068368351114,0.8703363977358549],[-75.77300048050301,0.8612019173234557],[-75.7700942726666,0.8535646743829943],[-75.77190926185295,0.844200495447808],[-75.76760078086977,0.8391458907301512],[-75.77424354457719,0.8304876409104054],[-75.79030350548862,0.8309225497112038],[-75.79408573243495,0.8288706762741072],[-75.79418323701327,0.821274275871474],[-75.79954325007816,0.8115393320953785],[-75.8005996981151,0.8064245501206528],[-75.79761057415749,0.7860245525242817],[-75.79442354083528,0.778258123833723],[-75.8170462629106,0.7606753840804004],[-75.81286708389149,0.7525327871119885],[-75.8133310523641,0.7461828981228678],[-75.81603958943464,0.741360450934053],[-75.82398673707303,0.7353983433956728],[-75.82341750750862,0.7251286403630957],[-75.81327872109495,0.7172781292975969],[-75.80939240136752,0.7159251350025784],[-75.81052749954608,0.712769310797114],[-75.81918430748937,0.7091816908863393],[-75.82574833569447,0.7022416692386173],[-75.83050154813293,0.7044510630456102],[-75.83355630832051,0.7109317812360132],[-75.83942344844831,0.7162406735086506],[-75.8463935160442,0.7143758315996251],[-75.8531652474719,0.7184235417261675],[-75.87720369677896,0.7132822444464182],[-75.87820610736065,0.7071122598786133],[-75.87377880424259,0.6983446166850626],[-75.86510315831771,0.671653742131241],[-75.87081932925435,0.6603922996366123],[-75.8716847790605,0.6530828295544211],[-75.87971630937903,0.6454010807640316],[-75.88268207020798,0.6363698693502329],[-75.88596499551062,0.632704039471264],[-75.90980677472635,0.5863152294926977],[-75.91161682224646,0.5958820537703104],[-75.91269240239956,0.595207744119989],[-75.91194449843107,0.5923036301925322],[-75.91463064116584,0.594842645997403],[-75.91952099641412,0.5955522919041982],[-75.92287069437572,0.5921581755102352],[-75.92413699199483,0.5879388049575027],[-75.9297525894807,0.5892216131928194],[-75.9326213578957,0.5824420470900122],[-75.9298515924998,0.5814921652384442],[-75.92953118740371,0.5780399973780277],[-75.93414760670277,0.580304974389378],[-75.93360530073511,0.5744852526608497],[-75.9357952364096,0.5717412250673988],[-75.93825919339417,0.571353499152508],[-75.94317353603577,0.5664386741713656],[-75.95044406105666,0.5663831835267956],[-75.95087123288431,0.5651594603426133],[-75.94853625596136,0.5633072487361801],[-75.94962044417838,0.5599003971385059],[-75.95295478029408,0.561295812630533],[-75.95529659738821,0.5562428997008055],[-75.96059896727837,0.5611492811688663],[-75.96476451943408,0.5612417011274147],[-75.96674868330103,0.5642260603108298],[-75.9725088047287,0.5618950305502608],[-75.96828185146933,0.5610936701965556],[-75.9682364426468,0.5595503255895551],[-75.97694899937369,0.5575623616275038],[-75.978887219628,0.5608670384893912],[-75.97584231294815,0.5609471459340512],[-75.9756975822894,0.5661721049557968],[-75.97828378098018,0.5638398338651314],[-75.98008433700426,0.5649267022033655],[-75.97754476172662,0.5673612066510714],[-75.97845986782289,0.5720259565778179],[-75.98064975104683,0.5744046453930878],[-75.98673062209883,0.5731603533585599],[-75.9866770957795,0.5708962134993953],[-75.99102630822864,0.5732074940783036],[-75.9939022808835,0.5767140480359672],[-75.99249811026033,0.5845475743732891],[-75.9941319454677,0.5854486185749579],[-75.99310821115881,0.5831639108939157],[-75.99519163721232,0.5811611353026933],[-75.99928919594777,0.5811066360767541],[-75.9998841653715,0.5831971532414286],[-75.99766396880432,0.5858501307618553],[-75.99947225357391,0.5880797961992812],[-76.00128783617163,0.5871222102848037],[-76.00115065222406,0.5830950391837746],[-76.0025696344764,0.5824342062442724],[-76.0046828915336,0.5873300400058383],[-76.00923085255636,0.5850959635784534],[-76.01139042346551,0.5875045235067091],[-76.01677701765578,0.5893899692331388],[-76.01798928296182,0.5851691341783294],[-76.0151134748578,0.582098214073369],[-76.01703553930861,0.5809587079901917],[-76.01977444011607,0.5837207271570719],[-76.02032387113354,0.5873838604597381],[-76.02323916114585,0.5859700461310808],[-76.02328465635753,0.5894046255675107],[-76.0253746387321,0.5917334935418808],[-76.02460501405767,0.5941634245056662],[-76.02864025020494,0.5940507030918525],[-76.0319136490445,0.5964486752044422],[-76.03162354906414,0.5869788659665574],[-76.03321799800835,0.5811039127609661],[-76.03576583682161,0.5785152324384057],[-76.04206896047259,0.5795914162872577],[-76.04490632230994,0.5771393069605324],[-76.0450895259749,0.582593335098295],[-76.03950446706119,0.5858536120397275],[-76.04613475987463,0.5887660830911159],[-76.04673777686105,0.5942544324126402],[-76.04926276470997,0.595499629476592],[-76.05104842991483,0.5926367098142009],[-76.05441328506225,0.5950000779213269],[-76.05793798485968,0.5939069268277422],[-76.0614325008977,0.5885804163063426],[-76.0625160432528,0.5900414032364552],[-76.06702520422465,0.5896668958932878],[-76.07420464317693,0.5936868370434354],[-76.07470845042735,0.5950565239889443],[-76.07118280240593,0.5949295864141959],[-76.07404403233721,0.5980681718662026],[-76.07125973916226,0.5983403666622849],[-76.07222919021814,0.6023687194438025],[-76.06984749526532,0.6031089964825469],[-76.06977948641844,0.6060984217738223],[-76.07494473201069,0.6044583398065697],[-76.07379230971793,0.6064194809592891],[-76.0764170595765,0.6088130420819198],[-76.07554737772938,0.6106706715235646],[-76.08062806272085,0.6110229655367903],[-76.07766903613356,0.6090616876011836],[-76.07878287537682,0.6075293041345162],[-76.08236096985291,0.6099032867969072],[-76.08583904623725,0.6089654500640904],[-76.0887233173948,0.6106318467899996],[-76.09106592638966,0.6147403995760214],[-76.08970032338937,0.6153329480460457],[-76.08850943734637,0.6133466635305922],[-76.0874109033847,0.6153242186259149],[-76.0861686620645,0.6140774285045154],[-76.0838712788294,0.6151679940935537],[-76.08191010373804,0.6180784236865406],[-76.08338345460413,0.6176423157218096],[-76.08474920467171,0.6205611219791081],[-76.08253632547303,0.619721935509574],[-76.07989630632841,0.621410836614757],[-76.08027755202698,0.6235142535339264],[-76.08243670127467,0.6233072949036682],[-76.0844205977466,0.6255835672992021],[-76.08479479552858,0.6282603944015932],[-76.0915082965409,0.6315600483502521],[-76.09102852296371,0.628664095114118],[-76.09803158299559,0.6261488013643657],[-76.09968765724398,0.628113921561237],[-76.09602604912152,0.628917480725022],[-76.09818471500131,0.6304124257986814],[-76.10293813621354,0.6278504993798038],[-76.1030521328961,0.6294931154293977],[-76.10728687455071,0.6321605322827395],[-76.11439005860399,0.6320119655333656],[-76.1163970816628,0.6345864050123851],[-76.11464214323507,0.6351378610331153],[-76.11638840572175,0.6367701700318094],[-76.11473343499216,0.6376198425012376],[-76.11434439986994,0.6414351246186243],[-76.11323749849993,0.6391139884750601],[-76.11128526674474,0.6388955585969711],[-76.1086303845488,0.648271792935418],[-76.11062035705908,0.6446066695964419],[-76.11538166231173,0.647905849433073],[-76.11602977753103,0.6464691172913035],[-76.11358110731607,0.6452048354195199],[-76.11748012522332,0.643286070212298],[-76.12297384095785,0.6441492193925455],[-76.12340808641318,0.6454013522728701],[-76.11944883159919,0.646825858289958],[-76.12408786017852,0.6489066649003803],[-76.13154870568655,0.642380545086553],[-76.13028269191761,0.646195552609754],[-76.13196140115735,0.6458514521980874],[-76.1336854585416,0.648000053739338],[-76.13566915035341,0.644162696103308],[-76.13481534148815,0.6419329699877494],[-76.13896499597939,0.6354065920348262],[-76.13691322744347,0.6332451606731411],[-76.1382558745783,0.6328779593856098],[-76.14199450481783,0.6356250805341688],[-76.14574783355789,0.6356026779707804],[-76.14791461796284,0.638016598141462],[-76.15617781524321,0.6358803183700275],[-76.15453675111337,0.6377879085207496],[-76.1560548145464,0.6439476024927444],[-76.16395948030964,0.6433970515013812],[-76.16607346653257,0.6469140215248785],[-76.16741629673021,0.6458797662490383],[-76.16962198403036,0.6512014451474784],[-76.17571687378228,0.6489383635557147],[-76.17836400049322,0.6512830613173151],[-76.18144688755524,0.6464342890853914],[-76.18525421775507,0.6483763022357039],[-76.18350015658882,0.6510312193987033],[-76.18394183151293,0.6538004829146757],[-76.18461339213633,0.6524107464822464],[-76.18645289425012,0.652835796632985],[-76.18658877618947,0.650353823392436],[-76.1882533124629,0.6497905382258296],[-76.18879375489274,0.652709970804608],[-76.19079402416952,0.6499747230249113],[-76.19335711375686,0.6526300865319854],[-76.19276188619409,0.6447581653500833],[-76.19593615243082,0.6383458869239576],[-76.19030442588092,0.6369197436263789],[-76.19002351914827,0.6319091552201144],[-76.19274659325384,0.6308065702233421],[-76.20295516052084,0.6364507388707921],[-76.20604539169096,0.6357388962107962],[-76.19540914248876,0.6283591917321587],[-76.1942644581975,0.6241069243886272],[-76.20172599276202,0.6285441087823642],[-76.20899037386727,0.6299469804826572],[-76.20412261247264,0.6249016492311625],[-76.20719021482199,0.6210058112682191],[-76.21015727971604,0.6211441480998587],[-76.21351511265794,0.6260398800456528],[-76.21512513119347,0.6211449410290584],[-76.2189169339681,0.6210423271483023],[-76.22288453047935,0.6243522531808026],[-76.22302115392574,0.6264098725262102],[-76.21967956317656,0.6310632036556854],[-76.21513979678377,0.6337288207346319],[-76.21801589799395,0.6377740790542248],[-76.22284589395082,0.6408780605007678],[-76.22643977604804,0.6358450592467193],[-76.23281746795226,0.6409483884855263],[-76.23122382016476,0.6445108454931869],[-76.23488467752418,0.6532680685071455],[-76.23486295578971,0.6575782237947578],[-76.24001324268556,0.6656348666227245],[-76.24163739407817,0.6729328171202269],[-76.23869307627575,0.6772420056718715],[-76.23859282267057,0.6826892100934856],[-76.23535858486525,0.6873425854460038],[-76.2380745575752,0.6892165362704077],[-76.23776099470723,0.694422660395901],[-76.23903568441733,0.6953766858424046],[-76.24760442168554,0.6939990212682687],[-76.25534789039682,0.6964365771049188],[-76.25380719094397,0.7049750884474975],[-76.25758374294446,0.7096415085649141],[-76.25928448450833,0.7170081507951522],[-76.26776905712615,0.7239393916005952],[-76.27201106267029,0.7302739321136187],[-76.270736484032,0.7353086992035287],[-76.27179770095688,0.7425699713270433],[-76.27889285390256,0.7611356223919188],[-76.28369951552713,0.7642667392943849],[-76.28823932614296,0.7634882802986453],[-76.29210744552313,0.7647034314144321],[-76.29794491714114,0.7691696806222126],[-76.30682525398055,0.7697557581319074],[-76.30930502121191,0.7673439133582178],[-76.31173142770325,0.769080500257644],[-76.31731600530588,0.7664235848308749],[-76.32118413291357,0.7688812086663575],[-76.32158883224378,0.7724374888482544],[-76.32486225782287,0.777126863802664],[-76.3259683055856,0.7763084683271018],[-76.32751639851176,0.7787046128972861],[-76.32958463446926,0.7789813750065946],[-76.32987523530113,0.7821727977214437],[-76.33313288251509,0.7823495479095754],[-76.33488811507738,0.7806203020328439],[-76.33466636127304,0.7836059457410443],[-76.3372903007189,0.7833944269966651],[-76.33714528518152,0.7860947354986365],[-76.34564548704031,0.7873980591053282],[-76.34656802980442,0.7897244876140235],[-76.35070307115592,0.7918514013594518],[-76.35341196098233,0.7972577457598504],[-76.35570144166508,0.7978889492703729],[-76.35827151849094,0.8039046952283115],[-76.36542887575393,0.8119492651695737],[-76.370678063853,0.814890981012411],[-76.37283003457196,0.8134653807324526],[-76.37597304849743,0.817602800871498],[-76.37776540166396,0.8172007117283897],[-76.38101681240249,0.8223145609057951],[-76.38923341095227,0.8254633834746414],[-76.3938418598218,0.8342320581959939],[-76.39590084185352,0.8350824639450138],[-76.39597772615934,0.8379327851865241],[-76.39954076937926,0.8377826850293673],[-76.39990797066679,0.8410468134880489],[-76.40663680164329,0.8508615921715545],[-76.40656009731487,0.8595504700379024],[-76.40894787550519,0.8631707872216907],[-76.4100935183049,0.8696065460189288],[-76.41184018496944,0.871698459808556],[-76.41423545124974,0.8710661640920989],[-76.41548698763336,0.8735598821462531],[-76.41471645895791,0.8759622909598193],[-76.41668523423948,0.8760536948170738],[-76.41757747291632,0.8789497262148416],[-76.42556534687844,0.8822365585705825],[-76.42561215129746,0.8845356819304016],[-76.43262358696524,0.8926720537362485],[-76.43799418064674,0.8941312645461039],[-76.4408177736957,0.8984294004260391],[-76.44496712685327,0.8975095028160354],[-76.45838829863726,0.9080595870471484],[-76.4657358550312,0.9086912029631549],[-76.47013080334756,0.9110928198759893],[-76.47272399236215,0.9146325719581228],[-76.4844519075869,0.9177458947480659],[-76.48717528199768,0.9370084493169202],[-76.50283892332851,0.9564312115760458],[-76.50443346688945,0.9685427101492223],[-76.51006446221669,0.9740485666476957],[-76.5107965888485,0.98106632620852],[-76.51658038810831,0.9921988174379521],[-76.4766297383403,1.011333829707894],[-76.47551561627535,1.0054804624822964],[-76.47182948596952,1.0005931401109933],[-76.46045048529584,0.9936727637722811],[-76.45268762221554,0.9845871744887518],[-76.443926814051,0.9803850447464129],[-76.44405171942333,0.9728992800761489],[-76.42943941065636,0.9626277926957982],[-76.42399331798111,0.9609853761641034],[-76.41086865748815,0.963497973337553],[-76.40845156560073,0.9724504554196756],[-76.4040138957821,0.9745798765079599],[-76.39629592627466,0.9745857622845051],[-76.39083921698727,0.9806353974802846],[-76.3870885837951,0.9807243886114634],[-76.38400329223441,0.977489271487741],[-76.3779625726068,0.977141055249092],[-76.36836681721275,0.98326809102889],[-76.36083315283213,0.98240298575098],[-76.3537107893543,0.9889672247867907],[-76.35007506610162,0.988288115395278],[-76.34491568674548,0.9844570816523515],[-76.34820861982229,0.9787491423695656],[-76.34962766275271,0.9688881619343874],[-76.34611775812931,0.9666122443514951],[-76.3368482051618,0.9702251670335613],[-76.32531251304289,0.9637164011587629],[-76.31318831423306,0.9619012751895184],[-76.29453402376436,0.9670272908418838],[-76.28142675114907,0.9724292324798398],[-76.26593699990775,0.9718745121825236],[-76.25711839224516,0.9691623735062649],[-76.25032777141371,0.9700252717465219],[-76.23177289842641,0.9679886336569439],[-76.21986248299135,0.970692241402503],[-76.21130187864657,0.9760081815917374],[-76.2096156124112,0.9787119970827121],[-76.20154262454622,0.9797236945003078],[-76.19831621113161,0.9825528267406298],[-76.1890838898401,0.9854727262323308],[-76.18626117713802,0.988761359390935],[-76.18437660250237,0.9981220241380697],[-76.18867974998267,1.0020957625080769],[-76.19229617348304,1.0034732656167193],[-76.1985519065027,0.998459048865243],[-76.20174111395238,0.998820149431765],[-76.20408430196039,1.0011485690051813],[-76.20437399776279,1.0050180922094114],[-76.20154259060763,1.0138048788320475],[-76.19720914623917,1.014098563962989],[-76.18968718450606,1.0093097118775063],[-76.18166799652613,1.0096025176901549],[-76.17324399814424,1.0052852723197816],[-76.16803572148854,1.005834764015333],[-76.16429257535793,1.0107982980910606],[-76.16527720005467,1.0209214789180123],[-76.16682616201473,1.0228821891532789],[-76.17399481466191,1.022584902416611],[-76.17450652343621,1.0250839292910428],[-76.17248115399127,1.02668273677466],[-76.16404305874778,1.0283856339540307],[-76.15541396321657,1.0221863809406386],[-76.14387864853609,1.0204123556482045],[-76.14068925082455,1.014738708752816],[-76.12835182091351,1.0063736216152392],[-76.1180520534208,1.0046002092745425],[-76.11502294876027,1.0064679215666956],[-76.11160482646102,1.0129264613941587],[-76.10447046928653,1.0153345667508233],[-76.10124364963713,1.022431925705746],[-76.09881816565871,1.022447642364284],[-76.09392659581982,1.018265589876819],[-76.0903484725473,1.017411970245007],[-76.0778889212578,1.0235883116159812],[-76.07692047807564,1.0284904445880443],[-76.07916324998456,1.042212746398377],[-76.09031773857106,1.0470199942351996],[-76.09251542047463,1.049824320441985],[-76.09116536238304,1.055315269666096],[-76.08511452802321,1.0577600564820955],[-76.06673410356973,1.0550136315891336],[-76.05245272189421,1.0470832732748931],[-76.04265548638324,1.0564769037185329],[-76.0305632289411,1.0494312527966372],[-76.01462416967536,1.0521493708376966],[-76.00946706523405,1.051108126266513],[-76.00419471455257,1.0461153741388216],[-76.00030289265766,1.0316702777841442],[-75.99513081306486,1.0261153069847069],[-75.99048351992144,1.0311260465720693],[-75.98676901694341,1.041861028312951],[-75.98599854586075,1.049389488774409],[-75.98833264449377,1.0557743664064674],[-75.99632070768928,1.0587577948494413],[-76.00035657324338,1.0626000211323117],[-76.00073847405986,1.064843619909027],[-75.99812042656117,1.0694390744073416],[-75.99480953790646,1.070897486117417],[-75.9863401996077,1.069338046384928]],[[-76.40801571371821,0.9660608243262345],[-76.40823109426424,0.9673653378409313],[-76.41099595398936,0.9610995394543238],[-76.40757307925725,0.9617630391452394],[-76.40606415559284,0.9600597758403637],[-76.40649553889267,0.9649255626252966],[-76.404922103086,0.9651835669715751],[-76.40494010391541,0.9656316974293304],[-76.40801571371821,0.9660608243262345]]]}}]}