{"type":"FeatureCollection","features":[{"type":"Feature","properties":{"code":"864009"},"geometry":{"type":"Polygon","coordinates":[[[-74.77876625441007,-0.046455906151095405],[-74.74574219585895,-0.06185050897590827],[-74.73534020220836,-0.05986252547342019],[-74.72226109966209,-0.05002102373953221],[-74.71773901013933,-0.049136828511620934],[-74.71162675410699,-0.05253326815721948],[-74.70804154486547,-0.052709756092554017],[-74.70345763052069,-0.050290913795947745],[-74.70036638427786,-0.05091470429283618],[-74.69545492127531,-0.06189783172993657],[-74.69521780562508,-0.07076903085760478],[-74.69337034028081,-0.07380033021445342],[-74.6897736556777,-0.07413820649202307],[-74.6843733040119,-0.070230164001714],[-74.68197659379831,-0.059577267400470646],[-74.6541067569641,-0.053111666286611126],[-74.65891869552723,-0.057285028434819196],[-74.66922969052695,-0.062125561813729746],[-74.67291146949248,-0.06622575747582005],[-74.67185896450411,-0.07706059070085303],[-74.66799814295206,-0.0792547316768264],[-74.6614317760687,-0.07648563888233184],[-74.6535084132205,-0.06590210455829038],[-74.6426606452739,-0.05745587639137284],[-74.63618301241104,-0.05642106884187115],[-74.62891884522185,-0.05822439754700781],[-74.62317388097995,-0.06082069554327063],[-74.6131329786399,-0.06952944394754468],[-74.61074479524325,-0.07784107469990431],[-74.61235511614086,-0.08989342754381369],[-74.62573725441746,-0.10050744798940059],[-74.62734689448615,-0.10308134445079986],[-74.62698876714694,-0.10658813803553358],[-74.61746600237535,-0.10781026713380015],[-74.5990801323187,-0.11358103911220496],[-74.57771595340597,-0.1246978743612317],[-74.5430234165612,-0.13346940198215407],[-74.52559064532437,-0.13985405644223192],[-74.5203412227404,-0.13539631862477108],[-74.51970783378948,-0.13015797030982412],[-74.52888586154353,-0.11830451824903321],[-74.530626213571,-0.1130206304993635],[-74.53007591249121,-0.10667954189284501],[-74.52465975263544,-0.10123382048533358],[-74.51831952586372,-0.09946987495800386],[-74.51421493566676,-0.10000462393003318],[-74.5049295796515,-0.1091114279258818],[-74.50182386733616,-0.11696820220635118],[-74.50377015366513,-0.1393918147246609],[-74.4961022713652,-0.1474318101535914],[-74.49021177325096,-0.1490851703421754],[-74.4790808318844,-0.1486244455772976],[-74.47524227611285,-0.1461426605417273],[-74.46803952031178,-0.1370436809365856],[-74.4628826318434,-0.12886396850615256],[-74.459060265814,-0.1174678812884622],[-74.45844181704757,-0.09323090863671268],[-74.45566492557344,-0.08650827299794628],[-74.45213964881975,-0.08295422453636547],[-74.4457157304812,-0.08133889923743709],[-74.43897854855146,-0.08230803250455665],[-74.42951002486672,-0.08957792709014711],[-74.42308675856071,-0.09860987075501271],[-74.42040827772274,-0.11130551645129572],[-74.42108712897522,-0.11796831113366579],[-74.42573365387204,-0.1254127262440079],[-74.44348080661712,-0.1412676270300608],[-74.4451208464182,-0.1469197661070325],[-74.44123744952441,-0.1498600770974008],[-74.43781832860748,-0.15008932824770227],[-74.432386409927,-0.14733143724907904],[-74.41012414975546,-0.13028114995563556],[-74.40163910405408,-0.1261446883249846],[-74.388180898055,-0.12274250482789739],[-74.36449101260018,-0.12025778358889738],[-74.353038753909,-0.11598285348600257],[-74.34445492938903,-0.11579781405117728],[-74.32496130641198,-0.1287531610238375],[-74.3123111127328,-0.14782077739857868],[-74.30327032754758,-0.15641197790830574],[-74.29537309948063,-0.15742183132852006],[-74.29099385136777,-0.15636434559303325],[-74.27520097800692,-0.14928590895209481],[-74.27054664723136,-0.1495148659678307],[-74.26506865535447,-0.1522712235586141],[-74.26269549853146,-0.159760771868946],[-74.26341984499561,-0.16890494535209655],[-74.28417377902787,-0.18742570490104526],[-74.28653828356397,-0.2098958565002249],[-74.2758950718059,-0.21683270848808434],[-74.26521373979745,-0.2279971482844303],[-74.24891620146519,-0.23594440493764068],[-74.24073829806514,-0.2461903272938457],[-74.23046780107495,-0.24991076747056695],[-74.22462424621949,-0.24862353179020147],[-74.22116005175229,-0.24159244155748638],[-74.2190696199483,-0.22459048592014597],[-74.21291276036396,-0.21948909632391178],[-74.20428275877487,-0.21907456508319],[-74.2006811047375,-0.2211416275878264],[-74.19314322785641,-0.23538539192128383],[-74.18893249930619,-0.25073217011208726],[-74.18929085084585,-0.26745805372496534],[-74.18750547771867,-0.27260444796587535],[-74.17974574316048,-0.27807138408564924],[-74.16724115225935,-0.2800455360646765],[-74.16103092165048,-0.2756792021044703],[-74.1541486131116,-0.26115801437316577],[-74.14584754652083,-0.25288566601130924],[-74.13110668758122,-0.246542483495773],[-74.11841962629467,-0.24525380799587992],[-74.11171257773071,-0.2497561359956535],[-74.10805812139756,-0.2544885070464602],[-74.08594714100673,-0.28977510622860336],[-74.08056059823866,-0.29234744974178284],[-74.07622675586293,-0.2922089658428604],[-74.05477993542314,-0.2836590285039051],[-74.04628852983325,-0.2873796157478523],[-74.04171040356294,-0.3065862929777836],[-74.04115340732238,-0.31766021749115225],[-74.02860264860811,-0.3290540051113453],[-74.02042332492897,-0.34536527109435156],[-74.01192511207802,-0.3526702016312697],[-73.9693353749343,-0.36456439852776157],[-73.95450398425669,-0.36630821537806924],[-73.91839229546662,-0.37494087137730503],[-73.90775720017689,-0.37792590213371113],[-73.90793909463451,-0.37925842733727677],[-73.89297064136554,-0.38518335565015605],[-73.87055459304196,-0.3873391604028029],[-73.8546703435918,-0.39478046550300405],[-73.84813933764752,-0.4023610453743913],[-73.83731932427918,-0.41113549377212166],[-73.84895433926283,-0.410402472395333],[-74.3823667340298,-0.5719933900538194],[-74.38861458403761,-0.5591038304921767],[-74.39172044547706,-0.5563547193073646],[-74.39363559056659,-0.5565391550464938],[-74.40354663352673,-0.569200627654709],[-74.41110745598888,-0.5725067258241552],[-74.41566935755003,-0.572738750683925],[-74.42102570216042,-0.5629760235332242],[-74.41515888290672,-0.51978023652606],[-74.417317996159,-0.5150130814923841],[-74.4233838396089,-0.5126326278697206],[-74.43834546916179,-0.5123215024105434],[-74.44630306474767,-0.5042107748188869],[-74.45971603264564,-0.5016057916255363],[-74.4645233175064,-0.4940435118602977],[-74.47055085044406,-0.49051679631554634],[-74.47661518619725,-0.492309010642316],[-74.47960580962405,-0.49836311030713887],[-74.48297803973281,-0.5006118872919387],[-74.49337880953681,-0.49915130453968004],[-74.49539974947976,-0.49456759382655946],[-74.48854145507369,-0.48213757734930596],[-74.48983023341788,-0.47681969854596673],[-74.49266819895098,-0.47420796876969007],[-74.50264804368715,-0.4760943267246489],[-74.50988049062374,-0.48357246652210506],[-74.51357434967514,-0.48495021748544787],[-74.51726639146858,-0.4844025800717304],[-74.52311918379473,-0.47991272913662897],[-74.52796347407423,-0.47317567781908565],[-74.53431150775305,-0.4519050470662478],[-74.54098721761659,-0.4452608743926021],[-74.54593908606881,-0.4354061736274275],[-74.55871824952516,-0.42995819273170355],[-74.56566116829543,-0.42354351186384065],[-74.57117678677031,-0.4060777379065712],[-74.58172856998846,-0.39925278972071965],[-74.59718657012388,-0.39958361191105496],[-74.60157352332811,-0.3981649649309702],[-74.60474113657023,-0.3892721335433862],[-74.60044410626602,-0.3733135924910016],[-74.60173451366313,-0.3677205466926807],[-74.60661776751584,-0.36630245095778946],[-74.61873882134847,-0.3719353756432042],[-74.62992659650553,-0.37450069695086086],[-74.63870599068326,-0.3797751672523759],[-74.64734580669932,-0.3883283267017532],[-74.65088571510472,-0.3898962366867522],[-74.6586743663812,-0.3893254192071822],[-74.66264011889501,-0.3867591496755267],[-74.66971897822583,-0.37606654799395756],[-74.670851221448,-0.36523162735130654],[-74.66872652193933,-0.35197367762259546],[-74.67141646374068,-0.345415539307794],[-74.67566409589381,-0.34398956056099905],[-74.68019652949147,-0.3449874120570371],[-74.69294279718537,-0.35852979196249635],[-74.6959165058181,-0.3648024048092111],[-74.69931484499705,-0.3653724653551649],[-74.70441254557,-0.3653721023149501],[-74.70979417135442,-0.3632330303220215],[-74.71928063519044,-0.3488338251294181],[-74.72012955895377,-0.3414207240368228],[-74.71474724514127,-0.32360113088611797],[-74.71984469580269,-0.3109128179849563],[-74.73471120059327,-0.28567871888918717],[-74.7395964455107,-0.26179975324885163],[-74.75361390415327,-0.23072102148984186],[-74.75814539878286,-0.22630161063966625],[-74.77223353919436,-0.20513106996969555],[-74.78412810015953,-0.19358325457034198],[-74.80706725959965,-0.1826578207016496],[-74.80945270836764,-0.177488113725758],[-74.81563697491669,-0.17274836359985102],[-74.82631341462411,-0.1705827773304236],[-74.82352029741236,-0.16330618038495004],[-74.82350146148764,-0.1573411222449863],[-74.83152872891196,-0.14980468621178034],[-74.83396453228255,-0.1443991131433222],[-74.83361439182795,-0.13329345192232722],[-74.82971429919832,-0.11990541038562696],[-74.82512034314078,-0.11442716551187004],[-74.81710936316063,-0.11023205180441664],[-74.81313160049507,-0.10367262999341165],[-74.81739204807042,-0.09316612807089086],[-74.81699869966025,-0.08721496624627889],[-74.80965889258067,-0.07143508108600827],[-74.80143200240661,-0.0631263978499419],[-74.78951701862991,-0.05277594870989333],[-74.77876625441007,-0.046455906151095405]],[[-74.77922640736091,-0.1916047605070048],[-74.77696048212556,-0.18915534775658216],[-74.78433873032958,-0.18160164211661822],[-74.78643887268782,-0.18020893862751564],[-74.79039127807465,-0.18336760236280725],[-74.77922640736091,-0.1916047605070048]]]}}]}