{"type":"FeatureCollection","features":[{"type":"Feature","properties":{"code":"951017"},"geometry":{"type":"Polygon","coordinates":[[[-70.00325273723746,2.229148024372705],[-69.98902377836248,2.222491200827619],[-69.99108352555544,2.219376465986045],[-69.9910916955028,2.204165819646164],[-69.99368532160543,2.203344813983449],[-69.99523391435463,2.2063692567140833],[-70.00025420508763,2.206374133588497],[-70.00016232711835,2.2039000176487207],[-69.99847669851727,2.20343981944643],[-70.00354260581821,2.1998720875571394],[-70.0018945883885,2.1987698584014765],[-70.00222250625717,2.1952420475653867],[-70.0104319355342,2.187277403034443],[-70.00961616978611,2.1847099435948394],[-70.00208571106089,2.1853455745504107],[-70.00258865647646,2.180901522217539],[-70.00989080301946,2.180129344948739],[-70.01727648789131,2.175829685945473],[-70.01842063842093,2.176334568946743],[-70.01399537573286,2.180545332464021],[-70.0184129353865,2.180870268877811],[-70.02279211562217,2.184219312749974],[-70.03191008644689,2.181020280588939],[-70.03241326429043,2.178546545172935],[-70.0262559573336,2.179089711946972],[-70.02936105052652,2.171029563158413],[-70.0246687373118,2.1740946499373877],[-70.023936387508,2.1729943830500247],[-70.0302389681413,2.158293369058981],[-70.03270275234752,2.1582492355051386],[-70.03598406299534,2.1626969079557057],[-70.04163761515241,2.160641778469653],[-70.04929712181644,2.1608765431003008],[-70.0462002067984,2.157023606616974],[-70.04733691963173,2.1540017740734925],[-70.05016741455842,2.1526291056730997],[-70.05067041962366,2.146766749859921],[-70.054500712888,2.1441111878635297],[-70.0639006343145,2.1406375594930864],[-70.06841891037243,2.136792307532289],[-70.07024113465195,2.1390840291913378],[-70.0743454759658,2.138813488130836],[-70.07462032414361,2.1344151788642876],[-70.07539247467292,2.1331784685079924],[-70.0769841488792,2.134050950804067],[-70.07881649200465,2.129424968018043],[-70.08100614177215,2.130526811507764],[-70.08675126953636,2.1273234290349023],[-70.09158118938853,2.1299849786236678],[-70.09427422371658,2.1297591326465977],[-70.09267938807795,2.126184137896189],[-70.08880335894634,2.1261345587392384],[-70.08633923843945,2.123658495957784],[-70.08762185641291,2.1213681359566294],[-70.09404530989542,2.1220152165627724],[-70.09683027464337,2.116977132745774],[-70.10006526938236,2.1209206379910484],[-70.10335393133738,2.1183574270474423],[-70.10339935558653,2.115058436444258],[-70.11174606548468,2.112774374625076],[-70.1140732509271,2.110530570159824],[-70.10609270153265,2.1063543931645086],[-70.10928969840597,2.101456491204999],[-70.10578004986473,2.1005825279516444],[-70.09907291696851,2.094664035632036],[-70.10236210342919,2.093156243254441],[-70.1039566799003,2.0893543329467548],[-70.10783200249188,2.0865629825992187],[-70.10355174711361,2.0810150165218033],[-70.10414737165524,2.0795037181836733],[-70.11015889688508,2.07992101490629],[-70.1242589271206,2.0691648575339627],[-70.13191874643115,2.0680715881695164],[-70.13517734186911,2.0630753712189858],[-70.13697747520331,2.0658310222697764],[-70.1409448649976,2.0629634859289467],[-70.14441612383649,2.0635461850049523],[-70.14340940819437,2.068126897808156],[-70.14495777365778,2.072068920039328],[-70.14678128451891,2.0658386306875514],[-70.15193914795077,2.0657054535520274],[-70.15328932739857,2.0609315601629987],[-70.15679135723758,2.056759589497517],[-70.15491511401478,2.0507061017560204],[-70.15828703559077,2.0474607752834686],[-70.15838642633264,2.0448547235383217],[-70.16171255856239,2.041063394875664],[-70.1670382185618,2.0456886022159892],[-70.16767936299772,2.0434030152165974],[-70.16595421957823,2.039238902880413],[-70.17005202925367,2.04034234045605],[-70.17178399844619,2.03892669241435],[-70.16964787191267,2.0350373254117358],[-70.17603393842427,2.0304261018042666],[-70.17549127250174,2.0253496570813354],[-70.18036688399809,2.0270024557402735],[-70.18729538503271,2.022895402423501],[-70.1886602979481,2.0230802773075425],[-70.1900640561658,2.0299870987738586],[-70.19188798663146,2.0294862740067288],[-70.19102592348656,2.025278510456303],[-70.19275788342304,2.023862190841669],[-70.19763340750183,2.0241892129369035],[-70.19963179987099,2.0276209662132487],[-70.20136330317905,2.027806178426431],[-70.20287477429554,2.0248357083592055],[-70.20092123436149,2.018568092714702],[-70.20406490134792,2.0179316606023576],[-70.20724639033648,2.025434985928655],[-70.20938213634628,2.0253465203316523],[-70.20811617297096,2.0207717293004634],[-70.21394520107583,2.0208709040693975],[-70.21466995274636,2.0225181892480464],[-70.21316694982556,2.0247567465995076],[-70.21917907875115,2.0261364886275715],[-70.2167146404555,2.0296083182520306],[-70.22645778914602,2.035153837664666],[-70.23301929561006,2.031366436624012],[-70.23357606867864,2.025376454179593],[-70.23503341183692,2.0239610653054],[-70.24259447598308,2.0246101894268236],[-70.2417704446425,2.0303255211543956],[-70.24891884931333,2.0286879814970575],[-70.24978879649859,2.026311309457526],[-70.24747007102434,2.02361009798301],[-70.24847665913956,2.0189012319859785],[-70.25276455687418,2.017534818572983],[-70.2555037682713,2.014473953550578],[-70.2594638406971,2.016673737590679],[-70.2599971745322,2.0244486293346995],[-70.26729146480278,2.0213477836093716],[-70.27016742820166,2.0159089373401002],[-70.27326530172809,2.016736267924273],[-70.27066369593996,2.0213518253884786],[-70.27481369598792,2.0171493511178937],[-70.28533569139694,2.0159728807536794],[-70.28998238804371,2.0180366872092463],[-70.29281211575227,2.0141529900102455],[-70.29732163770746,2.0163986302453623],[-70.29946523381898,2.01397795423577],[-70.29682587904819,2.009219078164392],[-70.29901571907754,2.0081238516738154],[-70.30205997989549,2.0118318425538746],[-70.30643951494386,2.0116536967692014],[-70.31135206501017,2.016141005394445],[-70.31222198751283,2.011797461720448],[-70.3095361471402,2.0077242626745146],[-70.31108523765556,2.0064002169795003],[-70.31441230062575,2.010016949012652],[-70.3161895408295,2.009424943560248],[-70.31778449679587,2.0066825450197143],[-70.31569373897565,2.0007348685867896],[-70.3237580323875,2.003214257351317],[-70.32503243824743,2.0018895390549005],[-70.32330812066732,1.9979544701236591],[-70.32494847928558,1.9974077881330459],[-70.32699345804394,1.9993763566976668],[-70.33118977091539,1.997964173478806],[-70.33232598495408,2.0026751148728295],[-70.33469161974853,2.0026777507709994],[-70.33747617106252,1.997925045354748],[-70.3348438899194,1.9904222105955682],[-70.33666783992544,1.9895098617536746],[-70.3423519471097,1.994043984053917],[-70.3419933713696,1.990979448520136],[-70.3445491723848,1.9886953959569382],[-70.34400729836301,1.9863625211705198],[-70.34528146973804,1.985129665416764],[-70.34701324044113,1.9858177603105673],[-70.34846276023723,1.9918555046539836],[-70.35224682501035,1.9868291234843696],[-70.35839635179957,1.9868820440510717],[-70.3588999255935,1.9888036786128396],[-70.35639048162483,1.9914071458819649],[-70.35971667556106,1.9930571533479338],[-70.35842756914377,1.9989099199630687],[-70.36202053798405,2.005544873677991],[-70.37368603703237,2.0058327079994456],[-70.37596765115836,1.99888338100385],[-70.37059626249072,1.994258483224712],[-70.3706502536661,1.9896860082460535],[-70.37443360470013,1.9869923013166044],[-70.37716533520637,1.9877729035865173],[-70.38172752164604,1.9862682047640305],[-70.3846801626338,1.9875518563221704],[-70.38391008852994,1.99098118041735],[-70.3874120422642,1.9938205929690866],[-70.38717573599826,1.9972043087238376],[-70.39123458004354,1.9967064304445898],[-70.39277602100344,2.000823505933681],[-70.39783371516245,1.998405035933331],[-70.40071854476423,1.9904054171576604],[-70.40362510844182,1.9942960326895331],[-70.40814125459525,1.9923799486319922],[-70.40965244186162,1.9879464841148433],[-70.41675603214969,1.987222353623622],[-70.42094439927422,1.9915716174948557],[-70.42749760003647,1.992859387965325],[-70.43018401942226,1.9959717265357995],[-70.42926799904058,2.000498587003449],[-70.43177090108645,2.0019183272178793],[-70.43428129327913,1.9974395916894991],[-70.4385229563519,1.9949744797640392],[-70.43698217770896,1.9899428833624029],[-70.43775957535195,1.987748666281675],[-70.43981281970287,1.9871564541123234],[-70.44153616951866,1.988713163329919],[-70.44609884755386,1.9845558993924897],[-70.45306542461583,1.9871249364629193],[-70.45735269500051,1.9858488830380452],[-70.4615877626714,1.9817832481868436],[-70.46191513032329,1.9787198408545237],[-70.45913031264263,1.9805458672860254],[-70.45726890676008,1.979537693312409],[-70.45900041932407,1.9742802499052914],[-70.45317226230998,1.9710273489535552],[-70.4549575665315,1.967827819026354],[-70.45750517188833,1.9667785711154693],[-70.46073259420507,1.9723159545193312],[-70.46255642182649,1.9720435447787281],[-70.46374669697462,1.9671058513497428],[-70.45974061100208,1.965409349025947],[-70.45906201788875,1.9623905575869571],[-70.47358816168457,1.9656527978252143],[-70.4811110027361,1.9614993360397648],[-70.48084420212103,1.9588463245807475],[-70.47523675504209,1.9613562591165419],[-70.47446670767778,1.9586108359266063],[-70.47902150270107,1.957015267008444],[-70.47788470964923,1.9537669745076869],[-70.48444568338005,1.952630391258083],[-70.48163041351643,1.947734685023363],[-70.4821336170711,1.9441678159973321],[-70.48632294270402,1.9472822073390716],[-70.4901070763828,1.9463714176160352],[-70.49698116355222,1.9482996434659299],[-70.4991709706714,1.945191558533736],[-70.49867440057102,1.9413957160368795],[-70.50446628236057,1.9375596768641685],[-70.50646502645714,1.937836395778902],[-70.505312475609,1.9483992841193754],[-70.50937175057169,1.9489066580084682],[-70.51072950449867,1.9543047923521613],[-70.51383505534852,1.9519297318820463],[-70.51888593401895,1.9512585055024942],[-70.51640604543132,1.9472778210317188],[-70.5202061374527,1.9425546010624544],[-70.52420390126832,1.9403528454980687],[-70.5245545919397,1.935132572060411],[-70.52838492942709,1.9352303697448292],[-70.52862069061848,1.9393924570777017],[-70.5314972669691,1.9397951334614731],[-70.53341267122613,1.9424212778881156],[-70.54018823977287,1.9417761348676663],[-70.5401495590213,1.933962744406415],[-70.542202163681,1.9310216919089953],[-70.5474058575968,1.929689951407056],[-70.55014401895414,1.933597301755583],[-70.5527924199053,1.9321264818865416],[-70.55749887214773,1.9348391718079938],[-70.56097121805033,1.930794716701996],[-70.56219895833101,1.9335988516184557],[-70.5638933153237,1.93364472632544],[-70.56804371029358,1.9254184079654237],[-70.57110280948018,1.9254653769352217],[-70.57342973678351,1.9287287988539106],[-70.5773132365216,1.924868409247722],[-70.58028113856784,1.9262014764404398],[-70.58041855391497,1.9220653058590642],[-70.58220459141603,1.920594838745842],[-70.58557586610164,1.928684603593581],[-70.59357207250503,1.9317651581479822],[-70.59461755528781,1.929972693909633],[-70.59786054719586,1.9306163446599953],[-70.59882108885421,1.926480116485834],[-70.60160588905131,1.9285490414998208],[-70.60288069086164,1.9275841053066642],[-70.6051238340383,1.9186216792137998],[-70.60959479659812,1.9176113773926886],[-70.61210462828967,1.9198179337267902],[-70.61179141097836,1.9160948298839457],[-70.61329495485995,1.9145779902975164],[-70.6156214008522,1.9198640655444024],[-70.62397591662909,1.922254661667182],[-70.62466300364923,1.9174294315129146],[-70.62119186410968,1.9153145546587211],[-70.62146654979358,1.9125568014714531],[-70.62973659650106,1.9106733889758516],[-70.63133065772246,1.9137988792692227],[-70.63370453754055,1.9139368355771467],[-70.63813691807934,1.9103987032919463],[-70.63918176219931,1.9055272796135228],[-70.63680874421607,1.9015742448198694],[-70.64192883089731,1.9001497830258245],[-70.63900669248625,1.8971158529129752],[-70.64069331867654,1.8960128472832025],[-70.64694876064698,1.8972085063278996],[-70.649779616557,1.8999206532317316],[-70.65164905251874,1.8954164030728862],[-70.6527477335477,1.8956002711117321],[-70.6566234788292,1.9018978031207325],[-70.65740132487315,1.8987268114449307],[-70.66443561870432,1.9002901798278344],[-70.66027757212214,1.9017601018665573],[-70.65977391296747,1.9046557547974317],[-70.66347500094128,1.9040126192967932],[-70.66580193750059,1.905805834298178],[-70.66630570978401,1.901714591228199],[-70.67233327871713,1.895694560778736],[-70.68370073306664,1.9009350389981137],[-70.68233503647804,1.8973500662984293],[-70.68616535442504,1.894868297717892],[-70.68525727670493,1.9004297590180386],[-70.6881335260108,1.9029575545150124],[-70.69159729881659,1.8963860793576828],[-70.69762522050547,1.891927565066112],[-70.69822006960146,1.8957423833558664],[-70.70050186473327,1.8983169668168216],[-70.6987693710351,1.9004768205476807],[-70.6996389654646,1.90199350689619],[-70.70210384393363,1.9032803116591026],[-70.70346969787391,1.8999252370000477],[-70.70652831472097,1.8986843059156513],[-70.70749030956858,1.9028672027544076],[-70.71050405341163,1.9022242647147323],[-70.71054924626122,1.9060848877774106],[-70.70885543228621,1.9073713912067092],[-70.70571222707042,1.9065442159173358],[-70.70570499917636,1.9085207292004043],[-70.71246428850651,1.9104051135741997],[-70.71310597698852,1.9149095879334936],[-70.71634824487302,1.9150017847199479],[-70.71653098368199,1.91045150558773],[-70.71780562196994,1.9101758644807774],[-70.72196314507488,1.916564557634615],[-70.72196330756879,1.9107279920744986],[-70.72575554228933,1.906591062502514],[-70.72716654485617,1.9082922277847274],[-70.72593047316263,1.914680483850475],[-70.73008888175661,1.9143128866125494],[-70.72862455958739,1.9175301756851582],[-70.73584154183385,1.9223569402756766],[-70.73689429776215,1.9185418473917366],[-70.73931314622939,1.9245175715090568],[-70.74232710296008,1.921529566496929],[-70.75150527880982,1.9203350356536362],[-70.7488581161034,1.9146358587011605],[-70.74894954567179,1.9073734162100209],[-70.75237515606096,1.9060873694092493],[-70.75533524194412,1.9112352970578854],[-70.75866961199841,1.907833631895869],[-70.76478796566641,1.9107758043671765],[-70.77003737796599,1.9077423062001913],[-70.77260155256022,1.9146828009314731],[-70.7681231286499,1.9186352669963753],[-70.77154876269327,1.9202902037873173],[-70.7767972956745,1.9276439637465614],[-70.78036039134491,1.9278281146071095],[-70.7827338495016,1.925484212859942],[-70.78168030270098,1.9233237904003886],[-70.78282522764783,1.9199690931797022],[-70.78478596462264,1.9193251297828624],[-70.78725055821309,1.9220830547200762],[-70.79076733180403,1.921302142888976],[-70.78657155269428,1.9152804155093577],[-70.7888070586568,1.9134880715987492],[-70.78908152219714,1.9107303688051616],[-70.79136253262732,1.91036291966293],[-70.796245098452,1.9133043681107438],[-70.80090767630816,1.9127987436024227],[-70.80250227951876,1.9147751530127834],[-70.80757512983513,1.9156025782136794],[-70.8086206835805,1.912569251796583],[-70.8064769239466,1.9091680689740542],[-70.80816292278695,1.9049396512124872],[-70.81177158154634,1.9053991181921788],[-70.81337352680805,1.902319434728554],[-70.81657032724883,1.907053804043187],[-70.82122437314587,1.90516947109154],[-70.82272744497226,1.911696254250785],[-70.82515410034665,1.9108685441713078],[-70.8262454321254,1.9079272078237182],[-70.83309629809116,1.9063641490020586],[-70.83742967458244,1.907421452703204],[-70.84259502404734,1.915235180493596],[-70.84857719958461,1.9169818471581266],[-70.84934747320631,1.915970347201437],[-70.84496804203064,1.9089385257460663],[-70.84761615090412,1.9084785424882966],[-70.86080754600368,1.9174870150379775],[-70.86459255900081,1.9163772401995516],[-70.86695119832928,1.918941259498979],[-70.8653834765492,1.9231401948988491],[-70.8660794297723,1.928402447303199],[-70.8643767619356,1.929692656210932],[-70.86599052091651,1.9393713740060434],[-70.86524502350358,1.9436279134998244],[-70.85822820702452,1.9561977385099567],[-70.85881309565468,1.9596118611962083],[-70.86288435505804,1.9640800212501972],[-70.8600564487212,1.9731158226029493],[-70.87174671060848,1.9922047400791598],[-70.87264407298596,1.997778038752699],[-70.86157716759283,2.01766001499459],[-70.86097996850572,2.0213634529595765],[-70.86418093516716,2.030204200932701],[-70.87387083624623,2.0394110641580596],[-70.87972903303785,2.048750339357696],[-70.88002554638575,2.05170532108059],[-70.87643446782283,2.0547340534449177],[-70.87489059871012,2.0652892973721464],[-70.87785604997782,2.079818877194441],[-70.8712306895747,2.0882061622353376],[-70.87024814130342,2.096718490459807],[-70.87343608788251,2.1080483233535574],[-70.87974467256322,2.111126316057664],[-70.87963801793182,2.118203314936011],[-70.88543879266388,2.1233175076131943],[-70.88577663705968,2.134362080377059],[-70.89410288712241,2.1400939155217316],[-70.89641874838429,2.149278793731355],[-70.89524511857832,2.153591557149184],[-70.89256768572324,2.1570828716455708],[-70.89165371914129,2.1493374910596685],[-70.87962091493273,2.1435158307169786],[-70.87638661747775,2.1439734619267483],[-70.87606620415414,2.153964300713426],[-70.87847681582525,2.1605642215624243],[-70.8781563161125,2.165193331842147],[-70.86151615009817,2.1725690819592955],[-70.85230773186777,2.1703681779453063],[-70.85121593523297,2.175730250980564],[-70.85800709805369,2.188746895184238],[-70.85759508341181,2.1967215690866055],[-70.83903943497887,2.2051508577768004],[-70.82909789766961,2.2068450512471713],[-70.82645035032573,2.2052405472203986],[-70.82690824687364,2.198458034629766],[-70.8317908548645,2.1921801037067894],[-70.83507187240622,2.1903476340829116],[-70.83511787669693,2.186176921202616],[-70.83165393008443,2.179713684478145],[-70.82107130078981,2.1833326235489494],[-70.80985562707252,2.184018522717963],[-70.81587529448183,2.193965072655999],[-70.81555553524765,2.1996474314880174],[-70.81386898413365,2.2008383165025407],[-70.80844420078739,2.2005628142352975],[-70.80306576523168,2.1980872163098866],[-70.79330701815348,2.1984521149146303],[-70.78892851668985,2.194325940794556],[-70.7865624190963,2.187725918129729],[-70.7846482212023,2.1868549517579368],[-70.77707971113233,2.1891912049780444],[-70.76905287359699,2.200967779932114],[-70.76622222440392,2.202617011952441],[-70.7498567512726,2.2017880019216136],[-70.74684276883085,2.1981208535793826],[-70.74648406350695,2.1929423976429234],[-70.74370017656679,2.191750081036389],[-70.73640586984118,2.2010060544488965],[-70.7284709709532,2.2067327175561786],[-70.72432060889349,2.2131020873035254],[-70.72390802552297,2.2184643146051144],[-70.72527417154089,2.2210313760375016],[-70.73503243422266,2.226120108591715],[-70.73420802750053,2.231023834621226],[-70.72755565711157,2.232030984266032],[-70.72067387410681,2.228866669239096],[-70.71811773062018,2.224236810253217],[-70.71939920188021,2.214155022180819],[-70.71428704243391,2.211770129800243],[-70.71036537822243,2.2226312191627358],[-70.70224781045965,2.2331241939808137],[-70.69012461026745,2.232250273922091],[-70.69075812057457,2.2348167162320465],[-70.69914989271012,2.238806154805502],[-70.69923397302824,2.242243656047151],[-70.6896589047555,2.25177312626397],[-70.68733213994602,2.251864132114008],[-70.68250187659413,2.2455385791601543],[-70.67977075698269,2.2448963054943647],[-70.67465959615407,2.25039445895834],[-70.67256132350434,2.2569016996528717],[-70.66836462188161,2.256992215964317],[-70.66422174894035,2.2508499972876166],[-70.65428009953087,2.2497465926221594],[-70.64881003797427,2.239891678969343],[-70.64539201029174,2.2404410410811124],[-70.64347684566184,2.2430064395219347],[-70.6418817508557,2.2386983894562036],[-70.64794731765454,2.231275971702871],[-70.655699488018,2.231277824956294],[-70.66467984500616,2.2386133259470284],[-70.66731895809295,2.236827013851837],[-70.66586201191348,2.234809917198561],[-70.65405884657804,2.2267405905889746],[-70.63915039778783,2.226185947424881],[-70.63130731516264,2.229163325540469],[-70.6266077205749,2.2338355553296765],[-70.61712417854409,2.2389657413164628],[-70.60116328441518,2.242076858097221],[-70.59396083097619,2.245969834933078],[-70.59250372950191,2.2483527629884748],[-70.59363961649586,2.2532107449231944],[-70.59746974623789,2.258069587664295],[-70.59833252415035,2.2617365385456196],[-70.59650848775516,2.268839558048114],[-70.586338899488,2.27323562736683],[-70.57817479264435,2.274424109939673],[-70.57498600685614,2.270206557673305],[-70.57416972174462,2.259390790744135],[-70.56938582469519,2.251965592082229],[-70.56391495992494,2.2494423875526195],[-70.55387405758489,2.2518319151236597],[-70.55051763772298,2.245084481678873],[-70.54766438850561,2.24270757721132],[-70.54199502404487,2.2518739815080266],[-70.53560169467215,2.2570494817006193],[-70.53387007926386,2.2652962300713284],[-70.53519011711836,2.269467313190887],[-70.54654973165054,2.280070156523209],[-70.53824212519379,2.282712286031881],[-70.53550999770874,2.2780829854903004],[-70.53071850663974,2.2757880592043875],[-70.52652261851506,2.27028699216271],[-70.52036476031299,2.2681297311354456],[-70.51238447625673,2.269589589864154],[-70.510468010647,2.272202328542562],[-70.51110283324675,2.28265027300489],[-70.50462514587645,2.282416860776152],[-70.50275564100906,2.2809951212694273],[-70.50189443969896,2.2791161557593114],[-70.50486129890447,2.2699070649274518],[-70.5036245967757,2.2670196755321967],[-70.48146203896414,2.254129315842306],[-70.48260670680031,2.251564382257527],[-70.48976286387091,2.2503315501579664],[-70.49988684688299,2.258632168347731],[-70.50394589661676,2.2562977868930147],[-70.50654753737194,2.246812976792569],[-70.50103169572509,2.241311083911569],[-70.48986062041763,2.235575908385613],[-70.48032448897862,2.2341500057435724],[-70.47622132831674,2.2353385736770974],[-70.46568386616065,2.2430297995653063],[-70.4621737373368,2.240233865449511],[-70.46007661037208,2.234732748014153],[-70.45642966064088,2.235143349575992],[-70.45515483311948,2.238212185027919],[-70.44753327084214,2.243202748629926],[-70.44858592289779,2.2460906645877685],[-70.45473620764915,2.2474226282616883],[-70.45784031867947,2.2497612057618994],[-70.45751985496219,2.2519152025125777],[-70.45008934748,2.2566760254256906],[-70.44365652797143,2.258916685942097],[-70.43398314470761,2.258269517918393],[-70.42722925675764,2.2615646045537687],[-70.42340070464644,2.2664182454325896],[-70.41701475023507,2.2683389574814328],[-70.41140624591725,2.267052125979035],[-70.41341314042069,2.260133438342905],[-70.41136133486089,2.256833551966281],[-70.39954990804671,2.257467357436383],[-70.39726747322356,2.261589791111021],[-70.39745247049228,2.2660349572472],[-70.39211132729076,2.26859723642184],[-70.3883733429131,2.265615127470653],[-70.38719046946579,2.2580093764685785],[-70.3788057370192,2.2487004557498835],[-70.36977218075646,2.245898912508551],[-70.36097526088975,2.2373703112380667],[-70.3522629036807,2.237135372800651],[-70.34929357107086,2.238462218944619],[-70.34085572573889,2.2502317696363434],[-70.33739191899451,2.251099849169975],[-70.33529232788152,2.2490825972219],[-70.33515607467439,2.2383142054973177],[-70.33360800951624,2.234601302775843],[-70.32539834472584,2.2290506915442734],[-70.31787542756962,2.2264335593594637],[-70.30780398768582,2.2109847103055813],[-70.30406582333075,2.21047769122913],[-70.28618071016399,2.2292972709225864],[-70.28649441084326,2.2359411690021034],[-70.28946273455097,2.242770787345421],[-70.30113585950056,2.2503857233676285],[-70.30195178362874,2.2522653604507354],[-70.29916603417922,2.2554705334420078],[-70.28790653646934,2.2552779976896886],[-70.269213074682,2.2422056664089496],[-70.26474357559584,2.2444486522339275],[-70.25985990728083,2.2507199908403663],[-70.25438126954202,2.2516783264894684],[-70.25351892151855,2.256855963785654],[-70.24995601610993,2.2622598872322897],[-70.24270673973996,2.2666991264542276],[-70.23681862041326,2.267748106970032],[-70.22966241192057,2.264580465960023],[-70.22852514372829,2.2596316746077605],[-70.22966291997119,2.258027480142232],[-70.2407932823246,2.254600749779115],[-70.24334899592225,2.2514415275995248],[-70.24270849837666,2.24855356227647],[-70.22611408571316,2.243638185021723],[-70.21959090415959,2.249634612715397],[-70.21083923782055,2.2393190174923348],[-70.2059568879688,2.2357859945095697],[-70.20212595707011,2.237891056936803],[-70.20002955412889,2.2429302874672317],[-70.19857007489549,2.2432495119112446],[-70.19673952640221,2.2422848256296106],[-70.19168136327346,2.231925164729944],[-70.18803441251384,2.23146487191093],[-70.18014489673732,2.2361777868861736],[-70.17745200741967,2.240803019937573],[-70.18000828871754,2.2466705632147637],[-70.1864326935094,2.251624316802179],[-70.18364664169775,2.2537297679806443],[-70.17995570445157,2.253360034667651],[-70.17612441256955,2.2505617413046934],[-70.17024984605837,2.23914778181296],[-70.16764788854289,2.239099615735995],[-70.15815713198776,2.2443610834387755],[-70.15309837750459,2.239453969719591],[-70.15104568645575,2.242797352015714],[-70.15095405736952,2.2472878755522174],[-70.15523473646607,2.2617699968660645],[-70.15399848273825,2.265801803157501],[-70.15158014129321,2.2666697860175873],[-70.14807042487479,2.2648343174553247],[-70.1423788573685,2.2514502734747452],[-70.14060090445412,2.249753780406877],[-70.13749527544263,2.250666697977522],[-70.13097204246696,2.262986422222127],[-70.13233863688583,2.265461632424717],[-70.13566576876167,2.2667925018358233],[-70.14433182137475,2.267626579002922],[-70.14656870030808,2.269185070511355],[-70.14652127368129,2.273858970491176],[-70.14240892080022,2.277200493363182],[-70.13242192221787,2.2772828921778228],[-70.11550652030292,2.264758930561811],[-70.112044083444,2.2637485351524447],[-70.099866193764,2.2686406552081166],[-70.09508312461082,2.2623590877123547],[-70.08846785939949,2.266064934289716],[-70.08148661571869,2.263446775719217],[-70.07706896350527,2.2637637684430274],[-70.06712067138557,2.273283335786857],[-70.06245887617416,2.2928445654897587],[-70.05985644454671,2.2938492581853893],[-70.03906658907408,2.2922273138304377],[-70.037601621043,2.2905768240249245],[-70.03860796850262,2.287095344524346],[-70.04536047731125,2.2791737660238596],[-70.04436148835782,2.276837324598773],[-70.03524214661923,2.272522113487753],[-70.03059766420921,2.2658279194268403],[-70.02735427635076,2.2660082033435174],[-70.02060278364337,2.2704470784967157],[-70.0203815728567,2.264168571645939],[-70.02494366262283,2.2561552283048627],[-70.02330346135625,2.2546413249218062],[-70.01687131342067,2.2559639235981876],[-70.01651249702496,2.249550334936316],[-70.01988554577395,2.245428874168283],[-70.01906929562949,2.236585717582784],[-70.01720787432026,2.2331932549243447],[-70.00325273723746,2.229148024372705]]]}}]}