{"type":"FeatureCollection","features":[{"type":"Feature","properties":{"code":"952017"},"geometry":{"type":"Polygon","coordinates":[[[-71.95880817695314,1.3453984000171317],[-71.95650292407583,1.340380436649525],[-71.953984062659,1.3406615192458844],[-71.9553998721662,1.3333597460275541],[-71.95434571755607,1.3311028618303453],[-71.94457084964137,1.3222939894046704],[-71.95278767239165,1.315860167164658],[-71.95688486191625,1.3087405722540666],[-71.96520083886662,1.309887149908036],[-71.965574556366,1.307554631991195],[-71.96018788607103,1.2978686266523027],[-71.96275928341703,1.296822754089817],[-71.96759628923814,1.298676456937926],[-71.9692441092069,1.296421470217183],[-71.96403364711085,1.291163973331038],[-71.95984500024991,1.2935797745230389],[-71.95653361382904,1.2899690146556395],[-71.950384468592,1.2884305253257367],[-71.9498275176029,1.2853534335372956],[-71.95265027761337,1.282070584339408],[-71.95337532341841,1.2774953932440667],[-71.96834399985943,1.2687727043014547],[-71.96763466042853,1.263403411599711],[-71.96947293561038,1.2614343401267547],[-71.97358564330415,1.2620382117489157],[-71.98004723760596,1.2678440279061647],[-71.98026887725314,1.2706143404334966],[-71.97737733397855,1.2745488303516481],[-71.97862813194047,1.275479193392698],[-71.98557860050732,1.2724887746259128],[-71.98602155892769,1.2642232684921169],[-71.9881735512439,1.2592066914650673],[-71.98999081945891,1.2623270446880497],[-71.99025349499107,1.2675097738031127],[-71.99289656038246,1.268418572461428],[-71.99646339752678,1.2673042261960177],[-71.99726837696971,1.2618773386563475],[-72.00334137735109,1.2603722521110399],[-72.00548994598222,1.2561462419334362],[-72.00895398206927,1.2558488574946978],[-72.00962712238038,1.2590521216966977],[-72.01215539198938,1.2592546857920865],[-72.01212863500041,1.2477421665399788],[-72.01548106450531,1.2452110687140134],[-72.0206795164496,1.2444033207038387],[-72.02370838868217,1.2404020159606262],[-72.03016790964381,1.23678096858265],[-72.03067910316838,1.2295171263813245],[-72.03288189026063,1.2270175050670673],[-72.0367734817844,1.2261340153507376],[-72.0388241180051,1.2237463852561632],[-72.04118626740785,1.2260737630173253],[-72.04505263740731,1.2254360854611264],[-72.04907273076697,1.2208571055835478],[-72.12490205818887,1.1860037151867004],[-72.12446352515667,1.1778861947322525],[-72.12015622996773,1.1596388970205567],[-72.12025920380336,1.1523458388241465],[-72.12321064357025,1.1464688780987444],[-72.135832664095,1.1340304469048306],[-72.13864970905041,1.1233474899572116],[-72.13777586612491,1.1146647868597483],[-72.13091215902585,1.1074702853383087],[-72.1314074260896,1.1028481972641089],[-72.13455466794227,1.0984328775583094],[-72.14402828755965,1.0947452354419624],[-72.14726538134988,1.082812873043565],[-72.14995351514932,1.0791816204305178],[-72.16817207200637,1.0716302164449303],[-72.17325375253023,1.0680410785530512],[-72.18035207513572,1.0474846044558603],[-72.18372219385196,1.0440685380132209],[-72.19084845307003,1.0419902356603643],[-72.19387294825123,1.0322623264310664],[-72.20215462150145,1.0310876321871092],[-72.20293675306533,1.0242896600485096],[-72.20585297690349,1.0226009029253191],[-72.21186687475023,1.0230743567232707],[-72.21612114035759,1.0291335687758192],[-72.22968347616171,1.0241740034597342],[-72.23576298349889,1.0274515088702856],[-72.2477486367033,1.0420526178982072],[-72.25414292149912,1.0450265023945917],[-72.27426362907443,1.0463638067705574],[-72.29204394086315,1.0412529771003847],[-72.29876152170698,1.0345154763534765],[-72.30053155458552,1.0240941778083084],[-72.31069198148668,1.0196763250486356],[-72.31002789969727,1.007942544616185],[-72.31858798570704,1.0056257423294142],[-72.31200979173468,1.0000339574016266],[-72.31888142606869,0.9978826335729991],[-72.31840841450105,0.9810431286590529],[-72.32660938483832,0.9719295595683661],[-72.31884837398303,0.9608382934572433],[-72.31866990115361,0.9581519625175474],[-72.33393590444058,0.9532129567958805],[-72.33784801544948,0.9426379914549443],[-72.34381238967518,0.9370219764214198],[-72.34701052914812,0.9354416006846122],[-72.35432341674476,0.9393519222035138],[-72.35879486164413,0.938476752587178],[-72.37805164459354,0.922707645504488],[-72.39188433119631,0.9234357910352742],[-72.39494342112698,0.9254559287930988],[-72.39412019197152,0.9310618239522341],[-72.38140835550468,0.9567524774784602],[-72.38050091850425,0.9643803204542678],[-72.38172890046894,0.966814851641459],[-72.3955613618428,0.96836986187202],[-72.40227580388,0.9720879942236706],[-72.40556392898799,0.976359218848188],[-72.41201926418859,0.9932182086340617],[-72.4035344941098,1.0027801642647773],[-72.40298528626437,1.009856273540322],[-72.41901488652417,1.0203230631834117],[-72.42482186584994,1.0272116092261285],[-72.42944506567045,1.043841677991793],[-72.44534527449167,1.063957076746874],[-72.45799481099607,1.0749767612017536],[-72.46220688372063,1.0877474214953509],[-72.47297907554031,1.0910946635361825],[-72.47503232811874,1.0891176946531118],[-72.48338676470559,1.0875966682771718],[-72.49055020417762,1.0815741212288685],[-72.50387973864787,1.0810601899902963],[-72.5072974907078,1.0781634870195944],[-72.51391979663663,1.0765057929742738],[-72.52035955298999,1.0871607927404625],[-72.54341640944881,1.0950954427453325],[-72.55849225885623,1.1031717648208996],[-72.5758042024953,1.1232358268107419],[-72.58645499696007,1.1262529717132566],[-72.58928571505874,1.1343728246753244],[-72.5922919769825,1.1373018320539359],[-72.60363655465665,1.142876145800244],[-72.62453452206364,1.1487317046368162],[-72.63703956856483,1.162331400672258],[-72.63739748198799,1.169400299537358],[-72.64495846077341,1.1776510722036164],[-72.64575965554786,1.185082440492181],[-72.65035292357737,1.1937848732309249],[-72.65341216674591,1.19442045996351],[-72.65476357106877,1.1930616467407162],[-72.65323663320527,1.184270946894344],[-72.65901237461793,1.1639739467877916],[-72.66188870105702,1.16216329351505],[-72.66413957195078,1.1627080111804275],[-72.66764909810729,1.1722252881827444],[-72.67296013673945,1.1761245817125996],[-72.69447543191058,1.1752291044701906],[-72.69447541545549,1.186557404984569],[-72.69707733080486,1.1925398736279362],[-72.70385975597787,1.1978531974593807],[-72.7054920577774,1.2050969922307218],[-72.71896598763419,1.2159666197230763],[-72.71895853451127,1.2218551699671707],[-72.70752207886784,1.2382383497933347],[-72.71261816067226,1.245590207133887],[-72.71001707219074,1.2596945095196475],[-72.70432552113954,1.263800609470195],[-72.70350096529324,1.2687755335468296],[-72.69471229970617,1.2713740200687766],[-72.69175148979951,1.2774439649475084],[-72.68655547320708,1.2786740829872656],[-72.68260371368217,1.2837670198144338],[-72.58131936434171,1.4858463783459683],[-72.57882473303056,1.4835873735003133],[-72.57881702999612,1.4750407436324622],[-72.57162228781914,1.4791175987915608],[-72.57108128180283,1.473828566772454],[-72.56524459591492,1.475545628690611],[-72.5541655610707,1.471916764121147],[-72.54636880052499,1.4747099142430216],[-72.5443164447484,1.4710963097036256],[-72.53980672430379,1.4716005643265362],[-72.5414013110593,1.4665215855212068],[-72.53638908537255,1.4711902394157619],[-72.53360434482511,1.4647855169567947],[-72.52685902997194,1.4653819848212493],[-72.52586039480269,1.4627748820078637],[-72.52927025356632,1.4581531652014519],[-72.5203822054649,1.4512012599004152],[-72.51801718259378,1.4517052995788617],[-72.5178793363292,1.454587312276601],[-72.51372876755255,1.4522097012690551],[-72.51199689503363,1.4561443392829005],[-72.50753322927346,1.4535381929210303],[-72.50580147708234,1.4459438175217088],[-72.49408252884791,1.4525811839627636],[-72.49194616268727,1.448875503993122],[-72.49454064239723,1.4445279195684861],[-72.48975645224169,1.4459935519734586],[-72.4874295485925,1.4450330967043215],[-72.48765847269806,1.4484187603292185],[-72.48542342130713,1.4493805155497057],[-72.47922746033817,1.4434339683466533],[-72.47690046207231,1.4474150066016023],[-72.47302528654797,1.4384027432127482],[-72.4717050995693,1.4412861155115024],[-72.47329990332622,1.4454490657076349],[-72.4724375213641,1.4471417597088134],[-72.46673842154485,1.4420645487961679],[-72.4673712170844,1.437946722543984],[-72.46180981851921,1.4350657876539685],[-72.4619468204325,1.4382225199742038],[-72.45839065440771,1.4386352514405303],[-72.45971822354682,1.4411973238982227],[-72.45816952795332,1.443302532364271],[-72.4552480096931,1.4417478142114533],[-72.45269954250148,1.4445387418691098],[-72.45119694375859,1.443395247485796],[-72.44873201386741,1.4455466484475892],[-72.4468170045323,1.4449062527178285],[-72.44545188490002,1.449344422359502],[-72.44321544716854,1.4460053739202294],[-72.44157506386767,1.4460053050145802],[-72.44089691092773,1.4522282091206193],[-72.43241199378167,1.4476551736407828],[-72.42863512296395,1.4505383587630263],[-72.4228910205569,1.44436276712662],[-72.41696223969836,1.4512732519051497],[-72.41149187372275,1.4515946196233926],[-72.40634237050017,1.447706519662006],[-72.40757799276429,1.4545239550752171],[-72.40365632958122,1.4497661393280623],[-72.40292352314896,1.4553481674216755],[-72.39896429404604,1.4603819852591755],[-72.39559110645729,1.4579127379662964],[-72.39239456621249,1.459469075916104],[-72.38970955270764,1.4556257903374217],[-72.39061696502546,1.4598349926789638],[-72.39363118915117,1.463357641762002],[-72.39704860491042,1.4637229548291089],[-72.3943178894769,1.4699000726741929],[-72.39714049110722,1.4744293787780975],[-72.38816081494804,1.4711823615460276],[-72.38642875216726,1.4721895266175125],[-72.38889313081324,1.478228745747458],[-72.38729768222288,1.478229218831018],[-72.38538330332307,1.4753469407951343],[-72.38287271264096,1.4754845536032235],[-72.38378859623975,1.4817525333164099],[-72.38018733918125,1.4868779977235818],[-72.38328466763312,1.4844521507050104],[-72.38461226454012,1.48674020185274],[-72.3822400302301,1.4909039357220877],[-72.37713521900554,1.4932841229781388],[-72.38046225626465,1.4943816408386397],[-72.37480810144035,1.4985924814890836],[-72.37399176490669,1.5044946627103286],[-72.37604445698395,1.5041284960359462],[-72.37572389659306,1.5062790886419748],[-72.36975740171891,1.510718437907201],[-72.36920878934171,1.5144705284023985],[-72.3631880101861,1.5164849274509606],[-72.36551541365833,1.5194585239834737],[-72.36346323888762,1.5205574384688703],[-72.36059479751736,1.5188190003729574],[-72.35881688676909,1.5124594203699075],[-72.35562727308468,1.5164867879034887],[-72.34928719338023,1.5176782704431275],[-72.3472353034881,1.5156195630055436],[-72.35029422064042,1.5135599186568243],[-72.34842461292874,1.5124160519773682],[-72.34331323612719,1.5131497644675278],[-72.33843852760333,1.5099481570863986],[-72.34049072911353,1.5228043786553371],[-72.33630217172714,1.520837732249845],[-72.33201369600783,1.524453371048537],[-72.32937341152501,1.529441487985821],[-72.32663465675637,1.52573592834392],[-72.3227595244266,1.5304953289209493],[-72.32021022111121,1.5381365015402366],[-72.31123085451321,1.5335178680044805],[-72.30868271436628,1.5383686806663945],[-72.30626420939888,1.533061193246283],[-72.30913202341924,1.5285761759909633],[-72.30448609193365,1.52995020604925],[-72.2977794393201,1.535991251693133],[-72.29742089751858,1.541847782407899],[-72.29862931130742,1.5435018481080647],[-72.29482780312071,1.5436971390579401],[-72.29175697660406,1.541712828123707],[-72.29320438809293,1.5364238444413445],[-72.28290647591052,1.5379955843463335],[-72.27910967799056,1.5323021131929409],[-72.27269257822593,1.5342231162910593],[-72.26695753845439,1.532787575085706],[-72.26598378645195,1.540791071089643],[-72.26100265983848,1.5420873807183852],[-72.25877470058714,1.5393337577561965],[-72.25983977211462,1.528846004340835],[-72.25712564545893,1.5283106516730527],[-72.25312964439377,1.5320402820120762],[-72.24978970635169,1.5299981386697254],[-72.25015137153315,1.5259235409419603],[-72.25736007070356,1.5257155754664495],[-72.25889555492438,1.5241629512225927],[-72.25623147948079,1.5216954965050036],[-72.25083033282891,1.5229637224538806],[-72.2471153927628,1.5210455321460472],[-72.24752835048645,1.5173054497456633],[-72.2537819042364,1.5171285432342643],[-72.2557892502262,1.5107157886392883],[-72.25310338619937,1.5083941166772092],[-72.24716440627634,1.5098174440991556],[-72.24543817785002,1.507478834717233],[-72.24604239502884,1.5054226665042165],[-72.25412172529877,1.4995276627832936],[-72.25665096164374,1.4945856067011505],[-72.25955230700401,1.4967167329471067],[-72.26187652950352,1.5032169534930517],[-72.26699320484096,1.5014177056478388],[-72.26814940357468,1.498603340813645],[-72.2648303963947,1.4924986674880074],[-72.25920794639637,1.487166581779661],[-72.2561027318472,1.4785442204901074],[-72.2607031310971,1.476338990846898],[-72.2620917753236,1.4774605403237047],[-72.26214510726726,1.4816857729987873],[-72.26460915886855,1.4819686965072378],[-72.2674018410491,1.4783347205784025],[-72.26612024637598,1.473646775159068],[-72.26756956665417,1.4727248792852947],[-72.2774115435285,1.4767945003796967],[-72.28228683106545,1.4763205549862732],[-72.28482712625288,1.4733060778636968],[-72.28452198941443,1.4655079083516966],[-72.28823761750863,1.4648204305234458],[-72.28121072846358,1.444125835567604],[-72.27368859498051,1.442428309943466],[-72.26756945249707,1.438192715710045],[-72.26317529813826,1.439526954298799],[-72.2617561523636,1.4379765031540046],[-72.26349523220767,1.4338345321568227],[-72.2658910898424,1.4337535999012516],[-72.26867594454694,1.4366872774373292],[-72.2728034720974,1.4355622497679406],[-72.27152918142303,1.428527989875363],[-72.26819521966041,1.4310772047446676],[-72.26554014720261,1.429358421213749],[-72.2670967288933,1.4252154248593456],[-72.27339057290743,1.4253489094991778],[-72.27782363118979,1.4287450879203902],[-72.28018120093799,1.4241433856337835],[-72.27835011251238,1.418592261209426],[-72.27061353950819,1.4167890857422663],[-72.27153695130625,1.4152300604721404],[-72.27640451009768,1.414144807817138],[-72.2765267312351,1.4104964707169643],[-72.27196413856058,1.4095392858950504],[-72.27466496436915,1.4041423280895629],[-72.26496778397393,1.4002339719242514],[-72.25932966051153,1.4031629350798767],[-72.25674324790475,1.40279071087906],[-72.25408057319987,1.3981146995067775],[-72.25356191215411,1.3905030185051146],[-72.25219658169112,1.3897741458654878],[-72.2498238239038,1.3899668975907957],[-72.24362113383546,1.3970112094805813],[-72.24056138158784,1.3874703533766137],[-72.23709033049437,1.3887814160132166],[-72.23625095581986,1.3969510157683658],[-72.23323737858448,1.3968513596882985],[-72.22965156256191,1.3861940531255073],[-72.22957541050715,1.3773150985128382],[-72.23402320020017,1.377767845649089],[-72.23538856254487,1.3715854673205286],[-72.2311238613313,1.3735117339874137],[-72.22605017283428,1.3733655665944298],[-72.22138867998495,1.3780610546111802],[-72.22009173889256,1.3759329057062928],[-72.22136607173309,1.3706530299108977],[-72.21589540956603,1.3741141308229885],[-72.21214213327659,1.371151920177624],[-72.21187489968719,1.3748292243897708],[-72.2090216216734,1.3765146215912978],[-72.20677064279317,1.3754205068470924],[-72.20431423149142,1.3708849395850962],[-72.19616615909507,1.3752164422540432],[-72.19897352332106,1.3785730204961055],[-72.19821854161114,1.3802834253058904],[-72.19154278341085,1.381226355914464],[-72.19053561011185,1.3743030310310473],[-72.1848440240936,1.3737710886786658],[-72.18624811861201,1.3708725129141612],[-72.1909627809111,1.3691783554393169],[-72.19013858913348,1.3656676774271546],[-72.18566775718585,1.3615296957584633],[-72.18691929974017,1.360244043879618],[-72.19438835530485,1.3616245479835243],[-72.1953955121487,1.3588550150155925],[-72.17787821219287,1.3555051669014233],[-72.17316334523372,1.3567867461479182],[-72.16056722911907,1.3553965942247146],[-72.15637108182688,1.3603093931741341],[-72.15511219310764,1.3564891591060473],[-72.15664605341777,1.3510615999933862],[-72.15271687746213,1.3502247018084859],[-72.1413414670813,1.3592417968202426],[-72.14173796149714,1.3632540133386328],[-72.14488104124291,1.3678962434595405],[-72.14441576767678,1.370904606491365],[-72.13627530986884,1.3753162196903759],[-72.13387963426845,1.374652712800298],[-72.13275042700866,1.3694642120657932],[-72.1275775678564,1.371470434996354],[-72.1232901750871,1.3760001401359432],[-72.12469395181677,1.3824193708334747],[-72.12031455972192,1.3833469879330096],[-72.1096790170597,1.3769826472695854],[-72.11411946161627,1.3717724577107901],[-72.1126623364878,1.365219839047029],[-72.11521837918701,1.3653487193496971],[-72.11797242792437,1.3689247949931769],[-72.12063522398552,1.3665919006663216],[-72.11295972709718,1.3488597384994137],[-72.1085576712145,1.346529320662171],[-72.10377421022474,1.3465404041871807],[-72.10295773176603,1.3504644584991183],[-72.1061392053279,1.3557335284489227],[-72.10442238200835,1.3577274800033479],[-72.10196573930705,1.357612677021848],[-72.09435180601628,1.3525653022551296],[-72.0946266449381,1.3450675490303752],[-72.09166641815835,1.3410704742712483],[-72.08762290407725,1.3504030933908666],[-72.09242916255238,1.352479080719661],[-72.09422947689245,1.3581330514527963],[-72.09105606220612,1.3587164796945785],[-72.08702780301292,1.356081816678568],[-72.07627027472671,1.3421127215738693],[-72.07227229802345,1.3406619594192648],[-72.07408817784102,1.3363554417328487],[-72.0728977792798,1.325163364600769],[-72.06836606353505,1.3185852796433437],[-72.05671575663962,1.3282136911726639],[-72.04971204868895,1.3311354243774076],[-72.04508098436844,1.3304189526976415],[-72.04341049752662,1.3275854300362084],[-72.0527870794786,1.320135427397588],[-72.04318144075194,1.318949002738293],[-72.04244150104233,1.3251087872131961],[-72.03607080666103,1.331536388404345],[-72.03228646112308,1.3394917173029626],[-72.0237877217096,1.3419827943167206],[-72.02802940637963,1.3491884287284392],[-72.02261264385658,1.354140115146322],[-72.02702264342918,1.360852302837543],[-72.02171256022012,1.3643707363347062],[-72.01919468405123,1.3643677775056062],[-72.01798171837578,1.3627157604629474],[-72.01795875736815,1.352700238027353],[-72.00779637951149,1.3484350441897845],[-72.00770458587448,1.343272446836977],[-72.00056361170084,1.3430118055641742],[-71.99871077994351,1.3447533197316943],[-72.00000003137126,1.3566362438697297],[-71.99742101120927,1.3583343690758625],[-71.98863248240502,1.356668828014051],[-71.98406970666775,1.3541793574275403],[-71.9826280441726,1.358107147042631],[-71.9799574268061,1.358158446783932],[-71.98003246608602,1.3552811350969023],[-71.98590670555251,1.347959083048977],[-71.978170638542,1.3512573845957263],[-71.97562247474093,1.343724835046828],[-71.9711439047918,1.3441944270430781],[-71.96755064593071,1.3425370250753872],[-71.96752022562947,1.3360055316493913],[-71.96332395492414,1.3360675271928812],[-71.96053904365527,1.3446504271429944],[-71.95880817695314,1.3453984000171317]]]}}]}