{"type":"FeatureCollection","features":[{"type":"Feature","properties":{"code":"952009"},"geometry":{"type":"Polygon","coordinates":[[[-71.9881735512439,1.2592066914650673],[-71.98982086624738,1.2565799525986563],[-71.98773803669053,1.2543669787832528],[-71.98579240136564,1.2542868415137605],[-71.98158072047767,1.2580872626367068],[-71.97949049950438,1.25723517538421],[-71.97876577251657,1.2544712566839848],[-71.98577732748367,1.2496491941327008],[-71.98784482501947,1.2399227833441842],[-71.97602670201604,1.247748568594659],[-71.97222753456452,1.246002971510336],[-71.96877866389082,1.2390312748614747],[-71.96519296305382,1.237519554861933],[-71.9611954193249,1.2386766503975082],[-71.95753321367732,1.24358230064297],[-71.9526960175944,1.2407637881000824],[-71.94927035269774,1.2445040000842482],[-71.94147339057724,1.2415332801054433],[-71.93862740010718,1.242444118165281],[-71.93847511039587,1.2438406742000438],[-71.9364910689136,1.2431201854238338],[-71.9320204837922,1.2383748570257467],[-71.92819796143948,1.2303055859520668],[-71.92135451980027,1.2093781217851074],[-71.91686403945835,1.201470789270445],[-71.9127560780268,1.2019844181469352],[-71.91198778415696,1.1976616469549413],[-71.90677500189457,1.206309280162543],[-71.89910633592149,1.2098626827622638],[-71.89358402331425,1.2095555713141835],[-71.88437753649885,1.2001402798142067],[-71.88161665067565,1.2009130762053815],[-71.88130654645983,1.1894879653114003],[-71.87775548048154,1.1865154753830893],[-71.87050437554075,1.186394505860278],[-71.86765127030532,1.1781884951261645],[-71.86839868679203,1.1743524806361165],[-71.87618071489868,1.1668419891223607],[-71.86735389615103,1.1608757349037546],[-71.86351612713804,1.1632968654849378],[-71.86593487276099,1.168567535691352],[-71.86317274149388,1.1743488738882206],[-71.86484339802877,1.1809936790540405],[-71.86380598440593,1.1839226751197884],[-71.85587883894613,1.1887842740868564],[-71.84789851786593,1.1883106403114994],[-71.84486233957773,1.18600446080751],[-71.8414287330479,1.1778855714960628],[-71.83784328726466,1.1915948429397076],[-71.83845330588775,1.1964466963854647],[-71.83693529387682,1.1976531941858752],[-71.83180055188967,1.1925703083273902],[-71.82060054649423,1.1883322797705205],[-71.81423812490453,1.1823730765538016],[-71.80187845286713,1.1796120508624313],[-71.80082519403044,1.1845033821026618],[-71.80444953756665,1.192196189735455],[-71.79932250067083,1.1972649530212607],[-71.80531907028961,1.1997444888531277],[-71.80356410203706,1.203181236246337],[-71.7985897076083,1.2014881586361525],[-71.791013778354,1.1953997820106679],[-71.7831557020653,1.1947976381719059],[-71.77668611470824,1.1891531373374846],[-71.77203988497439,1.1883297148348788],[-71.7665086064053,1.1962040950228356],[-71.77145978374415,1.1993752080547893],[-71.77889083732936,1.200922469999398],[-71.77924187047205,1.2035120388962923],[-71.77789363169524,1.2051710154094621],[-71.77020103592156,1.206773207497406],[-71.7626172853619,1.2188429225079176],[-71.74696949952937,1.2088080632960896],[-71.74102633693064,1.2021199771552915],[-71.73871435392556,1.1966659407900124],[-71.73699774349359,1.1847584420179942],[-71.73857732835813,1.182407455330349],[-71.74884647397482,1.1800865948093815],[-71.74551968559877,1.1716277054866282],[-71.7426283984064,1.1691234962902968],[-71.73573114865462,1.1712112140344857],[-71.72336391242249,1.1798580954505837],[-71.71198112296662,1.1819033107507835],[-71.715353340734,1.1928248118553029],[-71.72132706967284,1.1960455503241292],[-71.72331062881563,1.1850041400210216],[-71.72777412385432,1.184673591396404],[-71.72973445767963,1.1872905065798705],[-71.7296128011572,1.1977148472579984],[-71.73392295027418,1.2018566290217336],[-71.73116127563554,1.2109618872684678],[-71.73114617707091,1.2182607170843198],[-71.7245695823267,1.2279637554881333],[-71.71645947180059,1.233324835047938],[-71.71266760834783,1.2341384770621744],[-71.70248256567498,1.2225901114460953],[-71.69346477337916,1.1947333697704607],[-71.68140221427166,1.193416904725268],[-71.67896861485343,1.1937701191945962],[-71.68020443663539,1.2061396426828424],[-71.67416213629161,1.2104477431423106],[-71.67364327778489,1.2156103404950613],[-71.6746578784958,1.2176962399528293],[-71.68308104281078,1.218214892771016],[-71.68363768321029,1.2213962449766882],[-71.67492495473346,1.2243824255318714],[-71.66055150174151,1.2361201490128906],[-71.65487531767837,1.2356330632094341],[-71.65093853433342,1.231325439947284],[-71.64380504619288,1.2169048544631096],[-71.64275971253426,1.1852450516526005],[-71.63666398254475,1.1838474239806942],[-71.6233427794873,1.1872565463794444],[-71.61473674780808,1.1877454340142322],[-71.61746031865135,1.1940994223753023],[-71.60603190440003,1.1971944234617808],[-71.58667569574163,1.1794083822197763],[-71.5857449233805,1.1683300426026904],[-71.58177030774903,1.1552870332466227],[-71.56382596760608,1.13225641338488],[-71.55872154821816,1.1212810167501743],[-71.55195895038844,1.112620920876111],[-71.55963623162455,1.1147826617989836],[-71.56859406675,1.1321486295236127],[-71.57082888468449,1.1272310997385944],[-71.57466645932186,1.125621140852786],[-71.57552873741128,1.1236443704590897],[-71.58087688636328,1.1295245450673406],[-71.58708742653334,1.1294294100205775],[-71.58745370530795,1.1262132666329308],[-71.5827917825697,1.1260771008434176],[-71.57808468446535,1.122356848871732],[-71.57941276268343,1.1201963832175466],[-71.5855768172517,1.1219403615333476],[-71.58735427239992,1.1204234448136958],[-71.58671372960288,1.1176209111822573],[-71.58338013499423,1.1190004053556777],[-71.58027417996647,1.1165662001847068],[-71.58109827918429,1.1106388498897104],[-71.58849145934522,1.1144494618495742],[-71.59091803758645,1.1135757145692082],[-71.58959026995797,1.1087046950686954],[-71.58251040275343,1.1072378223620376],[-71.58351688699594,1.1045264940984225],[-71.58876586015054,1.1043400765506135],[-71.58634043685026,1.099838033429421],[-71.58885063775267,1.0968506927911221],[-71.58666109082941,1.0920264273159432],[-71.58081656203888,1.0973589192590225],[-71.5794968769402,1.0975893325493757],[-71.57862618824782,1.0935460066732503],[-71.57875621937768,1.0923506911283312],[-71.58328090674627,1.091476418313846],[-71.58341784078232,1.0900518269359623],[-71.57957988664964,1.0895019989397383],[-71.5793513533522,1.0877100509795241],[-71.584554761361,1.088305641582565],[-71.57980971475615,1.0815525630167713],[-71.58080835918139,1.0801275664326226],[-71.58597345976324,1.080906601356105],[-71.58450892059261,1.0730494650638889],[-71.59035319227252,1.0761719224802846],[-71.59336670985829,1.0695539843468396],[-71.59345107402652,1.067888785756395],[-71.58810969839698,1.0672101926430742],[-71.58450178731533,1.0638518516505542],[-71.58838478723032,1.0628013109874246],[-71.5925435064139,1.0649183434571228],[-71.59528209663176,1.0638222458757696],[-71.59775396336772,1.0595523654256453],[-71.5950612653404,1.0565669202068761],[-71.5979450952961,1.0534408539857054],[-71.59734916119328,1.0507761583912156],[-71.59055176806783,1.0511004664266466],[-71.59068190307039,1.0468699290450445],[-71.59194035984376,1.0460024357236648],[-71.59806719096343,1.0480176472418066],[-71.59731911524511,1.0419307957965316],[-71.60098936434156,1.0374511737506964],[-71.60500179271907,1.0358924055911984],[-71.61061794864924,1.0381691778098343],[-71.61445570429254,1.031819902800862],[-71.61679049095358,1.0305421113081366],[-71.61917086847154,1.0385378857656633],[-71.6249688581812,1.0379393425041599],[-71.64560742461708,1.0116545381944775],[-71.64827758432665,1.0014883335032323],[-71.65521239177082,0.9930758475068728],[-71.66059970381389,0.9894899276116007],[-71.66269762267939,0.9852611385823025],[-71.66566538691438,0.9837893982572155],[-71.66794664931297,0.9789169656766603],[-71.67128055245439,0.9800657596242672],[-71.68219161795264,0.9782241995969798],[-71.68598307517061,0.9750514575120519],[-71.6951080342622,0.9730260808680669],[-71.69940388494285,0.9754151692941377],[-71.7016390823726,0.9801475403448876],[-71.70100620969987,0.986489645052643],[-71.71255679880869,0.9866702035634489],[-71.72105627664394,0.9919527214276513],[-71.73853570009027,0.9881780309081023],[-71.74721118043595,0.989186076326348],[-71.75962445284051,0.970800085941903],[-71.77167112148265,0.9599039452014608],[-71.77468483652939,0.9553539848864716],[-71.7794233422398,0.9421631060650384],[-71.77636395097551,0.9377982468914183],[-71.77603624805135,0.9206110523014104],[-71.78520605649277,0.9138527790724993],[-71.78995262827783,0.9032353133444531],[-71.80277772711929,0.8973488734643524],[-71.81460356961225,0.8961041772519138],[-72.04178384290492,0.6634101119983029],[-72.05342692293476,0.6585813563430634],[-72.0858826219839,0.6591222142636752],[-72.0880721092575,0.6621079248205888],[-72.08811790477438,0.6654170239852988],[-72.07616265850152,0.67006164523508],[-72.07178300518228,0.6768643451239313],[-72.07050956400144,0.6841710414965974],[-72.07234014849018,0.6917982365536091],[-72.08321296415431,0.7072348687387944],[-72.08677597960622,0.7077849199071125],[-72.09822804083643,0.7020828396613865],[-72.10881781369272,0.7052959409160735],[-72.11457793512045,0.709520973044846],[-72.12425964054114,0.7237627370575979],[-72.12261905052327,0.7361699272531155],[-72.12837954219032,0.7421875007534027],[-72.13111885643167,0.7428298854910054],[-72.13563611741682,0.7405310562657519],[-72.14060245194156,0.7249058529740751],[-72.14557685151249,0.7217332487004455],[-72.1509180831601,0.7242584093277173],[-72.16265965610148,0.7356039691644014],[-72.16594758374856,0.7368894390089622],[-72.16918364806776,0.7361067510576618],[-72.16904553337974,0.7310066706687053],[-72.16543704842718,0.7260452305019385],[-72.16365158788238,0.7202558467992617],[-72.16935838148015,0.7156593319767239],[-72.17679697149208,0.719194302829635],[-72.18063559616928,0.7241558571535052],[-72.18661715258412,0.7282884929779812],[-72.19273625392987,0.728332325198096],[-72.1957947411932,0.7255288001480267],[-72.20253961587298,0.7048939299345989],[-72.20550012547443,0.7028252630596512],[-72.21180199134017,0.7034204309727556],[-72.2233082226947,0.7098951790543424],[-72.23203593660747,0.7208736332486865],[-72.23131129703722,0.7281338265360091],[-72.22451356761104,0.7429784347568784],[-72.22511611974147,0.751387095975474],[-72.2302352088335,0.7622754822593834],[-72.24352585686364,0.7746764514060942],[-72.25303259644392,0.7929139706862998],[-72.26443921285608,0.7967696819075059],[-72.27170218910885,0.797409024512092],[-72.2732965609199,0.7962143229473782],[-72.27110004321327,0.7883120544836402],[-72.26346965895601,0.778205856328043],[-72.2629206670835,0.7706246974435089],[-72.26656808167075,0.7663954178471499],[-72.27369366931589,0.7680012074270053],[-72.29191296459464,0.7813649232128341],[-72.311468550205,0.8146689341019737],[-72.31010246383676,0.8173349224486515],[-72.3063637729191,0.8193580509172875],[-72.29385144401647,0.8200529623281341],[-72.28856339518836,0.8229504500004623],[-72.28938818449109,0.8259365842756665],[-72.30035116268243,0.8385213432995897],[-72.30267839440472,0.8450905538265374],[-72.30250359928584,0.8493185838652266],[-72.29980951286109,0.8545578207545077],[-72.29160060808977,0.860075197866081],[-72.28904405836835,0.863981747057835],[-72.29082948291767,0.8767549661164367],[-72.29868786876756,0.8861708345726242],[-72.30430380049722,0.8858007053092365],[-72.3151612193484,0.8794089432829537],[-72.32511753331977,0.8796803369223198],[-72.32698685615287,0.8765089739788436],[-72.32693301204478,0.8715921065108319],[-72.31834277518573,0.8567093255890086],[-72.32117307162298,0.8481611386591794],[-72.32527767004746,0.8438862856894502],[-72.33034345702066,0.8437919877949298],[-72.33418157364724,0.8554607521482467],[-72.34551188168138,0.8705268138681959],[-72.34610652406036,0.8736049978626284],[-72.34547313408103,0.8766837680693129],[-72.33694342826328,0.8835796654191768],[-72.33758469405547,0.8876691755634738],[-72.34297086761268,0.8939609256686367],[-72.34941801743929,0.9069158674349751],[-72.34960054850285,0.9125209871484685],[-72.34345179818769,0.92796244272904],[-72.34491614606799,0.9336133846989583],[-72.34701052914812,0.9354416006846122],[-72.33838703760017,0.9418571310459356],[-72.33393590444058,0.9532129567958805],[-72.31852252945447,0.9583888909912162],[-72.32660938483832,0.9719295595683661],[-72.31840841450105,0.9810431286590529],[-72.31888142606869,0.9978826335729991],[-72.31200979173468,1.0000339574016266],[-72.31858798570704,1.0056257423294142],[-72.31002789969727,1.007942544616185],[-72.31075222250723,1.0195620866820718],[-72.30044718836041,1.024192954570026],[-72.29937208540457,1.0329940848804426],[-72.29556612817555,1.038692606715074],[-72.28888846941345,1.0428435128208662],[-72.28003365646049,1.045518105117651],[-72.25854213476663,1.04596731029784],[-72.24796408718345,1.042227745204059],[-72.23666814249913,1.0283949321028558],[-72.23173388201127,1.0246588925100468],[-72.22741479778574,1.0244865995917394],[-72.21626618469134,1.0291402485099752],[-72.21138674841723,1.022820976254593],[-72.2035875802876,1.0235557860929134],[-72.20227860641774,1.03097762277622],[-72.19414809981959,1.0320277674889553],[-72.19084845307003,1.0419902356603643],[-72.183941358038,1.0439628984545948],[-72.18093259391361,1.046556828976236],[-72.17305812527962,1.0682590466604438],[-72.15021156783234,1.0789672518719158],[-72.14726538134988,1.082812873043565],[-72.14402828755965,1.0947452354419624],[-72.13472325332526,1.0983262393820041],[-72.1315884227169,1.1024512750162216],[-72.13074656538214,1.107083879943616],[-72.13724000643492,1.1134047750812783],[-72.13864970905041,1.1233474899572116],[-72.135832664095,1.1340304469048306],[-72.12321064357025,1.1464688780987444],[-72.12025920380336,1.1523458388241465],[-72.12015622996773,1.1596388970205567],[-72.12446352515667,1.1778861947322525],[-72.12490205818887,1.1860037151867004],[-72.04907273076697,1.2208571055835478],[-72.04505263740731,1.2254360854611264],[-72.04118626740785,1.2260737630173253],[-72.0388241180051,1.2237463852561632],[-72.0367734817844,1.2261340153507376],[-72.03288189026063,1.2270175050670673],[-72.03067910316838,1.2295171263813245],[-72.03016790964381,1.23678096858265],[-72.02370838868217,1.2404020159606262],[-72.0206795164496,1.2444033207038387],[-72.01548106450531,1.2452110687140134],[-72.01212863500041,1.2477421665399788],[-72.01215539198938,1.2592546857920865],[-72.00962712238038,1.2590521216966977],[-72.00895398206927,1.2558488574946978],[-72.00548994598222,1.2561462419334362],[-72.00334137735109,1.2603722521110399],[-71.99726837696971,1.2618773386563475],[-71.99646339752678,1.2673042261960177],[-71.99289656038246,1.268418572461428],[-71.99025349499107,1.2675097738031127],[-71.98999081945891,1.2623270446880497],[-71.9881735512439,1.2592066914650673]]]}}]}