{"type":"FeatureCollection","features":[{"type":"Feature","properties":{"code":"953009"},"geometry":{"type":"Polygon","coordinates":[[[-73.17847648892842,1.637658180622168],[-73.16306699219905,1.6300966433924486],[-73.16166544616118,1.6217619261624918],[-73.16298676648353,1.6072373322295448],[-73.16152804212692,1.6036416225899188],[-73.1481647541732,1.6005039380535777],[-73.14071660170276,1.5962128089525436],[-73.13385815097342,1.598781842937683],[-73.1276637820335,1.604965359752157],[-73.12338228429667,1.6062333316756963],[-73.11204644221328,1.604187417034609],[-73.10363291646155,1.6060449230631662],[-73.09913939398666,1.598753678010894],[-73.08298171046715,1.599731012078621],[-73.07509373941133,1.5970062934934504],[-73.07017787364634,1.597446261202947],[-73.06761919299203,1.6070738448360657],[-73.06304708208205,1.6044296306744172],[-73.05549646485497,1.6040317735722738],[-73.04678616247406,1.6095829730729179],[-73.0429223923773,1.6186168491813078],[-73.04242919968209,1.6301727296269064],[-73.04098274773008,1.6333818960604845],[-73.03746912734391,1.634273813863274],[-73.03195314274348,1.6300258916893995],[-73.02785941392796,1.6178523656910215],[-73.02226162803811,1.610995143950504],[-73.02390024961693,1.6021634709541672],[-73.02288205244258,1.5986796795147598],[-73.02018843293075,1.5973206606034864],[-73.00895893694604,1.5995952967469975],[-72.9924174448492,1.5993052101363787],[-72.98560160352184,1.6044753891673622],[-72.98254521428129,1.613843927670473],[-72.97335666144653,1.6099956849988075],[-72.96446817420014,1.5940512459502543],[-72.95121246750455,1.5940303665101965],[-72.93632897798585,1.5867508436457456],[-72.93241635275564,1.5874625505513222],[-72.93187034542336,1.5922342183907858],[-72.9345901346835,1.5993921011879024],[-72.9333702506753,1.603229034077117],[-72.92997662073464,1.605211459876216],[-72.92627338845813,1.6041656294798372],[-72.92380855729743,1.600453403473523],[-72.92257240127168,1.5937421012713457],[-72.9270685287915,1.5850265774877244],[-72.9256568741921,1.582727577540993],[-72.91788719973698,1.5850756455087662],[-72.906660464092,1.582638127724465],[-72.89032426866231,1.560237964724024],[-72.88980576188294,1.5531403651135633],[-72.89281537138714,1.5518895753792208],[-72.90584133019468,1.5538753621284513],[-72.9131669067151,1.562162582797555],[-72.91708204134505,1.5624863447300186],[-72.9194817525539,1.553093860999752],[-72.91916828635954,1.547529217698468],[-72.91698573901607,1.5445805732383633],[-72.91224623057417,1.5424760815967602],[-72.91170346077894,1.5356637554859276],[-72.90960978218197,1.5320034267459732],[-72.90626668887819,1.5319458483631365],[-72.90430394541204,1.5295794350377037],[-72.89762000697993,1.5017124161360016],[-72.89517791571177,1.4995007504994646],[-72.88741232211657,1.4977620480938185],[-72.87771911973704,1.4927612915980149],[-72.8633098265517,1.4771376402260898],[-72.85131603528168,1.4566543984353757],[-72.84583010382858,1.4521611546683744],[-72.84000450043726,1.4533671711577085],[-72.83546431649683,1.4648157325980264],[-72.83234016934932,1.4683922936663407],[-72.82590582157519,1.4677921100390563],[-72.81129651483195,1.455203807002249],[-72.80811055828912,1.4557703739288854],[-72.80278072795528,1.462021780290911],[-72.79897258528587,1.4628218725749775],[-72.79491557803891,1.4612057522900272],[-72.78641288117859,1.4509995031324365],[-72.7832804756377,1.4431574129542355],[-72.781660235412,1.431719390992896],[-72.75878193714328,1.3969826321483083],[-72.75619846691052,1.386946099660463],[-72.75218711222698,1.3824337813700822],[-72.75174143049082,1.3768653122626233],[-72.74972956038243,1.3750374449190303],[-72.74269417845909,1.3768157248781563],[-72.7403206894491,1.3748290043030806],[-72.74148520931124,1.3662844272064945],[-72.74397851701684,1.3630651871784494],[-72.75153112736552,1.359085434476583],[-72.75281988719769,1.3561274928961211],[-72.74853911142753,1.3514505651815512],[-72.74008852266428,1.3480611467130075],[-72.73835802722994,1.342828299537075],[-72.7379254776763,1.3342330058261496],[-72.7405881266701,1.3219084437879474],[-72.73963910562492,1.3137113270247482],[-72.74188317439985,1.3012920114919098],[-72.73548037821377,1.2786269926612022],[-72.73385029065093,1.2579122001226892],[-72.73962438964094,1.2530019918200423],[-72.74136856336077,1.248468130744186],[-72.74142008216035,1.2398865101765182],[-72.73915945546082,1.229436055285987],[-72.7423033600175,1.2230593177764604],[-72.7426469863172,1.21805039750393],[-72.73901875629673,1.2177464557157123],[-72.73663181628706,1.2202780708482237],[-72.73157628597119,1.2325464727258577],[-72.72888288037535,1.2351288209277982],[-72.7257958157798,1.2337729490506604],[-72.7226948651533,1.2232398804010245],[-72.72875555199244,1.2150778900920614],[-72.72705767875476,1.2011440880493183],[-72.72282656750224,1.2017967438423511],[-72.7141823312403,1.2011578115862562],[-72.72566386763305,1.2011007124576167],[-72.73127857757305,1.1970360412570358],[-72.73337673812256,1.191387788664315],[-72.73008871688722,1.1815940858533622],[-72.73383405874267,1.1742141911128101],[-72.72658026751003,1.1632510751102245],[-72.72863860265142,1.1624988372849998],[-72.73795374544738,1.16638250054541],[-72.74371731318593,1.1637865727884105],[-72.74553903969928,1.1599148260914376],[-72.74221569866256,1.1545176924223028],[-72.74262829951664,1.1507434245925765],[-72.74723105287148,1.1451299210156662],[-72.75342349039636,1.1423486967132135],[-72.76858403924427,1.1464621438571498],[-72.7840973490184,1.1652282249991686],[-72.78268133896489,1.1776904060161542],[-72.77429541763883,1.1909256600753793],[-72.77552282778942,1.195354195267555],[-72.77834566287623,1.1953097778635993],[-72.78572414453669,1.1898806164375628],[-72.79346240727193,1.1931239014517132],[-72.80325076732402,1.1920316646435367],[-72.80921173946189,1.1974180192066797],[-72.81959331955693,1.1932700277070012],[-72.82938452428101,1.1935016987825406],[-72.8292072310752,1.1908084063153979],[-72.82237837995001,1.1874729512542785],[-72.8200140471638,1.1816294046263351],[-72.82105909902918,1.1774295929934055],[-72.82698076203707,1.175422817789297],[-72.82903106298551,1.1729131043686039],[-72.83017607123622,1.1635551248849083],[-72.8333599441545,1.1647426592337524],[-72.83722763158886,1.1710440273333234],[-72.84368858619933,1.1709559402031005],[-72.8504738796986,1.176435257742412],[-72.85794057704453,1.1772139049430734],[-72.86367479714744,1.180410936783403],[-72.86572441212468,1.1795444101979342],[-72.86572603295008,1.1758012126451831],[-72.85958091715082,1.1750683969569309],[-72.85685058121265,1.1713697649038295],[-72.85512407613527,1.162558609335747],[-72.85594695150644,1.1577658193438651],[-72.85676721977586,1.1563055019298076],[-72.86109253533459,1.1562609477430215],[-72.87087844049438,1.1611487524538688],[-72.8748400658684,1.160739063120559],[-72.8767554958365,1.1585936415235665],[-72.877987388968,1.147638004354917],[-72.87494437770772,1.1343065724082635],[-72.859060540663,1.1261777236594526],[-72.85619104925291,1.122249090721482],[-72.85628529572534,1.117044596677374],[-72.85833683286171,1.1141239135125147],[-72.86325012546348,1.1147645324143127],[-72.87021664184738,1.1220707557034189],[-72.8729927054253,1.1211129445599681],[-72.87618305958836,1.1147676352253484],[-72.88387676607994,1.1149527600209694],[-72.88943240022473,1.112764108871147],[-72.88770362023251,1.1089738487602858],[-72.88215094183147,1.1065981588833438],[-72.88124199610587,1.1024437313903377],[-72.8748686730255,1.099748430374973],[-72.8746874419133,1.0981044794070272],[-72.87810543462876,1.0895225667616728],[-72.8866191224543,1.0916258972916921],[-72.8893513363285,1.0908047713012365],[-72.88999059460087,1.0870160096310997],[-72.88812371843255,1.0831347066462627],[-72.88302442377369,1.0865572964998478],[-72.87155125170392,1.0871476348468718],[-72.86631771135774,1.084361283758426],[-72.86668866748892,1.0691139395041205],[-72.86345991128223,1.0592980305623314],[-72.86382306050626,1.0552351365103618],[-72.87934859743342,1.0661934291175612],[-72.88303569241833,1.0640508840743337],[-72.88476646347533,1.059942700499164],[-72.88276730594492,1.0554228221278663],[-72.875069731481,1.0598032858598003],[-72.86942357896788,1.0555560496570706],[-72.87161330792549,1.0520414234540567],[-72.87766915594256,1.0508559480471718],[-72.87917123635043,1.0486209923013803],[-72.87380317263751,1.0423180465709834],[-72.8720748071076,1.0373416754757159],[-72.87817436701704,1.0393066249511094],[-72.8805009343655,1.033143957751804],[-72.88760018051238,1.0370718491827233],[-72.88910270829274,1.0365700504805773],[-72.90053594079728,1.0227880630086474],[-72.90317684748783,1.022786778483919],[-72.90181046698501,1.0286300237782484],[-72.90499519453903,1.0305938100851222],[-72.90827460051133,1.0255271705331097],[-72.91442220308465,1.0204622700774166],[-72.91801964564985,1.0224254804564907],[-72.921113365297,1.0216043884046258],[-72.9236620690304,1.028315973428505],[-72.92926272221803,1.0252585423756386],[-72.93326898816798,1.0284551093599816],[-72.93777652008691,1.0272236728569055],[-72.9393715634709,1.0191894768153134],[-72.93523651389188,1.0117929264482086],[-72.93815101097505,1.0096470996448943],[-72.94156913944494,0.9959075518819418],[-72.94785130240888,0.996365238627618],[-72.94498498065866,0.9922552984726849],[-72.94926669128307,0.9879652903740066],[-72.95213416797424,0.9886506208142691],[-72.953588416549,0.9945401017988615],[-72.96132972964477,0.9934007582095887],[-72.95973865913425,0.986780426890391],[-72.9627451966806,0.9813026335029349],[-72.96247383800824,0.9768290761826393],[-72.96625526585478,0.9708491231096446],[-72.97376492433006,0.9773335457500139],[-72.97567736461576,0.976557698998306],[-72.97658925682919,0.9727231068442279],[-72.9800518150443,0.9735453630930238],[-72.98254790365849,0.9804395439723521],[-72.98792545166827,0.9760592396490324],[-72.98633534583684,0.9662420862917429],[-72.98838443527995,0.9665620429868227],[-72.98838309213403,0.9707168242640591],[-72.99015747018223,0.973275209755343],[-72.99380183543741,0.97459874842815],[-72.99530223537016,0.973685984095539],[-72.99525709394271,0.9709010275751098],[-72.99238886751692,0.9723609654939196],[-72.99088679636503,0.9714935760451908],[-72.99334363652736,0.9677504309429423],[-72.98943209938938,0.966379286694405],[-72.98947781674468,0.9638232460520157],[-72.99312276101296,0.9596701956435822],[-72.99831178933846,0.9619990461344514],[-73.00026956851258,0.9599906624462164],[-72.9908059566693,0.9430966521356368],[-72.9910808315866,0.9401750557137802],[-72.99964589011597,0.9326898422887098],[-72.99968613924239,0.9368898524110136],[-72.99508615856854,0.9432348141320404],[-73.0004133283216,0.9418207900010884],[-73.0077887575647,0.9434653528924173],[-73.00897260494713,0.9422331841382743],[-73.00769902595493,0.9397214806813281],[-73.00337620539773,0.9391729834896978],[-73.00169079276964,0.9356573833516677],[-73.0069247115826,0.9344259036540166],[-73.00587952293438,0.9301340083633249],[-73.00811206595398,0.9289479210331137],[-73.00797725256643,0.9255237669185021],[-73.0108924561896,0.9207307023324915],[-73.01408013845901,0.9208678502845373],[-73.01744757808245,0.9244297478194881],[-73.02099977329067,0.9222386839434762],[-73.02086354579461,0.9273067273195466],[-73.02837195471227,0.9311428281988015],[-73.0303306584562,0.9295909958556763],[-73.02955798959192,0.9263491774005388],[-73.03292655947371,0.9261670762259655],[-73.03392889909287,0.9235655115754753],[-73.03679566101647,0.9230639638133198],[-73.03584290878183,0.917371679482585],[-73.0393042945725,0.9108742449874399],[-73.04117248097663,0.9116049328281406],[-73.04194352798709,0.9205534687763475],[-73.0433547043607,0.9213755954413614],[-73.04745266933094,0.9150755468335774],[-73.05110085936383,0.914896900197391],[-73.0521452653673,0.9221987464351855],[-73.05792606568878,0.9169497465410927],[-73.05879036980991,0.914119235159319],[-73.06320720441158,0.9156265801644281],[-73.06525669083351,0.9146681334435129],[-73.07595909048695,0.9048541466607958],[-73.0817411825322,0.9070920242117495],[-73.08187571206963,0.9119313512276221],[-73.07896087148669,0.9156293723858653],[-73.08651688700854,0.9143983410891678],[-73.0856090077778,0.9207892927027501],[-73.09266587900765,0.9178689118999728],[-73.09566819479744,0.9227542689176289],[-73.10345435724304,0.9220245807230754],[-73.10481905521391,0.9245816734621144],[-73.10923574377671,0.9271396095240334],[-73.11059778939432,0.935266201869922],[-73.11551757661061,0.9295143871724463],[-73.12052341772625,0.9333502885338589],[-73.12266371356571,0.933030996212608],[-73.12767450868893,0.9269593019531612],[-73.13182188106623,0.9247704780250388],[-73.14032906296438,0.9281026256149971],[-73.13764329972497,0.9316634710532412],[-73.13869030768802,0.9340379535386774],[-73.14205891665063,0.9342665300306408],[-73.14269762573468,0.9307967716894154],[-73.14451704339456,0.929564095913122],[-73.14588271632891,0.9370979320436277],[-73.1538941467669,0.9427600665534897],[-73.15184373886046,0.9469602741366998],[-73.14893445495244,0.9423026585157004],[-73.14597436084176,0.9429415989993117],[-73.14747037446722,0.9542642389660614],[-73.14929376294361,0.9507495088903966],[-73.15070515529015,0.9510691889344685],[-73.15152268790251,0.9549497329287533],[-73.15398256916933,0.9522111252273362],[-73.15694061359403,0.9551331957612206],[-73.15908156249452,0.952485474610512],[-73.16436176327778,0.9512079566835041],[-73.16308637628367,0.9587868756202624],[-73.164316223843,0.9620283773151073],[-73.16890918951043,0.9650882252078645],[-73.17373928111243,0.9633081783844659],[-73.17920339107218,0.967326766104236],[-73.17651378454309,0.9724401164870073],[-73.18024789066396,0.9707970870035183],[-73.18288632395024,0.9723497205034164],[-73.1804298715108,0.9748148385995705],[-73.18083717382899,0.9801110141804088],[-73.18375109292748,0.9802485755664065],[-73.1877589015412,0.9755464242705898],[-73.18939800237428,0.9768704596811517],[-73.18930591768799,0.9810712627325984],[-73.17309177575953,0.9912977680940571],[-73.17586746087062,0.9956791337700679],[-73.17204498376941,0.9959063938556483],[-73.177004736262,1.0006556365059964],[-73.17636758835368,1.0022079409042135],[-73.17204482024704,1.0006090460029782],[-73.17572850285973,1.0068188714055282],[-73.17978155780207,1.0053127327635138],[-73.17996067032266,1.0113395951566417],[-73.1833773610299,1.0085548967753084],[-73.18533343607481,1.0087391103708114],[-73.18273845654181,1.0125272066386515],[-73.18332979762033,1.014125067955149],[-73.18747257594487,1.0130298250094825],[-73.18893282342486,1.0071865108095608],[-73.19047880393003,1.0119805339040226],[-73.19316491992527,1.0121180973468995],[-73.19712740713408,1.009150978973878],[-73.20286424668006,1.009882165609156],[-73.20582147246455,1.0161833609304267],[-73.20792006290299,1.0168683715250495],[-73.21092570570437,1.0101573346610166],[-73.2174799225678,1.0071908714058395],[-73.2189831836277,1.0085148831622632],[-73.2172069440985,1.0118019304624681],[-73.21889092719152,1.0134001280796952],[-73.22171451921201,1.0114375049412843],[-73.22266796050314,1.0153639318700698],[-73.2243087325553,1.0147251744492678],[-73.23118373401013,1.017510990747553],[-73.23368727471876,1.0199311504790103],[-73.23682821324724,1.0197036487094238],[-73.24921006261911,1.0316217322119314],[-73.2484335597211,1.0337216853367295],[-73.24488526025311,1.0328995576432476],[-73.24520735508025,1.0391607208393907],[-73.24165512181969,1.0330606220260847],[-73.23515670413354,1.0364581302234797],[-73.2301744174369,1.0487076776643676],[-73.23023549560963,1.0560640755786608],[-73.22784282511827,1.061412153568142],[-73.22985455741542,1.0703051176247982],[-73.22623937113138,1.0769099030068787],[-73.21929186345056,1.0842353797684154],[-73.22204963309298,1.1198554349821848],[-73.21677244564631,1.1256690220511132],[-73.21532941326569,1.1326331133675467],[-73.22083662627983,1.1476615813996887],[-73.21798941402005,1.1517014064574482],[-73.2185056160597,1.163117000144382],[-73.21773614050937,1.1698236116202452],[-73.21456512723631,1.1765731132629185],[-73.21404291600703,1.1869710671913367],[-73.22389112318615,1.1893426926634447],[-73.22762479324746,1.20326586369589],[-73.2232015380792,1.216160855490898],[-73.23152747549534,1.219860038789193],[-73.23948328056281,1.23124581072841],[-73.23957056550785,1.2399436864383802],[-73.24820706685364,1.2499155340055381],[-73.25514695891758,1.2615522664881382],[-73.25587659569004,1.276253414176722],[-73.26256846855614,1.3159158665830546],[-73.2578010738954,1.3215929289360702],[-73.25133084890399,1.3427970595671468],[-73.24084802069984,1.35266816193365],[-73.24234596779723,1.3599660311841717],[-73.2472787534985,1.3658521255075584],[-73.24776354176146,1.3692285629746266],[-73.24602230630182,1.3761108036363225],[-73.24112187745908,1.3826892444348573],[-73.24193729147976,1.4020169323252958],[-73.23779531019818,1.4130516371831732],[-73.23148947351586,1.421760316681798],[-73.24772203896362,1.481106492465642],[-73.24682531627735,1.5051915096499329],[-73.23663685506153,1.544248606391534],[-73.24018983188608,1.5483050623932968],[-73.23998817899076,1.5596977855754517],[-73.24180362377717,1.5690830475823532],[-73.2393586148176,1.582448165135304],[-73.23017523607717,1.5982840932136924],[-73.22787940167649,1.6073458473134679],[-73.23224493756527,1.6247756669202431],[-73.23389556209673,1.6432293895005046],[-73.223364517422,1.6537114936811008],[-73.21131539388756,1.64447209567669],[-73.20723154326242,1.6365123321339752],[-73.19927163882312,1.6299243772136833],[-73.19031663808528,1.62945979270404],[-73.1816348132777,1.6364341221657241],[-73.17847648892842,1.637658180622168]]]}}]}