{"type":"FeatureCollection","features":[{"type":"Feature","properties":{"code":"953017"},"geometry":{"type":"Polygon","coordinates":[[[-73.223364517422,1.6537114936811008],[-73.23389556209673,1.6432293895005046],[-73.23224493756527,1.6247756669202431],[-73.22787940167649,1.6073458473134679],[-73.23017523607717,1.5982840932136924],[-73.2393586148176,1.582448165135304],[-73.24180362377717,1.5690830475823532],[-73.23998817899076,1.5596977855754517],[-73.24018983188608,1.5483050623932968],[-73.23663685506153,1.544248606391534],[-73.24682531627735,1.5051915096499329],[-73.24772203896362,1.481106492465642],[-73.23148947351586,1.421760316681798],[-73.23779531019818,1.4130516371831732],[-73.24193729147976,1.4020169323252958],[-73.24112187745908,1.3826892444348573],[-73.24602230630182,1.3761108036363225],[-73.24776354176146,1.3692285629746266],[-73.2472787534985,1.3658521255075584],[-73.24234596779723,1.3599660311841717],[-73.24084802069984,1.35266816193365],[-73.25133084890399,1.3427970595671468],[-73.2578010738954,1.3215929289360702],[-73.26256846855614,1.3159158665830546],[-73.25587659569004,1.276253414176722],[-73.25514695891758,1.2615522664881382],[-73.24820706685364,1.2499155340055381],[-73.23957056550785,1.2399436864383802],[-73.23948328056281,1.23124581072841],[-73.23152747549534,1.219860038789193],[-73.2232015380792,1.216160855490898],[-73.22762479324746,1.20326586369589],[-73.22389112318615,1.1893426926634447],[-73.21404291600703,1.1869710671913367],[-73.21456512723631,1.1765731132629185],[-73.21773614050937,1.1698236116202452],[-73.2185056160597,1.163117000144382],[-73.21798941402005,1.1517014064574482],[-73.22083662627983,1.1476615813996887],[-73.21532941326569,1.1326331133675467],[-73.21677244564631,1.1256690220511132],[-73.22204963309298,1.1198554349821848],[-73.21929186345056,1.0842353797684154],[-73.22623937113138,1.0769099030068787],[-73.22985455741542,1.0703051176247982],[-73.22784282511827,1.061412153568142],[-73.23023549560963,1.0560640755786608],[-73.2301744174369,1.0487076776643676],[-73.23515670413354,1.0364581302234797],[-73.24165512181969,1.0330606220260847],[-73.24520735508025,1.0391607208393907],[-73.24005539388003,1.0416651069277805],[-73.24651804336384,1.045684031976748],[-73.24415336604937,1.048925188114879],[-73.24906659797307,1.05198462154533],[-73.24989057480622,1.048743053001715],[-73.25366704247443,1.048926618678422],[-73.25416332461094,1.0576472661626326],[-73.2598083725768,1.0536756525548867],[-73.26623267966659,1.0542702095731897],[-73.26905571324278,1.058927385020752],[-73.28002692925867,1.0552312253435048],[-73.28512445088262,1.0756402999735428],[-73.28848831461147,1.0734952414167651],[-73.29646117845499,1.0745462716184875],[-73.30602200382731,1.079889621857717],[-73.30297003071894,1.083131233595907],[-73.31107178103582,1.0898436516582137],[-73.31239250897522,1.08505017260984],[-73.31890805639995,1.0897077522353698],[-73.32336331155722,1.0882015539436907],[-73.32868904149075,1.0951879151543835],[-73.32395839308117,1.0975615964831036],[-73.3382944477894,1.1025404862340906],[-73.33847853900022,1.1119004434127646],[-73.34544391895514,1.109846648845064],[-73.34571904378396,1.114412238401087],[-73.34307134834438,1.1175166600210105],[-73.3398890335165,1.1163747576667333],[-73.33824902148336,1.1225387351017844],[-73.34799244682489,1.1261922781779958],[-73.34930470554019,1.132858897638073],[-73.35910033051022,1.1300750364089822],[-73.36100860046145,1.1335451588188903],[-73.36433526645283,1.1323585377269865],[-73.36551720915969,1.1347783765843928],[-73.36209932854445,1.1370156432404883],[-73.37812924762142,1.141902809288581],[-73.38086036003375,1.1468799157202056],[-73.37835794032742,1.1481583109086841],[-73.3791288402706,1.1507153861642223],[-73.39756972583132,1.157064108899533],[-73.39670009643481,1.1634561383208961],[-73.40189559572065,1.162041050780374],[-73.4007050542059,1.1672461228091606],[-73.39651604019099,1.1675197646239326],[-73.39656213807001,1.1811260282933063],[-73.41072272608636,1.1807169426557493],[-73.41536916356563,1.1838220625882059],[-73.4154531749781,1.1894383655856586],[-73.42105388164475,1.1939131806911405],[-73.42105390838424,1.198525101582561],[-73.42588299108417,1.198708279536504],[-73.4247840858547,1.2011739262520678],[-73.42164861041289,1.2007164925032612],[-73.42214466320672,1.2067437693587522],[-73.41708593340616,1.2086607944411867],[-73.41690320282476,1.2119026478633828],[-73.41390448041307,1.2079297702997565],[-73.411440505945,1.212449520115797],[-73.41189793146629,1.2156457672545002],[-73.41494959295659,1.2144132981951543],[-73.41639972364749,1.217929105050132],[-73.42164133006833,1.2168339484936723],[-73.41977195478466,1.2239113258388556],[-73.42733264766309,1.2277016455993817],[-73.42396078779365,1.2293449507054675],[-73.42732484075589,1.2320846948358621],[-73.41945134297163,1.2351884284277617],[-73.4154381309209,1.2415802501037092],[-73.41926072012234,1.242996457618176],[-73.41657537134523,1.2477902493130273],[-73.41224898312095,1.24893082291959],[-73.4180325684647,1.2499818541497802],[-73.4178492691546,1.2554155139834506],[-73.42162574299351,1.2527216682142353],[-73.42090033826202,1.2612145557898202],[-73.4243112563214,1.2607581916212212],[-73.42449463173625,1.2640001592005206],[-73.42681418510676,1.2624481715625961],[-73.42827125264245,1.265279009989058],[-73.43013977431883,1.2619917734554065],[-73.43519925385402,1.266558646507633],[-73.43574043881932,1.2716720483125528],[-73.42949910399489,1.272950047550637],[-73.43232290273232,1.2760547962153055],[-73.42877441300254,1.2786113644486932],[-73.42730936680977,1.289477863418881],[-73.43309302825827,1.2994781031986236],[-73.4324515732327,1.3045459923083058],[-73.43855625992813,1.3065562477619324],[-73.43732756422435,1.3022181064965253],[-73.44037186823692,1.303953453094266],[-73.44124193574993,1.3008033120621008],[-73.44406485619749,1.3030410610577974],[-73.44674957659618,1.3010782651410864],[-73.44852778970653,1.3042742973352688],[-73.4492604161614,1.2983388470269688],[-73.45940725733692,1.3046410162832558],[-73.455722800307,1.311808986044582],[-73.45908654267964,1.3162838875392708],[-73.46200133184044,1.3150519255020754],[-73.46438233670835,1.3196401870733894],[-73.46141439352436,1.3222766282665361],[-73.46306229885386,1.3256749746445848],[-73.46014758682622,1.3310073915113207],[-73.46628975510919,1.34078621378751],[-73.47012685460612,1.3433582302559444],[-73.46985285077966,1.347675674115635],[-73.47227151001346,1.350017879961058],[-73.4720951825152,1.3589744459884514],[-73.47752061275179,1.3697681713375687],[-73.48405104071134,1.372431902252913],[-73.48743078462115,1.3715595433699264],[-73.487980207411,1.375371903682094],[-73.48564573031115,1.3776682523040336],[-73.48578338837069,1.379643076884463],[-73.49167292900495,1.3806997779182666],[-73.49340556051447,1.3777600521116824],[-73.49888347422967,1.38111302463426],[-73.50568867323386,1.381112440478887],[-73.50974816519795,1.3888289280006916],[-73.50974737329716,1.3920901007156203],[-73.51326476498213,1.3935135556644695],[-73.51248650550423,1.397831471579309],[-73.51476769796881,1.397647778375699],[-73.51591282963255,1.395029491249943],[-73.52293954281396,1.3989790961877588],[-73.5254492706328,1.3965448138836223],[-73.53257571908432,1.4111506681453534],[-73.53608502104038,1.4090376609996724],[-73.53672615827725,1.4001732300522463],[-73.54114333843552,1.4012566171124945],[-73.5434709383403,1.4045047882570998],[-73.54708733407273,1.4054975551332518],[-73.54482906250661,1.4085112444689116],[-73.5478802159463,1.41073826475224],[-73.54624067699672,1.4143636572998162],[-73.54992597940634,1.4137625542448973],[-73.55142830149816,1.410948783850472],[-73.5507880610632,1.415999827071687],[-73.55251225728716,1.4154480182951374],[-73.55478530654386,1.4216589718991486],[-73.554594675467,1.425215734420533],[-73.55012335809454,1.4297916896486527],[-73.55486980852339,1.435305197759476],[-73.55824930252163,1.445971881661137],[-73.56545228252321,1.4512570518785992],[-73.57365388021043,1.4613308088433996],[-73.57967369468696,1.4640180283574296],[-73.58058116562597,1.4693983942997875],[-73.58928701999304,1.4753219794667416],[-73.59175056354366,1.4789234339862674],[-73.5949934587781,1.49355841271165],[-73.59781636277057,1.4976155094331034],[-73.60501909286057,1.500166173377977],[-73.60930667177803,1.504450227822872],[-73.61463950105025,1.5058157876285918],[-73.62849589222463,1.5160235393406651],[-73.62931885398501,1.523227837805564],[-73.62412364677687,1.5347201882714216],[-73.62768657069739,1.5455254342336389],[-73.6304177335034,1.5483514904023536],[-73.63365290204916,1.5475292351820258],[-73.6377116350227,1.5510841187389701],[-73.64199901545072,1.551629318743835],[-73.6450519439822,1.5549109821474758],[-73.65179546728854,1.5577350225689202],[-73.65612989279111,1.5730084049309312],[-73.66173834671525,1.5789334977945941],[-73.66311016150837,1.583173410458187],[-73.66015062789887,1.5870959077080897],[-73.6598304716859,1.5927501931446386],[-73.65600769427948,1.5965820804948976],[-73.65309333603608,1.6046085467625062],[-73.65942647992415,1.6128133151379984],[-73.65868751312115,1.6944354705166234],[-73.65300939867149,1.7001329330554427],[-73.6492406432937,1.7001641483427647],[-73.64249818339692,1.692446962508484],[-73.6401197290665,1.6936373199320656],[-73.64285545610039,1.7019603242301855],[-73.63851531451428,1.7030151308728705],[-73.62145391592782,1.687141690353542],[-73.62598766284651,1.6786646181670335],[-73.62634936916572,1.6748203226578084],[-73.62534310706678,1.6697605716137787],[-73.62244115389706,1.6662785665790238],[-73.61913903991393,1.6665164874997913],[-73.60912551779899,1.6798260958962032],[-73.60629078980293,1.6859800470451205],[-73.60358763868584,1.6864629193196379],[-73.59714226703636,1.6826282819141056],[-73.59605608775462,1.6755032609407863],[-73.59387004987724,1.6726712387769567],[-73.59083915161295,1.6744305244312159],[-73.58689008763588,1.681536626175955],[-73.58623139179991,1.684462622274907],[-73.58903442833974,1.6939866396895127],[-73.58714823802092,1.6964440280116833],[-73.58332915169473,1.69685296041132],[-73.57392380626231,1.6921307164340078],[-73.57047597534404,1.6923662184578916],[-73.5679819302452,1.7001116607503945],[-73.56510028161608,1.700253515883901],[-73.56029913861408,1.696329798901104],[-73.56232338705661,1.6895599762627285],[-73.55885799959611,1.685375042079329],[-73.55185894637623,1.6860958095634828],[-73.54860865664011,1.6907325714554986],[-73.54587484456619,1.6918890838642255],[-73.54093421699065,1.6910416359159512],[-73.53493155899218,1.6865032486645646],[-73.52859516933955,1.687887540522297],[-73.5202275491481,1.686243558701051],[-73.51515088536684,1.6783069608260348],[-73.51230705976826,1.6768570502218836],[-73.50499542584305,1.677817768772286],[-73.48804859472472,1.683969405925552],[-73.4761300134561,1.6807125989491283],[-73.46844954096287,1.6850279591843105],[-73.45973228836738,1.6957302858183425],[-73.46189324150333,1.70445782798123],[-73.46055287956773,1.7086907163824208],[-73.44814006584858,1.713976559201285],[-73.44541969963211,1.7192444011907355],[-73.4385060472506,1.7175265031488038],[-73.42518714893288,1.705627915831144],[-73.41236459857203,1.702958331020966],[-73.398806411505,1.6936555912418498],[-73.3796805492882,1.6900767192631179],[-73.37345697155234,1.6874294156601195],[-73.3686480987763,1.6840295163339078],[-73.36376452302108,1.6764131641463678],[-73.35576808521819,1.6741616278502534],[-73.3538962735542,1.6670916110682015],[-73.34161418207822,1.6678755064110646],[-73.3277698267666,1.666186897383568],[-73.32166548665634,1.6580412428555746],[-73.31762339285433,1.6583351830403217],[-73.3169345543966,1.6640470725707814],[-73.3130529295093,1.6665330701069365],[-73.30389624193754,1.6661624862719577],[-73.30125848845177,1.6651868799876297],[-73.29997247558953,1.6623678182564277],[-73.30051068835598,1.658523549486688],[-73.29781256118059,1.6526883291294325],[-73.29236737867694,1.6518769003234297],[-73.29125662270434,1.654304883417126],[-73.28858221964094,1.6551610535864256],[-73.27481516618286,1.6564239419186038],[-73.27209833266647,1.6604412903651564],[-73.27379031807072,1.6651716333273043],[-73.27318999560373,1.6686150439996368],[-73.26189557507126,1.6614501770493462],[-73.25366574972219,1.6677864412320673],[-73.248464987896,1.6680450677860108],[-73.24199618832591,1.6660558871764692],[-73.23165050190323,1.6558186088795992],[-73.223364517422,1.6537114936811008]]]}}]}