{"type":"FeatureCollection","features":[{"type":"Feature","properties":{"code":"540008"},"geometry":{"type":"Polygon","coordinates":[[[-72.52269790423281,7.80571754105398],[-72.52470689573062,7.797458080105287],[-72.52251819213024,7.791045422183913],[-72.53059829784581,7.76599394979678],[-72.53237621785007,7.755729510333083],[-72.54073811681582,7.747644742687498],[-72.56445832281298,7.735944157294227],[-72.57551313680744,7.724750196055425],[-72.58268267597202,7.7358471268279345],[-72.58264428935502,7.746711929896378],[-72.5853788737893,7.752480547287746],[-72.5816852903605,7.758095488627305],[-72.58167990543546,7.760894179997479],[-72.57760228511512,7.764555279040906],[-72.57904777135963,7.765198767297306],[-72.5737301836055,7.77378280881868],[-72.57060749684638,7.774875389126635],[-72.56783830017918,7.779730036850651],[-72.56596127328316,7.789426486023274],[-72.55927564512001,7.805082260797292],[-72.5588853768952,7.8091800858993565],[-72.54391933635242,7.821868394686703],[-72.54268921317043,7.831035147625357],[-72.53878652372345,7.839816201709368],[-72.53117627945602,7.84606050461889],[-72.51352747358368,7.856381809754851],[-72.50970937970447,7.853659751750456],[-72.50848052870595,7.860451309493044],[-72.50466063505235,7.861987996991672],[-72.50743339013064,7.856770202100449],[-72.50752549949954,7.850723754048033],[-72.51137798963873,7.842758379322902],[-72.52135844629822,7.83279589469646],[-72.52269790423281,7.80571754105398]]]}}]}