{"type":"FeatureCollection","features":[{"type":"Feature","properties":{"code":"540019"},"geometry":{"type":"Polygon","coordinates":[[[-72.48949775575363,8.137988692730232],[-72.48846460296818,8.1315471520291],[-72.48181601004853,8.127534403805953],[-72.47670086811894,8.119805245872328],[-72.47305413024685,8.117300114163072],[-72.47284506639477,8.115286709618431],[-72.4920889537035,8.098704663976207],[-72.48923462873523,8.091564459077574],[-72.4893227096947,8.087838068332417],[-72.49365584141663,8.084399083048254],[-72.48545985491182,8.071568518034837],[-72.48458974728948,8.063382907486528],[-72.4869371529403,8.057114777620768],[-72.48617612707369,8.054616060307524],[-72.49059989749168,8.048256401114429],[-72.48896516239711,8.043025331087222],[-72.49014381511637,8.033252837846305],[-72.49265573043243,8.029215978816751],[-72.49892056208307,8.026666165393863],[-72.49979584482816,8.019624352619417],[-72.49817355903025,8.01226532703447],[-72.5020866285476,8.010150153988832],[-72.50271038304902,8.003212455592802],[-72.5054182752861,7.9981017164255945],[-72.50561565191742,7.995549404915835],[-72.50342760652023,7.994464958559718],[-72.50135817654098,7.988459353045016],[-72.5032159561352,7.972092739370964],[-72.50159477488461,7.966721434007184],[-72.50921167111824,7.9561055489953105],[-72.51419418510062,7.953557019068683],[-72.51401316276224,7.950466920567692],[-72.52544943637133,7.951037424372316],[-72.52552624662928,7.9443342334962495],[-72.52904210799176,7.944439382487815],[-72.53191134331962,7.9418757560534345],[-72.53039607622179,7.938338835273555],[-72.53200831002249,7.932070274490343],[-72.53666960849614,7.929171662730312],[-72.54054560060382,7.929170570524377],[-72.53585351673183,7.921974454348174],[-72.538872626988,7.9199643305351515],[-72.54147081217627,7.922897509276652],[-72.54428563878116,7.924105671097095],[-72.5451621731408,7.92312016091131],[-72.54864712260644,7.927952249748728],[-72.54758250256526,7.923133180993602],[-72.54908355041681,7.922718193124467],[-72.54857932561873,7.9177533817231165],[-72.54610551101263,7.916845358510443],[-72.54239712315382,7.918984848051025],[-72.54021469408121,7.916486426929225],[-72.54098051968901,7.911106626630271],[-72.54803894181015,7.901732205435962],[-72.54746256354184,7.900422690605353],[-72.54974274607582,7.902174477885183],[-72.55204057462657,7.901333239672795],[-72.54646380084574,7.898209404143415],[-72.546455718316,7.89030175795375],[-72.54862401350306,7.890019498819186],[-72.54977351604754,7.8879982482865785],[-72.55228830997424,7.8910159619177875],[-72.55615600563613,7.890728903041975],[-72.55711770429224,7.892532198836932],[-72.55862838247953,7.891296412021973],[-72.55972693392476,7.893983907158656],[-72.56121476217618,7.890465850071394],[-72.56213793434716,7.891316763870975],[-72.56613579997861,7.888454174338676],[-72.56761622550079,7.890178766512975],[-72.57036286533827,7.889811952948264],[-72.56934023351977,7.892674164013727],[-72.57197221949991,7.894457899860413],[-72.57202612634296,7.892110965236327],[-72.57500920922922,7.891053504183503],[-72.57648182064514,7.88618905848756],[-72.58116629301406,7.886196831456118],[-72.58210477458039,7.887710835626535],[-72.58550695807747,7.886968240478325],[-72.58624764957852,7.8899232602536244],[-72.59047387881441,7.892601458269894],[-72.58900146485945,7.897763138251946],[-72.58661953747861,7.89969943840407],[-72.58800971511289,7.901287070831245],[-72.58566817158447,7.901379259390183],[-72.58775023700855,7.904745818666868],[-72.58372210122843,7.9071301258636595],[-72.58907079319806,7.912167477429648],[-72.5871869940081,7.913884505409214],[-72.58811001911175,7.920647862229487],[-72.58491589056467,7.9252044745107355],[-72.58509137576851,7.930583315272827],[-72.5875910135378,7.94105153547946],[-72.59148075900725,7.946974731895125],[-72.59125254247016,7.951798497547202],[-72.59808862354629,7.965120502789773],[-72.59361670350643,7.972217051331938],[-72.59425820172657,7.977551242262109],[-72.59201479321177,7.979531744873668],[-72.59676030261573,7.999022214646004],[-72.59428839371361,8.009588947304564],[-72.59005366131504,8.012994902100388],[-72.59085474501768,8.015883497858681],[-72.58750538232835,8.029172199047139],[-72.58780303930433,8.030853380662734],[-72.59084749038414,8.031559314920457],[-72.59264770907907,8.038687417107553],[-72.59175512587399,8.048742294953058],[-72.58681084938439,8.059714536326112],[-72.58888587511944,8.069484173582111],[-72.58434663426078,8.075022022870485],[-72.5881077884199,8.08161838427992],[-72.58645184272683,8.089203910959839],[-72.5841782669076,8.091780702486858],[-72.5866724775857,8.098858276264593],[-72.58172698547708,8.106216999487401],[-72.57928426788743,8.106368452046468],[-72.5766164447993,8.109733505683323],[-72.5700554196464,8.11272843725584],[-72.56739865951442,8.111318803545998],[-72.56098367628448,8.112206742304693],[-72.55042473407792,8.11884134429232],[-72.54760138271303,8.125476953125144],[-72.5495241968984,8.127919575069598],[-72.54382474638021,8.128351408827257],[-72.54051356976157,8.130610646100877],[-72.5370416732884,8.137357175544707],[-72.54153620260854,8.143097754507664],[-72.53741605104779,8.144783666958858],[-72.53807215418016,8.148425172115367],[-72.53217385121565,8.156054936221778],[-72.52864966666789,8.156716098262905],[-72.53009106176808,8.158962807049761],[-72.52748208924618,8.164227203756809],[-72.52918385616721,8.166656021945812],[-72.53283040994802,8.164536847230352],[-72.53646182505503,8.166236700219883],[-72.53135717838131,8.173114527834741],[-72.53193032219787,8.174814072291497],[-72.53512671640385,8.174569837762135],[-72.53650740562745,8.176144418225363],[-72.53590457890289,8.17861877379221],[-72.53148727944523,8.181496641866602],[-72.53245618748343,8.183972118435804],[-72.5354542979718,8.18516012689662],[-72.53475222551572,8.187002093158753],[-72.53025914938485,8.188302345836064],[-72.52741288637753,8.18397443860215],[-72.52488031993568,8.182898652760514],[-72.52614591101474,8.180218548011794],[-72.52410884612152,8.174659036638673],[-72.51814734742112,8.166820363974978],[-72.49816977847559,8.153585522321237],[-72.4977207707563,8.149686805747649],[-72.48949775575363,8.137988692730232]]]}}]}