{"type":"FeatureCollection","features":[{"type":"Feature","properties":{"code":"540003"},"geometry":{"type":"Polygon","coordinates":[[[-72.48181091514431,7.9093364744523456],[-72.48233316853975,7.897977044011384],[-72.48547238339859,7.897098907338375],[-72.49090264422972,7.8851842639761],[-72.50769461658729,7.896625833035728],[-72.5011245647944,7.921658480810947],[-72.4939376356952,7.9184878583460545],[-72.48836190784044,7.914597201676486],[-72.48745966961701,7.911605583745768],[-72.48485328054272,7.9116946324696755],[-72.48181091514431,7.9093364744523456]]]}}]}