{"type":"FeatureCollection","features":[{"type":"Feature","properties":{"code":"540011"},"geometry":{"type":"Polygon","coordinates":[[[-72.54147081217627,7.922897509276652],[-72.53078286728243,7.90956036433181],[-72.51768096622243,7.908088836894308],[-72.51849961572333,7.8975128040299865],[-72.5213079312586,7.892160769622194],[-72.52313510543195,7.892019143831362],[-72.52330309843205,7.8937077888543286],[-72.526278573929,7.893113313083006],[-72.52791879576444,7.888206146913319],[-72.53172193094719,7.886578286956933],[-72.5342168769617,7.887486310169606],[-72.53627250215709,7.895013161118527],[-72.53952814082277,7.890252009103847],[-72.54106332062463,7.890125150719143],[-72.54092920760644,7.888124880413898],[-72.54592786299418,7.888487048503748],[-72.54646380084574,7.898209404143415],[-72.54883599401813,7.8985160579345575],[-72.55012414295544,7.901061837805912],[-72.55195408261073,7.9001997232388135],[-72.54974274607582,7.902174477885183],[-72.54746256354184,7.900422690605353],[-72.54803894181015,7.901732205435962],[-72.5442084140609,7.905261718344434],[-72.5402503512118,7.913263891771294],[-72.54028406972822,7.917036430789096],[-72.54215261814409,7.918912341824978],[-72.54610551101263,7.916845358510443],[-72.54857932561873,7.9177533817231165],[-72.54908355041681,7.922718193124467],[-72.54758250256526,7.923133180993602],[-72.54864712260644,7.927952249748728],[-72.5451621731408,7.92312016091131],[-72.54428563878116,7.924105671097095],[-72.54147081217627,7.922897509276652]]]}}]}