{"type":"FeatureCollection","features":[{"type":"Feature","properties":{"code":"540006"},"geometry":{"type":"Polygon","coordinates":[[[-72.49090264422972,7.8851842639761],[-72.5003714425086,7.871596419712205],[-72.50173727690844,7.868646420793311],[-72.50056069650088,7.867665460437252],[-72.50374175251511,7.8626141786173775],[-72.50848052870595,7.860451309493044],[-72.50970937970447,7.853659751750456],[-72.51352747358368,7.856381809754851],[-72.51488452816977,7.855380184903254],[-72.51265804987565,7.858808201847921],[-72.5174127957219,7.863906637757282],[-72.52350545786737,7.8662146190925455],[-72.5215002613225,7.867909373064094],[-72.52344919280563,7.86791051052154],[-72.52196870249156,7.87169349645842],[-72.52272911437791,7.87490574616271],[-72.51879762134132,7.87828885102266],[-72.51872992719785,7.880028999418528],[-72.51298195579005,7.884605738319806],[-72.50998575511943,7.889965662938664],[-72.50574994799842,7.891678055727823],[-72.50448293766863,7.8944161924025025],[-72.49090264422972,7.8851842639761]]]}}]}