{"type":"FeatureCollection","features":[{"type":"Feature","properties":{"code":"541017"},"geometry":{"type":"Polygon","coordinates":[[[-72.48807110749078,7.860243823271787],[-72.48904054929062,7.856504611962237],[-72.48757411675734,7.852692624974736],[-72.48219452626068,7.850971650861197],[-72.48389703366036,7.847259817719873],[-72.48397324845007,7.8334869988130436],[-72.48608600465582,7.824573936932666],[-72.48462144080258,7.817937138191837],[-72.48032629666199,7.812884836156968],[-72.48147024870218,7.796098310430978],[-72.47999002064097,7.792685193561454],[-72.48528597099295,7.783484797182666],[-72.49386139519441,7.780521901594625],[-72.49666170636158,7.781964502029382],[-72.50055165032046,7.780465662243898],[-72.50189465226799,7.777921123702697],[-72.50785366830814,7.776052583514343],[-72.50124671805452,7.7703698040493805],[-72.49777521650327,7.770778011397056],[-72.48811655950789,7.76102840717283],[-72.48869629461257,7.756858202343153],[-72.49586812617554,7.742867489376749],[-72.5020249250818,7.738455021542052],[-72.50773266690362,7.706091036939881],[-72.5098183637582,7.701066847381242],[-72.51755887775414,7.7096519687672185],[-72.52017314778345,7.7178322890072195],[-72.52019484174991,7.724226453475239],[-72.52730170248526,7.730596612038028],[-72.53037350807915,7.740906640301716],[-72.53672073443067,7.751400985005205],[-72.53237621785007,7.755729510333083],[-72.53059829784581,7.76599394979678],[-72.52536407461383,7.779954781365859],[-72.52244926899795,7.79159592072466],[-72.52470689573062,7.797458080105287],[-72.52269790423281,7.80571754105398],[-72.5208609146041,7.8013636543335565],[-72.52139858538129,7.7982568816939875],[-72.51951877449142,7.797676858625437],[-72.51783887328673,7.794288929341633],[-72.51381292294695,7.802916365995031],[-72.51472728856464,7.807715674255633],[-72.51269345400937,7.81005442967637],[-72.51356858968717,7.8121925863554225],[-72.51135313732527,7.813178952205362],[-72.5124225396242,7.814245846133019],[-72.50998557205668,7.815523338348953],[-72.50981316703815,7.818837128239977],[-72.50810397681903,7.820193876350174],[-72.50422799293887,7.818994583818039],[-72.50450798538617,7.8205451007831925],[-72.5127054734171,7.822902570772442],[-72.50528531412351,7.828916195053466],[-72.50453368102251,7.827125547044659],[-72.49901752158684,7.825298980680827],[-72.49841673940603,7.827060250200702],[-72.49431922180827,7.828417475508218],[-72.4963451527828,7.8297960029456135],[-72.49599123897258,7.832733657468964],[-72.49250900356674,7.8325997604237045],[-72.49397554820024,7.833195897129656],[-72.49128663072759,7.842585477566672],[-72.4945804822035,7.843041384078333],[-72.49824507383767,7.846764830392544],[-72.49544632281783,7.858216243703907],[-72.49302130266705,7.858983792981405],[-72.49729779291721,7.861182849912609],[-72.4944576409153,7.8672301279181625],[-72.49364453574805,7.863504746075137],[-72.48807110749078,7.860243823271787]]]}}]}