{"type":"FeatureCollection","features":[{"type":"Feature","properties":{"code":"541077"},"geometry":{"type":"Polygon","coordinates":[[[-72.52524291894292,7.638887554142286],[-72.53506972629009,7.633492040270141],[-72.54607938960112,7.630665138721611],[-72.54855904576073,7.628025181283533],[-72.550810873106,7.60524329538714],[-72.54364621081584,7.598451968015695],[-72.55942396915697,7.581357417584627],[-72.55771511215318,7.569526430822236],[-72.54730900781783,7.549920491637636],[-72.54817081282368,7.544755072238615],[-72.55295470987306,7.541591076028851],[-72.55521306885686,7.537428833401179],[-72.5545337527484,7.523203414425382],[-72.54643087525852,7.515046691799],[-72.54160989051496,7.505870972898435],[-72.54475293117997,7.504727201864114],[-72.53614726151244,7.496194463169388],[-72.53423116922738,7.4899049355285],[-72.53790174742545,7.4846748764603035],[-72.54437202178212,7.485592367514755],[-72.54817892929202,7.482763975753073],[-72.54824036536274,7.474555013388965],[-72.55160472891464,7.462816522689764],[-72.56722993220632,7.4606547025767895],[-72.57716147305433,7.454640945626693],[-72.5765234900507,7.460131172884189],[-72.5729510890323,7.4663164493638305],[-72.57386873846696,7.472721542062061],[-72.58035000893102,7.478964824756645],[-72.58286173501364,7.48504767658892],[-72.58662573281634,7.486450227415105],[-72.58330920829667,7.495235205007361],[-72.59045430961015,7.5031563011682465],[-72.60058865829438,7.508723696581683],[-72.59926456014881,7.514576627747601],[-72.60077213758194,7.520732909347316],[-72.60581413256585,7.523668429852421],[-72.60769804591297,7.53542464370156],[-72.60968256356409,7.53920521074167],[-72.60871062059203,7.549385749864712],[-72.61794775088072,7.55512396135299],[-72.62523799834378,7.570858627952589],[-72.62799208204814,7.571806778935468],[-72.63331742323044,7.564039392764926],[-72.63803545676404,7.569608580753709],[-72.63764880042942,7.57793478967875],[-72.6339096785943,7.585058903565766],[-72.63429137989294,7.587742598607292],[-72.63083932721815,7.597687882532625],[-72.63158488633763,7.603637101629374],[-72.62862761015947,7.611182915001393],[-72.62867493908419,7.621000864373173],[-72.6314170805141,7.62592969982677],[-72.6298688672602,7.62965095144466],[-72.63116341002461,7.635337617393873],[-72.62944129125458,7.642250263958658],[-72.6242225265421,7.648935289454471],[-72.61498802598095,7.64884185133792],[-72.61450244376039,7.652738352646281],[-72.61144593830579,7.656956034496375],[-72.61311213551392,7.659546921856588],[-72.61174326823709,7.6614065948135135],[-72.61317221095521,7.662840785673836],[-72.61277408645799,7.665652892048229],[-72.6102204657409,7.666863328783506],[-72.60871514573915,7.672164190976957],[-72.60950222822532,7.678774510408232],[-72.60458316400411,7.6905955469893],[-72.60028316870017,7.691373910339848],[-72.59315304973728,7.6975692758405785],[-72.59145677161393,7.6967894058217325],[-72.58674609555811,7.701942236055913],[-72.58608320264824,7.699439496503999],[-72.58779550904819,7.697255747939607],[-72.58503715216517,7.691211411279653],[-72.58543604388046,7.680804290843071],[-72.58773103084451,7.68071511150697],[-72.58790081950525,7.6794479685081],[-72.58219498338747,7.667729270185191],[-72.57276850551818,7.675525193578665],[-72.56471137212316,7.674442411242637],[-72.56468883997599,7.667781805085895],[-72.56123965459892,7.658963567662681],[-72.54955877519274,7.648004025497812],[-72.52827982125467,7.64528622010323],[-72.52641029067615,7.644364830223196],[-72.52524291894292,7.638887554142286]],[[-72.59718693245418,7.620887230730887],[-72.60148730519654,7.62272903552747],[-72.60252586758969,7.619097756174938],[-72.60566237250248,7.615891623646746],[-72.60502837574205,7.612861336277319],[-72.60640405336522,7.611608456747717],[-72.60824833053766,7.599801596218299],[-72.607020715727,7.594191908163168],[-72.60559042472073,7.593554384873357],[-72.6060778385974,7.590087226434832],[-72.60128250012497,7.58202948214489],[-72.60042926204528,7.577564554485775],[-72.6004203567615,7.5808434606350374],[-72.59672320258028,7.585774238816498],[-72.59883598552551,7.5901575492773645],[-72.5986474401301,7.59493972368557],[-72.59686986568255,7.597480362372778],[-72.6006960904283,7.600198421792641],[-72.59793080492801,7.608733241026584],[-72.59718693245418,7.620887230730887]]]}}]}