{"type":"FeatureCollection","features":[{"type":"Feature","properties":{"code":"541038"},"geometry":{"type":"Polygon","coordinates":[[[-72.46919467549492,7.70578273044157],[-72.47405531183978,7.697834827926442],[-72.47521524793359,7.681202985097457],[-72.47211018867927,7.670280968743214],[-72.4745818569258,7.662699026185464],[-72.47384949786601,7.660747741625869],[-72.47460538871906,7.6587905136969425],[-72.47832019405922,7.658055329505544],[-72.48037304143133,7.649030690867846],[-72.48474522620103,7.645529513607698],[-72.4959151126289,7.643291920935269],[-72.5041241541831,7.6502128053246],[-72.5090223420496,7.648292705199026],[-72.5211841170638,7.6495787777109285],[-72.52233581533307,7.656459467481284],[-72.52122147832358,7.675014047362481],[-72.51981841121926,7.678455932854547],[-72.50993723320141,7.684711365569001],[-72.51405763364522,7.695275865478891],[-72.50826630412928,7.703591019675287],[-72.50480310005224,7.724937622505365],[-72.50188106551389,7.7227157629466205],[-72.49627240281592,7.723123073492388],[-72.49344246941882,7.721162992663892],[-72.4945641402519,7.717145807739712],[-72.49026085290342,7.715101302064909],[-72.48706414090873,7.707700642041459],[-72.48417986152367,7.705018628503467],[-72.48290510290792,7.708493937348976],[-72.48198297254925,7.7022721964114],[-72.47891571472815,7.701966956728711],[-72.47894539866456,7.699792902263539],[-72.47870155185802,7.702288567159428],[-72.4792511206868,7.7037319348123106],[-72.47886226554198,7.7062168041470045],[-72.47506222699968,7.70838057932923],[-72.46919467549492,7.70578273044157]]]}}]}