{"type":"FeatureCollection","features":[{"type":"Feature","properties":{"code":"543057"},"geometry":{"type":"Polygon","coordinates":[[[-72.61825056755282,7.416554140178505],[-72.61621753209738,7.411331404649445],[-72.61755010769463,7.407813847385285],[-72.6170195557965,7.4025726893654],[-72.62229694481789,7.392799278753785],[-72.6266128038477,7.39004055985896],[-72.6285350575319,7.378162318219665],[-72.63224373438311,7.376554358626038],[-72.63266835361645,7.378567852645176],[-72.63634859094668,7.379456522626526],[-72.63578715491974,7.385047824186358],[-72.63784884381215,7.385899725290756],[-72.63936604952414,7.381555564551263],[-72.64260264246286,7.3824359792245104],[-72.64223251525635,7.381405463365638],[-72.64749515538352,7.384718415076065],[-72.6495196969322,7.388014086895225],[-72.65046122988747,7.387186214321844],[-72.65329294043318,7.388862371995742],[-72.65460710793775,7.38743836888699],[-72.65186641969717,7.384401314365789],[-72.65425786839882,7.384788710150644],[-72.65611757529439,7.3830307069642345],[-72.65443215855248,7.381271801833691],[-72.65492808999005,7.375575126053434],[-72.65606686690751,7.376591140872733],[-72.65654877655982,7.3742017500845805],[-72.65733705101093,7.374759007549585],[-72.65996701404464,7.374204646178725],[-72.66039366753728,7.372082875674323],[-72.65884947549364,7.374329889908665],[-72.65596788857107,7.373570487952804],[-72.65441220985292,7.374089851424799],[-72.65284830153774,7.372229450330508],[-72.65562441448088,7.3684338032377354],[-72.65957557545227,7.3649311779305435],[-72.66632097566617,7.363944646501295],[-72.66952975232005,7.3607208957243415],[-72.67423300816318,7.360557156362518],[-72.68027491564192,7.356532018492317],[-72.6832247140145,7.357170613419271],[-72.69113864913015,7.352743222883589],[-72.69483162989161,7.35242245680422],[-72.69827884065904,7.339284862618172],[-72.69967731576759,7.339480207047018],[-72.70264154730245,7.335411297634835],[-72.70093460114492,7.341357536305168],[-72.70167752436623,7.344509012255685],[-72.70271007551281,7.342931374232876],[-72.70503293635448,7.351255006909355],[-72.71174747197995,7.358079066520872],[-72.71394581722893,7.363892661817317],[-72.71312650849643,7.368639379641252],[-72.71953463407164,7.3758500297670935],[-72.73286014527474,7.375558215373076],[-72.74345540590036,7.380226340648164],[-72.75195552342683,7.376239175961132],[-72.75368279469393,7.373587715393455],[-72.7582377954057,7.37274696054908],[-72.76910924118442,7.361752582979193],[-72.78006156162593,7.357779851454495],[-72.78955909870257,7.358563298396405],[-72.79246268606744,7.356882296758215],[-72.79975805208892,7.359887567263399],[-72.80486138132778,7.365548772061231],[-72.81046649178529,7.366365900495623],[-72.8126314383635,7.370880755953692],[-72.81797052262311,7.3725411465753155],[-72.81666397793447,7.387393674832026],[-72.81170130466512,7.394695226935255],[-72.81184476108359,7.399836028505717],[-72.8069312535373,7.405586138045464],[-72.80691432228815,7.411086936663651],[-72.79950807062278,7.414817251945408],[-72.79444404125786,7.421599547534697],[-72.79043229370927,7.422700952907917],[-72.7886814484828,7.425660961657854],[-72.78039560592663,7.429647091731738],[-72.77590808132851,7.435031862493361],[-72.7664390053701,7.437860485654653],[-72.76015855064918,7.442316534769532],[-72.75210154580941,7.452089325230304],[-72.74524596649161,7.456060867875522],[-72.74194779350017,7.456177449034101],[-72.74051935986114,7.458313282461461],[-72.73770943275639,7.457954464008935],[-72.73932944672475,7.463167403623004],[-72.73829262342792,7.465325879240879],[-72.72417118101919,7.466208165679461],[-72.7167614563034,7.469852048595101],[-72.70601359743375,7.468954278954357],[-72.70023057259118,7.46972380078455],[-72.69752151924246,7.47184753458572],[-72.69026487613871,7.472013739124293],[-72.69343466247983,7.4603205379482915],[-72.68730320439721,7.456049252645698],[-72.6793540615804,7.456308867532925],[-72.6737287525118,7.450286495319801],[-72.66869559801978,7.452420731575955],[-72.6677285679176,7.440483253704485],[-72.66576401644949,7.437454398955481],[-72.66671093432979,7.4298574730186715],[-72.66852793823506,7.42804066554595],[-72.6697338169131,7.424567106081156],[-72.66178008210039,7.4368597483489225],[-72.65954660834029,7.437563311018209],[-72.65687619049163,7.429830528853131],[-72.65682227850641,7.420210105236833],[-72.64730557743184,7.401383130013244],[-72.63911630151443,7.403423326513973],[-72.6322389480116,7.409600883504027],[-72.61825056755282,7.416554140178505]]]}}]}