{"type":"FeatureCollection","features":[{"type":"Feature","properties":{"code":"543050"},"geometry":{"type":"Polygon","coordinates":[[[-72.63298093535025,7.376720216579486],[-72.63706413291442,7.37727475175717],[-72.64102102333902,7.375237758854894],[-72.63652888206241,7.375521602819447],[-72.64147792229772,7.3737946298006705],[-72.64157207312496,7.371056602140868],[-72.63869035147644,7.371774959984236],[-72.64240799737485,7.368076325874199],[-72.63967432722603,7.362869372824093],[-72.64442412934903,7.3600158829511315],[-72.64654704450999,7.362989428061496],[-72.64663294002912,7.361092160388296],[-72.64931176230999,7.362790577672058],[-72.65298540115305,7.3600579472785626],[-72.65766403196847,7.3616856262290185],[-72.66085056649598,7.354069693646068],[-72.65936433644424,7.361929391788578],[-72.66013985203745,7.363286662347605],[-72.665430021514,7.363655959600976],[-72.65855878313039,7.365395800492536],[-72.65284830153774,7.372229450330508],[-72.65479959843867,7.374346357330239],[-72.65596788857107,7.373570487952804],[-72.65877134780084,7.374336514106915],[-72.66039366753728,7.372082875674323],[-72.65996701404464,7.374204646178725],[-72.65733705101093,7.374759007549585],[-72.65654877655982,7.3742017500845805],[-72.65606686690751,7.376591140872733],[-72.65541747950482,7.375429752618061],[-72.65492808999005,7.375575126053434],[-72.65443215855248,7.381271801833691],[-72.65611757529439,7.3830307069642345],[-72.65425786839882,7.384788710150644],[-72.65186641969717,7.384401314365789],[-72.65412784241119,7.38828987404105],[-72.6495196969322,7.388014086895225],[-72.64749515538352,7.384718415076065],[-72.64223251525635,7.381405463365638],[-72.64260264246286,7.3824359792245104],[-72.63936604952414,7.381555564551263],[-72.63784884381215,7.385899725290756],[-72.63578715491974,7.385047824186358],[-72.63634859094668,7.379456522626526],[-72.63266835361645,7.378567852645176],[-72.63298093535025,7.376720216579486]]]}}]}