{"type":"FeatureCollection","features":[{"type":"Feature","properties":{"code":"544058"},"geometry":{"type":"Polygon","coordinates":[[[-72.72410217869685,7.1666452656248225],[-72.72957036643118,7.158065601154817],[-72.72968449064058,7.1535008209830835],[-72.73226297806934,7.150743317707338],[-72.73020307455312,7.130234920212615],[-72.7381217158217,7.119075691534533],[-72.73728247690161,7.1159194590374],[-72.74069304220524,7.107001339276678],[-72.74207412120853,7.09180247991651],[-72.74409632716424,7.088400263509243],[-72.74306616406119,7.085145190486912],[-72.74608706586423,7.075868745926073],[-72.74515668225433,7.073319088826452],[-72.74911602551435,7.067680460398833],[-72.74893270769229,7.060590381788529],[-72.75724986220939,7.0478496296317985],[-72.7569364464087,7.040708292417946],[-72.75391606911137,7.036874699910015],[-72.75087896933866,7.035753020849427],[-72.75295423572925,7.025883898234781],[-72.74511081680333,7.011511827469576],[-72.7423573110836,6.995481837430077],[-72.73843586490193,6.993252500065751],[-72.74421883626553,6.988330876051123],[-72.75139044362805,7.004214065177052],[-72.75945476377944,7.012900505634661],[-72.77762101610688,7.021048921530792],[-72.78468607990976,7.022052761647558],[-72.784388776718,7.030562028198688],[-72.79104924403498,7.038478066479286],[-72.81912579781545,7.037816733716738],[-72.82256661578418,7.0428399287714],[-72.82913557639961,7.046405857801005],[-72.8355602455012,7.048561034175293],[-72.84527316826609,7.047314415803783],[-72.8505598904033,7.053804604921311],[-72.85506159825223,7.056481071040423],[-72.86305688214264,7.054212553101479],[-72.87860662243611,7.054309359367323],[-72.88040733272652,7.066624749755135],[-72.88423736682336,7.068007612077793],[-72.88430607501118,7.074716883106021],[-72.87210598125722,7.1016154238585045],[-72.86803888190383,7.108592978515958],[-72.8556108050692,7.1170321423112455],[-72.85336725668617,7.122209658251165],[-72.84391007158018,7.1333740137151835],[-72.83842910030535,7.1428865609103696],[-72.83590343162746,7.1535031133814755],[-72.83218907365983,7.158506981944356],[-72.82362567812203,7.159288231104597],[-72.82714780989852,7.166288155415259],[-72.832746828891,7.168905829589335],[-72.83286112690718,7.174711075989421],[-72.83890448963211,7.187079768496119],[-72.83649013751557,7.190750318926234],[-72.83632465802896,7.195837234222495],[-72.83129846403591,7.199185363809249],[-72.83312149975654,7.203662970107757],[-72.83261532400303,7.206702466151512],[-72.82425409352487,7.2149295373315],[-72.8234968934645,7.219637906590776],[-72.82150885545462,7.221267306125583],[-72.80900589977705,7.225102887641356],[-72.80557936790336,7.224766742232532],[-72.80605985830499,7.221286529773124],[-72.80095142901968,7.213441026194232],[-72.79759597383685,7.214064663453144],[-72.79067004905079,7.208443723208404],[-72.78488337220881,7.207706390600606],[-72.7803136976791,7.204379131197868],[-72.77390703660603,7.203267024880233],[-72.76478507645282,7.19698069363875],[-72.76678221720749,7.18710915932644],[-72.75688104112487,7.18281043826272],[-72.75039061957932,7.183011988313808],[-72.74463214468807,7.180146562336972],[-72.74320231339561,7.170374796204953],[-72.7354360636541,7.163971108359192],[-72.7289696490422,7.164195094912202],[-72.72410217869685,7.1666452656248225]]]}}]}