{"type":"FeatureCollection","features":[{"type":"Feature","properties":{"code":"544037"},"geometry":{"type":"Polygon","coordinates":[[[-72.5772029439704,7.262946192868128],[-72.57266230751526,7.249979083598419],[-72.5669114143023,7.2477708745572045],[-72.56458437387028,7.243589907076569],[-72.55880912199626,7.224437505900596],[-72.561936851209,7.218131494383044],[-72.56263888149891,7.2101271807673015],[-72.56905609644912,7.198989157545498],[-72.573536460002,7.180415085593268],[-72.5763443353639,7.176652674677371],[-72.58828581284837,7.174811492088509],[-72.59464620326406,7.154877943568067],[-72.59037893300103,7.158410847251446],[-72.58527639771984,7.159241717734801],[-72.57527005721903,7.1651501128057475],[-72.56317394723123,7.16334936651981],[-72.55766536741697,7.156927705612588],[-72.54035363975083,7.156152428618043],[-72.52930578934064,7.162171459421415],[-72.52316392239135,7.1610992299339955],[-72.5171132690374,7.1676548516499565],[-72.51287888836617,7.169527940639512],[-72.51046042556487,7.168184068629671],[-72.50270086275657,7.169000232384974],[-72.49848973928442,7.165072003624914],[-72.4829401285748,7.1580985514247],[-72.48609890338184,7.15346026332395],[-72.48584028711235,7.148427125287014],[-72.49184454845266,7.142321741307569],[-72.49087470144644,7.137407180636103],[-72.49385805172778,7.134340406183014],[-72.49671959122031,7.121642339533025],[-72.49918441929566,7.117006534092525],[-72.50355581936373,7.11474565028243],[-72.50251890967775,7.110104761250511],[-72.5043418847203,7.108283336070883],[-72.50428097521211,7.102827023762302],[-72.51099526195452,7.088425596105367],[-72.51532171805604,7.085456334458115],[-72.52085295034522,7.075623467527578],[-72.52433241512693,7.073865805784067],[-72.52511788501528,7.068566229143812],[-72.53589865096018,7.062922574717561],[-72.54652701817895,7.051900755215968],[-72.54514638654814,7.04769836733459],[-72.5477087356569,7.04464178474683],[-72.55026565561758,7.0357468964742225],[-72.55069313803494,7.023686992805324],[-72.55489649882293,7.018886308488618],[-72.55932998082363,7.0090849797763894],[-72.56132841433049,6.999621247605376],[-72.56271709249557,6.9976259590757195],[-72.56367082586439,6.999158584226336],[-72.57443604792911,7.001893797038974],[-72.57883872601951,6.999031129344985],[-72.58781862637915,6.998480069274649],[-72.59223655627204,6.992919049176351],[-72.5994306351036,6.9895225992463],[-72.61219578088844,6.993568182553759],[-72.62132806351923,6.987639575501987],[-72.62719564176348,6.989288212054078],[-72.63178098872868,6.986853766227625],[-72.63858597278835,6.990029454800322],[-72.64717691618745,6.997229720742098],[-72.65028289692629,6.9970775966100405],[-72.65317424993896,6.995721402830384],[-72.65505824658993,6.992032170741879],[-72.65749253712158,6.991468910257879],[-72.65699619225006,6.985075261039583],[-72.66448898838183,6.976225435004324],[-72.66383272069868,6.97221436828471],[-72.66825811297048,6.965689696517927],[-72.67326338535742,6.987596500215545],[-72.67822959132678,6.996942541538488],[-72.67718431526094,7.007631110696934],[-72.6819301794776,7.00674922020869],[-72.68462396456869,7.00945897186989],[-72.69187105241298,7.007979863782566],[-72.69925736566324,7.00069750858745],[-72.70909975082924,7.004278965042147],[-72.72262667324367,7.005259539732322],[-72.73185117014447,6.995720766224451],[-72.73843586490193,6.993252500065751],[-72.74160952949978,6.994764426782297],[-72.74511081680333,7.011511827469576],[-72.75300004770122,7.026079518286281],[-72.75087896933866,7.035753020849427],[-72.75391606911137,7.036874699910015],[-72.7569364464087,7.040708292417946],[-72.75719673286886,7.0482336665234016],[-72.75079434600286,7.0566983439206865],[-72.74893270769229,7.060590381788529],[-72.74911602551435,7.067680460398833],[-72.74515668225433,7.073319088826452],[-72.74608706586423,7.075868745926073],[-72.74306616406119,7.085145190486912],[-72.74409632716424,7.088400263509243],[-72.74207412120853,7.09180247991651],[-72.74069304220524,7.107001339276678],[-72.73728247690161,7.1159194590374],[-72.7381217158217,7.119075691534533],[-72.73020307455312,7.130234920212615],[-72.73229811686491,7.150336627312413],[-72.72968449064058,7.1535008209830835],[-72.72889509930093,7.159549534694406],[-72.72048025097212,7.170561179814172],[-72.71252540544151,7.1744020536951325],[-72.70974572174595,7.1736095595443885],[-72.70876482926707,7.176246242421541],[-72.70496584796365,7.175802087922534],[-72.70012462449978,7.181071258659756],[-72.69641741934981,7.180948213739896],[-72.69668240167857,7.1894644181642775],[-72.69354712369767,7.198450557056276],[-72.69559146687862,7.201112159095601],[-72.69557142459081,7.205473762220208],[-72.69262274722058,7.213684124294616],[-72.69407956381627,7.222017483980437],[-72.69699676570326,7.223069309168238],[-72.70001765105121,7.227233336143684],[-72.70146111229235,7.234054759857031],[-72.69937198146818,7.239370545779877],[-72.69960743618373,7.2441713401398715],[-72.69190295881367,7.246682359682495],[-72.6835548029253,7.255349516842898],[-72.6796872615298,7.24542226562869],[-72.67402944339324,7.241080489847377],[-72.67030803853743,7.234464414223339],[-72.67384277593385,7.223534048972738],[-72.67183948303608,7.217875853397743],[-72.6688110509769,7.213696987025173],[-72.66327390720016,7.21036116995225],[-72.65078140461236,7.189495188135993],[-72.64696569877674,7.1954719365820665],[-72.6378885879733,7.19758236850771],[-72.63597184674097,7.206558158182588],[-72.62741074257315,7.216368171063493],[-72.62280177845395,7.227145386824816],[-72.62020913348545,7.229043274648859],[-72.61967759016875,7.232485574603288],[-72.61184467575475,7.239730276460932],[-72.60457173800773,7.2417247710329775],[-72.60089319966454,7.247631303594517],[-72.59469842037606,7.2527386324463805],[-72.58901060771342,7.251260134225447],[-72.58434409195087,7.2523374133656375],[-72.58287739202257,7.260965044394652],[-72.57947794109725,7.263789852034222],[-72.5772029439704,7.262946192868128]],[[-72.66581359149268,7.1428213257730135],[-72.66659413411293,7.140612432817534],[-72.66855781757556,7.140756695534947],[-72.66745430080982,7.139028676590158],[-72.67015926918486,7.137154424432083],[-72.66667553842359,7.137334651784386],[-72.66632142406712,7.134404741433173],[-72.66486186255833,7.135715742363288],[-72.66515926756585,7.1329349664617325],[-72.66393612030953,7.131414818375731],[-72.66503551302071,7.133355719779672],[-72.66395245094827,7.137000876935588],[-72.65999418960973,7.138317608347393],[-72.66581359149268,7.1428213257730135]]]}}]}