{"type":"FeatureCollection","features":[{"type":"Feature","properties":{"code":"544528"},"geometry":{"type":"Polygon","coordinates":[[[-72.77097853933492,7.535782331895803],[-72.77119744538192,7.522392065837948],[-72.7672984953519,7.515327068883778],[-72.7696164731484,7.50207674814169],[-72.7644906858103,7.494965863110792],[-72.7549006310731,7.4927079844096625],[-72.75282448022199,7.490897177899058],[-72.75203211256968,7.485696354366269],[-72.74968344090615,7.482956888943818],[-72.75162167350175,7.474539602177799],[-72.73856465058793,7.470379961509707],[-72.73932944672475,7.463167403623004],[-72.73756627767153,7.458121261958809],[-72.74051935986114,7.458313282461461],[-72.74194779350017,7.456177449034101],[-72.74524596649161,7.456060867875522],[-72.75210154580941,7.452089325230304],[-72.76015855064918,7.442316534769532],[-72.7664390053701,7.437860485654653],[-72.77590808132851,7.435031862493361],[-72.78039560592663,7.429647091731738],[-72.7886814484828,7.425660961657854],[-72.79043229370927,7.422700952907917],[-72.79444404125786,7.421599547534697],[-72.79950807062278,7.414817251945408],[-72.80691432228815,7.411086936663651],[-72.8069312535373,7.405586138045464],[-72.81184476108359,7.399836028505717],[-72.81170130466512,7.394695226935255],[-72.81657717532897,7.387663500096551],[-72.81720281907928,7.375027266496147],[-72.82060978277718,7.370279558282107],[-72.82355129190307,7.360366343251371],[-72.83384492370772,7.3595046853128],[-72.84133651347645,7.3625200376399675],[-72.84604587004054,7.36229800718462],[-72.85074474883226,7.36670221045523],[-72.85245204774566,7.374370723190395],[-72.85661466986858,7.379965580075975],[-72.87242719470908,7.387835235599027],[-72.87515979013551,7.3931912428802775],[-72.86952722746184,7.399973108580582],[-72.86647385875693,7.400752220637287],[-72.86308074098065,7.413698683923485],[-72.85791814877012,7.418370722422367],[-72.85561221814919,7.4240721053840275],[-72.85103725331123,7.428237140233136],[-72.84809949182988,7.435140153376835],[-72.84349988550912,7.440716333746309],[-72.83432656905029,7.461921353980188],[-72.82912876913855,7.463932755118776],[-72.82554302922074,7.469152607923434],[-72.81572769620675,7.47471704142248],[-72.81316780404717,7.480924476724567],[-72.81273122197041,7.48888706334202],[-72.80720586517333,7.492721081625177],[-72.80533128699898,7.50204925067402],[-72.80008440775339,7.508345308924902],[-72.79803174755779,7.513834616754764],[-72.79120044668252,7.518718182225598],[-72.78278350238782,7.533299007281698],[-72.77594145737356,7.534798332492073],[-72.77340559683029,7.538419278054164],[-72.77305012184439,7.533998714319978],[-72.77097853933492,7.535782331895803]]]}}]}