{"type":"FeatureCollection","features":[{"type":"Feature","properties":{"code":"544517"},"geometry":{"type":"Polygon","coordinates":[[[-72.60523803506237,7.763581001504292],[-72.60954816258197,7.7571758841234555],[-72.6165201945031,7.753735686305561],[-72.62202848326814,7.742414932502356],[-72.62710774489517,7.7404978919933],[-72.63291930593232,7.741402391761881],[-72.62895886121032,7.728870692144369],[-72.62876467994994,7.721390071743599],[-72.63686156984744,7.70603266151403],[-72.64195579942691,7.690131609369985],[-72.64595306341948,7.685052467042283],[-72.64567468871229,7.680930737850758],[-72.64796451598022,7.674963382170233],[-72.65183328122231,7.675394335581075],[-72.65724919939407,7.670394336018944],[-72.67033390489519,7.65232809458422],[-72.67881791701183,7.647185200133265],[-72.68342357263145,7.638646542751815],[-72.69067656373585,7.635110641158462],[-72.69626911999552,7.634400933545123],[-72.69213753421087,7.646679143679023],[-72.69330090016052,7.653619597272609],[-72.69133920673414,7.658875385915792],[-72.69618784115482,7.669407359274146],[-72.69742775510957,7.683515239611381],[-72.71281003307922,7.693274174894555],[-72.71977025950866,7.694434189150002],[-72.72795468529114,7.698553909793304],[-72.73285032262021,7.711455341695398],[-72.7308659335244,7.725658237780067],[-72.72576133004526,7.733881669301979],[-72.72439814799867,7.746753107706411],[-72.72221021161636,7.746868163684724],[-72.72188892823038,7.750615161332632],[-72.7188064607729,7.752004201509465],[-72.72071342254526,7.758246467074343],[-72.71112338940543,7.765288008340008],[-72.71353394862592,7.770968091228667],[-72.70685795388385,7.780275289306132],[-72.70667410435698,7.784541361433639],[-72.71045155933007,7.786229298888145],[-72.70842918985198,7.789718782756836],[-72.7115269420222,7.79662370983209],[-72.70974910943556,7.803283463409912],[-72.71088057515516,7.806189945840515],[-72.70710194672921,7.809664669502183],[-72.70106458085263,7.810552332638281],[-72.69476724733306,7.81570681763651],[-72.69259003040713,7.8196736387020565],[-72.68897315850586,7.821445872447612],[-72.6895050216682,7.825063397409963],[-72.68586826380232,7.825297713639657],[-72.68618396377383,7.828491927547475],[-72.68184481463476,7.830047015939613],[-72.68016875054911,7.829109265595946],[-72.67857938622473,7.831385297335942],[-72.6753389787927,7.829983564121562],[-72.66793542473204,7.8320423826309025],[-72.66535563632351,7.831315096878086],[-72.65191373319527,7.836426638230421],[-72.64654030306923,7.835231013124314],[-72.6453491835698,7.839278803469426],[-72.63894470382331,7.842136938817191],[-72.63868623462105,7.837443670179425],[-72.6343379282298,7.832738526115861],[-72.6340475084038,7.822997771639507],[-72.62697650637381,7.810505010912664],[-72.62917965856315,7.805730850128612],[-72.63709198416626,7.8004562512717825],[-72.63492514114,7.797444612650509],[-72.63413178515447,7.7902715305014],[-72.62957447558921,7.786843637998231],[-72.6262432597681,7.780066373549801],[-72.62339671291062,7.777645386950553],[-72.61418750997854,7.775666841465068],[-72.60843795168392,7.769216701956111],[-72.60501509135003,7.7683811335473365],[-72.60523803506237,7.763581001504292]],[[-72.65897713709194,7.715758487118762],[-72.6618999645595,7.718004290876252],[-72.66176998485173,7.714857004800535],[-72.658606883387,7.714687225395778],[-72.6574927551514,7.711144556650652],[-72.65341896783627,7.7146473105132145],[-72.65022199358873,7.714779032402532],[-72.65897713709194,7.715758487118762]]]}}]}