{"type":"FeatureCollection","features":[{"type":"Feature","properties":{"code":"544510"},"geometry":{"type":"Polygon","coordinates":[[[-72.65897713709194,7.715758487118762],[-72.65421161831028,7.715087190805093],[-72.65451686416361,7.716263332067683],[-72.65022199358873,7.714779032402532],[-72.65341896783627,7.7146473105132145],[-72.6574927551514,7.711144556650652],[-72.658606883387,7.714687225395778],[-72.66176998485173,7.714857004800535],[-72.6618999645595,7.718004290876252],[-72.65897713709194,7.715758487118762]]]}}]}