{"type":"FeatureCollection","features":[{"type":"Feature","properties":{"code":"544529"},"geometry":{"type":"Polygon","coordinates":[[[-72.77677956706378,7.627864353442419],[-72.77767794451404,7.624837307723794],[-72.77652723149271,7.622454192491887],[-72.78142288630534,7.615244790895247],[-72.77645615583026,7.60929436852075],[-72.77752069462451,7.602159249270358],[-72.7731593290701,7.59424697714627],[-72.77440080008682,7.588633974420873],[-72.7722277216136,7.586300784931041],[-72.76713177762048,7.585524515489453],[-72.76545482907432,7.576682945790765],[-72.77255544613507,7.566230733291945],[-72.7707892318636,7.551244884946243],[-72.77397895250607,7.543713570556804],[-72.77340559683029,7.538419278054164],[-72.77594145737356,7.534798332492073],[-72.78347765583652,7.532718757955763],[-72.79120044668252,7.518718182225598],[-72.79803174755779,7.513834616754764],[-72.80008440775339,7.508345308924902],[-72.80533128699898,7.50204925067402],[-72.80720586517333,7.492721081625177],[-72.81273122197041,7.48888706334202],[-72.81316780404717,7.480924476724567],[-72.81572769620675,7.47471704142248],[-72.82554302922074,7.469152607923434],[-72.82912876913855,7.463932755118776],[-72.83432656905029,7.461921353980188],[-72.84349988550912,7.440716333746309],[-72.84809949182988,7.435140153376835],[-72.85103725331123,7.428237140233136],[-72.85561221814919,7.4240721053840275],[-72.85791814877012,7.418370722422367],[-72.86308074098065,7.413698683923485],[-72.86647385875693,7.400752220637287],[-72.86952722746184,7.399973108580582],[-72.87515979013551,7.3931912428802775],[-72.87692995465471,7.405891747967473],[-72.886007023292,7.416239069613823],[-72.89159945922387,7.420019360002868],[-72.89280756139465,7.4254320725193],[-72.90010889752494,7.43457999467546],[-72.90112746391014,7.446993923226387],[-72.89556120492563,7.466153494703633],[-72.8919507710745,7.4635853894021125],[-72.88622222900278,7.4647191824871015],[-72.8774459283801,7.475733456305932],[-72.87249650762107,7.4792128244140486],[-72.8701346472107,7.487847643227838],[-72.85953692140833,7.4943340476769436],[-72.85818733742872,7.510527993051198],[-72.85049972960127,7.519539860489715],[-72.84619243749768,7.534728681222475],[-72.83794409504105,7.543563443660105],[-72.83698361303243,7.548789264516756],[-72.83981322864071,7.559973094568306],[-72.83767774179847,7.566605809363864],[-72.83907332081287,7.572788663861331],[-72.83784510950551,7.574592045017027],[-72.84423126960542,7.587200784235165],[-72.83064960730951,7.597294668848463],[-72.82704129307842,7.602805446444393],[-72.8199376616526,7.617301930986457],[-72.81945746435707,7.621552717372765],[-72.82159572593724,7.626209995664624],[-72.80985822665667,7.630240242837203],[-72.80857264471189,7.632954094898707],[-72.80243227723173,7.636955338963901],[-72.80180091225571,7.640549099704913],[-72.79959653621978,7.639898467886724],[-72.79406353706634,7.641856077367834],[-72.79324807162351,7.638825282976256],[-72.79070753063837,7.639240330495056],[-72.78267239460035,7.629263372597052],[-72.77677956706378,7.627864353442419]]]}}]}