{"type":"FeatureCollection","features":[{"type":"Feature","properties":{"code":"545057"},"geometry":{"type":"Polygon","coordinates":[[[-72.75938626333703,7.970023213746515],[-72.76317773803851,7.961881535177326],[-72.7720669318249,7.953128773547007],[-72.77540138826839,7.939546955956246],[-72.77228860849607,7.926074818674806],[-72.76039423779275,7.913179511147973],[-72.7603556619423,7.8871677727251495],[-72.75593880162961,7.8798701153338016],[-72.75604561875497,7.873721227207341],[-72.75414503538303,7.8695016057146745],[-72.75677055965883,7.86382622795054],[-72.75594198054546,7.856395272067402],[-72.75876966576715,7.849457180806326],[-72.7622865329464,7.847436568936473],[-72.77489843462524,7.8514488759578285],[-72.7900584342849,7.842486433409874],[-72.79099733751258,7.839325391915509],[-72.79835938671852,7.841167124721153],[-72.80032826587274,7.8391177000057155],[-72.81139088574594,7.836590662470883],[-72.81323697194875,7.833527176976929],[-72.81644903859029,7.834023840665623],[-72.82132531548893,7.830877896707364],[-72.8270083952591,7.830354703315493],[-72.83200589570589,7.826803290752025],[-72.83458541774786,7.8319569067163],[-72.83359372662255,7.842292268604581],[-72.83551559464081,7.845331988848784],[-72.83443257781983,7.851317742337585],[-72.83571381665183,7.854492293452893],[-72.8391553853836,7.8548629482504],[-72.84367954721807,7.8589318319515655],[-72.84673087343612,7.859069635021513],[-72.84788286481148,7.857314746987527],[-72.85296520353853,7.860443906763805],[-72.85347563601567,7.864130319891331],[-72.86303617650941,7.875577979387572],[-72.86727767400293,7.8721867128078316],[-72.87570143995686,7.8748484464878175],[-72.87780692507391,7.878034335153416],[-72.88626024640894,7.883899543866164],[-72.89250140845502,7.892203694756006],[-72.89834567807804,7.896295084893268],[-72.90005685627659,7.902710396196369],[-72.89707932903679,7.903993693970335],[-72.89164655674904,7.902223349473672],[-72.8838562157415,7.904475787713807],[-72.87898119148582,7.903852729468042],[-72.87064935389492,7.912604274450871],[-72.85981544112593,7.916076835297929],[-72.8569547120461,7.9218675971135895],[-72.8522619339754,7.924721709194273],[-72.84638771302087,7.923904313364801],[-72.84405986320462,7.921579796730725],[-72.8335164473948,7.922939386427572],[-72.8308224545583,7.921041980943073],[-72.81847799215734,7.92318676593419],[-72.815678068713,7.931497181067414],[-72.81097006557923,7.937358727496303],[-72.80135699018473,7.955847262855855],[-72.80077006112464,7.959799219841727],[-72.80279914221859,7.966685887948415],[-72.79578711313945,7.999036673519356],[-72.79816027716157,8.004649824340447],[-72.79549685683583,8.00556470520786],[-72.78873775673912,8.00431871624312],[-72.7879672260068,8.002072196689653],[-72.78370207536386,8.003339054809942],[-72.77342432271172,7.999643301367485],[-72.76847324924552,7.999885216758912],[-72.76409326682466,8.013959519476373],[-72.75352663803875,8.017899655543943],[-72.754068271405,8.013423409874918],[-72.74804080531612,7.996733862164604],[-72.75204622897166,7.9884981428115225],[-72.76031662020739,7.981749450553082],[-72.75938626333703,7.970023213746515]],[[-72.79932681071415,7.891425803460606],[-72.8009596339341,7.889511789657831],[-72.79864071819799,7.884951220958271],[-72.79778731042529,7.886080731608615],[-72.79561775642458,7.884048061250269],[-72.79339754854453,7.8845634271661424],[-72.79372416851868,7.886759578747274],[-72.79932681071415,7.891425803460606]]]}}]}