{"type":"FeatureCollection","features":[{"type":"Feature","properties":{"code":"545518"},"geometry":{"type":"Polygon","coordinates":[[[-72.58764401123767,8.062805664298082],[-72.58691713377652,8.059172600597776],[-72.59175512587399,8.048742294953058],[-72.59264770907907,8.038687417107553],[-72.59084749038414,8.031559314920457],[-72.58780303930433,8.030853380662734],[-72.58750538232835,8.029172199047139],[-72.59085474501768,8.015883497858681],[-72.59005366131504,8.012994902100388],[-72.59428839371361,8.009588947304564],[-72.59676030261573,7.999022214646004],[-72.59201479321177,7.979531744873668],[-72.59425820172657,7.977551242262109],[-72.59361670350643,7.972217051331938],[-72.59808862354629,7.965120502789773],[-72.59125254247016,7.951798497547202],[-72.59148075900725,7.946974731895125],[-72.5875910135378,7.94105153547946],[-72.58509137576851,7.930583315272827],[-72.58470195292347,7.926075981843326],[-72.58759930175603,7.922744205521042],[-72.58849872718923,7.9162427292468465],[-72.59191575522561,7.916170212736404],[-72.59302217322767,7.918908459454485],[-72.59554834995618,7.918558163705086],[-72.5994693312818,7.920808147052924],[-72.60496991495552,7.917717098271055],[-72.60751073053478,7.911012297882451],[-72.61024285082078,7.909132772899568],[-72.61372976769695,7.911400300448349],[-72.61650657175352,7.910667725415635],[-72.62051206534312,7.9127585182029065],[-72.62404737969581,7.911587061495993],[-72.62810370919914,7.913745408558555],[-72.63716636215764,7.907591797824125],[-72.65449472796689,7.90833158532422],[-72.65684506776415,7.906652400943983],[-72.65675280207205,7.912778706529593],[-72.65837789243267,7.916750231691253],[-72.6714549884876,7.917404793188268],[-72.67004371749726,7.9261500831837],[-72.67565098254181,7.930612999209245],[-72.6804353105087,7.932131906993561],[-72.68241138464674,7.935958821824272],[-72.69290999532979,7.93518382867984],[-72.69977650082097,7.929907306635528],[-72.70537665624244,7.932546162611686],[-72.70982436468847,7.932761961733831],[-72.7118157749614,7.93478432401281],[-72.71391419467835,7.940099653307129],[-72.71145767333326,7.942981941627465],[-72.69027677521865,7.955174665562367],[-72.68775976705518,7.962801113970102],[-72.68917841300686,7.968290521558913],[-72.68587485611886,7.971840915964265],[-72.68642398580266,7.977037001462293],[-72.68911730500929,7.974631438415543],[-72.69349673515649,7.974041621488823],[-72.70161448598208,7.9788110432098165],[-72.70904586249816,7.979408613564658],[-72.7181631278113,7.976825207095317],[-72.72545697688003,7.969292128927009],[-72.72926413532991,7.968304565969959],[-72.74772059048195,7.971745168994232],[-72.75946295943788,7.970142103758576],[-72.76031662020739,7.981749450553082],[-72.75204622897166,7.9884981428115225],[-72.74804080531612,7.996733862164604],[-72.754068271405,8.013423409874918],[-72.75364057404317,8.017721483019784],[-72.74629381777754,8.023225435871154],[-72.73887718398493,8.036492827730626],[-72.73949482336707,8.039660934625147],[-72.74326429351242,8.04172859362643],[-72.73493224920458,8.043997411870578],[-72.72181707506542,8.056152950409285],[-72.71689086214025,8.062744007112201],[-72.69750311423513,8.05853581367279],[-72.67798217788163,8.06114522225431],[-72.67097038842962,8.059239230303206],[-72.66014254449999,8.059951314647208],[-72.65211712107305,8.056062310684808],[-72.64288658104408,8.058759009353537],[-72.63754255717498,8.063450577975857],[-72.62735061365282,8.056378491967394],[-72.61433540001275,8.053739887959694],[-72.60636002162727,8.054213964993778],[-72.59592878524205,8.058983049385574],[-72.5914569176528,8.058755614464758],[-72.58764401123767,8.062805664298082]],[[-72.60609677839483,7.948748824036329],[-72.61026203641597,7.948718363625801],[-72.60713908637558,7.945374177087672],[-72.60810726319113,7.943386779797436],[-72.60645898350862,7.939981104738024],[-72.60797769486044,7.935862330261841],[-72.60416484398121,7.933724643581002],[-72.60591265221694,7.93336365717164],[-72.60566568305893,7.92886923172415],[-72.60339410138971,7.929008091004619],[-72.6019470909934,7.925129661488143],[-72.60015478410679,7.925284896658809],[-72.5995578174477,7.934083484659311],[-72.6025781268678,7.938517681427527],[-72.60112530679976,7.941009570910921],[-72.60208667224049,7.945987763377843],[-72.60609677839483,7.948748824036329]]]}}]}