{"type":"FeatureCollection","features":[{"type":"Feature","properties":{"code":"546017"},"geometry":{"type":"Polygon","coordinates":[[[-72.96923185721187,8.019417646986028],[-72.97063728150647,8.018956839945758],[-72.97298892228355,8.012552479498595],[-72.97487507352156,8.0130841441715],[-72.97653926526675,8.009744819081163],[-72.97860609740025,8.009271204846186],[-72.97072253322062,8.000469674471674],[-72.96616307832426,7.988750219215035],[-72.96434776312162,7.987642387104529],[-72.95265244952469,7.987169926782087],[-72.9369434075989,7.996361335601705],[-72.92949666717999,7.9890678146061305],[-72.92627739732706,7.9877977333470085],[-72.90715678119557,7.991851486601831],[-72.89935210267089,7.989427966948654],[-72.89526204025293,7.991802837156911],[-72.87813417239806,7.995024693542746],[-72.87385316728523,7.9975185319246975],[-72.87280827791375,7.992022549502849],[-72.87874432266182,7.986800047430222],[-72.8778359374374,7.983059347964343],[-72.8789268382987,7.9813697814569196],[-72.88433682647093,7.979989909845074],[-72.88648787570537,7.976632101585835],[-72.88934920025343,7.975376990335974],[-72.89386668441057,7.970564829629268],[-72.89951195554846,7.9582208927624265],[-72.90328891275533,7.957397663606969],[-72.90103871446297,7.953892765441765],[-72.89295808321322,7.955840463822312],[-72.88701536078787,7.952248056511678],[-72.87493023765154,7.9545443351995],[-72.87458655170218,7.951136381111439],[-72.8820714031155,7.92908338122453],[-72.88671023320546,7.922890703044061],[-72.88881607107834,7.9134475798326775],[-72.89377491854151,7.905813783203143],[-72.90084784067369,7.901965800727453],[-72.90491494928307,7.901745606042027],[-72.90729484343302,7.898589382800822],[-72.90709714695612,7.893943321731513],[-72.90946208240962,7.8900446164708455],[-72.91918967076481,7.886713295748621],[-72.92074592335388,7.883794249864195],[-72.92984060406928,7.878110436814495],[-72.93390729821635,7.877139598389704],[-72.93936100753689,7.878928107238096],[-72.94045426250312,7.874700775511883],[-72.93740128769173,7.873827975427048],[-72.93975927190229,7.871905436864267],[-72.93865298348396,7.868664884421889],[-72.94047618992607,7.868343263706777],[-72.94026295779645,7.867161812595441],[-72.93775294612749,7.86336824295654],[-72.93325933829186,7.865097351021973],[-72.93226757928932,7.860617460552589],[-72.93095376968273,7.86116306576389],[-72.92927263846082,7.858209553685356],[-72.93280115480843,7.855377586028965],[-72.93443562662173,7.8504374716462735],[-72.9319547651275,7.84785404666502],[-72.93638767120035,7.847119179233914],[-72.94077460589267,7.838710078870349],[-72.94700022405851,7.834173966533797],[-72.95155515586464,7.833094603769098],[-72.95887942214932,7.825294275556303],[-72.96118332776689,7.820565516395618],[-72.96778326404251,7.815704560205177],[-72.968935987669,7.811303828956511],[-72.96711933651949,7.8054035781218545],[-72.97410070978401,7.799720806884409],[-72.97467304318786,7.795792002196549],[-72.97954820834019,7.791234787247959],[-72.98056372127957,7.785058299838113],[-72.98507974093457,7.780848115333981],[-72.98963547389747,7.780521979756202],[-72.99332936688745,7.782677448208176],[-72.99606442646211,7.7880250983655515],[-73.0049115620917,7.787130051012184],[-73.00776427034833,7.784612723003136],[-73.00983433179135,7.7944495082996355],[-73.02011169672068,7.80924307286142],[-73.02138283727561,7.814288610829806],[-73.02578517906522,7.819245941340284],[-73.02787598933605,7.825977314626641],[-73.03136730897467,7.829175070490521],[-73.03265525222349,7.83300243166525],[-73.03102458050529,7.840221757732195],[-73.0291442440813,7.840339114336473],[-73.02660317756204,7.844534343229498],[-73.02617140448251,7.849478420201194],[-73.02256365075255,7.851953242680963],[-73.04248663408299,7.863745481843068],[-73.04644303805435,7.869216881403361],[-73.04698910915005,7.879802483925289],[-73.04389285542055,7.884330928194402],[-73.04305205841007,7.8924506526011555],[-73.03886581810463,7.899039835481801],[-73.04369236672221,7.930544575900001],[-73.05205999616965,7.937291509521742],[-73.05944027760455,7.939580019354821],[-73.06204875236028,7.9426997678536395],[-73.06889918638018,7.945252388924587],[-73.06986342528933,7.966230049313992],[-73.08183249177279,7.978606307043833],[-73.0930075574372,7.981082017069525],[-73.09874444840528,7.9807995851565465],[-73.10221311454052,7.983304168705956],[-73.08724638494124,7.994673233596416],[-73.084918319152,8.000999451952566],[-73.08584337748653,8.003359029220576],[-73.08433490530842,8.004095583297385],[-73.08598415275537,8.015412770461865],[-73.08381902722817,8.01761796616654],[-73.08516478643008,8.01947794045708],[-73.08285750237883,8.020921116819693],[-73.0843184039482,8.022516927421805],[-73.0811691772015,8.026093886497392],[-73.08149825926705,8.030148276358148],[-73.0709999067231,8.026326704286362],[-73.06792918407916,8.027906917529265],[-73.05860827686291,8.026643041892271],[-73.05521171380417,8.030190902215224],[-73.05377107049549,8.035455686645093],[-73.04993210026163,8.038600071484439],[-73.03566864948147,8.041427610667313],[-73.03137926050516,8.0441774026811],[-73.02802359860544,8.042709908795132],[-73.01989146706813,8.050354131774952],[-73.01479874518543,8.058893142940576],[-73.0164775315584,8.064251700759314],[-73.01264126921365,8.072626661973516],[-73.0122195429891,8.09198216409186],[-73.00274072973696,8.099369192109691],[-73.00160344714652,8.102757449466594],[-72.98771181433233,8.103047023912836],[-72.97889819564443,8.097860158401943],[-72.9749238690053,8.092844477148333],[-72.97787327965511,8.088638556566877],[-72.97851319304533,8.090160195894555],[-72.98056581518853,8.090065156492926],[-72.97940242455627,8.082132557202499],[-72.9811664287048,8.08267068357975],[-72.98195740590279,8.077394404247855],[-72.9854911703926,8.07548168833955],[-72.9839808182216,8.07297233898754],[-72.98991774228801,8.072545236065537],[-72.99053593291535,8.068648252417574],[-72.98708934949786,8.064734768437916],[-72.98884442779377,8.060127749103515],[-72.99180303169123,8.060377454947059],[-72.99221527978955,8.061825010417863],[-72.99554180899804,8.059324010990679],[-72.99221989852487,8.05712856080737],[-72.98519849313533,8.046046768708777],[-72.98506916031795,8.039750961397885],[-72.97502893057924,8.033746156011489],[-72.97188523479639,8.029927194126799],[-72.96923185721187,8.019417646986028]],[[-72.97116611899094,7.917822016891478],[-72.97719347503647,7.914036521554806],[-72.97621782761445,7.912273375127313],[-72.97344837486503,7.91116871267667],[-72.96921583304896,7.914714846244635],[-72.97116611899094,7.917822016891478]]]}}]}