{"type":"FeatureCollection","features":[{"type":"Feature","properties":{"code":"546037"},"geometry":{"type":"Polygon","coordinates":[[[-73.00776427034833,7.784612723003136],[-73.00958977021725,7.7716261329752],[-72.99624794791583,7.762018408567087],[-72.99493881669423,7.759126643148932],[-72.99869267302529,7.723525731364191],[-72.99682602002895,7.7158218916284795],[-72.99197095887098,7.7085398809616095],[-72.99109967471043,7.702385623336795],[-72.9893519220106,7.7009640833479125],[-72.98209182334,7.703479108674173],[-72.97334042439604,7.692635165505294],[-72.9676193529308,7.690590772959126],[-72.9651214912817,7.684960027543411],[-72.95867081595418,7.680421881976031],[-72.96028429931255,7.674652679400879],[-72.95809172773983,7.6692927784362155],[-72.95305329836611,7.666268024087515],[-72.95268835450992,7.658170272355164],[-72.96221637565122,7.660506085401892],[-72.97691458199421,7.636330281425842],[-72.98248135828527,7.631569957307363],[-72.98128900568327,7.625231816217081],[-72.98263275839378,7.620622324506883],[-72.99084490275908,7.6177162123155995],[-72.99767961394974,7.618441919409179],[-72.99876159615752,7.6169597095392305],[-73.01192890821864,7.6222438636555125],[-73.02191388899678,7.620122395513192],[-73.02728253686507,7.622478145946616],[-73.03459959890989,7.622891436885595],[-73.03862957045988,7.620564146542051],[-73.04443180969406,7.609391381503542],[-73.04857787080715,7.606276594211465],[-73.05130875799057,7.606218674385673],[-73.06203368053514,7.609998171845575],[-73.08951892614732,7.609201904339216],[-73.09330549003579,7.611610887985819],[-73.10060977368232,7.6206468127517155],[-73.10821690279732,7.613579344450159],[-73.11791117989935,7.610599431223761],[-73.12361449221919,7.606844283168925],[-73.12922238564215,7.613441790263323],[-73.15858700299924,7.61970289278139],[-73.16369588891303,7.6258717800010345],[-73.180788740357,7.619234283976198],[-73.18976699520869,7.621735757515353],[-73.19527638440718,7.627276796003969],[-73.20346294317949,7.628737762365233],[-73.20046148099692,7.6342129702482],[-73.1962120902071,7.636658974740158],[-73.1904359322752,7.637351224541703],[-73.18709448653641,7.643841463024501],[-73.18270073635557,7.644274255290554],[-73.17627761197463,7.6507334728617025],[-73.16225738990704,7.649650500263704],[-73.15663279457755,7.652358004778023],[-73.15228887449359,7.646953164989043],[-73.14929400051386,7.6455863237439985],[-73.1411270202018,7.64880031665831],[-73.13667850854216,7.654449237738675],[-73.12345559476472,7.656658770385434],[-73.12329175153019,7.6611394404142175],[-73.12557904060196,7.667604490282827],[-73.12476103593457,7.670196065671064],[-73.1212517854006,7.670940751642888],[-73.1272690421406,7.688448486054938],[-73.11814540151232,7.698418132755137],[-73.11670514078429,7.705459280127229],[-73.11110956913114,7.713040130479044],[-73.10850141319258,7.720239207541226],[-73.1113621690119,7.7257282191797],[-73.11003669583869,7.732519373772789],[-73.11366714729502,7.738583408192312],[-73.11212040060013,7.743734481846673],[-73.10931389409524,7.7459214576636555],[-73.10629575057504,7.752459188593491],[-73.1096229050766,7.757424564609778],[-73.10972828649619,7.76193297584706],[-73.10506473676185,7.765921845691821],[-73.10664681354257,7.770841137198829],[-73.10525813743442,7.782994646620466],[-73.09550225765395,7.782990477314513],[-73.09090649359445,7.773770668054738],[-73.08642002932055,7.772112509153317],[-73.08518886021255,7.775268224343904],[-73.08012850958653,7.777670185784984],[-73.0779462090693,7.782906379512838],[-73.07151460415133,7.786287011996933],[-73.07095862504042,7.789440892446066],[-73.06801413445964,7.791128976967855],[-73.0657563442046,7.795620172077406],[-73.06750647569197,7.81325137512755],[-73.06425582394405,7.8210298242542535],[-73.06833228109593,7.828396447972466],[-73.06149384797175,7.832841511264348],[-73.05591436424493,7.834021342578694],[-73.05365700387887,7.836784533141611],[-73.04496753980027,7.853655561875655],[-73.04323353840533,7.864635575188856],[-73.03488029069808,7.859981562201995],[-73.03354507714579,7.8573463006324005],[-73.02256365075255,7.851953242680963],[-73.02617140448251,7.849478420201194],[-73.02660317756204,7.844534343229498],[-73.0291442440813,7.840339114336473],[-73.03102458050529,7.840221757732195],[-73.03265525222349,7.83300243166525],[-73.03136730897467,7.829175070490521],[-73.02787598933605,7.825977314626641],[-73.02578517906522,7.819245941340284],[-73.02138283727561,7.814288610829806],[-73.02011169672068,7.80924307286142],[-73.00983433179135,7.7944495082996355],[-73.00776427034833,7.784612723003136]],[[-73.04810052435431,7.745336461047032],[-73.05082191387106,7.739771795120021],[-73.04912836831949,7.7382918992457235],[-73.04629735402932,7.743745557144166],[-73.04810052435431,7.745336461047032]]]}}]}