{"type":"FeatureCollection","features":[{"type":"Feature","properties":{"code":"547018"},"geometry":{"type":"Polygon","coordinates":[[[-73.1578997678834,8.572536926684563],[-73.15896147948916,8.55439649032121],[-73.16245935750572,8.546675271963807],[-73.16041868072239,8.53885778213072],[-73.16140678566865,8.531869480248929],[-73.16019341170153,8.5284752692383],[-73.16141398990845,8.52790859638202],[-73.16029588674252,8.526449287870093],[-73.16378606892374,8.524806510355006],[-73.16403443984888,8.519188362331704],[-73.16720166742505,8.515354700918067],[-73.1666040178801,8.511764171543462],[-73.16837955909682,8.50931269985108],[-73.16701661873418,8.505792685637743],[-73.16829474755605,8.50389942683347],[-73.16620542749843,8.50129875178584],[-73.16636197187643,8.496074757443125],[-73.16999309387728,8.490369601125849],[-73.17243586288907,8.474916951976866],[-73.1703050976264,8.472120682588752],[-73.1709054344916,8.459123898638552],[-73.16937028451457,8.451167957816722],[-73.1609516977972,8.435001707370986],[-73.17032299252622,8.425309394594194],[-73.17368505750909,8.41685625529351],[-73.18401002801414,8.41258562613723],[-73.17847891605277,8.409490096431284],[-73.1784412010087,8.400772525018624],[-73.17605083731394,8.398478624089876],[-73.17493581124796,8.384055041724253],[-73.1794880711605,8.375438388290604],[-73.18420993872786,8.370472225515812],[-73.1951266822573,8.369369029624181],[-73.19836290084288,8.367415557567313],[-73.19893579474797,8.35992318309701],[-73.20270646097197,8.355908436610036],[-73.20509880750393,8.347113671330362],[-73.20229112857453,8.34424832351516],[-73.20288135893514,8.34010444167177],[-73.19958984716595,8.33240796044231],[-73.20055732566902,8.322936505696362],[-73.2028127803311,8.318956784876264],[-73.20629456116535,8.320156720185025],[-73.20796478369749,8.3283264803772],[-73.21605221295226,8.334196978369732],[-73.22757938339646,8.336823426186925],[-73.23109753407198,8.340211123042707],[-73.24705111186074,8.343026194416893],[-73.25660291470689,8.332827714114103],[-73.26194930707908,8.332402566261294],[-73.2632472015377,8.328115332900552],[-73.26663915511705,8.326270040655345],[-73.26691698577815,8.32360127654232],[-73.26885942881745,8.323095574900776],[-73.26972595643133,8.32932766505536],[-73.27267387583947,8.329311086561972],[-73.27662394666174,8.333629365517027],[-73.28127669260743,8.329253185248149],[-73.28415096833209,8.327766451259606],[-73.2842673417453,8.329716751599733],[-73.28694215310037,8.326791571055708],[-73.28982295017909,8.327494548541154],[-73.2913027648064,8.325906923313028],[-73.29549339964666,8.333464946354695],[-73.29473740492091,8.336829767563529],[-73.299166165342,8.342982879503325],[-73.30026236473918,8.347310050372414],[-73.29887409075201,8.349584212403897],[-73.30204068069378,8.35519008905112],[-73.3001367106607,8.355491373343853],[-73.29812245765095,8.361718906469662],[-73.29327441869856,8.36544599038507],[-73.29089678095147,8.375485691504252],[-73.28775001012548,8.3790090995779],[-73.28807219854087,8.384005980902316],[-73.28281259951814,8.387711205271955],[-73.27436888795006,8.387958765784447],[-73.27395060803639,8.397141687896351],[-73.27543613566189,8.400924994707395],[-73.27896149057722,8.403467343694444],[-73.27582129252738,8.4051309224879],[-73.27681660274192,8.407910969223735],[-73.27570852071983,8.409412100379143],[-73.27224343870677,8.407956074655715],[-73.271267705924,8.411581803503964],[-73.27435449798236,8.41609833223805],[-73.27109735779055,8.418276247476399],[-73.27134142776907,8.42168835441538],[-73.26992668578526,8.421780413390536],[-73.26677249577494,8.427497839027069],[-73.26375977934589,8.426659815725998],[-73.26227186573374,8.428270515090503],[-73.26288425697373,8.432279151600426],[-73.26114472358654,8.433713016444472],[-73.26238887780977,8.436308089565728],[-73.26158880095232,8.438959912145151],[-73.26689321332935,8.443008830691724],[-73.2717753729192,8.453661192502864],[-73.26832791224024,8.458703388033086],[-73.26522665308102,8.45992533715389],[-73.2627124175986,8.458887169682725],[-73.26008327526205,8.460671740624718],[-73.25835795803573,8.455869688479538],[-73.25581125770839,8.456776317124138],[-73.2530411313291,8.452818491845221],[-73.2538545882237,8.45086174419896],[-73.24676890517674,8.449158339997439],[-73.24674161648295,8.461311404103412],[-73.25196715246096,8.469383539389526],[-73.23830960550538,8.47004254581509],[-73.23477622051087,8.474148463731353],[-73.23461274648719,8.482457708497009],[-73.23236516763791,8.488169989864105],[-73.22260040725632,8.493453265690448],[-73.21899345365466,8.497793895786742],[-73.21765674269005,8.505683498980886],[-73.22451024558245,8.516209639013255],[-73.2238884266099,8.522710812925368],[-73.22012862690951,8.530792814060533],[-73.20425880856482,8.542312393570512],[-73.20232730095478,8.55140746200874],[-73.19755697420442,8.554264753005214],[-73.18838409894744,8.55602357071814],[-73.17549266864887,8.553111917278557],[-73.17122541689781,8.553922333068613],[-73.16562028895675,8.564428964574859],[-73.1578997678834,8.572536926684563]],[[-73.20864464590892,8.403695197191382],[-73.21304875250593,8.4074726614204],[-73.21388593968322,8.40455437966881],[-73.21068172005812,8.40269395183509],[-73.2128571927455,8.400194446734872],[-73.20861167712707,8.400197534119286],[-73.20714580098121,8.395453462477974],[-73.204100542574,8.398682221770002],[-73.20608821754371,8.400506135780574],[-73.20510003752116,8.40337428713002],[-73.20864464590892,8.403695197191382]]]}}]}