{"type":"FeatureCollection","features":[{"type":"Feature","properties":{"code":"547039"},"geometry":{"type":"Polygon","coordinates":[[[-72.98748922543268,9.147056780848118],[-72.98570349852127,9.142026375382954],[-72.9826833289693,9.141712147112685],[-72.97620062794175,9.13704938927907],[-72.9726008610964,9.13702937270233],[-72.96963023676278,9.128818934523224],[-72.96527250263892,9.124671011929138],[-72.96008931586698,9.113637834308406],[-72.95350015869735,9.107287378647413],[-72.94790471559952,9.106046250102054],[-72.94781512180106,9.102723866545318],[-72.95136338733039,9.096938153354017],[-72.94829575824156,9.091610985657837],[-72.9522165410778,9.092431078063555],[-72.95462017373796,9.089074590324458],[-72.95799885835191,9.088370854876871],[-72.96283251556417,9.08004197405819],[-72.9624824460721,9.07487806338429],[-72.95998003253646,9.072036392372809],[-72.96056889301161,9.06873980626824],[-72.95482553931078,9.065892708165507],[-72.95358787353138,9.062878646533704],[-72.95028295601395,9.062967888604817],[-72.94565686009923,9.05987777056339],[-72.94229729628859,9.060363388779422],[-72.93828155941145,9.058052520605997],[-72.93236682399237,9.049508416593028],[-72.93192328861579,9.044199567514966],[-72.9442556369923,9.033672807331754],[-72.94830916604667,9.028912338202929],[-72.9504482802057,9.023109737985408],[-72.95332939815847,9.024311850506933],[-72.96413243605457,9.023151588396843],[-72.97125632471267,9.019680422117801],[-72.9756781153788,9.021852004207119],[-72.97621495723138,9.023983639532162],[-72.97972842849339,9.026975090855217],[-72.98172944030568,9.026834184974177],[-72.9820144649222,9.028423790982572],[-72.98506164548843,9.02700912613193],[-72.98830004540065,9.029658432112512],[-72.98917395723186,9.034255558858376],[-72.9937639825821,9.039945119873266],[-73.05460369858713,8.989141126971788],[-73.06494517867992,8.982345595327331],[-73.06664992705583,8.967658936336932],[-73.06453785065065,8.96045151757744],[-73.06777121942201,8.957986786175695],[-73.06964902896277,8.949645590786304],[-73.06826631267899,8.942524952006579],[-73.07001343802892,8.936612938874816],[-73.06987524620763,8.924491937492746],[-73.0743812190077,8.919456376445225],[-73.06603268259562,8.916418767593484],[-73.06606483170873,8.913416382898049],[-73.06209712412573,8.906689826836384],[-73.06307283016895,8.898209432780561],[-73.05408193575875,8.887347862106878],[-73.05466592655858,8.883690476769459],[-73.0518322619721,8.875884410875813],[-73.05817229951037,8.871851845593767],[-73.06045252729581,8.865748055700237],[-73.07420574717361,8.86232976987867],[-73.0792481165106,8.858728531332076],[-73.09060323469208,8.857768419562717],[-73.10812511738783,8.872787856841114],[-73.11488970216851,8.88130611403676],[-73.13143105851094,8.884470183265933],[-73.14898012499935,8.88569168912801],[-73.15022824901075,8.89042430494817],[-73.1357591899453,8.898102717471033],[-73.13452890015566,8.901055782177082],[-73.13901735549427,8.90819776525285],[-73.14749800768925,8.911810413340731],[-73.14967507651943,8.919078699442196],[-73.16042154184947,8.925181765312175],[-73.16183180393767,8.93245374557921],[-73.15994555808294,8.94049615373433],[-73.16041560465078,8.948820131967523],[-73.15491210020036,8.958928250225256],[-73.15356241131963,8.964989820496555],[-73.14510145688422,8.967410522217165],[-73.14618770507161,8.975076094635199],[-73.13833753133525,8.983810555130901],[-73.13697167842344,8.989832437805376],[-73.13352823998315,8.994865843237335],[-73.13478697340753,9.004745616402715],[-73.12950478361648,9.016513746815292],[-73.11917551319323,9.025551981463082],[-73.11989014807466,9.02912927581093],[-73.11724753725485,9.036719540525496],[-73.11136985250596,9.040772157351341],[-73.10587638565454,9.047326444148894],[-73.09731252423228,9.052086947216367],[-73.08236864559728,9.052313181944726],[-73.06870167090915,9.055310880027662],[-73.06457403228688,9.067408651978553],[-73.05194687777703,9.073095678911102],[-73.04546248084773,9.079760205490686],[-73.04083090641973,9.076594332373304],[-73.0327009634081,9.05866397287798],[-73.02515792271709,9.059177914401005],[-73.02102327114534,9.054562346652347],[-73.01442547917236,9.056455141629044],[-73.01218051873775,9.062542656419737],[-73.00819941980467,9.064459887190651],[-73.00937732176084,9.069003661423949],[-73.00355515336753,9.072978796418852],[-73.00271564705241,9.075435179952706],[-73.00448956950055,9.079858673719627],[-73.00163165732477,9.080188109569463],[-73.00094367350277,9.082909329393146],[-73.00127521868819,9.084566893854742],[-73.0045144794068,9.085985558318328],[-73.00616114546301,9.091928512143284],[-73.00367213150497,9.096606100117981],[-73.00644065351389,9.099222284078792],[-73.00462091086615,9.10286790814763],[-73.00697954916615,9.109887588839058],[-73.00499406580747,9.110010546341243],[-73.007177417393,9.111776386259692],[-73.00553455246029,9.112903778318469],[-73.00640057922271,9.116439816694708],[-73.00814857463496,9.117426931250805],[-73.0108354917869,9.11620202844307],[-73.01541424849245,9.120367053007726],[-73.01589584961204,9.123594604908249],[-73.01300142978374,9.123081009970406],[-73.01152271764676,9.125960384713096],[-73.01485566639349,9.128129597270856],[-73.01325979614171,9.129875257090191],[-73.00759117318802,9.130445014245538],[-73.0080067472694,9.13368027020897],[-73.01079180663407,9.135807226120505],[-73.00879153838571,9.136642035538728],[-73.00799694107002,9.139998006999633],[-73.00544892125089,9.142233480052028],[-73.0091580228488,9.144504437456646],[-73.00866825281031,9.146679360955716],[-73.00279671197706,9.145453983007542],[-73.0006766651423,9.142244163512942],[-72.99431250239945,9.144146128083094],[-72.99245673238187,9.146417471153654],[-72.98748922543268,9.147056780848118]]]}}]}