{"type":"FeatureCollection","features":[{"type":"Feature","properties":{"code":"547037"},"geometry":{"type":"Polygon","coordinates":[[[-73.17442286011516,8.61973506538942],[-73.16360164141219,8.613099710581878],[-73.16562264203327,8.607022493586157],[-73.16439224117181,8.603540075117564],[-73.16207944981085,8.603483706183113],[-73.1610745874222,8.599721588373313],[-73.15704722605932,8.600641967294393],[-73.15869005602497,8.591783912690573],[-73.16187909069623,8.58721023134882],[-73.16134759057417,8.585382767154726],[-73.15818612844674,8.584186383058011],[-73.15852524811135,8.577752563903346],[-73.16144921406476,8.57476033816306],[-73.15795138952717,8.57231330522859],[-73.16562028895675,8.564428964574859],[-73.17122541689781,8.553922333068613],[-73.17549266864887,8.553111917278557],[-73.18742124843567,8.55606203549678],[-73.1978297037906,8.554155762780852],[-73.20271139852446,8.550750624568423],[-73.20425880856482,8.542312393570512],[-73.22094122299774,8.529882627004838],[-73.22479630481212,8.5177449350291],[-73.21784719276098,8.506307729651155],[-73.21771391175281,8.50042756327042],[-73.22260040725632,8.493453265690448],[-73.2300529213515,8.490221716233862],[-73.23292660160797,8.487341737795418],[-73.23477622051087,8.474148463731353],[-73.23830960550538,8.47004254581509],[-73.25196715246096,8.469383539389526],[-73.24674161648295,8.461311404103412],[-73.24676890517674,8.449158339997439],[-73.2538545882237,8.45086174419896],[-73.2530411313291,8.452818491845221],[-73.25581125770839,8.456776317124138],[-73.25835795803573,8.455869688479538],[-73.26008327526205,8.460671740624718],[-73.2627124175986,8.458887169682725],[-73.26522665308102,8.45992533715389],[-73.26832791224024,8.458703388033086],[-73.2717753729192,8.453661192502864],[-73.26689321332935,8.443008830691724],[-73.26158880095232,8.438959912145151],[-73.26238887780977,8.436308089565728],[-73.26114472358654,8.433713016444472],[-73.26288425697373,8.432279151600426],[-73.26227186573374,8.428270515090503],[-73.26375977934589,8.426659815725998],[-73.26677249577494,8.427497839027069],[-73.26992668578526,8.421780413390536],[-73.27134142776907,8.42168835441538],[-73.27109735779055,8.418276247476399],[-73.27435449798236,8.41609833223805],[-73.271267705924,8.411581803503964],[-73.27224343870677,8.407956074655715],[-73.27570852071983,8.409412100379143],[-73.27681660274192,8.407910969223735],[-73.27582129252738,8.4051309224879],[-73.27896149057722,8.403467343694444],[-73.27543613566189,8.400924994707395],[-73.27395060803639,8.397141687896351],[-73.27433694658231,8.38808491968598],[-73.28058308114794,8.394689664958833],[-73.28541596394302,8.395505215762398],[-73.28791218111246,8.398551398739414],[-73.29052703838249,8.392894770510793],[-73.29274075576183,8.391406312852553],[-73.29382326350373,8.386412224778041],[-73.29745310200832,8.383281117131617],[-73.29767356306041,8.379729586297287],[-73.30122156222313,8.376621985761517],[-73.30669725244564,8.376538973995139],[-73.31226582028359,8.372489305713998],[-73.31881548937417,8.37973255849613],[-73.31929203261342,8.39958976470001],[-73.32427859968783,8.40492791821913],[-73.32446241630453,8.411971227377478],[-73.33620516167042,8.418122320484656],[-73.33755751318881,8.42254481666231],[-73.33458474249568,8.43099251961587],[-73.33106545539124,8.432592854336633],[-73.32975615241975,8.438224036840438],[-73.32713282386874,8.440145844180563],[-73.32828070558782,8.442288507494709],[-73.32575456176949,8.452579073512197],[-73.3191634485022,8.458305047562988],[-73.31964342262569,8.463007286276422],[-73.31809527004987,8.465839745528285],[-73.3138586586868,8.46836519000567],[-73.31464245015695,8.474959845228966],[-73.31263965605376,8.476904226882425],[-73.30678196217059,8.477146918747962],[-73.30796262755183,8.479922568891993],[-73.30679859105766,8.481886665788522],[-73.3019740581874,8.481994587461088],[-73.29968439649872,8.479806625367758],[-73.2998753114257,8.483632455191582],[-73.29381856763518,8.487931657566378],[-73.2874786679082,8.489098633349215],[-73.28430377226465,8.48684210910693],[-73.29108507849224,8.499612624390124],[-73.29005065866556,8.504177292461634],[-73.2944898012139,8.509472957935031],[-73.29233273867601,8.517868720427543],[-73.29768639390926,8.522941313633282],[-73.29592615488878,8.54213382509596],[-73.30132911365638,8.54714321639517],[-73.31332521069453,8.553807742974755],[-73.31327800929671,8.560937543120417],[-73.31610100790584,8.565808285969922],[-73.30957929085446,8.584988019034313],[-73.30286134285666,8.591472632964951],[-73.30479388507985,8.599276561755062],[-73.30009691919116,8.613439735275847],[-73.2992241026513,8.622642690419639],[-73.28766295040936,8.625448756751155],[-73.27847533962796,8.631307313497643],[-73.27438712943501,8.64101307727418],[-73.25985764320097,8.652888886646906],[-73.2506835440974,8.664512415984461],[-73.25044031949858,8.675601916259723],[-73.24196429323808,8.672312335905588],[-73.24067972019543,8.669194131099005],[-73.24255601278344,8.660136041339968],[-73.24184427913838,8.653787681644815],[-73.23549439323455,8.649692451303224],[-73.23363539287902,8.644927733678344],[-73.23731570014331,8.631328874795088],[-73.24408360782178,8.6223252678069],[-73.24283139266606,8.6077006948629],[-73.23984919321191,8.60373447235088],[-73.23949249849312,8.600153588738635],[-73.23234235678285,8.599768381479464],[-73.22990003617201,8.604113479130092],[-73.22121720040542,8.607170525545428],[-73.20911265204683,8.605338151566684],[-73.20354186688678,8.607581929292394],[-73.19303852228285,8.607081045904067],[-73.18717519150619,8.609919532857532],[-73.18008842550921,8.61042264385236],[-73.17442286011516,8.61973506538942]],[[-73.28316874607708,8.441560686951732],[-73.28530931136851,8.44160007938558],[-73.28752878699748,8.438579310251612],[-73.28990510422437,8.43952359531903],[-73.28770729993613,8.437877933022719],[-73.29061939252063,8.4380363347679],[-73.28755271371267,8.432977371510844],[-73.28525699552597,8.434432871700153],[-73.28657513590406,8.438173920836448],[-73.28316874607708,8.441560686951732]]]}}]}