{"type":"FeatureCollection","features":[{"type":"Feature","properties":{"code":"548018"},"geometry":{"type":"Polygon","coordinates":[[[-72.47234014636956,8.430680696872628],[-72.4761008603553,8.427558999475195],[-72.47773422145065,8.428004015809051],[-72.47819242858827,8.430309626584346],[-72.4816791387475,8.429732243527667],[-72.48520308778194,8.425328893864332],[-72.48637089146104,8.420032323361568],[-72.49522924739847,8.41821418097038],[-72.4955187004885,8.409334508504855],[-72.5000204505036,8.409153320587222],[-72.50433928276072,8.40533453148089],[-72.50230231556952,8.397325364644871],[-72.50739905352026,8.401806126205031],[-72.50952015965083,8.400219983991065],[-72.51322770212988,8.402873029388616],[-72.52129241823167,8.402766770707615],[-72.52207764849288,8.391711474373608],[-72.519606504752,8.388644991998149],[-72.51932331487694,8.379048873563875],[-72.5205059291568,8.369589768355752],[-72.52701442763652,8.365940241347573],[-72.52926571299258,8.359738040817888],[-72.52825038722978,8.350222582101935],[-72.53140140655182,8.341146091449332],[-72.53032593849889,8.3259001417631],[-72.53170754303636,8.311227097294761],[-72.5408250222655,8.31457542537089],[-72.54787479209972,8.322234811707176],[-72.54802665809268,8.338786764092902],[-72.55712106318549,8.338057015220215],[-72.56141703419388,8.344490205996465],[-72.57083933247276,8.351382009116719],[-72.56880233854207,8.35331606932101],[-72.56918349065234,8.35689741367554],[-72.57379157751012,8.366673573314017],[-72.58345829029571,8.368864326600317],[-72.58555075533053,8.372920518292347],[-72.58561660341968,8.365478421291414],[-72.58394476006214,8.362390991598772],[-72.58586018283114,8.361400567514636],[-72.58445696763107,8.359275670545003],[-72.58485084466065,8.352378284010342],[-72.58625250074186,8.351035643046146],[-72.58550210691408,8.347296401911763],[-72.58714567941524,8.347962439798835],[-72.59149931108186,8.345391466171122],[-72.58953879933597,8.343040764362058],[-72.59121144179335,8.339927545444823],[-72.5871813242045,8.340675026723375],[-72.58864531212987,8.336338507311837],[-72.58644167554411,8.33589181770202],[-72.58754628348731,8.333588834597379],[-72.58920695178847,8.333624446476449],[-72.58959447818546,8.328356258930285],[-72.59630720580901,8.331258045492348],[-72.60005324597688,8.330005474495522],[-72.60385693960393,8.326989363177745],[-72.60318886848603,8.322730675267564],[-72.61004054383602,8.31638140128706],[-72.61782314684206,8.316195448595238],[-72.62175957845966,8.311262210379198],[-72.6262991381355,8.313173632506789],[-72.63022859794125,8.308251552892102],[-72.63568398773691,8.307895173905194],[-72.63788942409707,8.312490491620622],[-72.63991866151429,8.309748832530317],[-72.64182586291378,8.312153353764813],[-72.64343548549891,8.311550154744054],[-72.64647261201111,8.309893435662218],[-72.64631237963823,8.305289709400768],[-72.64788424398478,8.304455862604755],[-72.64539698043586,8.302782582513032],[-72.65018753047997,8.29836388745889],[-72.6503412219584,8.296329513999751],[-72.65658160855878,8.295610664560854],[-72.6569024024061,8.29725128131821],[-72.6632194511688,8.299829621679692],[-72.6663781642693,8.303770637065611],[-72.66907895511082,8.303183628815418],[-72.67432804139412,8.299914210048428],[-72.67895238587118,8.287893685443521],[-72.68408624339776,8.286652986787146],[-72.68816881772574,8.287916941614242],[-72.69108326338676,8.286537328141492],[-72.69460772150023,8.272907067822814],[-72.69807190671139,8.27322755005207],[-72.70415281170199,8.278485691771664],[-72.70837164026551,8.279390596746623],[-72.7112028736139,8.275793621094294],[-72.71158424992467,8.268830120103871],[-72.72205147151362,8.26422751278784],[-72.72447775459182,8.25591726117699],[-72.72776644122939,8.251456155210235],[-72.73628123154532,8.26287561892633],[-72.74614624450362,8.266239716111613],[-72.74845846507895,8.271489179833338],[-72.74741988314543,8.278435939836413],[-72.74503251016148,8.281674244103442],[-72.74249953542795,8.293405737279727],[-72.74020256459829,8.297037514398482],[-72.73087160332801,8.299535895410997],[-72.72463797873712,8.29725938955903],[-72.72240221257863,8.29854552274901],[-72.72033473561169,8.296419884272325],[-72.71524634861419,8.298262323617962],[-72.71270496327776,8.300329258595696],[-72.71333064199507,8.30178785851075],[-72.71994525311698,8.304762998735441],[-72.71116399025914,8.305700104245602],[-72.70750952364159,8.309111127206165],[-72.70734122725094,8.310213348134312],[-72.71761847905157,8.312022666488645],[-72.71672644812008,8.319345993805257],[-72.72247864951197,8.323793839034181],[-72.72112787665276,8.3266445294866],[-72.71367431148934,8.327653919079182],[-72.7103708481896,8.334140660857429],[-72.70456406015421,8.33752158541921],[-72.692028570726,8.338302706024137],[-72.68986196835533,8.34720552358857],[-72.68655046572047,8.349400585020646],[-72.68433795676111,8.34977355895603],[-72.68137787910553,8.345988115041507],[-72.67814998267676,8.346047878864681],[-72.66960455300136,8.35718991815446],[-72.66391378459491,8.356231763511289],[-72.66277693292182,8.354679741934717],[-72.65894635580736,8.355114556118735],[-72.65630609703555,8.353296121649919],[-72.64952396394023,8.358893942506882],[-72.64000219778632,8.358187086764644],[-72.63775101733131,8.363814712914234],[-72.63467663240357,8.363142498201398],[-72.63253289128164,8.366988653134683],[-72.62987762959045,8.364347436882952],[-72.62172849686988,8.36245540912438],[-72.61961581059825,8.359768689433395],[-72.61762439106934,8.360468634041865],[-72.61591516999687,8.364283510952873],[-72.61097141081393,8.36444931851264],[-72.61605250821083,8.36973221484368],[-72.6117112487077,8.374402778555975],[-72.61035301449806,8.382591496029136],[-72.60713361300452,8.387572331593333],[-72.59811509257139,8.392566377501737],[-72.60124299456248,8.397709954838547],[-72.59745108894356,8.400998259923995],[-72.59745841351122,8.402653524788093],[-72.60319615705811,8.4053754768629],[-72.60166271429568,8.414487649328635],[-72.6033642385043,8.424183717977542],[-72.6115426417274,8.429728133871379],[-72.62053738765485,8.450906007336528],[-72.62186611276326,8.44429560974362],[-72.62417735014759,8.443764127104998],[-72.62209426142317,8.440956570560274],[-72.62535943992168,8.439917946460639],[-72.6301816114879,8.43367634321271],[-72.63224162710435,8.43416302895207],[-72.63453093603727,8.432187428926],[-72.6355457876881,8.428112333432011],[-72.63859727022941,8.427748432416536],[-72.64010030606039,8.422975727907044],[-72.63829291706418,8.421693446234258],[-72.64052824407776,8.420788714037656],[-72.6399177143187,8.41957751008431],[-72.64296930690335,8.414557338650582],[-72.65299483711311,8.415651488361846],[-72.65977720263652,8.411842365586722],[-72.6641342734149,8.415311024522907],[-72.67295333770596,8.42719302203426],[-72.67793553595652,8.427948681487749],[-72.68081948726842,8.424635972489796],[-72.69730790761753,8.437212606817809],[-72.70151886139666,8.431197151909146],[-72.70585297733805,8.43235583844529],[-72.70770724685804,8.429450569576886],[-72.71374233884819,8.432555173231151],[-72.72601068313298,8.425964007513358],[-72.74052187645998,8.42239130516134],[-72.74925751452236,8.418327306562162],[-72.75361470768541,8.419067473557561],[-72.7606181718952,8.42482773279653],[-72.76891963649325,8.425326731049722],[-72.78274435163803,8.432563659938808],[-72.79370860612653,8.424752311964426],[-72.80370310822548,8.423240322512925],[-72.8092196060187,8.427318150578628],[-72.82080816008306,8.421375807648587],[-72.82157968326243,8.418963558696987],[-72.82846084405946,8.419366362607661],[-72.83068147977161,8.41516771517172],[-72.83464131154187,8.414981435435152],[-72.83905126277773,8.417051919568053],[-72.83804400308952,8.419045379526892],[-72.84433802810952,8.419970345301579],[-72.85258543982565,8.43479881417403],[-72.86677696133603,8.439064609650472],[-72.88484389079878,8.436142661501265],[-72.8910923002793,8.437291653938246],[-72.89135230288935,8.441707299660322],[-72.88676686027901,8.453686973499941],[-72.89425847575876,8.458855710654518],[-72.89467827056825,8.464828952111588],[-72.89045857399924,8.482528577442565],[-72.8849580674588,8.490331206281269],[-72.88070858308066,8.501274393124788],[-72.88687296469362,8.505327379161486],[-72.89709641455238,8.522337753629245],[-72.90540525411166,8.523522341490263],[-72.91269174467419,8.520485481344679],[-72.91729191252455,8.52139197217798],[-72.91806296056342,8.517162476608632],[-72.92286234184343,8.517490946750911],[-72.92599023355012,8.5153804027251],[-72.92962934449247,8.51653588463438],[-72.93419182403824,8.514091633636895],[-72.93708352157921,8.514660642086142],[-72.93736637515354,8.512296378205576],[-72.94459822147974,8.51110736084263],[-72.94285884955798,8.510089811587079],[-72.94340842044357,8.506180481486751],[-72.93970090264713,8.506290522779352],[-72.93722123928842,8.499618499882274],[-72.93892242925324,8.495878688990729],[-72.94079909310904,8.49611809909618],[-72.94419513166207,8.477618595397246],[-72.94784871690439,8.475677712505217],[-72.9466204963411,8.47301976349371],[-72.95426600178871,8.466708219983843],[-72.96911370253622,8.465545035040122],[-72.97337837083967,8.483987652498058],[-72.98772018996817,8.487768495160765],[-72.99507739726675,8.493484362706909],[-72.99462025662405,8.51231824597886],[-73.00828640547286,8.534981525713306],[-73.01467514182133,8.539937358811471],[-73.017997069778,8.548847714859562],[-73.0176320395326,8.555622334153895],[-73.01583330282335,8.559062816850371],[-72.99651370569018,8.573360321419216],[-72.99225814630216,8.578297789619285],[-72.97342683927866,8.582949553402386],[-72.96733819628656,8.586418081726322],[-72.96051936630528,8.587975798817581],[-72.95483298420618,8.587034886013157],[-72.94890853823279,8.580243188402392],[-72.93790628485016,8.57455059553888],[-72.91803736057227,8.582871212821942],[-72.91195562048631,8.588778469407032],[-72.91062690463389,8.5974210591325],[-72.9056463868584,8.602129201106038],[-72.90980690684484,8.603056034532358],[-72.90586668541653,8.6102160091815],[-72.90859680538182,8.610738487805861],[-72.90738811699885,8.613156355138926],[-72.9081598705493,8.621358969955793],[-72.91253832778989,8.62237123610214],[-72.90948196940258,8.625625300222396],[-72.91298043157451,8.627037148168938],[-72.91405796885374,8.632573955645057],[-72.91277163717439,8.634006241829809],[-72.91494108216017,8.635620810195007],[-72.90866697807178,8.638052593383804],[-72.91329073427971,8.640395002860828],[-72.90761927796689,8.63931482556967],[-72.90592519865362,8.62901566794335],[-72.90374392760731,8.63384976327211],[-72.9038272643615,8.638477228043826],[-72.90040218464861,8.640509692713636],[-72.8881265908725,8.640296630277021],[-72.88645541908795,8.63734789222866],[-72.88589039791037,8.645985947551083],[-72.87776728067172,8.65474050587045],[-72.86767699972097,8.675524082701486],[-72.8604936166916,8.681186121566157],[-72.84423668024152,8.68285569515109],[-72.83665938521551,8.687232974825008],[-72.83068744885202,8.685199519765035],[-72.82326997893563,8.685400482575403],[-72.81572817340407,8.690026493129324],[-72.8041455123153,8.688645690777037],[-72.79977893564268,8.691856409130423],[-72.79653932319673,8.700789855769983],[-72.78571598898753,8.698941393864914],[-72.7820343653168,8.699958122423368],[-72.78028386770387,8.702943728079163],[-72.77954632426537,8.714344768275964],[-72.78419708326004,8.723555940675453],[-72.78361103763206,8.728896640618302],[-72.77627834326097,8.732952785001999],[-72.76441881104796,8.736515864217324],[-72.75490845649222,8.732469689555444],[-72.7506934249385,8.732560043372928],[-72.7412216071524,8.742768496482825],[-72.74176087407244,8.753136474397138],[-72.73996104618567,8.76041857762391],[-72.74508969876462,8.787333819254457],[-72.74059133232544,8.793824344672714],[-72.73423024256886,8.7980024088601],[-72.73147220861671,8.803863332052856],[-72.72511415790774,8.81098934444475],[-72.71801629090226,8.814157801009685],[-72.70954250047578,8.815514104832744],[-72.70652367612666,8.818637133034713],[-72.70461456696626,8.826758576997406],[-72.71090984462927,8.84332692481371],[-72.708721710786,8.849393131303827],[-72.69907341226366,8.803408965119615],[-72.67997164851198,8.75312216053419],[-72.6748562494717,8.704037229871574],[-72.66209782250189,8.64366823303584],[-72.65662651858673,8.622165655584865],[-72.65512585331578,8.62150249630838],[-72.65478987759997,8.614822589370988],[-72.65171501033268,8.612239576795105],[-72.64679063009208,8.611518445242325],[-72.64563473474891,8.60916061735503],[-72.6424616831028,8.60915892762398],[-72.64064606450955,8.605041681413411],[-72.63888824849971,8.605463311992764],[-72.63821279213602,8.611151899072638],[-72.63552264258925,8.611038971970345],[-72.63635424840896,8.603398566569183],[-72.63284461940816,8.602660002915684],[-72.63021447536858,8.606481428948598],[-72.62667324130075,8.603911196827937],[-72.6267023379965,8.60134426395092],[-72.62986730814129,8.59927388266226],[-72.62996966285453,8.597135448303789],[-72.61637430067583,8.595066031694216],[-72.61247878050165,8.588151188376287],[-72.58165822586716,8.554973391038345],[-72.51813327421371,8.477683211412227],[-72.47234014636956,8.430680696872628]],[[-72.73817084349241,8.650892577902255],[-72.74183331550654,8.652920132787528],[-72.74147669483563,8.65133698951189],[-72.74449866519046,8.651204012922676],[-72.74277140215094,8.646130316198082],[-72.7415778647831,8.646178181969788],[-72.74228116519953,8.643476777148067],[-72.74052401870574,8.639808596249509],[-72.74395866807623,8.634940443018309],[-72.73986819839507,8.631330862774462],[-72.72660376125094,8.632248008272256],[-72.72592232449404,8.63739343474873],[-72.72337299649598,8.636555020639491],[-72.72047463773282,8.638076893423658],[-72.72792524818095,8.63833608562095],[-72.72927803370209,8.639778117327012],[-72.7321830166635,8.637980495449483],[-72.73534527069165,8.648804777882674],[-72.7379821088636,8.648698798938028],[-72.73817084349241,8.650892577902255]]]}}]}