{"type":"FeatureCollection","features":[{"type":"Feature","properties":{"code":"730003"},"geometry":{"type":"Polygon","coordinates":[[[-75.14622947186064,4.454811348745466],[-75.1412357509401,4.458319305498719],[-75.13739174956538,4.4564632989393544],[-75.1329937580876,4.456845299514725],[-75.13078675952323,4.458584298111873],[-75.12452776222699,4.456257300874427],[-75.12765675745254,4.45419430483156],[-75.12845275550694,4.449065301553617],[-75.13700974693313,4.447120295635614],[-75.13586174900007,4.444069294405381],[-75.1398777471016,4.4444502973915405],[-75.13567074768395,4.43930229672344],[-75.13796575315996,4.437395291756445],[-75.15173873764604,4.438805293648727],[-75.15226874446961,4.440075290575578],[-75.16283924019939,4.442855950263095],[-75.1676266318965,4.442452194014663],[-75.1673905745136,4.443895229480631],[-75.1696006470927,4.444465356875298],[-75.19136766796845,4.43868020007136],[-75.19175324649535,4.444172164368297],[-75.1887305130362,4.450036478336017],[-75.18976566717083,4.452711320544381],[-75.1854207176159,4.452819295695974],[-75.18107072355048,4.4484832997616195],[-75.18308672182712,4.456310296517415],[-75.18165472566318,4.459641300479348],[-75.1792147262471,4.452819295695974],[-75.17173572975702,4.448430293834235],[-75.16568872943094,4.450863293670523],[-75.16913973000908,4.454557302874491],[-75.16717668623767,4.453933241897232],[-75.16635822699868,4.45635934499802],[-75.16539314579506,4.454478458357244],[-75.16064974058452,4.452714301999208],[-75.15881173896832,4.4564632989393544],[-75.15964173733238,4.4525553017004995],[-75.15295873786829,4.453560296758269],[-75.15242774271144,4.451127296921982],[-75.15051874050914,4.452661296071824],[-75.15147274641521,4.453771304366683],[-75.14945773852872,4.452767298670665],[-75.14715539820065,4.454563482785602],[-75.14854075141108,4.45780895118321],[-75.14622947186064,4.454811348745466]]]}}]}