{"type":"FeatureCollection","features":[{"type":"Feature","properties":{"code":"730568"},"geometry":{"type":"Polygon","coordinates":[[[-75.01193217320508,4.811053431448954],[-75.0158884126256,4.8014562969135],[-75.0251457651795,4.794958292661249],[-75.02896825050829,4.784962361027169],[-75.0289989340908,4.7740980073880905],[-75.03073162524998,4.769964068526974],[-75.02949103149473,4.7636675875862124],[-75.03228754153832,4.759768965629405],[-75.032017981612,4.753402208126033],[-75.03992122606763,4.748279242834144],[-75.04047905843203,4.745966591341414],[-75.04624779615114,4.7444310464424575],[-75.04990012155139,4.74038595164518],[-75.05637657581912,4.725414991033347],[-75.06434641707006,4.717964062796511],[-75.06386551220612,4.704820876968483],[-75.05071268472943,4.696398842911776],[-75.05011983492574,4.692098046451122],[-75.06501931364033,4.687747326305214],[-75.06639812595631,4.68534140124666],[-75.06940741252953,4.68648997202223],[-75.07337084693393,4.684465784257782],[-75.07823315552628,4.6764750409411135],[-75.07691295209258,4.66770644335287],[-75.07963602414128,4.668039384134772],[-75.08174668746642,4.6606995996809815],[-75.08541095719812,4.660314045836685],[-75.08929084710292,4.656321659746936],[-75.09355901211092,4.658032888339164],[-75.09662224563647,4.657211881648038],[-75.10122300072749,4.6630263480353165],[-75.10945193030312,4.664501690994541],[-75.11344835714345,4.667508943308462],[-75.11982019823819,4.667675277430817],[-75.12576727200383,4.663203287456895],[-75.13445474604617,4.664747157598015],[-75.13803775339221,4.66656645390168],[-75.13858298836419,4.669608112760045],[-75.1483750189276,4.671921453309324],[-75.15094706213557,4.674063187939851],[-75.15041191721315,4.676226058092652],[-75.1533263268787,4.67756426029888],[-75.15378698273787,4.681966765610923],[-75.15575286295376,4.683245367516349],[-75.1572897962501,4.683197238463322],[-75.15916322976796,4.679636527751086],[-75.16056241141644,4.685987699208056],[-75.16558926875496,4.689361420558441],[-75.16477091647397,4.693749493736618],[-75.17276265223768,4.695671335015334],[-75.1746651834797,4.69782077062348],[-75.1742260601215,4.699752944664226],[-75.18384938908792,4.705160909890026],[-75.18606543177583,4.711063678351934],[-75.19609600958148,4.713889466097214],[-75.19907973318743,4.712654480438971],[-75.20633242912879,4.716839643965102],[-75.20931101463594,4.713828564816538],[-75.21332309951367,4.714997729125116],[-75.21693634204132,4.731162886336392],[-75.22067688929769,4.736556368006177],[-75.2330037961849,4.7460247682778345],[-75.24027068874676,4.754593993027811],[-75.24647934481015,4.76571039324557],[-75.25349262447537,4.770262987401907],[-75.24432705630244,4.774489815191316],[-75.23935451718404,4.770488442570866],[-75.23039892406331,4.774452264698084],[-75.22131404954729,4.773556529316636],[-75.21671532048805,4.775871946291318],[-75.21314016221532,4.774480983955414],[-75.20901536620818,4.770053016463521],[-75.19471658739906,4.765519531797622],[-75.1886679333374,4.7573039226095375],[-75.17997013784594,4.754943372434923],[-75.17591645349677,4.748281793371632],[-75.17097602852442,4.745033588288436],[-75.16758362654417,4.74008535640894],[-75.16259317401392,4.741904868685538],[-75.1577133397326,4.740261865941534],[-75.15122287602088,4.740618356000255],[-75.14689596226242,4.736635483003795],[-75.14253042328829,4.736471555436992],[-75.1343657034929,4.743729128252767],[-75.12639117562941,4.7450070750402915],[-75.1251609814849,4.740880349675024],[-75.11892678816531,4.740547864493124],[-75.11816891550353,4.7384688586855646],[-75.11595286355964,4.739113018514956],[-75.11413785894666,4.733701513390031],[-75.1127319728813,4.73334477239132],[-75.10999096993731,4.7378018468634195],[-75.09913260389055,4.743789356931984],[-75.09649728164288,4.750116745655703],[-75.09133957453429,4.751441023778739],[-75.08800492062988,4.749490645276978],[-75.0846660439405,4.752000045022669],[-75.07274148947772,4.7489787554968075],[-75.07010835575574,4.7534706067526145],[-75.0670857919896,4.75349870483069],[-75.06485484202739,4.75564646202065],[-75.06072726408325,4.7546182025647],[-75.05994254084419,4.7569520769972655],[-75.04995534582929,4.761370117961974],[-75.0471367427835,4.764291198105639],[-75.04967681788418,4.76601289521426],[-75.04915874202226,4.76733429575512],[-75.04556172523223,4.769107019039325],[-75.04355583757393,4.772774589043024],[-75.04556706593422,4.776557439225542],[-75.04337066032781,4.781363404594515],[-75.04558404860552,4.782257684729814],[-75.04532471036936,4.784514536016786],[-75.04908707911909,4.785703861912509],[-75.03733570717736,4.796257479872111],[-75.03224578574367,4.797685845633964],[-75.02456493478354,4.805171834504733],[-75.01576525766245,4.810692140620574],[-75.01193217320508,4.811053431448954]],[[-75.0951872721314,4.715846755732684],[-75.09976692358197,4.7164725311236],[-75.10083871700971,4.714325517497571],[-75.1033470543743,4.714725283389043],[-75.09785888297336,4.71219772751914],[-75.09810452441207,4.710394584962103],[-75.09705684898978,4.713113988556358],[-75.09428874864233,4.712831219314296],[-75.09373736564095,4.7112912027472476],[-75.09207157261079,4.709310799894581],[-75.09347497704431,4.713073594419541],[-75.09178366115611,4.713380464183615],[-75.09577204866133,4.714838869722996],[-75.0951872721314,4.715846755732684]]]}}]}