{"type":"FeatureCollection","features":[{"type":"Feature","properties":{"code":"730501"},"geometry":{"type":"Polygon","coordinates":[[[-74.87932155524726,4.550520963706674],[-74.87767401604333,4.547408298091511],[-74.87090740523092,4.548553147962025],[-74.87515368806748,4.544012627720917],[-74.87353190003574,4.541539217292723],[-74.87487720672294,4.538874075354215],[-74.8770531494086,4.539859222499786],[-74.87993213745688,4.536736200468397],[-74.88288272875866,4.539441619301272],[-74.8814980111257,4.549099579012648],[-74.87870091281297,4.549184066593966],[-74.87932155524726,4.550520963706674]]]}}]}