{"type":"FeatureCollection","features":[{"type":"Feature","properties":{"code":"730587"},"geometry":{"type":"Polygon","coordinates":[[[-75.00787806822291,4.810852684611518],[-75.00271655073482,4.80696717735367],[-75.00068167848104,4.798923778808444],[-74.99405379839374,4.800439851176748],[-74.98408021687248,4.792129469982115],[-74.98136631338883,4.792748471022151],[-74.97931803332995,4.795337159572284],[-74.97612062199431,4.7936578651487025],[-74.97149280446689,4.79495352788706],[-74.96941273936352,4.792597984170584],[-74.96399756989786,4.794055103128414],[-74.95629238598781,4.782661376186354],[-74.95402101617776,4.783973678096231],[-74.94604716091561,4.781808058916624],[-74.94158242557523,4.791443450485303],[-74.93345773790492,4.789776069539869],[-74.93407647463522,4.788125114878369],[-74.9366699084191,4.788885943283958],[-74.93539123143739,4.783509760017353],[-74.93816985275186,4.775081909089749],[-74.92914500225504,4.7544488088258845],[-74.9291392614889,4.749774746352102],[-74.93203538750333,4.742060204643565],[-74.92852926857682,4.7260904515107995],[-74.93404536219214,4.719716766418628],[-74.93487714387555,4.720343525000601],[-74.93377087499766,4.716428726671381],[-74.93470980907864,4.709638285817391],[-74.93295638040456,4.709702655006197],[-74.93387569077385,4.70317647142889],[-74.933073151825,4.705557615136513],[-74.93104684649745,4.70489019296582],[-74.93879569807689,4.6692187948161745],[-74.93741993920668,4.657620310110815],[-74.94301903841767,4.661249229187774],[-74.944808004923,4.671032230025901],[-74.95513109749203,4.674232174415465],[-74.95823404535389,4.692793250968009],[-74.96141060398901,4.693535209510287],[-74.96146698115098,4.6958199429024035],[-74.97101108096263,4.7004700961445],[-74.97221144616032,4.7027262223795105],[-74.98243444144748,4.703007492152437],[-74.98611603735026,4.700498090349868],[-74.9888395577999,4.694964833057384],[-74.99185697832496,4.699359799885713],[-75.0059325038606,4.6940698288985345],[-75.01182788707678,4.695232909969604],[-75.01750735804217,4.68864451898969],[-75.01865327646448,4.691801406604782],[-75.02320960181027,4.694919235001407],[-75.02168273285236,4.6987669068874425],[-75.02527034967778,4.699392162914876],[-75.02721752458109,4.696479744314047],[-75.02808179373523,4.6999941473450235],[-75.02943924530013,4.700013206441781],[-75.03287234275086,4.6959278306363785],[-75.03487396545802,4.7028426492717585],[-75.03682667852428,4.700312784548373],[-75.03935727549873,4.699836886142634],[-75.03787274032027,4.696267966402161],[-75.04122296278751,4.695877381417063],[-75.04258518015502,4.699371855288916],[-75.0446036292102,4.700025733900134],[-75.05146406894738,4.696411921615265],[-75.0640762380213,4.705265893302283],[-75.06409445276677,4.718622767888462],[-75.05637657581912,4.725414991033347],[-75.04990012155139,4.74038595164518],[-75.04624779615114,4.7444310464424575],[-75.04047905843203,4.745966591341414],[-75.03992122606763,4.748279242834144],[-75.032017981612,4.753402208126033],[-75.03228754153832,4.759768965629405],[-75.02949103149473,4.7636675875862124],[-75.03073162524998,4.769964068526974],[-75.0289989340908,4.7740980073880905],[-75.02907030388786,4.784625981133445],[-75.0251457651795,4.794958292661249],[-75.0158884126256,4.8014562969135],[-75.01193217320508,4.811053431448954],[-75.01105355727782,4.809540115306618],[-75.00787806822291,4.810852684611518]]]}}]}