{"type":"FeatureCollection","features":[{"type":"Feature","properties":{"code":"730548"},"geometry":{"type":"Polygon","coordinates":[[[-75.27310089102531,4.713984729699234],[-75.26489340756154,4.71416094612573],[-75.26009777495455,4.707590538491729],[-75.25541356689536,4.705864753324079],[-75.25181699644935,4.693685970955983],[-75.25293030398785,4.68473140936311],[-75.24446338561432,4.671059353140436],[-75.23211025447137,4.663910796260097],[-75.20997471178782,4.6320118918768],[-75.18524940377489,4.60402626372786],[-75.17426053865694,4.5997576472335595],[-75.11877442132084,4.561850107543933],[-75.11565021760902,4.557267975490049],[-75.11754849315588,4.557270320339001],[-75.12282890785514,4.552584210689588],[-75.12304202788454,4.550016649434099],[-75.12786397627872,4.548058360152481],[-75.12584694133199,4.5453629285249235],[-75.12691698023684,4.542702601754343],[-75.13179686594032,4.541138629675686],[-75.14125534379849,4.542271355237347],[-75.14307613031536,4.540524213432377],[-75.15080389779473,4.542614421035864],[-75.15162704158939,4.539136690208238],[-75.1540406429429,4.5369111776216755],[-75.16064986091226,4.539243637945788],[-75.16166734948973,4.537732140089759],[-75.16598843712131,4.538020620273187],[-75.17157702976351,4.541623704874041],[-75.1833025682576,4.541736960049548],[-75.1863087530482,4.539394012697073],[-75.18902846517517,4.539730591080172],[-75.1914508298874,4.536365148692084],[-75.19756266837209,4.533091767336032],[-75.20455260547743,4.532203904682092],[-75.21773979630399,4.536348494093943],[-75.2199783875941,4.539804416797949],[-75.22021464449477,4.551082527260519],[-75.22789667610692,4.558329933921982],[-75.23713172791327,4.559503449570855],[-75.24873297398676,4.56346058579328],[-75.25446037860104,4.562477002908736],[-75.25848368070132,4.558670284632285],[-75.26310192651425,4.5584942934347055],[-75.27928726073935,4.570553196429046],[-75.28893242456888,4.5717818314546435],[-75.2919220072119,4.576856174041154],[-75.28572028079418,4.589472220343339],[-75.28545440989109,4.598140823493907],[-75.28184749948406,4.608483742377814],[-75.28295927772848,4.612262741043082],[-75.28962032303014,4.615436705946195],[-75.29078388746916,4.625132973084476],[-75.29655910437617,4.625246831955735],[-75.29843678639008,4.62138081471204],[-75.3006948090731,4.62458254242091],[-75.30319053464706,4.623862306641513],[-75.30458397758633,4.625313798990305],[-75.30584489028041,4.63547713329848],[-75.31055129110075,4.643707000813663],[-75.3157514091219,4.64789519824518],[-75.32198774674413,4.656868688322675],[-75.33571428779453,4.659762289510695],[-75.34151898192101,4.660187547406849],[-75.34484404559896,4.658082390362949],[-75.34867117640255,4.660857254776886],[-75.3555193447636,4.660323309018452],[-75.35369819829185,4.662891956309181],[-75.35855902181322,4.666730004030114],[-75.36507073520426,4.66975866748885],[-75.37026163323827,4.669890948850934],[-75.37028657811157,4.674289258117426],[-75.3721464238468,4.67197872830161],[-75.3739966186775,4.671787156199855],[-75.37355045563027,4.674163440516622],[-75.37689382249971,4.6802077946600775],[-75.37932896458176,4.6811310861303355],[-75.37891484677499,4.686828678252937],[-75.38424610047326,4.690310734709783],[-75.38731481456898,4.699066588866742],[-75.38329328756049,4.7037041179768835],[-75.38355204061287,4.707768003447427],[-75.37905932957909,4.708595712498436],[-75.37249619303367,4.704485367137124],[-75.36228563264507,4.70792449640328],[-75.35569545011828,4.701901847539148],[-75.35121707454476,4.700723421077271],[-75.3309923770326,4.70362825799981],[-75.32429234141819,4.701915133988052],[-75.31512946056557,4.706599399640027],[-75.31075572593306,4.70631954397561],[-75.29759177482208,4.711415282280257],[-75.2939559127297,4.7096055237524865],[-75.29135324661729,4.711512071062543],[-75.28700223439375,4.709442446707612],[-75.28056908681202,4.712312268247786],[-75.27726205687367,4.71569651879264],[-75.27310089102531,4.713984729699234]]]}}]}