{"type":"FeatureCollection","features":[{"type":"Feature","properties":{"code":"731020"},"geometry":{"type":"Polygon","coordinates":[[[-74.90707294429973,4.872306037300461],[-74.90345258083607,4.871611381971832],[-74.90500102446111,4.868561856556596],[-74.90386387968192,4.864263559211281],[-74.90618984333463,4.862568433972001],[-74.90638124882872,4.856922871784889],[-74.91143195574921,4.849883576637751],[-74.91623761669922,4.8509588626562845],[-74.91744501232995,4.855121785084464],[-74.92136703032565,4.8542236688585945],[-74.9194121698714,4.861429232307785],[-74.91692696629286,4.861279220596657],[-74.91593665842277,4.866937028448831],[-74.91305291382781,4.869838538359886],[-74.90673830247391,4.87374704673465],[-74.90707294429973,4.872306037300461]]]}}]}