{"type":"FeatureCollection","features":[{"type":"Feature","properties":{"code":"731060"},"geometry":{"type":"Polygon","coordinates":[[[-75.16842536252267,4.878868907479273],[-75.16454023784547,4.876893125418803],[-75.16431598903955,4.874851719469746],[-75.17182089816731,4.8697170823837155],[-75.17494237856334,4.869411223578652],[-75.17675255052495,4.872679891582607],[-75.174945113192,4.873620891804649],[-75.17615602712459,4.874486905197273],[-75.17392381937725,4.875098020140115],[-75.17215211116581,4.878598552566814],[-75.16842536252267,4.878868907479273]]]}}]}