{"type":"FeatureCollection","features":[{"type":"Feature","properties":{"code":"731027"},"geometry":{"type":"Polygon","coordinates":[[[-74.8118855158852,4.887797214991508],[-74.81334258342088,4.869636452490283],[-74.82215541843561,4.862778983923533],[-74.82746626577745,4.861859827820638],[-74.82871124686847,4.858660892333148],[-74.83607887948881,4.855044814389487],[-74.83835867635685,4.849727124819594],[-74.84726743934755,4.844478227769741],[-74.84572962570434,4.841194256541087],[-74.84064170253441,4.842278273008162],[-74.83228881786738,4.840243495371112],[-74.82800706404834,4.841309002958212],[-74.82458282354457,4.839829842420329],[-74.82544980675851,4.8382193590288125],[-74.83347258708812,4.835722744880513],[-74.83404729927958,4.838322886166509],[-74.83808666153823,4.837676940960932],[-74.84042071697667,4.835080333403425],[-74.851535122016,4.829507371030616],[-74.8574976203625,4.822273578891156],[-74.86107675048027,4.823272022770084],[-74.86206269158345,4.821324005572308],[-74.86423496272931,4.821728403568898],[-74.86389037175053,4.82042841520132],[-74.87062012626842,4.8187093889578705],[-74.86892457936773,4.816428213976849],[-74.86983700739967,4.8137873947039225],[-74.87372296100159,4.809764755949061],[-74.87245419923414,4.800927501595197],[-74.8732466244793,4.793408004010303],[-74.86716573594373,4.779525091360256],[-74.86990049418478,4.7743769220276135],[-74.87541285558217,4.774494340338379],[-74.87642569148568,4.771035660379994],[-74.87842707867947,4.770931055434517],[-74.87877346223354,4.774291506791087],[-74.88166456533475,4.775318946578352],[-74.882670186714,4.774899565202759],[-74.88127527104501,4.7718997649833454],[-74.88690398220143,4.770851627790364],[-74.88566717002931,4.774954829589944],[-74.88693312312023,4.7774874094015445],[-74.8914355889313,4.774373864467975],[-74.89294688932631,4.7761855945200296],[-74.89807057761328,4.773490603065852],[-74.90024477091816,4.774690606251795],[-74.90120117618068,4.777904508663198],[-74.9052897051908,4.7777713058166],[-74.90779041151188,4.77454648648785],[-74.9136598944317,4.782139259573796],[-74.91620149368418,4.782461680417157],[-74.92010849950447,4.787786642104152],[-74.9255635190608,4.79070560159937],[-74.92912299461358,4.789582802564894],[-74.94158242557523,4.791443450485303],[-74.94604716091561,4.781808058916624],[-74.95402101617776,4.783973678096231],[-74.95629238598781,4.782661376186354],[-74.96399756989786,4.794055103128414],[-74.96941273936352,4.792597984170584],[-74.97149280446689,4.79495352788706],[-74.97612062199431,4.7936578651487025],[-74.97931803332995,4.795337159572284],[-74.98136631338883,4.792748471022151],[-74.98408021687248,4.792129469982115],[-74.99405379839374,4.800439851176748],[-75.00068167848104,4.798923778808444],[-75.00389072150153,4.808351245010954],[-75.01220483388562,4.814786762124186],[-75.01587423760236,4.8150173831599545],[-75.01407232197727,4.81766855884905],[-75.01666963607477,4.823221763812626],[-75.01501125297295,4.830312280539431],[-75.01796984041533,4.832632514738862],[-75.01717824203797,4.8346420029744195],[-75.00581587127988,4.8347147179742365],[-75.00056437329891,4.839030885536829],[-74.9990885140615,4.846254519749436],[-74.99074155630865,4.848792467002568],[-74.98795557545958,4.847472135013504],[-74.98221093723396,4.8552083984565115],[-74.97859267076461,4.855051035438294],[-74.97533790010436,4.857113532686526],[-74.97165136356375,4.865475992153449],[-74.96639879805946,4.868897956713965],[-74.96720060681406,4.870690033229437],[-74.96547062148721,4.8734382321857765],[-74.96732123797932,4.87374831377582],[-74.9660746535464,4.875634628536204],[-74.96712952086716,4.877487408871389],[-74.9648409184743,4.88089867248749],[-74.96752891343402,4.88259501951643],[-74.96685941072406,4.8845992524106805],[-74.9685319678207,4.887006152432775],[-74.96773378741125,4.895699338444842],[-74.97373908233635,4.8972471279804495],[-74.97746614054068,4.896424974575893],[-74.97775350075017,4.899815318642709],[-74.98634321310351,4.897974437387461],[-74.98749130051112,4.905791291643084],[-74.99391146194915,4.914426575312916],[-74.99557677263977,4.915937108489857],[-75.0010689128004,4.915374604939586],[-75.00241525821451,4.9172376223915535],[-75.00476523600003,4.917166552899744],[-74.99984571412188,4.921948589496651],[-75.00186243950742,4.923723656601339],[-75.00110664429951,4.927659605879455],[-75.00261164651255,4.931367491858339],[-74.99949557469574,4.939808421489431],[-74.99294775885852,4.941925357285527],[-74.98608338121494,4.9487240873862675],[-74.98207687255257,4.947264200889606],[-74.97930829603615,4.950396462448566],[-74.98075905613388,4.950268472777111],[-74.9796520951142,4.953367956844545],[-74.98166874336653,4.9533703006650285],[-74.98151026860194,4.956177453031842],[-74.98459671716046,4.959316994935364],[-74.97903615266222,4.964989331595007],[-74.97102514388564,4.967477664724129],[-74.96227798315329,4.962635587652983],[-74.94579551645796,4.958648414738377],[-74.93909724770776,4.9589284174700765],[-74.92766816805414,4.9637614185360235],[-74.9254334437079,4.962475243179881],[-74.91731449577526,4.963163727853384],[-74.90719405369077,4.953455128660835],[-74.90524442595205,4.949364886265471],[-74.90554062562495,4.944671694760871],[-74.89787543064534,4.935241246075066],[-74.89598928866332,4.931819445036922],[-74.89726388272823,4.929543782507835],[-74.89457945749251,4.925296720111874],[-74.89203684008191,4.924590020692904],[-74.89073930660658,4.919540458428912],[-74.88706643806705,4.916037696338833],[-74.886631149771,4.908272731122054],[-74.88272715111663,4.906478628574746],[-74.87956150117134,4.9020110855863095],[-74.87871778235558,4.897056987470705],[-74.87534736230572,4.893754395261794],[-74.87437853962825,4.887775302995237],[-74.87007868213556,4.88797308586129],[-74.86827694648792,4.88661039541023],[-74.86394150282723,4.891583596845635],[-74.85834750777644,4.889915046561043],[-74.84808546355538,4.891174702498404],[-74.83823211724894,4.889167254692836],[-74.83788447488126,4.885164184113762],[-74.83622112954424,4.88455966868662],[-74.83273766823493,4.890324063292951],[-74.83048389404792,4.889788582069855],[-74.83024786134763,4.887308994815896],[-74.8259502530588,4.890090324019525],[-74.82469772525656,4.888025000611208],[-74.82108484371219,4.88842122248974],[-74.81849107054228,4.891248656771495],[-74.81487696617978,4.890550151982495],[-74.8118855158852,4.887797214991508]],[[-74.90707294429973,4.872306037300461],[-74.90673830247391,4.87374704673465],[-74.91305291382781,4.869838538359886],[-74.91593665842277,4.866937028448831],[-74.91692696629286,4.861279220596657],[-74.9194121698714,4.861429232307785],[-74.92136703032565,4.8542236688585945],[-74.91744501232995,4.855121785084464],[-74.91623761669922,4.8509588626562845],[-74.91143195574921,4.849883576637751],[-74.90638124882872,4.856922871784889],[-74.90618984333463,4.862568433972001],[-74.90386387968192,4.864263559211281],[-74.90500102446111,4.868561856556596],[-74.90345258083607,4.871611381971832],[-74.90707294429973,4.872306037300461]]]}}]}