{"type":"FeatureCollection","features":[{"type":"Feature","properties":{"code":"731047"},"geometry":{"type":"Polygon","coordinates":[[[-75.01595390693052,4.996866320896686],[-75.01059511565535,4.995743150594421],[-75.0061783756704,4.986070691900466],[-75.00264292350641,4.98478663513589],[-74.99845734551803,4.979128343915761],[-74.99377518405942,4.979848597178659],[-74.9858989372483,4.975444789858443],[-74.98145056545684,4.9757068956334365],[-74.97986083809224,4.971038364123501],[-74.97276416819386,4.96673558585411],[-74.98142628392901,4.9632285567560075],[-74.9921312012097,4.951460461310489],[-74.99430978390728,4.9503831554308135],[-74.99695141564979,4.952932149185017],[-74.99983349725323,4.95166851626044],[-75.003779444021,4.940659067893932],[-75.00672734800247,4.938968676575598],[-75.01265446998326,4.939487648210957],[-75.01191284774171,4.935359954052785],[-75.01508232246476,4.932171650604118],[-75.02287910255086,4.932854612541291],[-75.02539317348248,4.929237716985824],[-75.02215083772074,4.927839134919282],[-75.0242092643935,4.925553162253891],[-75.0276717824994,4.9244931784315895],[-75.03201182535508,4.925998691780535],[-75.03633506860217,4.922826186237387],[-75.04154039465624,4.922267155737529],[-75.0389450366564,4.913449494242059],[-75.03965099251144,4.910275957171052],[-75.0427791228168,4.911454796038413],[-75.04301487578067,4.916009660995769],[-75.04592259131385,4.916662684971243],[-75.04660785387694,4.919914219122859],[-75.05300706079862,4.921960523543646],[-75.05437909259314,4.925766816044927],[-75.0566422945127,4.92558958248884],[-75.05955612722198,4.927867239167995],[-75.05838908150497,4.929131871738662],[-75.0594708631665,4.930015643248282],[-75.06627372657772,4.9298995485430055],[-75.07099791328295,4.925055016579563],[-75.07561669594287,4.924980165504621],[-75.08063588727083,4.921122155714386],[-75.07915160508918,4.917851610802813],[-75.08253560058034,4.916176860038263],[-75.07982815160193,4.913159815923109],[-75.07702742494399,4.91606165390732],[-75.07613713310883,4.91455529312168],[-75.07963025869248,4.91147024427346],[-75.07824847520607,4.907095580957332],[-75.07951581669437,4.904588013896216],[-75.08429908845073,4.901874569097913],[-75.08800498850712,4.908140526893135],[-75.09156051586905,4.9084019024739405],[-75.09168793064111,4.90245739981458],[-75.09901890031415,4.9005333988065445],[-75.10029413921251,4.8980840230800595],[-75.09988289281722,4.8917713236007785],[-75.1019388615124,4.889621947642297],[-75.10332312457376,4.88987219547505],[-75.10273504160114,4.89253432510543],[-75.10721917131053,4.894412627270185],[-75.10933170434424,4.898325516810075],[-75.10763500353102,4.900713967601803],[-75.11072122686062,4.903963603248485],[-75.11300106692323,4.910013969666977],[-75.10443842934762,4.909701114367408],[-75.10425678274464,4.915094698881489],[-75.10045076380902,4.918695129072205],[-75.09903944242501,4.9231666521332045],[-75.10400726819137,4.924724920469657],[-75.10590934280492,4.928013122710809],[-75.10188307673332,4.9349994242718935],[-75.09467803676137,4.93620621620687],[-75.09315998155586,4.938701761803372],[-75.08276767377691,4.942274860105783],[-75.0743550150022,4.948387809308372],[-75.07105486945807,4.952158615400549],[-75.06980462376976,4.960158937630865],[-75.06694030336865,4.964902768616639],[-75.0607677950029,4.970783418365329],[-75.0584456386444,4.980259173029424],[-75.05372769149994,4.984505616303011],[-75.04587310677363,4.996349933737349],[-75.03805184975556,4.996369907119515],[-75.03483350241555,4.998552526453977],[-75.03217263159883,4.996981463264149],[-75.02826199023428,4.998570535510908],[-75.02279040966806,4.9977607049046355],[-75.01915231688383,4.9956863013773045],[-75.01595390693052,4.996866320896686]]]}}]}