{"type":"FeatureCollection","features":[{"type":"Feature","properties":{"code":"731501"},"geometry":{"type":"Polygon","coordinates":[[[-75.11419058308081,5.03551088877515],[-75.1126020343113,5.033372353629261],[-75.1147446194638,5.031257721544364],[-75.11430213001324,5.027235552787772],[-75.11570441550128,5.028493952996769],[-75.11452114610358,5.025337536408415],[-75.11833952074761,5.026071187191974],[-75.11944554588462,5.028859344225509],[-75.12276940628482,5.0293569983043085],[-75.12342568630925,5.028195239810316],[-75.12296628823526,5.029841496546453],[-75.11925152197591,5.031209874284627],[-75.11920414265751,5.033000142798187],[-75.12153422008032,5.033644532998721],[-75.12174546834433,5.034293541934574],[-75.11758120174176,5.034720023677323],[-75.11638942506755,5.031917991925809],[-75.11419058308081,5.03551088877515]]]}}]}