{"type":"FeatureCollection","features":[{"type":"Feature","properties":{"code":"731527"},"geometry":{"type":"Polygon","coordinates":[[[-75.04331136238903,5.1220651264004005],[-75.04221054322807,5.119336186058661],[-75.04310890010947,5.111811010442636],[-75.04733017533772,5.106926687009718],[-75.04378125366208,5.105381343110423],[-75.04513872271048,5.101093497826355],[-75.04777522561017,5.1004058143096245],[-75.04904458181738,5.097850799024457],[-75.05027331968728,5.09866940944454],[-75.04999831724308,5.097210678917293],[-75.05335895783304,5.094242286303938],[-75.05495199369727,5.095197097480536],[-75.05640066914202,5.090886556526982],[-75.06012280830578,5.087050635625133],[-75.06215852388237,5.080026681755044],[-75.06538195584216,5.076601864295014],[-75.0635132017378,5.073618616857914],[-75.05814383807353,5.071118858760883],[-75.05741311629424,5.069023437982253],[-75.05200402081016,5.0700793224327185],[-75.05013757658764,5.06862299537562],[-75.04830773257754,5.061080404113966],[-75.04644089137622,5.059305389459837],[-75.04743445118163,5.054744640782815],[-75.04534148632371,5.054017615225916],[-75.04783170664484,5.046719559827295],[-75.05380612875399,5.046607785609012],[-75.06372070441415,5.036331715488814],[-75.0660572054889,5.031563793237069],[-75.06978720195349,5.037155478405907],[-75.09160667751149,5.0337674452494525],[-75.09551285543552,5.043851773574886],[-75.09137060161669,5.0458066679677245],[-75.09195161301852,5.048027794246991],[-75.10387315208783,5.059943991585897],[-75.10430194371247,5.063801726781946],[-75.1103213437267,5.066814287916145],[-75.1126442138243,5.067461611234705],[-75.11863723943014,5.064134910276323],[-75.12148306226408,5.0595202660690575],[-75.1215366914277,5.053233006143955],[-75.12499873233622,5.051297100913757],[-75.13513505151633,5.054208996037346],[-75.14178917437135,5.051283051360542],[-75.15072279790303,5.061535732640948],[-75.15058074016633,5.063471456865273],[-75.14761373389354,5.063780358831764],[-75.14644458706852,5.065643668361417],[-75.14956064243023,5.069205383862027],[-75.14796229774572,5.070834357621607],[-75.1491269893578,5.073482691723996],[-75.14711038532846,5.0746783692807185],[-75.14572908212472,5.08014841541069],[-75.14721634987495,5.083970496561506],[-75.14278464296603,5.087449770052899],[-75.13838985920046,5.085271192497544],[-75.13348723257604,5.08752492348998],[-75.13275569215648,5.0916885709701205],[-75.12909834178606,5.093162612949584],[-75.12647966693748,5.093276548954009],[-75.12479061773661,5.0915331290825065],[-75.12099487705552,5.092502218126583],[-75.12105057544545,5.095215640299159],[-75.11270824362708,5.103065882941166],[-75.11355273788848,5.109580061508893],[-75.11202907252903,5.111489054455262],[-75.10584316047198,5.112199751430296],[-75.10624845424195,5.115800983806196],[-75.1045707868144,5.117991702125494],[-75.09551927497375,5.118168857520004],[-75.090416480525,5.120698454848309],[-75.08630824552773,5.119137308929737],[-75.08459507934981,5.120657820055953],[-75.07944289394914,5.120827494559592],[-75.0763873891691,5.123530112943456],[-75.06788918454572,5.122991754138184],[-75.0626434520135,5.11729787572159],[-75.06057748171486,5.117030952721791],[-75.04907667950835,5.119579034247522],[-75.04709029112024,5.122033444200156],[-75.04331136238903,5.1220651264004005]],[[-75.11688080770386,5.081682138937936],[-75.12244613183412,5.080107900946075],[-75.12215977127079,5.076179856277236],[-75.12039746405242,5.075077342242992],[-75.11839225722309,5.0771103458166635],[-75.11935189899418,5.08026888305352],[-75.11688080770386,5.081682138937936]]]}}]}