{"type":"FeatureCollection","features":[{"type":"Feature","properties":{"code":"731507"},"geometry":{"type":"Polygon","coordinates":[[[-75.06978720195349,5.037155478405907],[-75.06450376157636,5.0293887730643405],[-75.04961595979813,5.028166676876253],[-75.04852235310454,5.022571009577973],[-75.04339562268461,5.015736816722324],[-75.03409389592133,5.016994283105532],[-75.02509340202869,5.011876082587833],[-75.0206200246858,5.0144865874891025],[-75.01906248962894,5.012952859848042],[-75.0131979020955,5.013624136621331],[-75.00884434653358,5.008933132613947],[-75.01240801093275,5.00499093040537],[-75.01552768435528,4.997125764033967],[-75.01915231688383,4.9956863013773045],[-75.02826199023428,4.998570535510908],[-75.03172470271579,4.996997343445116],[-75.03483350241555,4.998552526453977],[-75.03805184975556,4.996369907119515],[-75.04628389036975,4.995949258702694],[-75.05372769149994,4.984505616303011],[-75.0584456386444,4.980259173029424],[-75.0607677950029,4.970783418365329],[-75.06980462376976,4.960158937630865],[-75.06943591581393,4.956979114719218],[-75.07266518212816,4.950245044856501],[-75.08276767377691,4.942274860105783],[-75.08903572033887,4.940999531732871],[-75.09467803676137,4.93620621620687],[-75.10152295010187,4.935302301622073],[-75.10266891891786,4.931965890109382],[-75.10572557863878,4.9301562621938615],[-75.10411785250164,4.924829860687396],[-75.09904582699619,4.923294926683241],[-75.10045076380902,4.918695129072205],[-75.10425678274464,4.915094698881489],[-75.10407876860063,4.911972549997813],[-75.11742242461509,4.923115037688547],[-75.11814541456351,4.959836556896732],[-75.12150563863429,4.979861748901612],[-75.11985440526485,4.98821040049927],[-75.1105524573864,5.000243417595414],[-75.10307361207737,5.006629272247892],[-75.10101523579829,5.022322464846013],[-75.104543482694,5.031072016707242],[-75.11681188560004,5.04514543187878],[-75.11265539505138,5.052000292315313],[-75.1124745969135,5.05731364905688],[-75.11525085075328,5.057878462489043],[-75.11978382222634,5.0525581349641016],[-75.12362999464318,5.051666436219534],[-75.1215366914277,5.053233006143955],[-75.12140346287003,5.0598006729786675],[-75.11608404243134,5.066058017567798],[-75.1126442138243,5.067461611234705],[-75.10767816314973,5.065610356079787],[-75.10430194371247,5.063801726781946],[-75.10387315208783,5.059943991585897],[-75.10127567343955,5.058757964933761],[-75.09179111427903,5.047719495976253],[-75.09137060161669,5.0458066679677245],[-75.09551285543552,5.043851773574886],[-75.09160667751149,5.0337674452494525],[-75.06978720195349,5.037155478405907]]]}}]}