{"type":"FeatureCollection","features":[{"type":"Feature","properties":{"code":"731567"},"geometry":{"type":"Polygon","coordinates":[[[-75.00021356127132,5.2916302191666205],[-75.00241462058017,5.285622088825562],[-74.9966854583576,5.281978826060765],[-74.99564037049669,5.278981886968438],[-74.9975828834701,5.273110914863821],[-75.00625858698777,5.266038724982707],[-75.00623994235337,5.2621948789028465],[-75.00855147181534,5.257400434146973],[-75.00782575649419,5.250406602329804],[-75.01002083540976,5.239319287494823],[-75.00653455102571,5.233005388851609],[-75.01601744513778,5.231021585967994],[-75.0233133284658,5.223342187168782],[-75.03186651054091,5.206489205544074],[-75.04232350221213,5.197174489551742],[-75.04576545249608,5.172414832587151],[-75.05318134581006,5.1596862109099675],[-75.05698197776377,5.161287001230733],[-75.06940389114237,5.156871313342549],[-75.07824207829361,5.158973278100916],[-75.08427501672514,5.157072965209409],[-75.08877652094242,5.159811119367646],[-75.09330969501866,5.159394768812149],[-75.09753502642423,5.161041523314395],[-75.10411656077787,5.151895622047789],[-75.11906173422193,5.140558263011712],[-75.12689526878682,5.139841373784293],[-75.13205148156845,5.136957721749184],[-75.13979825055173,5.137445827767635],[-75.13909790999293,5.153950973677468],[-75.13763842150354,5.157524779548282],[-75.13498663389112,5.157879520226288],[-75.13036465688873,5.155630217707312],[-75.12520464915423,5.160063363407289],[-75.11976017627592,5.159113893961148],[-75.11276531910158,5.163113734202284],[-75.11286121211043,5.165606764228357],[-75.11597388801005,5.166486627656411],[-75.11478207122661,5.169425922545599],[-75.11568785449145,5.173606140291611],[-75.11311184046696,5.178333384556424],[-75.11413635022149,5.1810091091684285],[-75.10622013093496,5.185643338006571],[-75.10706951132676,5.192945235666457],[-75.10349806675993,5.202288665773892],[-75.10123746782841,5.20385536116828],[-75.09668721543568,5.213470478021179],[-75.09181553258975,5.216041606943747],[-75.09082287781382,5.220959534735982],[-75.08508047953603,5.222986143454079],[-75.08396318781121,5.227896369240341],[-75.08040492684904,5.231641874618106],[-75.07545350679777,5.243451269229865],[-75.07273767189906,5.245309098189352],[-75.07210347973455,5.247788608310088],[-75.06663227866363,5.247545252070665],[-75.06329320451329,5.251728864705456],[-75.06378760151466,5.2542586080725755],[-75.06160755945717,5.256321260615664],[-75.06415573354269,5.260718268902451],[-75.0573950383316,5.275203379898642],[-75.04549896966972,5.277350154926012],[-75.03679958831992,5.276420996191177],[-75.03120574033642,5.278756677597244],[-75.02960504463232,5.282693367353943],[-75.03074673924124,5.2846118404834215],[-75.02810844376626,5.288676716344071],[-75.02356807470613,5.2865543513999],[-75.02152075109882,5.288573766162642],[-75.01565368193354,5.289282248900918],[-75.01035477583781,5.293330720074948],[-75.00848323773954,5.291545545437202],[-75.00021356127132,5.2916302191666205]]]}}]}