{"type":"FeatureCollection","features":[{"type":"Feature","properties":{"code":"731508"},"geometry":{"type":"Polygon","coordinates":[[[-75.10407876860063,4.911972549997813],[-75.10561594975161,4.908953943678455],[-75.11296473924813,4.910217475815671],[-75.11110255894835,4.904639447335001],[-75.10763500353102,4.900713967601803],[-75.11009566127194,4.896475339462938],[-75.12038507954759,4.89435104516059],[-75.12381462681475,4.897368405007569],[-75.12500316903726,4.896129558576149],[-75.12690683876514,4.896818258194116],[-75.12934117249137,4.899292391617394],[-75.12881616904065,4.904766152481784],[-75.13616288931087,4.908691597247923],[-75.15708645568066,4.909353223116625],[-75.16502753345122,4.916987699546667],[-75.17360445815035,4.917113811282093],[-75.1768700943058,4.919612916318158],[-75.18769264895559,4.912522983746669],[-75.19876528174512,4.918039481539893],[-75.21018763229938,4.913024912032597],[-75.21401923477106,4.913330332721159],[-75.21527587325801,4.910831108385764],[-75.2259654420626,4.912033412197616],[-75.23384412011183,4.907582860107993],[-75.23656699367115,4.901710431728816],[-75.24218995789079,4.896092878145282],[-75.25063512676195,4.892002298420778],[-75.26174562063437,4.890586504340206],[-75.28070658854836,4.89145182456258],[-75.28333121807918,4.88952193572112],[-75.29317759257373,4.889827399604258],[-75.30136493913295,4.887067466118822],[-75.3196263779293,4.886974045485772],[-75.31692871560989,4.901198154225824],[-75.31488251300487,4.9048516541074605],[-75.3004153411315,4.913273342607454],[-75.29955205413995,4.9196753746607556],[-75.29108735103165,4.926284532980446],[-75.28638627548668,4.928071336671167],[-75.2813585388298,4.933704526694726],[-75.27548698976898,4.933806667491922],[-75.2694833578355,4.940099857416612],[-75.26549002352175,4.947750670656035],[-75.25709391650093,4.951190533201668],[-75.25204289076328,4.961110269586413],[-75.2429514496418,4.972701830816732],[-75.23504494913709,4.975100336690957],[-75.22633730528008,4.972046046501532],[-75.2213631288812,4.973293344673607],[-75.21644729499792,4.975384138489289],[-75.21331408624343,4.981704849535788],[-75.20540545789117,4.98236600232093],[-75.20132702715813,4.9869280766603765],[-75.19614662437999,4.987951216529439],[-75.19619443770114,4.989911969959337],[-75.18748341541044,4.994670570408118],[-75.18198105561657,4.994277502762827],[-75.17848465444342,4.99863168670305],[-75.17312356151393,4.997138085803783],[-75.16750165659005,4.99844707818562],[-75.16446193737431,5.00196869265551],[-75.16485735706766,5.0036209081875995],[-75.16205434109668,5.005168793368341],[-75.16408755035889,5.008698920256961],[-75.1617885915498,5.011840685653226],[-75.15516600074238,5.011866827633639],[-75.14858601110944,5.0162666620803975],[-75.1481326715903,5.021994023500099],[-75.14510842632063,5.0292970761009315],[-75.14287094574848,5.030802782797139],[-75.14365514345343,5.0369338531568815],[-75.14657732505907,5.0406677103947],[-75.14285080061643,5.040989089425864],[-75.14277587960737,5.044105124218731],[-75.14040247390125,5.046631542631189],[-75.14179128987763,5.051321787647964],[-75.13542076827468,5.054208486958316],[-75.12719450853581,5.051458513938655],[-75.1215484084733,5.051606540755699],[-75.11392665284876,5.0581335861677985],[-75.1124745969135,5.05731364905688],[-75.11221647532483,5.0536455154666555],[-75.11681188560004,5.04514543187878],[-75.10400288908312,5.030232563871039],[-75.10092401397532,5.018727443234468],[-75.10307361207737,5.006629272247892],[-75.1105524573864,5.000243417595414],[-75.11985440526485,4.98821040049927],[-75.12150563863429,4.979861748901612],[-75.11814541456351,4.959836556896732],[-75.11742242461509,4.923115037688547],[-75.10407876860063,4.911972549997813]],[[-75.1126020343113,5.033372353629261],[-75.11484485250014,5.035165138741661],[-75.11456797520526,5.033588998131165],[-75.11638942506755,5.031917991925809],[-75.11758120174176,5.034720023677323],[-75.12174546834433,5.034293541934574],[-75.11920414265751,5.033000142798187],[-75.11925152197591,5.031209874284627],[-75.12296628823526,5.029841496546453],[-75.12342568630925,5.028195239810316],[-75.12276940628482,5.0293569983043085],[-75.11944554588462,5.028859344225509],[-75.11833952074761,5.026071187191974],[-75.11452114610358,5.025337536408415],[-75.11570441550128,5.028493952996769],[-75.11430213001324,5.027235552787772],[-75.1147446194638,5.031257721544364],[-75.1126020343113,5.033372353629261]]]}}]}