{"type":"FeatureCollection","features":[{"type":"Feature","properties":{"code":"732040"},"geometry":{"type":"Polygon","coordinates":[[[-74.7306430131477,5.222737178089176],[-74.72788541628364,5.214393451702733],[-74.73267131262531,5.2098831450459215],[-74.73344854571752,5.204815238452738],[-74.730691189509,5.202418481959228],[-74.72244075417188,5.201437924752611],[-74.72206446968005,5.2001626498587825],[-74.72653312647174,5.19816703634126],[-74.72566733830803,5.199856917552154],[-74.73190779278565,5.201531099587953],[-74.74187729550385,5.1935091944629335],[-74.74674234386714,5.192693580924356],[-74.74622160125375,5.187920906239697],[-74.74977572787697,5.186386782648299],[-74.75310746408996,5.187695565227841],[-74.75366258342297,5.191746985975044],[-74.75156387574208,5.1943896245628025],[-74.7550955998019,5.198211932999413],[-74.75914787621326,5.195911937520293],[-74.76175195437725,5.198275976171942],[-74.76363039949547,5.196310585494757],[-74.76121752319392,5.204053404230365],[-74.76628466976808,5.2090957303727805],[-74.76246728757116,5.210277725530204],[-74.76533862503555,5.212173387804626],[-74.76728066286847,5.217395571060024],[-74.77514855255566,5.217370993340751],[-74.7766330887626,5.219535024605079],[-74.77997759206102,5.216950888970018],[-74.78292130822456,5.219469304042832],[-74.78481075356399,5.217258545492598],[-74.78908753280655,5.216643432993749],[-74.79155810164804,5.219449346087288],[-74.79037955177301,5.219966722608319],[-74.7973608952127,5.222911872420752],[-74.79359676371246,5.225141420615728],[-74.79072949579512,5.232549110043749],[-74.77849751415243,5.221784429968295],[-74.77656319889434,5.2226660530614595],[-74.77567251727947,5.227337347996411],[-74.7696495825083,5.223195772949566],[-74.76766737473906,5.226620424830344],[-74.7640593834389,5.226111266593534],[-74.76272486717062,5.21960457200197],[-74.76009489590933,5.221109571129716],[-74.75609827777868,5.218099392896818],[-74.75735024610816,5.208605809153255],[-74.7563916060401,5.205099636747775],[-74.75102866911311,5.20537435842715],[-74.74894786250269,5.203100205651651],[-74.74233737029306,5.205970197913189],[-74.73777843476017,5.212388235617425],[-74.7355985767939,5.218424037232921],[-74.73575841321639,5.2267435026603835],[-74.72953516561051,5.234396545563186],[-74.7306430131477,5.222737178089176]]]}}]}