{"type":"FeatureCollection","features":[{"type":"Feature","properties":{"code":"732067"},"geometry":{"type":"Polygon","coordinates":[[[-74.76421287745637,5.045588851041373],[-74.76732620847389,5.0495668348220875],[-74.78104682466693,5.056653451694842],[-74.78415157950224,5.054213672365449],[-74.7865308391032,5.040825293499665],[-74.78934890838735,5.037836546980429],[-74.79581803603054,5.038131724381515],[-74.80793641179883,5.044099067720708],[-74.8229702400734,5.0412309050583985],[-74.83336268360682,5.04540943615865],[-74.8537701260986,5.042625803243823],[-74.85900565339568,5.038216337432857],[-74.86124015456988,5.029981923173295],[-74.86926595749202,5.024616392514247],[-74.87204116232044,5.018594553034404],[-74.87935986987333,5.01512178649881],[-74.8866947424857,5.01611499149152],[-74.89507298648834,5.026999774112824],[-74.89365984373268,5.030789091141855],[-74.89425270073542,5.035315623536292],[-74.89216515576965,5.039294472237145],[-74.89496837125847,5.048865395886594],[-74.89252206131914,5.051192282052284],[-74.89213257779596,5.057498481774758],[-74.89584097285388,5.05848958668787],[-74.893923965255,5.060948010651657],[-74.89862915148467,5.0649251469957335],[-74.89340156376386,5.066392027929908],[-74.89049262541249,5.069316269505919],[-74.88849577776398,5.066087339492412],[-74.88693252148136,5.066160511120756],[-74.88345640016627,5.071653382503996],[-74.88857435077239,5.072145436713299],[-74.88815563274221,5.078061749763208],[-74.89205076519357,5.080456404120184],[-74.88961895526529,5.08684768380698],[-74.89246465777148,5.086028048029675],[-74.89287510506693,5.089289489168095],[-74.89517758937694,5.08765559225418],[-74.89680564987958,5.088877602053117],[-74.89653901278683,5.0924111330865],[-74.89030565456261,5.0937787096679585],[-74.89139597024013,5.098534577544967],[-74.8943795364944,5.099753742671908],[-74.8954580651922,5.095130768080253],[-74.8989808942527,5.094038972473982],[-74.90359503040935,5.0979754359732965],[-74.90238123992305,5.103005481483592],[-74.90482907607111,5.10925490809376],[-74.9029353842925,5.112383620497553],[-74.90334870917013,5.117411614265052],[-74.90145670712263,5.122306887525497],[-74.90444271181411,5.124885694799843],[-74.90269979279412,5.128690138161517],[-74.90459974778759,5.134820415592117],[-74.90171055039042,5.139221957253483],[-74.90245666898267,5.141322131493382],[-74.89611931979317,5.1419496377531],[-74.88621549752793,5.149095292368656],[-74.87550108772274,5.144125450854972],[-74.87414730666922,5.142386530419458],[-74.87595471212046,5.138584344489175],[-74.87530184858207,5.136176566177198],[-74.86764202310081,5.131172207047257],[-74.86196617842376,5.130230888008043],[-74.85987616930964,5.12647418083435],[-74.85243044499197,5.12169539308735],[-74.85116756797265,5.116679651155607],[-74.85217109749982,5.113155398730669],[-74.84511610626294,5.099749815049961],[-74.83475340323031,5.098697334744202],[-74.82512085633357,5.095413801632105],[-74.81496135605914,5.095071710797072],[-74.80846224108893,5.091480284620559],[-74.79199076741565,5.096668614633586],[-74.78449027750537,5.1014398885795345],[-74.77671483451621,5.109558184479624],[-74.76908272658926,5.109566412019774],[-74.77172518314273,5.0991739479175635],[-74.77072287746216,5.083666326459024],[-74.77370036047893,5.079405337922935],[-74.77290534253024,5.068510205056157],[-74.77098150195923,5.065572383925144],[-74.77067086809552,5.058579604204624],[-74.7649509608272,5.049918599187436],[-74.76421287745637,5.045588851041373]],[[-74.88391230462105,5.040398502195671],[-74.88940700046129,5.039225393810057],[-74.88936888741,5.036755493456212],[-74.88717394424884,5.03536846594136],[-74.89187663856234,5.028613294495074],[-74.89068334596385,5.028650415099378],[-74.89107701319114,5.023186857413236],[-74.88721325646412,5.023583096775269],[-74.88477656760449,5.020364297949072],[-74.88098167950233,5.020874410580575],[-74.87983149818575,5.025739081505378],[-74.8765132407404,5.027963086395232],[-74.87797401992515,5.033470142057695],[-74.88433508911294,5.037641474060365],[-74.88226787851261,5.039127479911656],[-74.88391230462105,5.040398502195671]]]}}]}