{"type":"FeatureCollection","features":[{"type":"Feature","properties":{"code":"732001"},"geometry":{"type":"Polygon","coordinates":[[[-74.94926673313063,5.122108804354127],[-74.94609900058924,5.121532535100755],[-74.9494730099035,5.1186533917576185],[-74.95183671431136,5.119693173883547],[-74.95030667569364,5.116776759783534],[-74.95287450023034,5.119348301111529],[-74.9582919425539,5.117960307889177],[-74.95297899204712,5.121892828339867],[-74.95121117957598,5.121258932366857],[-74.94886358263489,5.1246609543984505],[-74.94926673313063,5.122108804354127]]]}}]}