{"type":"FeatureCollection","features":[{"type":"Feature","properties":{"code":"732027"},"geometry":{"type":"Polygon","coordinates":[[[-74.81098487071915,5.2463075091581],[-74.80251445049885,5.23203832686778],[-74.79957252073996,5.232711965973522],[-74.7958231021384,5.229230479273781],[-74.79445562017361,5.224878190753088],[-74.79815377914315,5.221480884130415],[-74.80332427390607,5.22049048678582],[-74.80424802303327,5.218849388717388],[-74.80230780245824,5.217958709159348],[-74.80202264825795,5.215071165497761],[-74.80659456273543,5.215703392308569],[-74.80871677958385,5.214561628794058],[-74.80906887716458,5.212386547943254],[-74.81677081325319,5.209395925544868],[-74.8177623912498,5.206985019739193],[-74.8166310695122,5.20605952225975],[-74.82375754367479,5.20321867914447],[-74.82850072879864,5.196665409476566],[-74.83177578240225,5.1961472389979235],[-74.83483287304063,5.186790616029896],[-74.83728816231161,5.18809314567892],[-74.83832467501878,5.185149811067561],[-74.84275329762852,5.185392020593611],[-74.84525596004727,5.18249210374006],[-74.85471127544474,5.182077115870868],[-74.86163495205551,5.176528047303066],[-74.86794551957342,5.174862141144217],[-74.86451517217796,5.1676869753706],[-74.87255415150565,5.162625850327345],[-74.87268263071576,5.158514918753838],[-74.87966762204104,5.151833132851891],[-74.88578314749219,5.149957097374511],[-74.89057376747036,5.144729244315499],[-74.89611931979317,5.1419496377531],[-74.90245666898267,5.141322131493382],[-74.89850285051585,5.144064695613167],[-74.8990167210763,5.1492214030756145],[-74.8967232932311,5.151909853635345],[-74.89859534040846,5.1564103129550745],[-74.90813574399772,5.159893894592187],[-74.91674798746976,5.149679844698085],[-74.92459834118358,5.150875444093174],[-74.92677847888626,5.14956710580077],[-74.92968809086744,5.150468555208818],[-74.93524318199462,5.156645819092773],[-74.94163714180257,5.155331758546197],[-74.94945395286362,5.160031913635066],[-74.94923969537683,5.169053836156081],[-74.9521783608592,5.175021995050201],[-74.95495561434507,5.1722298528019905],[-74.95758683413555,5.17267831544666],[-74.95908637223351,5.169963661200029],[-74.96558683137806,5.170219105752835],[-74.97329018877423,5.176950134510946],[-74.9776867311765,5.176538171291213],[-74.97350080146072,5.182828173044072],[-74.97462015418432,5.188400858765874],[-74.97785885543021,5.191030898932752],[-74.97140004203698,5.203241736825703],[-74.96214914707366,5.212113919144429],[-74.95764306628712,5.213276193916556],[-74.94109658521563,5.209568771765248],[-74.93737194693654,5.2118846145151],[-74.93326898579255,5.217849649000925],[-74.91982785708149,5.220238571847744],[-74.90929597833986,5.227865464542617],[-74.8890978640099,5.229214928194494],[-74.88633205194702,5.236848566443882],[-74.88034225359382,5.244324982571641],[-74.88012487786932,5.256595376542407],[-74.87866928512017,5.259733085761354],[-74.86326578935291,5.255131350564625],[-74.8433140877936,5.2545082789491175],[-74.82159270405458,5.24746839656126],[-74.81098487071915,5.2463075091581]],[[-74.88168512287223,5.203959173184558],[-74.88169226849084,5.22294262490891],[-74.88446912911172,5.220526237504657],[-74.88616080701166,5.221133256160897],[-74.886494473874,5.215969196362892],[-74.88832053527256,5.216111583201155],[-74.89622485033686,5.2074149159111585],[-74.90249207414485,5.204795545835395],[-74.9037093849899,5.202394778416078],[-74.90128168368949,5.200007235739122],[-74.90347177363037,5.197809846941652],[-74.90203473295583,5.195485193524689],[-74.90022629391984,5.19627232126237],[-74.89955054136476,5.192661153103302],[-74.89465136927873,5.194117140774324],[-74.89379722925497,5.191483235720455],[-74.89287783866718,5.18785231632279],[-74.89426908793854,5.173149920104947],[-74.89068856119582,5.179933719277187],[-74.8889118814933,5.178674948828871],[-74.88810718487207,5.18668278074648],[-74.88617762513218,5.1854733827381665],[-74.88612047560986,5.189289040236986],[-74.88218810016957,5.18862277095036],[-74.88290680974023,5.200108018992182],[-74.87259385864286,5.195647916785333],[-74.87191113633281,5.197634184845697],[-74.87307360239527,5.19979658294335],[-74.8736010041739,5.198641078408286],[-74.87723524338406,5.200388740605206],[-74.87802537623077,5.202606141865658],[-74.88168512287223,5.203959173184558]]]}}]}