{"type":"FeatureCollection","features":[{"type":"Feature","properties":{"code":"733027"},"geometry":{"type":"Polygon","coordinates":[[[-75.15614519937645,4.124836233044618],[-75.15776986396185,4.120852893135293],[-75.17340789810237,4.111195469242489],[-75.17952692951405,4.101665163930363],[-75.18148032546617,4.10166981557586],[-75.18563865692693,4.108218036619405],[-75.18931614420188,4.10925100119988],[-75.20373603548734,4.105929521644157],[-75.21271605823165,4.098246826686648],[-75.22315353520605,4.102113549441867],[-75.22559482223215,4.10489367125399],[-75.2436087416537,4.107462439900928],[-75.24170855423216,4.117747498608708],[-75.24574478899711,4.126650125911283],[-75.24715652484349,4.137245059492216],[-75.24359335306832,4.139052353871648],[-75.23807671643533,4.152460317368366],[-75.23824450477537,4.157149156504261],[-75.23616180171695,4.1596193695046395],[-75.2376115806805,4.164239070563724],[-75.23573436455109,4.176397382811899],[-75.23005015452259,4.185831931898065],[-75.23016456463904,4.190563236453954],[-75.22272582036072,4.201126029149236],[-75.22301601495775,4.204062360067098],[-75.21671357110733,4.208107444579923],[-75.21572151899869,4.214101107820113],[-75.20970934687853,4.2177174007082385],[-75.2100068927827,4.231196043917066],[-75.20679487756331,4.231746604164414],[-75.20639800056688,4.229750153494649],[-75.19943994517962,4.225075081090381],[-75.19866162502365,4.225941935749006],[-75.19789380012361,4.236871336320519],[-75.19535311412807,4.239297001304749],[-75.19189759560197,4.248303913707161],[-75.19148816646458,4.2595396657077345],[-75.18155218685871,4.27697922775053],[-75.17673956232443,4.269574363454069],[-75.17039275146368,4.266665812825579],[-75.16775960128666,4.262714973756715],[-75.16409115196456,4.260644016540311],[-75.15316963646183,4.245788749541191],[-75.15187017157149,4.247181261739968],[-75.14938154842156,4.245874819895562],[-75.14469896221624,4.247130174886308],[-75.13743057429895,4.239788762407954],[-75.13610147895116,4.235956927508255],[-75.12973921985542,4.23759874857177],[-75.12498470540874,4.226784560301894],[-75.12277994782062,4.227227188592167],[-75.12192928496103,4.229214680499126],[-75.1212556468837,4.234364829583626],[-75.12280112756582,4.237165667313377],[-75.11735801634546,4.240096853961745],[-75.11602879347083,4.245394820060994],[-75.1097005254287,4.252402713772767],[-75.09992355537753,4.248950479063581],[-75.09714907560112,4.249401166229461],[-75.09558958547495,4.242309389660591],[-75.10083154465161,4.236120176303018],[-75.1011876912105,4.232132295819952],[-75.09629974868835,4.230501605589836],[-75.09053663757823,4.233717869305281],[-75.09042048733704,4.231835052277859],[-75.08896945161672,4.232328596700427],[-75.08599895583842,4.230023993798795],[-75.08465730732132,4.227168528287791],[-75.08755767257577,4.225306657549197],[-75.09837823821778,4.193083507865481],[-75.111664940114,4.165524376885912],[-75.13464211181798,4.141936925334392],[-75.14053403021137,4.137177083555457],[-75.14519605682233,4.1361383915786405],[-75.15614519937645,4.124836233044618]],[[-75.11734098225202,4.204694054144682],[-75.1177540037391,4.201295774615403],[-75.12107813256279,4.198290515423082],[-75.11647186501983,4.195059083208946],[-75.11609199332048,4.192322805958327],[-75.1134312808839,4.19155354329564],[-75.11075090771169,4.198020961667396],[-75.1159227013975,4.199682124649371],[-75.11734098225202,4.204694054144682]]]}}]}