{"type":"FeatureCollection","features":[{"type":"Feature","properties":{"code":"733047"},"geometry":{"type":"Polygon","coordinates":[[[-75.25230154199983,4.350810747987055],[-75.24804501587585,4.345151981626486],[-75.24469909229828,4.3353518757323855],[-75.23993927623042,4.332611769590244],[-75.23774251581136,4.323211607508199],[-75.2311921936597,4.316765509778293],[-75.23145613417614,4.314103001681076],[-75.23514840017009,4.312677332495468],[-75.23047403430576,4.30599326550805],[-75.22870978847328,4.301805844550643],[-75.22969965205624,4.298981735223549],[-75.22575143448734,4.293696220477841],[-75.22008356949578,4.296372503534144],[-75.21599598151056,4.2950116663365066],[-75.2126651513554,4.297611506288831],[-75.21132759501103,4.296020511883],[-75.2039962982933,4.29834765618773],[-75.20193101807962,4.296452568812697],[-75.19828423084232,4.297824892684844],[-75.19516232672794,4.29666141566338],[-75.18953470983439,4.300040977538856],[-75.18511002718787,4.307347296473097],[-75.18045902856608,4.309591238749647],[-75.179104523489,4.314608420500917],[-75.17429321844645,4.315434191966233],[-75.17162566995245,4.317912019555024],[-75.16510979548298,4.31795415484504],[-75.15683182873966,4.321928420805989],[-75.14831487560912,4.3213426117197855],[-75.14849652118363,4.317995833506529],[-75.14465332096569,4.312717545626413],[-75.14762210233033,4.3097952004983995],[-75.15310409073481,4.308726229116871],[-75.163729793259,4.300282715009757],[-75.16981517917361,4.2992596862124515],[-75.16889149895206,4.294142365013101],[-75.17078279445957,4.289318262031884],[-75.18091355799316,4.279135403770908],[-75.1905102533837,4.262169335635292],[-75.1926886509616,4.252376520370262],[-75.19189759560197,4.248303913707161],[-75.19535311412807,4.239297001304749],[-75.19789380012361,4.236871336320519],[-75.19866162502365,4.225941935749006],[-75.19943994517962,4.225075081090381],[-75.20639800056688,4.229750153494649],[-75.20679487756331,4.231746604164414],[-75.2100068927827,4.231196043917066],[-75.20970934687853,4.2177174007082385],[-75.21572151899869,4.214101107820113],[-75.21671357110733,4.208107444579923],[-75.22301601495775,4.204062360067098],[-75.22229123037715,4.202234240755047],[-75.22413000023988,4.1983533429765885],[-75.23016456463904,4.190563236453954],[-75.23005015452259,4.185831931898065],[-75.23327006303833,4.181976704044814],[-75.2369096378082,4.171474328233728],[-75.2376115806805,4.164239070563724],[-75.23616180171695,4.1596193695046395],[-75.23824450477537,4.157149156504261],[-75.23807671643533,4.152460317368366],[-75.24359335306832,4.139052353871648],[-75.24715652484349,4.137245059492216],[-75.24574478899711,4.126650125911283],[-75.24170855423216,4.117747498608708],[-75.2436087416537,4.107462439900928],[-75.2535118398954,4.106769251131311],[-75.26216390671868,4.1156547836623645],[-75.26884720854486,4.118603004404122],[-75.2754317150974,4.11980973668949],[-75.2826952827046,4.11812839772216],[-75.27624267390513,4.1215236351184785],[-75.27263402234485,4.129332470607835],[-75.27397176792266,4.153385468262741],[-75.27173499183357,4.164664996947522],[-75.27651338260176,4.17793372681075],[-75.27579227676,4.182744681154361],[-75.27080561815427,4.191344574060281],[-75.26834865663574,4.205806084357562],[-75.26886787509727,4.212708265491244],[-75.2807563291708,4.211653204823278],[-75.29207065006597,4.203655151337102],[-75.31762538565738,4.204045308490095],[-75.31821060853139,4.200729047251684],[-75.31547957119534,4.1978029277396445],[-75.3174303117089,4.1952669571530805],[-75.32211209778598,4.195657114306073],[-75.32523329227496,4.198973365260031],[-75.33128059496312,4.199168446407668],[-75.33557222491567,4.1952669571530805],[-75.34044908494121,4.193316216639516],[-75.34591116784077,4.193316216639516],[-75.34747176868484,4.195462032130024],[-75.34336007195009,4.199961748914234],[-75.34906759574204,4.199940993915732],[-75.35137325074032,4.197022631945629],[-75.35176339658045,4.1929260687425085],[-75.35507965781886,4.189999957457985],[-75.36054173866154,4.191365476126009],[-75.37033765365237,4.1907327978289],[-75.3736117271502,4.191950697971549],[-75.37575754161224,4.198973365260031],[-75.3859804124578,4.211912890673034],[-75.39399457649603,4.2172539053192395],[-75.40154957180289,4.216413362334038],[-75.40484995903103,4.212951358449402],[-75.40543233106234,4.2161399159234065],[-75.40838823735504,4.215553040342286],[-75.41523492167352,4.207620188054932],[-75.4277590581247,4.214533015625591],[-75.43699395257937,4.216920229200923],[-75.44063824584356,4.221456073113927],[-75.45324796002518,4.217648460092448],[-75.45888810643396,4.218039278533979],[-75.46908668546729,4.227941824502068],[-75.48032040732227,4.230526984465882],[-75.53030120809228,4.252602935076084],[-75.52761936938947,4.255342301768053],[-75.5220372477076,4.254949924207608],[-75.51938805279877,4.257646664014089],[-75.5064473292503,4.259203691020389],[-75.49153792400853,4.266726895112072],[-75.46489260637298,4.2736965657291535],[-75.43966620105567,4.2845967482487595],[-75.41491827039266,4.291519829391291],[-75.38919005814563,4.3016155662296],[-75.37921605496297,4.310996712409462],[-75.37577703676862,4.310460713879763],[-75.37266961723873,4.30660894879253],[-75.3661340110711,4.308650283779116],[-75.36174789399058,4.3058832674100245],[-75.35743304489137,4.305687112568421],[-75.35460523934188,4.307789916535853],[-75.33969960745571,4.329427248753177],[-75.3309607627096,4.336453623576972],[-75.32829057008985,4.344503442688847],[-75.31621337521688,4.3519302282375065],[-75.3122258732007,4.351413522261055],[-75.30767704211553,4.342135196678839],[-75.3007188232059,4.3397325142995555],[-75.29397497285487,4.341465739220382],[-75.29155244462032,4.3391918281288895],[-75.29099288035871,4.345177977568028],[-75.28432874150201,4.344000861341897],[-75.2832349198639,4.345382524500565],[-75.27986107818577,4.344551600538182],[-75.27518879800289,4.346366132067658],[-75.26069338201262,4.345365636445933],[-75.25727351856023,4.348968848573747],[-75.25230154199983,4.350810747987055]],[[-75.24282548188836,4.247482642706302],[-75.24781341884812,4.243345752215134],[-75.24129750221255,4.230327346289471],[-75.23998456883896,4.233026240682989],[-75.23430573139416,4.2367835042441016],[-75.23195815090816,4.236549735145786],[-75.23735081702301,4.2422268139538915],[-75.23774743588035,4.2457281043427315],[-75.23983538810938,4.2439659688742495],[-75.24055077786761,4.246813252096615],[-75.24282548188836,4.247482642706302]]]}}]}