{"type":"FeatureCollection","features":[{"type":"Feature","properties":{"code":"733040"},"geometry":{"type":"Polygon","coordinates":[[[-75.24282548188836,4.247482642706302],[-75.24055077786761,4.246813252096615],[-75.23983538810938,4.2439659688742495],[-75.23774743588035,4.2457281043427315],[-75.23735081702301,4.2422268139538915],[-75.23195815090816,4.236549735145786],[-75.23430573139416,4.2367835042441016],[-75.23998456883896,4.233026240682989],[-75.24129750221255,4.230327346289471],[-75.24781341884812,4.243345752215134],[-75.24282548188836,4.247482642706302]]]}}]}