{"type":"FeatureCollection","features":[{"type":"Feature","properties":{"code":"733048"},"geometry":{"type":"Polygon","coordinates":[[[-75.27624267390513,4.1215236351184785],[-75.28500702402573,4.116696389216884],[-75.28936370708129,4.108330051493226],[-75.30397448861112,4.105709533675622],[-75.30824692885466,4.099830177707645],[-75.31268773542297,4.098105507371656],[-75.32337676943746,4.0877035486881255],[-75.32913737320467,4.084355599078776],[-75.3385448331149,4.073683736969031],[-75.3410242311354,4.065757092360741],[-75.34593759161442,4.0594393103186235],[-75.36069381239992,4.051397212753159],[-75.36475272637927,4.044348425081523],[-75.3693683959437,4.041775726755702],[-75.38005011464656,4.039376920576274],[-75.38368197815447,4.042004814383631],[-75.38983860531084,4.0425101900088976],[-75.39196751732004,4.04580439938286],[-75.38948034735944,4.051717763888064],[-75.39080773549261,4.056597667075039],[-75.40102416520267,4.054564344684138],[-75.40493795977204,4.056098814860661],[-75.40760806703099,4.054794802197478],[-75.40859265676073,4.057456835154255],[-75.40741770334921,4.060199260434274],[-75.39894092941103,4.067652084090696],[-75.39015920683937,4.098112668416945],[-75.39003687874401,4.105587377330153],[-75.38725225132521,4.115805321936023],[-75.39763596749543,4.1206097436128175],[-75.39142547051989,4.134638421534817],[-75.39141780245251,4.138527126220481],[-75.39616354634137,4.140587899799073],[-75.39884893831305,4.139174750872712],[-75.40396861258887,4.146454762247345],[-75.41414628338572,4.151259736197744],[-75.41787747798588,4.146968658518858],[-75.42617867416038,4.145293310229249],[-75.43188557985843,4.137355428857973],[-75.43525772357793,4.137777965495218],[-75.43851580273775,4.141612961827207],[-75.43710431680296,4.145841336394199],[-75.44224632576493,4.146913970059472],[-75.44305535521448,4.150077923074662],[-75.44599301282318,4.150455368678138],[-75.44904458895275,4.153908689422565],[-75.44826645905863,4.1559645172210935],[-75.44986842077549,4.157474342829573],[-75.4535310707102,4.156629435134278],[-75.45710890807567,4.161400579496501],[-75.4573763648371,4.164721396735274],[-75.46777522996558,4.169338642902062],[-75.47744965504165,4.170931816577536],[-75.4792429296927,4.174615446739665],[-75.49177835021521,4.178349846995104],[-75.49591357154418,4.1821376676403474],[-75.50525993271276,4.184633360304133],[-75.51588810041363,4.200891090711821],[-75.52322768740652,4.203913932157434],[-75.52956031295957,4.204085797243636],[-75.53432103302839,4.209071096248408],[-75.5433470487506,4.207105440233022],[-75.5569505798482,4.219495295001423],[-75.56311555590094,4.2306362575119465],[-75.56656192848777,4.233002713003486],[-75.55291791172192,4.237167519538332],[-75.53888755332486,4.244078881578389],[-75.53030120809228,4.252602935076084],[-75.48032040732227,4.230526984465882],[-75.46908668546729,4.227941824502068],[-75.45888810643396,4.218039278533979],[-75.45324796002518,4.217648460092448],[-75.44063824584356,4.221456073113927],[-75.43699395257937,4.216920229200923],[-75.4277590581247,4.214533015625591],[-75.41523492167352,4.207620188054932],[-75.40838823735504,4.215553040342286],[-75.40543233106234,4.2161399159234065],[-75.40484995903103,4.212951358449402],[-75.40154957180289,4.216413362334038],[-75.39399457649603,4.2172539053192395],[-75.3859804124578,4.211912890673034],[-75.37575754161224,4.198973365260031],[-75.3736117271502,4.191950697971549],[-75.37033765365237,4.1907327978289],[-75.36054173866154,4.191365476126009],[-75.35507965781886,4.189999957457985],[-75.35176339658045,4.1929260687425085],[-75.35137325074032,4.197022631945629],[-75.34906759574204,4.199940993915732],[-75.34336007195009,4.199961748914234],[-75.34747176868484,4.195462032130024],[-75.34591116784077,4.193316216639516],[-75.34044908494121,4.193316216639516],[-75.33557222491567,4.1952669571530805],[-75.33128059496312,4.199168446407668],[-75.32523329227496,4.198973365260031],[-75.32211209778598,4.195657114306073],[-75.3174303117089,4.1952669571530805],[-75.31547957119534,4.1978029277396445],[-75.31821060853139,4.200729047251684],[-75.31762538565738,4.204045308490095],[-75.29207065006597,4.203655151337102],[-75.2807563291708,4.211653204823278],[-75.26886787509727,4.212708265491244],[-75.26834865663574,4.205806084357562],[-75.27080561815427,4.191344574060281],[-75.27579227676,4.182744681154361],[-75.27651338260176,4.17793372681075],[-75.27173499183357,4.164664996947522],[-75.27397176792266,4.153385468262741],[-75.27263402234485,4.129332470607835],[-75.27624267390513,4.1215236351184785]]]}}]}