{"type":"FeatureCollection","features":[{"type":"Feature","properties":{"code":"733587"},"geometry":{"type":"Polygon","coordinates":[[[-74.79646555681012,4.038521927973704],[-74.7983381716877,4.0257817548301205],[-74.79530843762029,4.026110528362949],[-74.7912978552971,4.018072401614063],[-74.77806434959018,4.01235200069334],[-74.78295725640436,4.0065769658206705],[-74.79482802743718,3.9861000355816714],[-74.8053352194446,3.9777383608163746],[-74.8075719235427,3.9652961624375394],[-74.80546638700343,3.9571597474371742],[-74.80288614196644,3.955741196102224],[-74.80554347905468,3.9539185049098364],[-74.80782594678794,3.9345400921774853],[-74.81797001322553,3.908187536131493],[-74.82589020538546,3.895017484299558],[-74.82997022917596,3.895627618108165],[-74.83334924186312,3.89760656982844],[-74.83502048872396,3.897021828265565],[-74.83976806118363,3.9041192725811698],[-74.84438993431331,3.904637271309923],[-74.84632660264788,3.907608207261603],[-74.85186240225028,3.9088588910664157],[-74.85328147089177,3.9075639430956244],[-74.85611933152376,3.9096292047973407],[-74.85877725482425,3.9087456790854844],[-74.85786486278778,3.909673933819363],[-74.85899002209783,3.9106409886041433],[-74.86660244049273,3.912159216588009],[-74.86865397660063,3.9157081104957],[-74.87183724068097,3.9152134131891216],[-74.87077256818918,3.9175501898864695],[-74.87319127987354,3.917205417901812],[-74.87205795164459,3.9195253065445854],[-74.87409923623744,3.9270873199432117],[-74.87342411514601,3.9307992816397928],[-74.86868065439955,3.938756008191774],[-74.86748047946372,3.9454219643064334],[-74.8738186133549,3.959323090673479],[-74.87345316247655,3.97204492154475],[-74.86119231348079,4.000122535649439],[-74.86413318497233,4.008895915495373],[-74.86283745332832,4.017492511214527],[-74.85656203077662,4.031167799832019],[-74.84971927202321,4.034211983516798],[-74.84096303939941,4.034300509791933],[-74.83523744278705,4.040540604314685],[-74.83455246407408,4.043515763051346],[-74.8236894206708,4.0441865070914105],[-74.8224490099783,4.040814476500543],[-74.81759103627115,4.040168515868288],[-74.81201721514878,4.035685841405041],[-74.80645008610196,4.0386826673686755],[-74.80146219233671,4.03758143785916],[-74.79646555681012,4.038521927973704]]]}}]}