{"type":"FeatureCollection","features":[{"type":"Feature","properties":{"code":"733510"},"geometry":{"type":"Polygon","coordinates":[[[-74.8050404307948,4.285547335611909],[-74.805504263513,4.28037466877845],[-74.80332294412989,4.280247404158956],[-74.8065878398067,4.2715188417811305],[-74.8182110894079,4.276232435528414],[-74.8203178014569,4.272086024744851],[-74.81305231786126,4.268993217326283],[-74.81552704572431,4.265632320654106],[-74.82301804105327,4.266854115508522],[-74.82609842385779,4.260862821799947],[-74.82850700641177,4.25992632409924],[-74.82837811788158,4.26173946414599],[-74.83383979866011,4.26387713231486],[-74.83056779233169,4.268710664057096],[-74.82465907535823,4.273243433955429],[-74.82822830465989,4.27480559186148],[-74.82868043987281,4.276830980846739],[-74.82525306261937,4.28026875051188],[-74.82752413315262,4.282679679971693],[-74.8180106418472,4.29081519199957],[-74.81223096149967,4.294215051216554],[-74.8088444514666,4.287422908290182],[-74.8050404307948,4.285547335611909]]]}}]}