{"type":"FeatureCollection","features":[{"type":"Feature","properties":{"code":"733547"},"geometry":{"type":"Polygon","coordinates":[[[-74.82831497459625,4.090418960896898],[-74.83507287655743,4.074856813472934],[-74.83807034221235,4.062143159748189],[-74.8346052859103,4.0452573965181955],[-74.83523744278705,4.040540604314685],[-74.84096303939941,4.034300509791933],[-74.84971927202321,4.034211983516798],[-74.85656203077662,4.031167799832019],[-74.86224717874467,4.019151393111031],[-74.86911430335823,4.024215776260121],[-74.8724724304347,4.034793682946713],[-74.87314856351355,4.04370222379373],[-74.87997276505013,4.042484080938664],[-74.88599614616533,4.03705812516796],[-74.89029707940887,4.04042418770689],[-74.90863052049434,4.038602271960144],[-74.91882344720756,4.0435011632813485],[-74.92312596219568,4.038670405248524],[-74.92727640241702,4.037582134114757],[-74.9622189433536,4.041154962965209],[-74.9540530984421,4.055053345447618],[-74.93323687267491,4.074592300114034],[-74.92854615971675,4.081635400498499],[-74.92672888738798,4.08780202822993],[-74.92510612336434,4.110625234889824],[-74.92123877531606,4.117016159763921],[-74.91118513982912,4.1137735874604004],[-74.90166057322625,4.103482073218913],[-74.89225743071773,4.1022981147647215],[-74.8903712095456,4.099294592611841],[-74.88311995342377,4.099409855307101],[-74.87948816602062,4.096686680414166],[-74.87722356027706,4.097433239179793],[-74.87306167143356,4.095323170294421],[-74.86974031323405,4.096878923060444],[-74.86442292396936,4.092975597007467],[-74.86180170681081,4.092812002656046],[-74.85917717292517,4.089203827264669],[-74.85240579322482,4.092016933285208],[-74.84936537569655,4.090769747213415],[-74.84697559821399,4.0954497900804085],[-74.84278939184719,4.09315419942061],[-74.83986536624411,4.094782916069562],[-74.83966299858122,4.092649669175103],[-74.83806037249053,4.092362954827536],[-74.83326386056518,4.093416408039843],[-74.83270458940973,4.09119645315667],[-74.82831497459625,4.090418960896898]]]}}]}