{"type":"FeatureCollection","features":[{"type":"Feature","properties":{"code":"733508"},"geometry":{"type":"Polygon","coordinates":[[[-74.92894601816806,4.363404584044645],[-74.94339325985385,4.354946952507021],[-74.95226367942206,4.332084490196223],[-74.9522537025012,4.323404037330988],[-74.94758417134517,4.311724162713119],[-74.94766483517725,4.266254484154899],[-74.9404997913349,4.258847026126432],[-74.93351271021442,4.2573280874888155],[-74.92257640879359,4.260062163872476],[-74.90981738738401,4.27434012289126],[-74.89865503943975,4.2829151120615165],[-74.89797272027914,4.277745666310068],[-74.9006960689789,4.276516401877586],[-74.89658241408955,4.273643668816646],[-74.9013053502087,4.263957759123002],[-74.90020621975032,4.257320228131107],[-74.9022697444127,4.25396899573326],[-74.90424469549157,4.255735774619723],[-74.90736836647011,4.254671093900413],[-74.90824370886486,4.249375918994076],[-74.91481872700672,4.247340546917258],[-74.9108051426598,4.239479842957962],[-74.91048422951314,4.235742350175826],[-74.91419523681503,4.235478952676999],[-74.91725165485201,4.237904617661286],[-74.91910633986271,4.2367469050601585],[-74.91889535590849,4.230577516989001],[-74.92123754529877,4.225806330460671],[-74.92594887544408,4.22459236719601],[-74.92806831035551,4.219498741312293],[-74.93493865810791,4.21396868864673],[-74.94395060267959,4.211425770930873],[-74.94759442594557,4.208578543244471],[-74.95394736220987,4.208228945807491],[-74.96079529094379,4.21508871294327],[-74.96727024574233,4.2151056616759774],[-74.97077004386108,4.210433649916638],[-74.97281479944746,4.210235771405337],[-74.9820918744436,4.238636364797742],[-74.98582394836205,4.240575474654861],[-74.98781118830055,4.244118751209498],[-74.99302547928812,4.245610749795333],[-74.9950491075798,4.247977926225133],[-74.99797610743866,4.247860862727009],[-75.00014151784444,4.262003363524741],[-75.00270568523956,4.263479233046553],[-75.00552036889098,4.260260280982379],[-75.00885164641858,4.260191831962118],[-75.01667611629108,4.267578102017808],[-75.01648826715126,4.271436992154804],[-75.02001247741009,4.272140210295845],[-75.02148862769673,4.274132147131354],[-75.02059291802635,4.279122143033078],[-75.02703938702399,4.282634908783564],[-75.02878391041435,4.282181775981371],[-75.02821203158203,4.280392181097625],[-75.03237020774799,4.282074467260486],[-75.03488883673685,4.285316803022226],[-75.03436020596934,4.294368995691855],[-75.02948774767776,4.302365305967953],[-75.02917277995732,4.304872009137341],[-75.0305817163831,4.30613555772959],[-75.02783800554994,4.309401418085486],[-75.02950177563372,4.3136812590014415],[-75.02645212886227,4.3167627165283875],[-75.02699844986955,4.325594312391502],[-75.02385554701584,4.3265973667782305],[-75.01995935629714,4.323922408355884],[-75.01728544894303,4.326810107312326],[-75.01155314997078,4.326648780676635],[-75.0035616476635,4.322775611643692],[-75.00427437992624,4.3190703461363],[-75.0022839507875,4.310831558939185],[-75.00599923949562,4.307862958580415],[-75.00823050724654,4.302990001494209],[-75.00759883168087,4.299224221400607],[-75.00475546476764,4.296485130331234],[-74.99518719552839,4.303183252014151],[-74.99272208360287,4.3084232386379995],[-74.98646616957728,4.313339994005787],[-74.98313121433921,4.328127140057802],[-74.98149668081942,4.329372921277127],[-74.9819224303111,4.334234782496992],[-74.97725268421055,4.338172504809961],[-74.97476270557343,4.343503490084743],[-74.9700070608684,4.345809764205455],[-74.96531743600247,4.362245316438418],[-74.9491046485328,4.364152922015819],[-74.93600911970265,4.379982112767323],[-74.93465186662718,4.379142753519432],[-74.9332451619216,4.369936066157777],[-74.93623548401479,4.368611374600903],[-74.93933941403924,4.362221809327764],[-74.937663316015,4.3617032326143885],[-74.93419810544657,4.365751291382935],[-74.92894601816806,4.363404584044645]]]}}]}