{"type":"FeatureCollection","features":[{"type":"Feature","properties":{"code":"734007"},"geometry":{"type":"Polygon","coordinates":[[[-74.55572104509469,4.267171506239549],[-74.56175154303207,4.260689675274364],[-74.56647484939054,4.243606457251417],[-74.56576238452283,4.2367546862562335],[-74.56124473684326,4.22498144551281],[-74.5609639432393,4.206817899017665],[-74.55906278188269,4.2001307374466705],[-74.5603500864687,4.182393483460885],[-74.56806593018553,4.166836677767321],[-74.5777707447096,4.153064547916983],[-74.59721846829706,4.133680027264518],[-74.60335533701573,4.131683748344699],[-74.61214320144609,4.124454959578145],[-74.61563412513436,4.116052968837664],[-74.61943225077357,4.112565527455786],[-74.61860920365251,4.1031197498342635],[-74.62092796409382,4.101155893593273],[-74.62380537553975,4.101333093210826],[-74.62637728813547,4.106642295044594],[-74.62832118744939,4.115408505617722],[-74.62654246731682,4.120240838196025],[-74.63157867216938,4.123099981417511],[-74.6326491779871,4.125425471986659],[-74.63007025964095,4.132181677017684],[-74.63256426977279,4.131240608918461],[-74.6424403384882,4.120716372533138],[-74.66908602841994,4.1019763572667785],[-74.67971067987583,4.096369876923802],[-74.68332593917927,4.095805376138173],[-74.68846987749941,4.097467593273734],[-74.69168732083841,4.102211983732218],[-74.68800256864557,4.110668596083258],[-74.68937698745515,4.117996653207058],[-74.68755363291729,4.125807543524559],[-74.68486953369785,4.130532693880411],[-74.67834594693795,4.136609834771434],[-74.68199573208517,4.139016956937041],[-74.68153092440349,4.142896620584509],[-74.67133933569403,4.151798946553413],[-74.67598587910283,4.1547326508290325],[-74.67566321657546,4.156822323642416],[-74.680683534048,4.16044576009233],[-74.67913495055478,4.164063457832981],[-74.68124784560024,4.163814862707397],[-74.6824035157145,4.16092089128],[-74.68367420889695,4.162727884325818],[-74.68515818563111,4.162250306473368],[-74.68368493658085,4.1664591118361045],[-74.68856693367684,4.169440008253616],[-74.68866128402192,4.171356979857023],[-74.69079308389774,4.1722392488121045],[-74.69006476456019,4.170144733062898],[-74.69205759819755,4.169654885891248],[-74.69597947529661,4.172803191153491],[-74.69998325961478,4.170535956710808],[-74.69819343333154,4.174361863667798],[-74.70219953678753,4.175047642509014],[-74.70605598025986,4.1729636312717275],[-74.70656153586253,4.174467699658976],[-74.70969885633025,4.17484498174008],[-74.71119636942484,4.173001895504058],[-74.71461021648855,4.177779882094342],[-74.71406620536317,4.180269301258761],[-74.71630821005397,4.181645363519465],[-74.71649172430858,4.183740846004639],[-74.71793433297091,4.183613071277705],[-74.71827167754367,4.1852156027516685],[-74.71470215513597,4.187805833965513],[-74.7153474873898,4.188818082628359],[-74.71964814603916,4.190276650661701],[-74.72312095782627,4.189205085548167],[-74.72527503890927,4.186278585512355],[-74.72550062777572,4.188162643869873],[-74.72884870696879,4.188764593332962],[-74.7271829910718,4.190031388718239],[-74.72918718899899,4.191717293970328],[-74.73167945077853,4.190688889504031],[-74.73158359170827,4.19389457157439],[-74.73498585131006,4.19259807168379],[-74.73897897890686,4.194464827524371],[-74.7378195333801,4.198037634777506],[-74.74043869982427,4.197951209610437],[-74.73985220888068,4.200032638428581],[-74.74219120907071,4.200157241438831],[-74.74351073167554,4.203573088823248],[-74.74902318871807,4.201425857167408],[-74.75311852498925,4.2029228190168055],[-74.75322723959101,4.205636627883791],[-74.74838502470857,4.204931523579148],[-74.74676934562547,4.206783242561642],[-74.75035909852596,4.218025724690051],[-74.74517851577042,4.220013335896283],[-74.74624124861964,4.221915883593397],[-74.74339398699459,4.224579666959357],[-74.74490647524073,4.2257895092548665],[-74.74280183550337,4.2286131712094175],[-74.7450633384359,4.230181227233288],[-74.74522350190307,4.236464000063677],[-74.74321076584607,4.236826297737252],[-74.74375220895047,4.24068700616067],[-74.73379767007089,4.247951042737668],[-74.72793686514905,4.239207277922503],[-74.72343476134978,4.235452148379636],[-74.7218539526387,4.231265589257077],[-74.7155093385312,4.234979445344777],[-74.70575173199575,4.228428649081138],[-74.70859884758198,4.223986980678035],[-74.70076668187409,4.219598562971612],[-74.70373078382522,4.217134889837212],[-74.70346872124486,4.213931174148968],[-74.69897625086662,4.2106562295603],[-74.69578677602192,4.212856703685304],[-74.69173336832375,4.21100214517304],[-74.70276786852162,4.2018654834340055],[-74.70423768668763,4.197030949988687],[-74.70803058166825,4.193404687378745],[-74.7080613567822,4.189000264021445],[-74.70050097757871,4.189008609832513],[-74.69944296219535,4.184243938487498],[-74.69666787049562,4.182198526754803],[-74.69807156289306,4.178984511214708],[-74.70016750920581,4.1787200112255505],[-74.70087829668375,4.175647233753466],[-74.69307029011912,4.173344685679979],[-74.69358304893319,4.175493578270505],[-74.69104671427795,4.174868812810132],[-74.68873862598468,4.178297715243843],[-74.69482855555839,4.183940164335411],[-74.6907925182544,4.1890190670360425],[-74.65374976913921,4.1890301546748105],[-74.65376402540943,4.187737651311863],[-74.65091555227906,4.187656635752489],[-74.65080516851509,4.189023893516776],[-74.59991095035144,4.189093296931674],[-74.59994937707773,4.234315714254251],[-74.62219486643716,4.2342852034500424],[-74.61984163877327,4.237381210353362],[-74.62128449837553,4.243088433840114],[-74.61966100210083,4.246424681830433],[-74.62032140515134,4.2513581792139234],[-74.61346146523726,4.255062584943346],[-74.60801290841368,4.255585735140642],[-74.6042241467436,4.258071697709795],[-74.60207781188961,4.26178975292828],[-74.59983841841438,4.261938214776535],[-74.59798517322321,4.258638845706457],[-74.59571517329857,4.25846007874253],[-74.59398638507878,4.263678937043267],[-74.58947823198059,4.267279841346067],[-74.57994896950913,4.266715297365806],[-74.57181176157957,4.269433931685057],[-74.56727340106772,4.272674752550927],[-74.562553928743,4.271765531202732],[-74.55572104509469,4.267171506239549]]]}}]}