{"type":"FeatureCollection","features":[{"type":"Feature","properties":{"code":"734020"},"geometry":{"type":"Polygon","coordinates":[[[-74.53848141741975,4.1804839598381704],[-74.53083678306291,4.17970441994936],[-74.52817696434289,4.175941246957564],[-74.52451697396054,4.174049959677632],[-74.52584015782071,4.171629198307301],[-74.53051105474839,4.173309606534133],[-74.53033291204906,4.174828374450271],[-74.5330215220174,4.172019861454032],[-74.53640712393576,4.173552387874167],[-74.5351899467882,4.177233789401328],[-74.5366156087747,4.1779744243380605],[-74.53764301256649,4.179839444167669],[-74.53846879431626,4.180021079457788],[-74.53848141741975,4.1804839598381704]]]}}]}