{"type":"FeatureCollection","features":[{"type":"Feature","properties":{"code":"734027"},"geometry":{"type":"Polygon","coordinates":[[[-74.5485836272752,4.259252486504124],[-74.5445344331061,4.259252279787177],[-74.54321872807992,4.252561905361802],[-74.53890754949202,4.251657368569283],[-74.53580580696485,4.246230087136098],[-74.52738954555599,4.2443524051222425],[-74.52546714480451,4.24162142229369],[-74.51936099360694,4.240109658071049],[-74.51284271566732,4.222265999365391],[-74.51384481360247,4.220328553528304],[-74.51171420260619,4.21854886665983],[-74.51347906241887,4.215544491928085],[-74.50796224375159,4.198022349036364],[-74.50034532694912,4.193984285700594],[-74.50125137760904,4.188225139236408],[-74.49970214002639,4.185979938146261],[-74.4914521170947,4.181965286276011],[-74.48749764453845,4.182043084867189],[-74.48319487449658,4.17690155104566],[-74.48444251719684,4.156388069959576],[-74.483078990622,4.151581854679023],[-74.48078253915577,4.150810988674436],[-74.48369368248791,4.1471742318370275],[-74.48045278037506,4.138780604391172],[-74.48506782876018,4.141118741718003],[-74.49245078928783,4.148638096349373],[-74.50478318394431,4.155153706509111],[-74.50606721911151,4.1577274271067495],[-74.51227383885873,4.156747411889398],[-74.5177006297248,4.163393199217808],[-74.52078138791086,4.162715343497723],[-74.52250949427327,4.164704186778124],[-74.52775475783568,4.163337727085263],[-74.53141805980295,4.166821269641559],[-74.53400424512398,4.162237848949189],[-74.53770469752033,4.163106663819235],[-74.55166869463545,4.1549352817731915],[-74.5648804055885,4.154686733955941],[-74.56992356579781,4.152258422789089],[-74.56904589809454,4.144738143587858],[-74.57539361912688,4.1420829415463345],[-74.57241071621803,4.136333537518112],[-74.57296769086133,4.126748323659854],[-74.5783461922374,4.124422643857315],[-74.58214595927092,4.119634885006235],[-74.58199328595055,4.116726021731154],[-74.58442712499595,4.118479362987671],[-74.58659002497353,4.124291732380641],[-74.5853120607025,4.129221009036087],[-74.59042390441698,4.130133839189057],[-74.59371009810991,4.127943043736593],[-74.59665615500859,4.129400932997839],[-74.59172592498697,4.132124909047491],[-74.58866598453437,4.1367148078992955],[-74.58282431275717,4.137966590080737],[-74.58324157862648,4.142000138553783],[-74.58592950468056,4.144812058780133],[-74.57022432044266,4.163545993894388],[-74.5603500864687,4.182393483460885],[-74.55906278188269,4.2001307374466705],[-74.5609639432393,4.206817899017665],[-74.56124473684326,4.22498144551281],[-74.56580925064839,4.236965479948651],[-74.56610546883331,4.2479647765590585],[-74.56175154303207,4.260689675274364],[-74.55572104509469,4.267171506239549],[-74.549696723983,4.262695036370076],[-74.5485836272752,4.259252486504124]],[[-74.53083678306291,4.17970441994936],[-74.53848141741975,4.1804839598381704],[-74.5351899467882,4.177233789401328],[-74.53640712393576,4.173552387874167],[-74.5330215220174,4.172019861454032],[-74.53033291204906,4.174828374450271],[-74.53051105474839,4.173309606534133],[-74.52584015782071,4.171629198307301],[-74.52451697396054,4.174049959677632],[-74.52817696434289,4.175941246957564],[-74.53083678306291,4.17970441994936]]]}}]}