{"type":"FeatureCollection","features":[{"type":"Feature","properties":{"code":"734060"},"geometry":{"type":"MultiPolygon","coordinates":[[[[-74.60031999176596,3.941202703797046],[-74.59869581363387,3.941300446974026],[-74.59860256372224,3.9402483142819165],[-74.60035612815074,3.9397794421954018],[-74.60031999176596,3.941202703797046]]],[[[-74.60561329182156,3.94322524296814],[-74.60344173647172,3.939661081831275],[-74.59884495733951,3.9388761827285066],[-74.59610386286408,3.9377765370204543],[-74.59697102297014,3.936860149484801],[-74.59531884651892,3.9372513988437277],[-74.59478920684933,3.936324762878371],[-74.60142031521764,3.932229131444217],[-74.60561329182156,3.94322524296814]]]]}}]}