{"type":"FeatureCollection","features":[{"type":"Feature","properties":{"code":"734047"},"geometry":{"type":"Polygon","coordinates":[[[-74.62380537553975,4.101333093210826],[-74.62558809425678,4.098229067541183],[-74.62229793591791,4.099455481131031],[-74.60859115433362,4.094827946425255],[-74.59934558053186,4.084878982732562],[-74.58874519209184,4.084343759648505],[-74.58596706031602,4.081713478826089],[-74.57631892428759,4.082805214782752],[-74.5719233465644,4.076693247742753],[-74.5610525641311,4.068037300605795],[-74.56026138844368,4.059724525196998],[-74.56402017307124,4.05346743051939],[-74.55865510932517,4.05021459847336],[-74.55769973044829,4.045910182923421],[-74.55073285822334,4.03855445761053],[-74.54669683840285,4.028547971070907],[-74.5414890173472,4.021265160275732],[-74.54400535393768,4.006368902643146],[-74.54351587700529,3.9905966073886816],[-74.54606788512456,3.9872306147838117],[-74.54184308748069,3.9760881548610314],[-74.53132645128562,3.975909181180157],[-74.5384765765408,3.9720048914765584],[-74.55987148325909,3.978019258293102],[-74.59193421030807,3.981593924970298],[-74.6117673931231,3.995588705426883],[-74.6162105435119,3.9938512762330447],[-74.62196594233154,3.9850584392831365],[-74.62964480222695,3.9780174492627225],[-74.63475710154142,3.9773765105152847],[-74.63477155115885,3.9804612261481225],[-74.63861291457846,3.9819998481471544],[-74.64723922405886,3.9915763582963564],[-74.65624087083557,3.9921058282729405],[-74.66084128756904,3.9900772727131084],[-74.66440478433208,3.9914083179878617],[-74.66720337388648,3.994514015904997],[-74.66974385830724,4.002110341231344],[-74.67803767746358,4.00855309343774],[-74.68108484568853,4.008221020661324],[-74.6815471007759,4.005887379685191],[-74.68473817279181,4.006276800473358],[-74.69503762146735,4.012463435525547],[-74.6955658069192,4.0065393515639585],[-74.69869633760942,4.004026347127251],[-74.70354720169342,4.0056387763320345],[-74.70625062946158,4.003617648184104],[-74.7098007595572,4.003549512838788],[-74.71315789727197,4.007064770505451],[-74.71772086738486,4.005732666963354],[-74.7204702017417,4.007565567504628],[-74.7204702017417,4.0107731275110154],[-74.71863731765546,4.014897127503673],[-74.71497154228399,4.018104694709166],[-74.71405508378581,4.021770471109107],[-74.71451330017936,4.024519810608183],[-74.71777356375105,4.02707768393509],[-74.73874692627913,4.0044447843926605],[-74.74341599977822,4.00343840505127],[-74.74462872994036,4.000586178105721],[-74.74723481048187,4.000125028594141],[-74.75763056765709,4.007446103621646],[-74.76316736793405,4.019551401714921],[-74.76834188082182,4.0240923168779545],[-74.74655275151724,4.043390571771965],[-74.7421722013961,4.049970407138574],[-74.74151936356873,4.055532150231954],[-74.73505599006143,4.063116824333008],[-74.72419388254076,4.0669568528342666],[-74.71689911198757,4.071876211190045],[-74.71076537076254,4.076795172567017],[-74.70509043214332,4.08487810444268],[-74.69165462973609,4.086554590189735],[-74.68332593917927,4.095805376138173],[-74.66908602841994,4.1019763572667785],[-74.6424403384882,4.120716372533138],[-74.63149536009786,4.132046173545177],[-74.6298915194165,4.131734180080457],[-74.63193976450839,4.130033273965807],[-74.6326491779871,4.125425471986659],[-74.63157867216938,4.123099981417511],[-74.62654246731682,4.120240838196025],[-74.62811974332789,4.113843112231564],[-74.62380537553975,4.101333093210826]],[[-74.6853693464775,4.068148315833525],[-74.68616511827457,4.069526835043405],[-74.68913648102989,4.066564196565935],[-74.6886600930855,4.066930444487241],[-74.6853693464775,4.068148315833525]],[[-74.69057153578194,4.064940813419867],[-74.690870166693,4.066205321549035],[-74.69162782749561,4.063776049816852],[-74.69597510235906,4.063777818738004],[-74.69750278275808,4.061702307578116],[-74.69637024848669,4.0602124142141065],[-74.69899072825194,4.057208271910383],[-74.69495247259744,4.055922000909106],[-74.6967060452535,4.052853852456735],[-74.69389881472506,4.056282491609181],[-74.69360018278553,4.05507211040981],[-74.68895114643203,4.054919961595147],[-74.69017355526671,4.057531365355146],[-74.6880056056363,4.05838511457074],[-74.68750581548238,4.064143038216798],[-74.68980376127558,4.0657956918653895],[-74.69057153578194,4.064940813419867]]]}}]}