{"type":"FeatureCollection","features":[{"type":"Feature","properties":{"code":"734048"},"geometry":{"type":"Polygon","coordinates":[[[-74.63998137459208,3.983230755002296],[-74.6400772202926,3.979482134472107],[-74.64336968028579,3.9740609846132884],[-74.64084470992037,3.970932782316936],[-74.64314657305113,3.967909778377418],[-74.6659799438084,3.952744427731375],[-74.66848367272206,3.9496562411050036],[-74.66649681227881,3.9475167731617375],[-74.66446361124412,3.9483026667683703],[-74.66171183845006,3.945126064938677],[-74.66034226257631,3.9347515666988215],[-74.65693168801675,3.9308920975486785],[-74.65714966949389,3.9246286872055407],[-74.65372307591366,3.919464233514077],[-74.65915270322415,3.916862938315546],[-74.66208260534779,3.900250447689416],[-74.66760478220061,3.9014899749498113],[-74.66845136317187,3.8905199385574747],[-74.67048745001625,3.8875965588163126],[-74.67311178541252,3.8882452088257082],[-74.67599112621656,3.8850409305794074],[-74.68127417681404,3.8848551846045325],[-74.68263057936753,3.8797122901535204],[-74.69740435978059,3.877719551132884],[-74.70156462985551,3.8742209079550776],[-74.7023190654624,3.870186748587116],[-74.70062518155328,3.8668370845641675],[-74.69809004400508,3.8657233070274515],[-74.69631375202539,3.859622437910673],[-74.70018107950483,3.8503446049523973],[-74.69846071731462,3.8468457632852164],[-74.69284523192897,3.8428744098734455],[-74.69714954463461,3.827798180970717],[-74.69730052205324,3.8209753102387367],[-74.69088921036308,3.810817551117509],[-74.70740058349236,3.8013463905061258],[-74.72045465066236,3.8191610800429316],[-74.72539132799017,3.8349249986330847],[-74.73195024175061,3.843057855222412],[-74.73780893527993,3.8448211877979475],[-74.74414917130764,3.8493296679408786],[-74.7476870968759,3.8542195573047024],[-74.75220225366763,3.8552858485650177],[-74.75910811971085,3.8647434645884005],[-74.75811355306024,3.8685958498264768],[-74.76070580927745,3.8749422565092573],[-74.755879741971,3.8799947374931207],[-74.7609446671093,3.88513590107533],[-74.76244920240947,3.8850148832157174],[-74.76125154407248,3.8874929710004835],[-74.76405250110156,3.8936283669895033],[-74.76731114899007,3.893038497612224],[-74.77109940158113,3.8946500598399894],[-74.77001918520915,3.9003687010955446],[-74.76695071176897,3.9030495267824676],[-74.7677318498574,3.90526601787127],[-74.77312180602627,3.905740261513074],[-74.77485135323661,3.903434106691691],[-74.77506983350844,3.9056730867330316],[-74.77688751824263,3.905171986343362],[-74.77731807570308,3.902562841043107],[-74.78078053827306,3.9000568701247857],[-74.78205143714405,3.8916184992586977],[-74.79073234458087,3.8852073932570192],[-74.79160120778778,3.8839508658418254],[-74.78896124932123,3.8807853701629256],[-74.79728403764642,3.870916298970428],[-74.79982019335267,3.872441203603046],[-74.8007574788403,3.8776082170880386],[-74.80868564040128,3.8815467765531935],[-74.81322497587666,3.880450973106406],[-74.81398426161849,3.878101503371454],[-74.81621283382157,3.877225833932016],[-74.81763533231884,3.887655685005143],[-74.82128295465145,3.8925128225885146],[-74.82589020538546,3.895017484299558],[-74.81759424809712,3.9089609968965533],[-74.80727449899473,3.936510141699273],[-74.80554347905468,3.9539185049098364],[-74.80288614196644,3.955741196102224],[-74.80546638700343,3.9571597474371742],[-74.8075719235427,3.9652961624375394],[-74.8053352194446,3.9777383608163746],[-74.79482802743718,3.9861000355816714],[-74.78295725640436,4.0065769658206705],[-74.76834188082182,4.0240923168779545],[-74.76316736793405,4.019551401714921],[-74.75763056765709,4.007446103621646],[-74.74723481048187,4.000125028594141],[-74.74462872994036,4.000586178105721],[-74.74341599977822,4.00343840505127],[-74.73874692627913,4.0044447843926605],[-74.71777356375105,4.02707768393509],[-74.71451330017936,4.024519810608183],[-74.71405508378581,4.021770471109107],[-74.71497154228399,4.018104694709166],[-74.71863731765546,4.014897127503673],[-74.7204702017417,4.0107731275110154],[-74.7204702017417,4.007565567504628],[-74.71772086738486,4.005732666963354],[-74.71315789727197,4.007064770505451],[-74.7098007595572,4.003549512838788],[-74.70625062946158,4.003617648184104],[-74.70354720169342,4.0056387763320345],[-74.69869633760942,4.004026347127251],[-74.6955658069192,4.0065393515639585],[-74.69503762146735,4.012463435525547],[-74.68473817279181,4.006276800473358],[-74.6815471007759,4.005887379685191],[-74.68108484568853,4.008221020661324],[-74.67833632380126,4.008644249440408],[-74.66974385830724,4.002110341231344],[-74.66720337388648,3.994514015904997],[-74.66440478433208,3.9914083179878617],[-74.66084128756904,3.9900772727131084],[-74.65624087083557,3.9921058282729405],[-74.6476664421665,3.991749170578089],[-74.63998137459208,3.983230755002296]]]}}]}