{"type":"FeatureCollection","features":[{"type":"Feature","properties":{"code":"735020"},"geometry":{"type":"Polygon","coordinates":[[[-75.19851385531723,3.7997298321046173],[-75.19573969332953,3.804385359987293],[-75.19170104069622,3.8026009278850665],[-75.19220993668023,3.8013087916760924],[-75.18826307151323,3.798433755932365],[-75.1913282961035,3.7976832592603387],[-75.19009876016219,3.7964258607543115],[-75.19319787399036,3.7943209813898875],[-75.19346527007366,3.7914850850830817],[-75.19487055758543,3.794485987792882],[-75.19763939841152,3.7959923938299767],[-75.19851385531723,3.7997298321046173]]]}}]}