{"type":"FeatureCollection","features":[{"type":"Feature","properties":{"code":"735007"},"geometry":{"type":"Polygon","coordinates":[[[-74.93013435470203,3.618196800027931],[-74.9306364064011,3.610671992594348],[-74.93583010385561,3.6054649572687936],[-74.94191998714939,3.5939308324962553],[-74.94078055819938,3.5826544724428686],[-74.94577192398657,3.5730400611014943],[-74.95091890341126,3.5704903525797818],[-74.95984294391548,3.5710509164874793],[-74.96028454787705,3.5681824062115197],[-74.96436363269953,3.5641727700554497],[-74.97253219475618,3.561815002846288],[-74.9769542949835,3.5537348724480466],[-74.98080131997921,3.5518435594570406],[-74.98307661021215,3.5468217846814696],[-74.99016419793463,3.5412877611992712],[-74.99503559693045,3.534495674837217],[-74.99453936518762,3.526865128086058],[-74.99580373961925,3.523451039338397],[-74.99429050061008,3.516218219077132],[-74.99819452600389,3.5083838494169868],[-75.00534255117947,3.499465185610177],[-74.99266523952798,3.49256829787015],[-74.99550372236769,3.4890780817503355],[-74.99702780013257,3.4808792834836595],[-74.99390020770267,3.4784833199193486],[-74.99239847387992,3.4748520755338177],[-74.99510043611747,3.4721221118918493],[-75.0051603193927,3.4695245303992692],[-75.00673102982671,3.4653963734419904],[-75.00559894292786,3.457871024019198],[-75.01490709745684,3.4539200584518994],[-75.02367521270554,3.445910779515657],[-75.02865815143468,3.4330711107290313],[-75.03181840822742,3.4294138200083353],[-75.03436186073338,3.4269868797553613],[-75.03562447858513,3.4299457592753697],[-75.04143535982183,3.4281970501240266],[-75.04511607846314,3.430484920265826],[-75.05856901986493,3.4316031602146495],[-75.1213402609635,3.433244379639291],[-75.12186970831436,3.432102832097655],[-75.12354935240836,3.4368691983159465],[-75.1203002906326,3.441882249842024],[-75.1107584914468,3.4433890178909223],[-75.10362347092689,3.4478177073494294],[-75.10186878241075,3.4562082494677497],[-75.1044424659845,3.4634841820393945],[-75.11174945854862,3.4668436522617867],[-75.11544029809278,3.4703929236079034],[-75.12006337861396,3.4939409097062253],[-75.12440585784992,3.4982119718367812],[-75.12364066884805,3.5032092861354727],[-75.12116623203423,3.504505538171429],[-75.10630080093773,3.5017835644993056],[-75.10337277057943,3.5092702784220364],[-75.0958227951005,3.5103625028888814],[-75.09397554572922,3.512222705493741],[-75.09056876612249,3.5118866937824578],[-75.0865812970165,3.5148631987503904],[-75.0830439823431,3.521525569714413],[-75.077038231818,3.5257130132976044],[-75.06784660599698,3.5362115684447417],[-75.06698488943721,3.548955635271682],[-75.07506681035386,3.5556011665179312],[-75.07845747323785,3.5557523331699485],[-75.08237211935756,3.5604627294894726],[-75.08238301776294,3.570510609812061],[-75.07913843999654,3.575480248722556],[-75.07888058580289,3.5853293743008408],[-75.07674107363664,3.593561581522806],[-75.07884836778413,3.6043902554055762],[-75.07766487315752,3.6108509220521796],[-75.08314989855273,3.6185003787759342],[-75.0831541203093,3.622328130758831],[-75.08029751631238,3.6230490226845404],[-75.07325915704797,3.6207031617544203],[-75.0703524144214,3.625650543111931],[-75.07170828835547,3.6315562817158593],[-75.07065247075377,3.635624734499629],[-75.05985706698647,3.6357334347031838],[-75.05340642662594,3.64261613199335],[-75.04830493829922,3.638776915961728],[-75.04266871231329,3.6387838651477864],[-75.0405519708928,3.6419921296373445],[-75.04079408683054,3.656439280820223],[-75.03749655970108,3.6622722355186283],[-75.03854038874834,3.673192211442938],[-75.03685556233245,3.676803481417835],[-75.02947269436459,3.679625737491449],[-75.02272656189962,3.688359085212369],[-75.01566749391662,3.6889848235793465],[-75.01034777934336,3.6853131099807115],[-74.99722140546515,3.683338629928528],[-74.9906987494457,3.673779305053813],[-74.98767846676509,3.6720332914503047],[-74.9882647695037,3.6660281343365],[-74.99029222257315,3.663389718533722],[-74.98350233502123,3.6569071563458806],[-74.98120730383414,3.6524200359256724],[-74.97568683316746,3.6535671421990514],[-74.9711133338601,3.6498819261786366],[-74.96721662480633,3.649675001486969],[-74.96743457028799,3.640747283272276],[-74.96420643320369,3.635057264600391],[-74.96034391574989,3.634100316320257],[-74.95488739672436,3.6297591339503015],[-74.94276530827858,3.6307699952441794],[-74.93935553590416,3.6297198165928535],[-74.93483748301827,3.616497498283593],[-74.93013435470203,3.618196800027931]]]}}]}