{"type":"FeatureCollection","features":[{"type":"Feature","properties":{"code":"735057"},"geometry":{"type":"Polygon","coordinates":[[[-75.32403378685524,3.66367691522089],[-75.32522222623345,3.6583567872137337],[-75.32693949384014,3.6576147165712314],[-75.33114084710837,3.6477692563620963],[-75.32843522361543,3.646757591854623],[-75.32437174232285,3.641564564944588],[-75.32413643467459,3.6307510821862365],[-75.32150926283384,3.6315418526673398],[-75.3203241247561,3.6302398567799514],[-75.31300966467086,3.613214558582797],[-75.30893868706073,3.611020255112919],[-75.29984491137475,3.612364429484842],[-75.29924747677427,3.610576772186846],[-75.288489985512,3.6089287393305085],[-75.28556014303803,3.6028410517615157],[-75.28325143767921,3.601604325978542],[-75.28446946637717,3.5984568907787207],[-75.28222329238037,3.595996673211175],[-75.2840910900332,3.593850285906626],[-75.28321665266793,3.5892262324787794],[-75.27844766186433,3.588169600350625],[-75.27548512006047,3.584060245379476],[-75.27058131484091,3.5818063148692545],[-75.26543901277284,3.576901278603941],[-75.2665728171707,3.5738059556149437],[-75.2719975480664,3.5696692605279168],[-75.27334746217605,3.5706513172036694],[-75.27877540798312,3.5685839266259336],[-75.28428386746958,3.5718152004599233],[-75.28754460823865,3.56527855145157],[-75.2890032009546,3.5650539879422922],[-75.28894214437912,3.56051645326977],[-75.29041965118142,3.5605885388628167],[-75.28914216822147,3.5582146158500905],[-75.29034288617493,3.558213029991748],[-75.29083792903822,3.5553078567684793],[-75.28902347567038,3.552155406882889],[-75.29312218214767,3.5508508943966604],[-75.28870340687502,3.547339628115367],[-75.29034357523142,3.5444979324212227],[-75.28827399509953,3.5440740176709937],[-75.28875132509734,3.541800063384926],[-75.28681310278614,3.5424891764367885],[-75.28610627378339,3.5386486820510754],[-75.27937704582808,3.5340638595915834],[-75.27911542444951,3.531781264331414],[-75.2752542748243,3.531044302991347],[-75.27393678647883,3.5263410893144282],[-75.26927925004787,3.5237674705325617],[-75.26644093998652,3.514009241789381],[-75.25741854335354,3.510271904302101],[-75.25519976912233,3.5051504796171002],[-75.25704903321252,3.503056748569577],[-75.25677183195825,3.4999372324987235],[-75.2586675477117,3.4994646857871317],[-75.25636590055393,3.4927938949641657],[-75.25871124212057,3.4903181160328813],[-75.26115791510011,3.4924414538836572],[-75.26560065925412,3.4880055509293015],[-75.26634727047036,3.482010165047882],[-75.26477062283772,3.4785617376329583],[-75.27291158561093,3.479721158477105],[-75.27777957326288,3.4772506348870706],[-75.27950258883482,3.471443312061524],[-75.29131462140163,3.46035031919547],[-75.2919742726607,3.4581603403263443],[-75.30292238060161,3.449805662055496],[-75.29828934887058,3.44672006813272],[-75.29902241549883,3.443023503249094],[-75.29740793249431,3.440334096237791],[-75.28927656817513,3.4411243062177164],[-75.28986622980705,3.4396119465268953],[-75.28606794784451,3.4362132720756904],[-75.28405494336403,3.4250836584283775],[-75.28259100891762,3.4262558041918396],[-75.27954203474764,3.42485088383404],[-75.275628325539,3.4198903826352876],[-75.27503029649881,3.417849478566154],[-75.27788698585641,3.4129601743861144],[-75.27624806808615,3.4117732951551716],[-75.27578455212824,3.4079939961846435],[-75.27729120704845,3.401799335167027],[-75.27593785691232,3.3982511467709173],[-75.27163671489495,3.3963645903265274],[-75.27287495763062,3.3931940357388726],[-75.27102499522795,3.3890694999277002],[-75.27241974017545,3.3860558620141887],[-75.26946866653412,3.3854842341218614],[-75.2683256442059,3.381901314193442],[-75.27142730034393,3.3837605983990784],[-75.2772188797714,3.3827780768672824],[-75.28250563584726,3.388749552488548],[-75.28931098294714,3.3913545521369883],[-75.3014496488579,3.399237942509842],[-75.30240876818021,3.4044642806730394],[-75.30824998847118,3.4040375397627827],[-75.30865420546183,3.4088543181763953],[-75.31046106789546,3.410314987317804],[-75.30926013499749,3.4122084106728607],[-75.31240676801218,3.4143889628378474],[-75.31682244767285,3.4147437899050033],[-75.31884701596107,3.419324502708207],[-75.32121317526116,3.417985592933519],[-75.32313259455776,3.4133986343988454],[-75.32311465646336,3.4103749321468513],[-75.32126948351748,3.408421622583944],[-75.3236652928154,3.407856243508377],[-75.32999387864623,3.4016785332803465],[-75.33549310066206,3.3994771788085245],[-75.3389195389475,3.4002140712429423],[-75.34139144887803,3.3980946445590803],[-75.33986361421262,3.402362940179273],[-75.3416435499642,3.405598470736834],[-75.34427173790613,3.404317386171215],[-75.34795054261588,3.404965743074513],[-75.35059668819264,3.4028070782231907],[-75.35604101400367,3.4029755905867773],[-75.35847923524261,3.405205496679798],[-75.35665671374323,3.4063832700807097],[-75.35701742761535,3.4078745621264943],[-75.35953067065071,3.4077203533414604],[-75.36044805269029,3.409208061265133],[-75.36373071471161,3.4062274744088654],[-75.36766964544455,3.4058809016213445],[-75.37124715473692,3.400557119557959],[-75.3702717839659,3.3968939790561876],[-75.37371169690522,3.3959451307893005],[-75.37137245503118,3.387362097141647],[-75.3773614655974,3.3820051683758265],[-75.37767542441571,3.3775186948459464],[-75.3753042329464,3.3748988300893075],[-75.38577437428364,3.3749870550308287],[-75.38789237863153,3.3766228617624847],[-75.39015190901131,3.3756247449283023],[-75.39617036182995,3.3772450859414107],[-75.406650963456,3.36934142085272],[-75.41235549139492,3.3700506625816047],[-75.41300783762676,3.3717952188820846],[-75.41542688561185,3.371122296600788],[-75.41668453197252,3.3693818931511714],[-75.41541784663059,3.367379375699045],[-75.41924077316116,3.363686198505036],[-75.42884775606217,3.3634339873755152],[-75.44181961570791,3.374363752015711],[-75.44949713862803,3.3778763377887344],[-75.450056945602,3.3853348878130873],[-75.45366489884981,3.3928385155014666],[-75.45290004923396,3.397670222786701],[-75.45063199717947,3.3989770019602474],[-75.44925358595606,3.4043860357377866],[-75.4376431075541,3.4130237259631144],[-75.43599130134214,3.419144350432191],[-75.43765522980607,3.4216449230557373],[-75.43518222355578,3.434163096597217],[-75.43685404120225,3.4422257208469205],[-75.44046231223876,3.4497293403077265],[-75.43797834073433,3.4544606602902945],[-75.4258196767588,3.4672708302601336],[-75.40425553982402,3.4832924991712275],[-75.40233534816707,3.49553191851021],[-75.40483242408607,3.499978096633754],[-75.41341824481299,3.5044155792758716],[-75.41564577520376,3.509736968153504],[-75.4225491914969,3.4987529418576173],[-75.43052923592609,3.4965109577356657],[-75.45191983449871,3.4807979851025266],[-75.4548575023918,3.4827439413014645],[-75.43494998580843,3.5044551383173257],[-75.43083564186259,3.5124577035808215],[-75.42880765400304,3.5240566305164407],[-75.42438036836853,3.53075723485955],[-75.4169905296173,3.5358816831655417],[-75.42130443254945,3.5573909475497203],[-75.41483550031035,3.5648048405430472],[-75.41220602887216,3.573526892879727],[-75.40468222211308,3.58233970218339],[-75.39998455894045,3.584274485382764],[-75.39551830047668,3.591909230236297],[-75.38804324497835,3.596083371943905],[-75.384767587679,3.6002514396700462],[-75.37692637373385,3.6017160127792067],[-75.36620418273259,3.610980256926439],[-75.36656160456022,3.627522016418368],[-75.36295793580393,3.6361336551662475],[-75.36020843586783,3.6386803729771486],[-75.3534245369367,3.6403942549511044],[-75.35473630405647,3.643717810932287],[-75.3576012641488,3.6440488223560124],[-75.35893927712164,3.6460308604322904],[-75.35797075680625,3.6496091102032437],[-75.35446801219973,3.650899627643696],[-75.35531152429849,3.6571576633461973],[-75.35414877232904,3.6610153388925823],[-75.35184176390038,3.6619125665441175],[-75.3414913229879,3.659328487473374],[-75.33006450899313,3.6625304393826923],[-75.32809356164097,3.665271526659012],[-75.32403378685524,3.66367691522089]],[[-75.3764748165056,3.593705931657837],[-75.38079107148582,3.59763861357402],[-75.38834097497374,3.5947731145777766],[-75.38786272760524,3.5882950477121653],[-75.38093200410634,3.584406993002233],[-75.37884580125802,3.585376740249501],[-75.37649957523081,3.5906369090293424],[-75.3764748165056,3.593705931657837]]]}}]}