{"type":"FeatureCollection","features":[{"type":"Feature","properties":{"code":"735029"},"geometry":{"type":"Polygon","coordinates":[[[-75.06527885036593,3.815340416085917],[-75.07066374042688,3.788380312764218],[-75.08844132478606,3.664320911527909],[-75.092918780932,3.6661635257087823],[-75.09054851917466,3.668266753394562],[-75.09425946477,3.6723630368612703],[-75.09420374169747,3.6763155450923364],[-75.09366964784334,3.6785647437386046],[-75.09056099726774,3.679362848043297],[-75.0949291207179,3.684050603200717],[-75.10042198490203,3.687444590010955],[-75.1110986734925,3.6905477363621912],[-75.1188185219645,3.695802180830981],[-75.12111999840084,3.6935853626974335],[-75.13422283225822,3.694931913800076],[-75.14087054688792,3.6912784951654203],[-75.14298817174051,3.6923283601418007],[-75.14416509359097,3.6960707915048943],[-75.1458318986086,3.69629180997282],[-75.15365979113784,3.690856234150772],[-75.15916001999886,3.6976118581117134],[-75.16869089918191,3.7005437410156787],[-75.16904213801314,3.7026658488492217],[-75.17402391768758,3.7072838550350298],[-75.18232037891272,3.711824389674348],[-75.20110575672174,3.713546082669211],[-75.20823493260286,3.717319045405361],[-75.21901120939617,3.715078909394606],[-75.22249033684875,3.718925023190252],[-75.22193960485151,3.734378031265635],[-75.21065207179862,3.7456152683371897],[-75.20043032195537,3.7475716169477664],[-75.19716152950986,3.7516618881395516],[-75.19058914726622,3.753460710209538],[-75.18711080760062,3.752860517326269],[-75.18537446649896,3.7555216575949544],[-75.18129552257307,3.755789728336538],[-75.17784857920071,3.761394561114571],[-75.16792734231831,3.7648357256684335],[-75.15535624512484,3.763835053154594],[-75.15310812942857,3.7605532930773506],[-75.14722009957637,3.761807067351924],[-75.14333795121178,3.765350740885424],[-75.13911295816382,3.774902112814118],[-75.13461845969698,3.7767476354304677],[-75.1278307092486,3.786253299259897],[-75.11973367331223,3.790911072232575],[-75.11395739299564,3.7970811946116783],[-75.10166357007586,3.7967774091467277],[-75.09940634649269,3.798705478673355],[-75.09768670935443,3.80391031518883],[-75.09311158305093,3.808021375317651],[-75.08362744555188,3.8093658109140165],[-75.07382028968436,3.818009944331777],[-75.06882490268691,3.818059375392977],[-75.06527885036593,3.815340416085917]]]}}]}