{"type":"FeatureCollection","features":[{"type":"Feature","properties":{"code":"735078"},"geometry":{"type":"Polygon","coordinates":[[[-75.86874313418019,3.2319146590303376],[-75.87134040816841,3.227952975035123],[-75.87415928169463,3.216671523162802],[-75.87232701467394,3.210428870903513],[-75.86838165617525,3.2064207938663003],[-75.86170765969695,3.1940121268273174],[-75.8640991155977,3.190114886068727],[-75.87240420237026,3.1875642046403527],[-75.87531387605804,3.1833812399244152],[-75.87296640561533,3.1772580803444725],[-75.87496594675486,3.171572174414223],[-75.87410489251204,3.1638937351518734],[-75.87554937705352,3.158885461769671],[-75.87303380356735,3.1556247929916026],[-75.87254966219479,3.149091734276112],[-75.86938674687815,3.1403857122729164],[-75.87354102216165,3.1309382809158137],[-75.88022110599115,3.122162762937876],[-75.85998418749654,3.1095619550685],[-75.85842510463368,3.106608653820672],[-75.85893142128384,3.0923431698096238],[-75.86257905287243,3.0766600950290126],[-75.85925755994691,3.060243909397059],[-75.84476013129466,3.0545869808632347],[-75.83965447263347,3.055088117248431],[-75.83188793081428,3.059983355541817],[-75.82935676716801,3.0596123047939727],[-75.8224104154566,3.050726504867839],[-75.82274611966358,3.039870684216339],[-75.81706052637986,3.0335748069713873],[-75.81277477397634,3.038060130702547],[-75.7909251681379,3.046784911497241],[-75.78067477617049,3.045838322718623],[-75.77274729338154,3.0491698902670237],[-75.76591510598882,3.047245533417879],[-75.75588973107386,3.05051040749737],[-75.75047582864943,3.044470615524915],[-75.74237570327176,3.0400996515165275],[-75.73828054594958,3.0405225676490772],[-75.73629833406653,3.043139573335452],[-75.73713119767149,3.0371739762916263],[-75.74707783091344,3.031341320869956],[-75.75207030844695,3.0264342102361184],[-75.75410567229625,3.017805282341044],[-75.7565993245301,3.0150054267739392],[-75.76896408735792,3.012159560745374],[-75.77042540030436,3.007697663906356],[-75.76880642814825,3.0027469267408833],[-75.77066541821938,2.991571934095873],[-75.76964923884924,2.986322019916429],[-75.79584718090382,2.9675172755063386],[-75.8029734133824,2.9187754353248465],[-75.80784170853866,2.899779723537222],[-75.81115303942369,2.8928268134478685],[-75.82695401896842,2.877176501760573],[-75.8291969801108,2.8725707412397696],[-75.8362701007324,2.8739759629312402],[-75.84780551722872,2.870303636380868],[-75.85186434481892,2.8724632659112785],[-75.85900614791723,2.8717267550290444],[-75.86305720253887,2.8759466593434126],[-75.8704507992191,2.879514640115815],[-75.87678258144928,2.8869969841862826],[-75.88187949012143,2.8887462723507724],[-75.88416070006951,2.8979241098429043],[-75.89334674967517,2.8978462341185036],[-75.89749739352811,2.8940865022953517],[-75.90187739548941,2.894594038678349],[-75.90278466896746,2.8988010021005266],[-75.9076684216148,2.9002742172122],[-75.90891924528779,2.909276968536176],[-75.91058187688566,2.911358827243305],[-75.92682565852749,2.9130873655515757],[-75.92886286637423,2.921594228632557],[-75.93815603649574,2.9204091502044776],[-75.9437942772006,2.9218728686778945],[-75.94970750492291,2.9170523169086664],[-75.95301125207277,2.917097467592157],[-75.95897755771352,2.9345929676519518],[-75.96479832228277,2.9380352593788075],[-75.96539433249029,2.9445758545211334],[-75.97396181403025,2.946600189352864],[-75.98133245381649,2.955078549149391],[-75.98166007857907,2.963699080839774],[-75.98391129400108,2.9664946765979607],[-75.98269799613871,2.972474037288066],[-75.98639058917735,2.9808255633825524],[-75.98933598375908,2.9831211612414563],[-75.99704134867505,2.9807525213379904],[-76.01152691732818,2.9794138697023413],[-76.02520230878991,2.9717935065889947],[-76.03489389754321,2.9432268721803894],[-76.03165673073357,2.9714176807825083],[-76.02617481123474,2.987061710742921],[-76.02041841996805,2.994494233972432],[-76.02169308499549,3.0017176789516498],[-76.02432701061821,3.005374865799695],[-76.03233345413844,3.0081325068867955],[-76.03530897282997,3.0143912563283948],[-76.04191214150046,3.016305463478318],[-76.03884794946646,3.025184525049042],[-76.04455792300854,3.032436601867971],[-76.04610051788097,3.0429555644000175],[-76.05305171458508,3.0420580611258856],[-76.05588406173672,3.0441421248137885],[-76.05825075479851,3.0428807554911828],[-76.06164847382661,3.0463521624257623],[-76.06640566942292,3.0460226936658046],[-76.07416496483614,3.0502910746467364],[-76.07016151476176,3.066897498490448],[-76.0733917539826,3.072814612697073],[-76.07379954789633,3.077959911646701],[-76.08073308932774,3.086600503108343],[-76.08161216085506,3.0903865507186765],[-76.0860815663529,3.091454918404395],[-76.09207717643477,3.0969016147754473],[-76.09784226935363,3.0975574782806916],[-76.10384444501256,3.0959665610080833],[-76.10854350378173,3.1041913202492424],[-76.10753886456507,3.10850744461726],[-76.09171017363667,3.1118930403649188],[-76.09011817238564,3.1153806462976377],[-76.08429558130246,3.113601183629612],[-76.0813209162182,3.117915352928378],[-76.07620155150357,3.119181995075735],[-76.07349114575294,3.1234376161703494],[-76.07695832990254,3.1332871623816345],[-76.07412511371695,3.1353838748840417],[-76.07278454095069,3.140379979734348],[-76.07889617271843,3.150405587077273],[-76.0851219821746,3.152836569109354],[-76.08623573297183,3.1557689528647757],[-76.07873748198091,3.1646291188611144],[-76.08337480643104,3.172649942064595],[-76.09172520123872,3.1758430791931005],[-76.09237088830525,3.1779425756894284],[-76.09290298183873,3.187136061962974],[-76.09041441628159,3.190806991888394],[-76.09157169796526,3.1987973299987402],[-76.08527809460674,3.1941159090187625],[-76.08388652240438,3.190085764690423],[-76.07991933007105,3.1878863868851113],[-76.07886543771377,3.1823640465099174],[-76.07655993801029,3.1792858100649255],[-76.06455082088985,3.1725100276021294],[-76.05783854063878,3.169656285760766],[-76.05323151513375,3.169931438357594],[-76.03936251833943,3.1748334756844656],[-76.03390117386158,3.1748714478391094],[-76.0248027712127,3.168939712265228],[-75.99930692938216,3.1786037973802195],[-75.997377633952,3.181638124471874],[-75.98738200262318,3.184471142168036],[-75.98191166338705,3.185590993686276],[-75.97595972200298,3.1838870043009138],[-75.9734342775256,3.1849596801323514],[-75.96643783449287,3.183226825450845],[-75.96249356305793,3.1841447916457923],[-75.95638244756833,3.1830960435579527],[-75.95189576937838,3.1802910365222488],[-75.94683739233358,3.184147936622992],[-75.94249672727017,3.183583108792618],[-75.92607779775363,3.1921276694341145],[-75.91477000438312,3.193910154694663],[-75.91197040901193,3.199716702074568],[-75.90646868788082,3.2036954222201075],[-75.9057216539747,3.2060363106306795],[-75.898213442518,3.2084767358219324],[-75.89088896231732,3.2192489965472646],[-75.88767014806444,3.220845556883944],[-75.88283258688438,3.2192056127280466],[-75.88219870530952,3.2228123842953664],[-75.87857523492102,3.2223763637482534],[-75.87827769004525,3.2287095086647355],[-75.87536276204469,3.2319315625115905],[-75.87537819485311,3.2369512588048224],[-75.87373026278419,3.237485541892397],[-75.8729140825738,3.233570213915243],[-75.86874313418019,3.2319146590303376]]]}}]}