{"type":"FeatureCollection","features":[{"type":"Feature","properties":{"code":"735001"},"geometry":{"type":"Polygon","coordinates":[[[-75.08827913220176,3.636102126203923],[-75.0909348896023,3.623889778557384],[-75.08776290856486,3.623190882960273],[-75.0882049455007,3.617281586973661],[-75.0930478710369,3.6159778396486786],[-75.09759064768093,3.6167621165436685],[-75.09826064404331,3.6235273019347574],[-75.09688371172024,3.624617313193312],[-75.09861800622127,3.6302786177500366],[-75.09458586568599,3.6295169707042305],[-75.0933399353425,3.634069509324604],[-75.08827913220176,3.636102126203923]]]}}]}