{"type":"FeatureCollection","features":[{"type":"Feature","properties":{"code":"735538"},"geometry":{"type":"Polygon","coordinates":[[[-75.48593436855612,4.016569825496902],[-75.48174416463326,4.012320484072347],[-75.45637607387545,4.013980685460524],[-75.45133561641308,4.012606009540377],[-75.44996095694796,4.009856677240407],[-75.45630000409614,3.9975999996074734],[-75.46685281781367,3.986104052678172],[-75.46737341953042,3.978239287399333],[-75.471039202101,3.9690748515416203],[-75.47887111995425,3.9175095283546284],[-75.48533011229642,3.9136203989222054],[-75.48661354068258,3.909807240538669],[-75.48329504978079,3.911191741170228],[-75.4826470415195,3.9076297006818095],[-75.48271415253606,3.9105203553820616],[-75.47928854420377,3.9092802089992915],[-75.47583577778983,3.9133218585141094],[-75.47338779046072,3.9138364808660526],[-75.46947725091195,3.9089809733640664],[-75.46497600071996,3.9095726065202143],[-75.46474081339943,3.906208443514629],[-75.46310554762852,3.9056474651445683],[-75.45304933280778,3.908778011261404],[-75.44215817384287,3.909858412753067],[-75.43387404261506,3.910204445608258],[-75.4324889763401,3.907828168490653],[-75.44294180693288,3.880183387789657],[-75.4503946480728,3.8447324116112895],[-75.45900320252156,3.831391442917152],[-75.45960838335105,3.8278148787634336],[-75.46425748449644,3.828744195878471],[-75.4686908112023,3.8360915434985827],[-75.46785013349114,3.83871582130206],[-75.4725321746219,3.83945855528998],[-75.47867702302614,3.8465385510497754],[-75.48509856463403,3.8432157355472327],[-75.49398662199144,3.8452865384972483],[-75.49901489960905,3.8427886315967044],[-75.50387426171358,3.8436099838445443],[-75.5073657880692,3.840171008844777],[-75.51745237382596,3.845844991012484],[-75.52633963825417,3.847795077436558],[-75.53400432518322,3.8542486807399428],[-75.54401078601177,3.855363198755299],[-75.54901296587201,3.861035819265055],[-75.566344503398,3.8584237881551076],[-75.56853421384358,3.8645512743926815],[-75.57544584430713,3.8700244223052778],[-75.58045849268382,3.876749643448534],[-75.58129011393015,3.8804593055476744],[-75.57933024804618,3.8823678079269257],[-75.58358748893772,3.8932191075451783],[-75.59352053748245,3.897930921058446],[-75.60155491452991,3.8972840625958725],[-75.60193648727318,3.9029716243185817],[-75.60469817013939,3.90581911014408],[-75.60323368547625,3.9132883148329256],[-75.60514124785908,3.9149443541142546],[-75.60802430442595,3.9255955188183407],[-75.6208577336518,3.928196883950875],[-75.62394017539827,3.9323676400257455],[-75.62631319440999,3.93104962511768],[-75.63151609436818,3.932916528025544],[-75.63018838741783,3.942011088413153],[-75.63309623150633,3.950878577948629],[-75.6273663370327,3.961452530273732],[-75.62349770857344,3.963474710518369],[-75.61950712431502,3.968301958476843],[-75.60796384948941,3.9669027500888205],[-75.59449750953843,3.9737937705642707],[-75.58220583297816,3.984355255080686],[-75.58099206923134,3.9885092506278284],[-75.57707143449085,3.9874754355253685],[-75.57327913909222,3.988894555589013],[-75.56217768420112,3.9838667767660354],[-75.5520608365232,3.9822735516684133],[-75.54134117137676,3.9939292455457576],[-75.53821283949668,4.000208252219636],[-75.53976168010053,4.003661142046667],[-75.53769406635075,4.009089588705194],[-75.53039998279712,4.008060692643312],[-75.52264095375051,4.01271554072548],[-75.51021961629971,4.009835450186813],[-75.50343692270314,4.0133719626750235],[-75.48913147444432,4.014243813507392],[-75.48593436855612,4.016569825496902]]]}}]}