{"type":"FeatureCollection","features":[{"type":"Feature","properties":{"code":"735517"},"geometry":{"type":"Polygon","coordinates":[[[-75.12363640698226,3.8869160157759097],[-75.1394713487843,3.88589873700073],[-75.14851544246909,3.8825723980540943],[-75.1488278421686,3.879553771165945],[-75.16210193021732,3.8786761898518307],[-75.16162693684095,3.8652663401915106],[-75.16340577010214,3.861603328245053],[-75.16790130009684,3.8640003603611603],[-75.17330137202629,3.8592431740208326],[-75.18457264848831,3.8548411325363645],[-75.18562339689686,3.8498934539589413],[-75.19182071026768,3.844883674936966],[-75.1947595834954,3.8369712979117025],[-75.19522992316939,3.8348188016586278],[-75.19199547144802,3.8290669345105925],[-75.1919270039158,3.8191467250422875],[-75.19423047038839,3.8149795284069796],[-75.19706998681283,3.8006284275847406],[-75.20180189095072,3.796917639341018],[-75.20280613627386,3.788253980942102],[-75.21119728825857,3.780474108451017],[-75.21716186200211,3.7678076129294595],[-75.22728426635496,3.7652513820252693],[-75.23408754422849,3.7771465631412866],[-75.23884798661783,3.7798226929596126],[-75.24738658537802,3.7783583697619747],[-75.24930068145619,3.7743877414021654],[-75.24414562772927,3.768107500597239],[-75.24386354857216,3.764950174865703],[-75.24998495054382,3.766143319368439],[-75.25309600664644,3.7629537324235116],[-75.26063402236736,3.762188570161129],[-75.26518585239086,3.7549730184782675],[-75.26941169390386,3.7530115153137444],[-75.2737843610131,3.744844047519962],[-75.27556669200732,3.7479523823636782],[-75.2698308263964,3.759273754260846],[-75.27107055111776,3.7617013496316645],[-75.27606761241958,3.7597280080653377],[-75.2831888991181,3.763627973168127],[-75.28540097921694,3.7609260808646923],[-75.29125226281792,3.7592227095732937],[-75.29372812711,3.7565334496292735],[-75.29837391152824,3.757692151592096],[-75.30181213576492,3.754122820474663],[-75.30495923363566,3.758836794745662],[-75.31074162084388,3.757417070986264],[-75.30791751151685,3.7764714430782647],[-75.30750453219588,3.783624757533744],[-75.3088234161379,3.785435074505756],[-75.30722001460151,3.789306417024818],[-75.30728277016402,3.799493514525807],[-75.30363611148204,3.806502251560403],[-75.30670874600065,3.8072816145570982],[-75.31387856078788,3.8030180508009153],[-75.32010429208242,3.8069809864106787],[-75.32263905116372,3.812421797005129],[-75.32735385230251,3.817090621621162],[-75.32187015976876,3.8231443839567874],[-75.30424833200055,3.8358827017900694],[-75.28524501488056,3.8553653080908816],[-75.26640840109366,3.869625871004473],[-75.2573265964786,3.882853512532165],[-75.24623747261325,3.886905194503754],[-75.23901403174779,3.903674006335848],[-75.22707310550857,3.9172780002326135],[-75.22317849756286,3.9274937192888615],[-75.21999668152961,3.9295563029263008],[-75.21577472958614,3.920719806534578],[-75.20291915387912,3.9133508431095834],[-75.19054399555432,3.9164505534344016],[-75.18672186298136,3.9129621936533567],[-75.18063918495585,3.914708099270399],[-75.17786315943027,3.9129186134015868],[-75.16826760149718,3.911636904571367],[-75.16194637520101,3.907411625616362],[-75.15928038376904,3.9027786936442794],[-75.15068834507866,3.898441732002425],[-75.14805661415227,3.893782157198416],[-75.13284362913407,3.8969024075772154],[-75.12363640698226,3.8869160157759097]]]}}]}