{"type":"FeatureCollection","features":[{"type":"Feature","properties":{"code":"735557"},"geometry":{"type":"Polygon","coordinates":[[[-75.56656192848777,4.233002713003486],[-75.56311555590094,4.2306362575119465],[-75.5569505798482,4.219495295001423],[-75.5433470487506,4.207105440233022],[-75.53432103302839,4.209071096248408],[-75.52956031295957,4.204085797243636],[-75.52322768740652,4.203913932157434],[-75.51588810041363,4.200891090711821],[-75.50525993271276,4.184633360304133],[-75.49591357154418,4.1821376676403474],[-75.49177835021521,4.178349846995104],[-75.4792429296927,4.174615446739665],[-75.47744965504165,4.170931816577536],[-75.46777522996558,4.169338642902062],[-75.4573763648371,4.164721396735274],[-75.45710890807567,4.161400579496501],[-75.4535310707102,4.156629435134278],[-75.44986842077549,4.157474342829573],[-75.44826645905863,4.1559645172210935],[-75.44904458895275,4.153908689422565],[-75.44599301282318,4.150455368678138],[-75.44305535521448,4.150077923074662],[-75.44224632576493,4.146913970059472],[-75.43710431680296,4.145841336394199],[-75.43851580273775,4.141612961827207],[-75.43525772357793,4.137777965495218],[-75.43188557985843,4.137355428857973],[-75.42617867416038,4.145293310229249],[-75.41787747798588,4.146968658518858],[-75.41378781151832,4.151260338865086],[-75.40396861258887,4.146454762247345],[-75.39884893831305,4.139174750872712],[-75.39616354634137,4.140587899799073],[-75.39141780245251,4.138527126220481],[-75.39142547051989,4.134638421534817],[-75.39981792451289,4.117325418599933],[-75.40466299949401,4.115545940505285],[-75.40399933936601,4.118832255554423],[-75.40717338140229,4.121332375663258],[-75.41316216776801,4.118017384551365],[-75.42033422250302,4.120685328995705],[-75.41942638749538,4.11824811665889],[-75.42511034761236,4.117776871955471],[-75.42594211695445,4.1151248426591],[-75.42810155827988,4.115265834929346],[-75.42899421141908,4.117364589918566],[-75.4321525357683,4.116521818298452],[-75.43646366396251,4.111899781646343],[-75.44551973386046,4.108315490804046],[-75.4452984017176,4.105893547753283],[-75.45001366051332,4.101726186567191],[-75.45003646005551,4.099258060276668],[-75.4542864617402,4.096509749220104],[-75.45694928042701,4.091284763458873],[-75.45831498730001,4.077438997124148],[-75.45326405412214,4.069725256572269],[-75.43794366782328,4.059721786454531],[-75.439096073661,4.057370394560564],[-75.4424757404376,4.055793876511643],[-75.45867386334538,4.063475158389167],[-75.46393047782789,4.057523078165332],[-75.46684521556654,4.050285607287037],[-75.46644056148784,4.047581455495333],[-75.47036990816491,4.051973527258042],[-75.47414658872077,4.052293027324652],[-75.47703072926612,4.054514283187643],[-75.47903736460205,4.053272257840433],[-75.47982297435857,4.0445010233256085],[-75.4775800996054,4.036241832857286],[-75.47442132582677,4.0316388470744755],[-75.47462712334544,4.028254501912841],[-75.47226956182476,4.022953442258483],[-75.47313942364934,4.0199668595823255],[-75.48612528039774,4.016572975616327],[-75.48913147444432,4.014243813507392],[-75.50343692270314,4.0133719626750235],[-75.51021961629971,4.009835450186813],[-75.52264095375051,4.01271554072548],[-75.53039998279712,4.008060692643312],[-75.53769406635075,4.009089588705194],[-75.53976168010053,4.003661142046667],[-75.53821283949668,4.000208252219636],[-75.54134117137676,3.9939292455457576],[-75.5520608365232,3.9822735516684133],[-75.56217768420112,3.9838667767660354],[-75.57327913909222,3.988894555589013],[-75.57707143449085,3.9874754355253685],[-75.58099206923134,3.9885092506278284],[-75.58220583297816,3.984355255080686],[-75.59449750953843,3.9737937705642707],[-75.60796384948941,3.9669027500888205],[-75.61842387506601,3.968748654257297],[-75.62693110015874,3.9619636785468515],[-75.63309623150633,3.950878577948629],[-75.63018838741783,3.942011088413153],[-75.63151609436818,3.932916528025544],[-75.63900834748227,3.930444007200151],[-75.64581422731538,3.933230074438427],[-75.64696653750798,3.930525561663444],[-75.65551978437497,3.930726178917098],[-75.65017099676015,3.93845336121268],[-75.64972810004639,3.9500368142021784],[-75.65200990443424,3.954036645187273],[-75.6574570574337,3.957978090462177],[-75.66363691402125,3.959858400146686],[-75.66760410532618,3.9640334561397026],[-75.67401403993176,3.964993092768566],[-75.68752569306008,3.9630785328628804],[-75.69645269650727,3.9729150939589317],[-75.70271678048022,3.9764266019241745],[-75.71272643770811,3.978203426637151],[-75.7171439706222,3.9817920276820473],[-75.72642963722711,3.9997108912469344],[-75.7319681673444,4.003280983411798],[-75.73562246941123,4.014035356436409],[-75.73398258387647,4.0203792537194545],[-75.73167025222938,4.021603823311807],[-75.7319304358453,4.025562412723502],[-75.73946837340452,4.030829283863227],[-75.74570107548249,4.043601227653085],[-75.74338205690208,4.0481697739813285],[-75.73820961529754,4.051710259342997],[-75.7387965464145,4.056791589167915],[-75.7486162523661,4.064607839727785],[-75.75262185599911,4.071300146596684],[-75.75322471049162,4.077016064536508],[-75.75063796672629,4.086212506553807],[-75.74671626240558,4.095464869104603],[-75.7323793211799,4.103479688260734],[-75.73369223398458,4.111812402084638],[-75.73241775099149,4.1140913278619],[-75.72718359049446,4.111870277687387],[-75.72077469667272,4.112180851901428],[-75.7192487923939,4.1133846027318555],[-75.7181195398826,4.122226716476632],[-75.71626616510764,4.125359503569712],[-75.70585944987744,4.127672869830008],[-75.7032041470485,4.1317693178475565],[-75.69671846456606,4.131516725165852],[-75.69182089685034,4.138985273708386],[-75.69305634839304,4.147565247739578],[-75.68942466691948,4.156390353101983],[-75.69195763342543,4.15991612967872],[-75.68789921001314,4.1674939882911985],[-75.68055096353424,4.173061159504243],[-75.67578237793708,4.180501998719933],[-75.66865678309284,4.186069404417822],[-75.66718374075953,4.194058516624693],[-75.66458261936776,4.19779203756184],[-75.65491536253609,4.201458376519838],[-75.6529007547137,4.211884469664028],[-75.6552210321077,4.214705390819233],[-75.65899769723694,4.215740689964264],[-75.65936366439342,4.219372216143029],[-75.65498307930528,4.223590010093346],[-75.63892767233733,4.231567192366981],[-75.62930298171307,4.2459311888300135],[-75.63005773510866,4.25523395946243],[-75.62120683229415,4.262498003238534],[-75.61994068894137,4.268943567206804],[-75.61749905738702,4.2713843029877125],[-75.60607057320158,4.273122388327863],[-75.59777641980145,4.278632082973843],[-75.59574735207724,4.271353709908112],[-75.58971251822618,4.269849789616558],[-75.58637827775567,4.265926631078116],[-75.5793201497691,4.263208144854616],[-75.58044998437884,4.254724012410179],[-75.57751876276348,4.232634513098276],[-75.56846616077371,4.22964990811704],[-75.56656192848777,4.233002713003486]],[[-75.60755732158839,4.015047137157865],[-75.60822397037032,4.013494001778042],[-75.61289538254772,4.013278143006232],[-75.60749395513102,4.012093105715849],[-75.60712983608573,4.0061891710001305],[-75.60575941071846,4.008587440332519],[-75.60040109355526,4.007930164775701],[-75.60500023501999,4.01406336709681],[-75.60755732158839,4.015047137157865]]]}}]}