{"type":"FeatureCollection","features":[{"type":"Feature","properties":{"code":"735537"},"geometry":{"type":"Polygon","coordinates":[[[-75.39763596749543,4.1206097436128175],[-75.38866334850877,4.11737101768432],[-75.38743519582266,4.11273732260787],[-75.39003687874401,4.105587377330153],[-75.39009056858572,4.098467624039415],[-75.39280685908443,4.087414121309166],[-75.3987884864618,4.0680241529966565],[-75.40741770334921,4.060199260434274],[-75.40846264311438,4.055725168323875],[-75.40102416520267,4.054564344684138],[-75.39124258567216,4.056876108631002],[-75.38942672848026,4.0547589825729915],[-75.3895719754172,4.0509615717012935],[-75.391853073265,4.0474240328274504],[-75.40440368594045,4.045202131102542],[-75.40723447294477,4.043416439158193],[-75.40907344952444,4.04036555208512],[-75.40811946521563,4.026721721467368],[-75.40995084160511,4.021781873451289],[-75.42189880650494,4.0112523734972],[-75.42062464952812,3.992043972597628],[-75.42267710094984,3.9860980105783597],[-75.43196253409832,3.9723826805798126],[-75.42976512781735,3.9707956847585706],[-75.42035015513454,3.972271131590503],[-75.41870207702675,3.97045154218074],[-75.41838938524955,3.965638408567372],[-75.42099131705396,3.954658117574695],[-75.42804848858901,3.9439813888749313],[-75.43880629249782,3.918666223826051],[-75.43387404261506,3.910204445608258],[-75.45304933280778,3.908778011261404],[-75.46410281188383,3.9058486737527005],[-75.46510785630682,3.909675943396053],[-75.46947725091195,3.9089809733640664],[-75.47233756347254,3.913463326953206],[-75.47530526291564,3.913997229517065],[-75.47352017466704,3.9192736487171373],[-75.47539035624965,3.9210896766304586],[-75.47848286439148,3.919615244871295],[-75.47863908172474,3.923458158153778],[-75.471039202101,3.9690748515416203],[-75.46674729446903,3.9815264797099417],[-75.46705074157637,3.9855293960226277],[-75.46522898009601,3.989268278230554],[-75.45630000409614,3.9975999996074734],[-75.44996095694796,4.009856677240407],[-75.45133561641308,4.012606009540377],[-75.45637607387545,4.013980685460524],[-75.48174416463326,4.012320484072347],[-75.48496642622541,4.01457324627188],[-75.48593436855612,4.016569825496902],[-75.48152434532926,4.016815400086841],[-75.47207887006982,4.0209953586653455],[-75.47442132582677,4.0316388470744755],[-75.4775800996054,4.036241832857286],[-75.47982297435857,4.0445010233256085],[-75.47959435261515,4.052586461515659],[-75.47703072926612,4.054514283187643],[-75.47414658872077,4.052293027324652],[-75.47036990816491,4.051973527258042],[-75.46644056148784,4.047581455495333],[-75.46684521556654,4.050285607287037],[-75.46393047782789,4.057523078165332],[-75.45857430805268,4.0635035927679155],[-75.45588108346277,4.061061573490747],[-75.44873965060373,4.059855504550853],[-75.44452811266922,4.056276331238507],[-75.43921799655004,4.057267909235122],[-75.43831744291538,4.0601511540070305],[-75.45326405412214,4.069725256572269],[-75.45833758835283,4.077496011920459],[-75.45694928042701,4.091284763458873],[-75.4542864617402,4.096509749220104],[-75.45003646005551,4.099258060276668],[-75.45001366051332,4.101726186567191],[-75.4452984017176,4.105893547753283],[-75.44551973386046,4.108315490804046],[-75.43646366396251,4.111899781646343],[-75.4321525357683,4.116521818298452],[-75.42899421141908,4.117364589918566],[-75.42810155827988,4.115265834929346],[-75.42594211695445,4.1151248426591],[-75.42511034761236,4.117776871955471],[-75.41942638749538,4.11824811665889],[-75.42033422250302,4.120685328995705],[-75.41316216776801,4.118017384551365],[-75.40717338140229,4.121332375663258],[-75.40399933936601,4.118832255554423],[-75.40466299949401,4.115545940505285],[-75.39981792451289,4.117325418599933],[-75.39763596749543,4.1206097436128175]]]}}]}