{"type":"FeatureCollection","features":[{"type":"Feature","properties":{"code":"735569"},"geometry":{"type":"Polygon","coordinates":[[[-75.63151609436818,3.932916528025544],[-75.62631319440999,3.93104962511768],[-75.62394017539827,3.9323676400257455],[-75.6208577336518,3.928196883950875],[-75.60802430442595,3.9255955188183407],[-75.60514124785908,3.9149443541142546],[-75.60323368547625,3.9132883148329256],[-75.60469817013939,3.90581911014408],[-75.60193648727318,3.9029716243185817],[-75.60155491452991,3.8972840625958725],[-75.59352053748245,3.897930921058446],[-75.58358748893772,3.8932191075451783],[-75.57933024804618,3.8823678079269257],[-75.58129011393015,3.8804593055476744],[-75.58045849268382,3.876749643448534],[-75.57544584430713,3.8700244223052778],[-75.56853421384358,3.8645512743926815],[-75.566344503398,3.8584237881551076],[-75.54901296587201,3.861035819265055],[-75.54401078601177,3.855363198755299],[-75.53400432518322,3.8542486807399428],[-75.52633963825417,3.847795077436558],[-75.51828644996459,3.846016403583917],[-75.52401837252688,3.8398678939243496],[-75.53084972585276,3.827906931567952],[-75.53041091205574,3.8200859933670586],[-75.52693522268652,3.8108020380905145],[-75.53355471788194,3.8083344537892003],[-75.54224279562004,3.788313040282219],[-75.54047797180283,3.7802542140707374],[-75.54553830083154,3.7785696375663633],[-75.54679361262771,3.7761534671634536],[-75.54539756052975,3.759739839268093],[-75.54224948049642,3.7569974592395283],[-75.54645654470596,3.7447899966949194],[-75.53959687115844,3.748787025174181],[-75.53622433663077,3.749087623495768],[-75.5372464398298,3.745079340770019],[-75.53994757519956,3.7431695764917663],[-75.54037475936855,3.737225411161603],[-75.55357764937014,3.740306913940003],[-75.57217831170368,3.739393043003247],[-75.58256022707104,3.7348796880427813],[-75.58346616151692,3.7326156489709774],[-75.58032030703322,3.7258135178108773],[-75.57621485705829,3.7230472727736696],[-75.56532282288885,3.7238531716442367],[-75.55822790957023,3.7218035114154873],[-75.56889799041755,3.7085786127439633],[-75.5724592019813,3.7014536905011255],[-75.57196077965591,3.6963592675745076],[-75.57374211408933,3.691130162900947],[-75.57229182913204,3.6869831648767217],[-75.57678672971991,3.6814021117465927],[-75.58265533949208,3.6782401734503196],[-75.58807742214827,3.6723587441422296],[-75.59427298510997,3.655904084475651],[-75.58473683721587,3.6494485230177247],[-75.58436452765432,3.6431024423512213],[-75.5880202212038,3.631378995709156],[-75.59319997092092,3.6238883233112347],[-75.59837384823123,3.619954909143928],[-75.59991491586652,3.6138042109586763],[-75.59534096198752,3.6018748639537534],[-75.58922794799304,3.594942503174366],[-75.58713179804869,3.5893627438249496],[-75.59168797015656,3.5800435973022786],[-75.59485009768622,3.579026349380399],[-75.59383480689041,3.576743717096349],[-75.59565038948813,3.5751487940401034],[-75.59556670614887,3.572634318930568],[-75.60295970530393,3.5688640476284945],[-75.60975835621457,3.5717447603749406],[-75.61485512810395,3.5705601725139218],[-75.6176088487681,3.5759272345238173],[-75.62175909050006,3.5780126002199495],[-75.62636825310864,3.5758078775988906],[-75.62751274816651,3.578949566890401],[-75.6261078195812,3.5826143446726633],[-75.62809177570279,3.5869128405074093],[-75.62672576749611,3.5908409911058925],[-75.62872500421662,3.590465053199125],[-75.63228106019801,3.5942349347214986],[-75.63199113093913,3.600483697986249],[-75.63588901241735,3.6114605149001022],[-75.64304597887218,3.6177923413532653],[-75.64863069428611,3.619791273654812],[-75.65155364310988,3.6235833098858734],[-75.65582590234754,3.623362365465823],[-75.65883223317695,3.618464875911741],[-75.66325644376832,3.624654453337996],[-75.6682084747145,3.6278145620350415],[-75.67331271721031,3.635105336060633],[-75.68678077054648,3.6477849545086656],[-75.69109094228918,3.6486273373776044],[-75.69337209053072,3.6515561030722097],[-75.69748489386961,3.6527643183716805],[-75.70357342373308,3.649221281444113],[-75.71293489786444,3.6473540340080035],[-75.7250051744046,3.6423581358746446],[-75.73809688565615,3.647863363994759],[-75.74538332479653,3.645052955578933],[-75.74912194578013,3.6491336951654603],[-75.75241095020647,3.6735874326468547],[-75.75619482574615,3.6828921994862185],[-75.75936860964333,3.684882551491796],[-75.7692417400985,3.685784914156841],[-75.77866369179219,3.6813585674903493],[-75.78223467973055,3.676348287616804],[-75.79338084513171,3.6822152014872245],[-75.79874459864203,3.6946566861269616],[-75.79886676424354,3.69810545704172],[-75.81314937902158,3.710507857780442],[-75.81795591209084,3.7123958962104666],[-75.81910043285978,3.7160541001881597],[-75.82213687031549,3.7183311737404097],[-75.82431126108133,3.7248128236997218],[-75.82485872777357,3.7393370700191326],[-75.82277601648758,3.7435139011039382],[-75.82508016276074,3.752869162414072],[-75.823249854923,3.7590834234891872],[-75.8262626124897,3.7622747608432974],[-75.83066480104145,3.774140291961487],[-75.83651723032739,3.7734175231282165],[-75.84202636241531,3.7767689714989388],[-75.84442184261161,3.7750223377445877],[-75.84954100883681,3.775708873519534],[-75.85311913108092,3.7665970126718094],[-75.85847563818527,3.766499473126487],[-75.86933279684052,3.7523826155144775],[-75.88137180564274,3.7532615924250763],[-75.88603396080902,3.7491406314800884],[-75.88980305043066,3.749825013696352],[-75.89488507136895,3.742177861712321],[-75.90452895787286,3.7463448793985776],[-75.90996939000053,3.7414929879004717],[-75.9129065734972,3.7408702484718788],[-75.9142570810182,3.7456267190162293],[-75.91720941347319,3.7488691936176792],[-75.91581344365062,3.7520945559640495],[-75.91646207720498,3.7584436396827527],[-75.9127314256225,3.761765318756318],[-75.9102208287697,3.773116833275253],[-75.90649622545766,3.7810829165972564],[-75.90142320133452,3.7852316568030915],[-75.90326918263622,3.7962584673362016],[-75.89236549415614,3.8038427372593446],[-75.89344886373289,3.812951134312641],[-75.88475118856917,3.813277518773475],[-75.88060741059849,3.8181060152612076],[-75.87165096387048,3.824029565461103],[-75.86547656111361,3.834960173424122],[-75.86309009315909,3.8476766697640414],[-75.85354518293474,3.8517337397460096],[-75.85623843323572,3.8575036663446554],[-75.86162576070546,3.863023793511502],[-75.8615582948762,3.8739963526733163],[-75.85900302042353,3.8802322336670727],[-75.84942702963781,3.889138540737008],[-75.83825766874406,3.9056013199572135],[-75.83387025068379,3.9095146846375997],[-75.83092494249121,3.908390317228225],[-75.8284607170832,3.902307041677659],[-75.82218902469248,3.9028796609885603],[-75.81603971490466,3.9186408583198045],[-75.81190426011926,3.920280612213844],[-75.80712815146501,3.931812529948729],[-75.80906658049315,3.9387307691839055],[-75.80503764149944,3.9479130886285247],[-75.80584610324871,3.9527337792375192],[-75.79725526372232,3.960361259173112],[-75.79166334509699,3.9707734014945117],[-75.79261694991055,3.984940419333441],[-75.79678948107716,3.9886475545492885],[-75.79183045260811,4.007916254062195],[-75.7871380015821,4.0092050684018545],[-75.78326978038609,4.008038289051456],[-75.78014968633062,4.004894413291197],[-75.77599896225917,4.005911677668166],[-75.77334359875209,4.009183068987909],[-75.7728629180886,4.0142322013629155],[-75.76945295545232,4.019959769499565],[-75.76203693255457,4.0241438706445365],[-75.74570107548249,4.043601227653085],[-75.73946837340452,4.030829283863227],[-75.7319304358453,4.025562412723502],[-75.73167025222938,4.021603823311807],[-75.73398258387647,4.0203792537194545],[-75.73548531014626,4.015331898493116],[-75.7352181557469,4.010110427948348],[-75.7319681673444,4.003280983411798],[-75.72870982901708,4.002251724309758],[-75.72600976322758,3.9991084255056535],[-75.71657123201197,3.9810960724020674],[-75.71223057723307,3.9779794071739616],[-75.70271678048022,3.9764266019241745],[-75.69645269650727,3.9729150939589317],[-75.68752569306008,3.9630785328628804],[-75.67401403993176,3.964993092768566],[-75.66760410532618,3.9640334561397026],[-75.66363691402125,3.959858400146686],[-75.6574570574337,3.957978090462177],[-75.65200990443424,3.954036645187273],[-75.64972810004639,3.9500368142021784],[-75.65017099676015,3.93845336121268],[-75.65551978437497,3.930726178917098],[-75.64696653750798,3.930525561663444],[-75.64581422731538,3.933230074438427],[-75.63900834748227,3.930444007200151],[-75.63151609436818,3.932916528025544]]]}}]}