{"type":"FeatureCollection","features":[{"type":"Feature","properties":{"code":"230008"},"geometry":{"type":"Polygon","coordinates":[[[-75.85418548096243,8.858629120021305],[-75.85137826277531,8.853203620879071],[-75.85520867533899,8.852105516806319],[-75.85733019593187,8.844727708775679],[-75.85227316203299,8.831931482429525],[-75.85528590931528,8.828417930948945],[-75.85775804653161,8.815153100939824],[-75.86194608455452,8.806121836046998],[-75.85946887711657,8.802407102697828],[-75.8601738703494,8.799261092919267],[-75.86521185543592,8.791715096484438],[-75.87408983817045,8.784338092695862],[-75.87056084154011,8.772332092784666],[-75.87124783394353,8.768365091741657],[-75.87815782095595,8.772675083506897],[-75.88094353441,8.772511997206038],[-75.88266957977362,8.778982374406894],[-75.88756989137391,8.775536445078842],[-75.90778567228944,8.798377913792535],[-76.03972521710563,8.82932279170086],[-76.03249724697929,8.86084791790671],[-76.03113369469338,8.908611691769352],[-76.0323318137726,8.921771004604523],[-76.03860820717404,8.934871531665351],[-76.04950345111263,8.946860032627058],[-76.05042174538073,8.950105531877966],[-76.04449259222599,8.947408240826348],[-76.04401205862973,8.949416884710558],[-76.04134052183565,8.950435216610856],[-76.03885325725832,8.949059032993944],[-76.03084341987778,8.952287807712594],[-76.02835628488418,8.951680766430627],[-76.02561717633131,8.947056049657363],[-76.0261965843913,8.939575273961736],[-76.01752098474628,8.936770809943653],[-76.01617142544927,8.93504622599687],[-76.01820035227684,8.931836684181746],[-76.01566016507593,8.923727187635848],[-76.01211231298049,8.920324187555423],[-76.01539339839945,8.919019391219024],[-76.0128980944869,8.915409844913768],[-76.01693363196785,8.91479919277009],[-76.01707851894986,8.912652245992831],[-76.01165438043705,8.912082927982453],[-76.01221995080294,8.908276693073958],[-76.00487184316381,8.903720787332702],[-75.9958763721844,8.903105267570595],[-75.99329847096789,8.901574382544652],[-75.99290132760484,8.895203291184544],[-75.98665222906783,8.89013408464001],[-75.98319597829067,8.89599513947337],[-75.98149511639906,8.896016249284514],[-75.98394316646312,8.889687051530416],[-75.98009842460988,8.888500257660212],[-75.97524617212844,8.89095585752085],[-75.96074975649202,8.890202421560048],[-75.9580937203836,8.892138411122517],[-75.95507376680456,8.888857412092761],[-75.95057998619058,8.889588263455835],[-75.94731315292802,8.888009608303378],[-75.95244852535046,8.885230985960447],[-75.94777191233925,8.87743635429075],[-75.94240014520483,8.880630654587776],[-75.93692267063454,8.879200736906114],[-75.9343741602483,8.888309161727364],[-75.92109885760897,8.880190755783872],[-75.91774928820269,8.874733056106379],[-75.91000537314738,8.877897931634436],[-75.90865526157677,8.876608842700705],[-75.91085915630157,8.874496921590264],[-75.90429830289855,8.867222493630095],[-75.89981948098102,8.870304580563868],[-75.89346032366785,8.86269859816224],[-75.87972278856694,8.860724101654966],[-75.88057717541687,8.876392887255292],[-75.87792919509872,8.876576228731551],[-75.86968171447694,8.865472835226228],[-75.85418548096243,8.858629120021305]]]}}]}