{"type":"FeatureCollection","features":[{"type":"Feature","properties":{"code":"230007"},"geometry":{"type":"Polygon","coordinates":[[[-76.08768330489772,8.942657421573642],[-76.07762107677354,8.940274278573781],[-76.07681259137007,8.936679949104018],[-76.07580472798617,8.941637236419922],[-76.07112046233419,8.941924476301608],[-76.07308844468656,8.945776922217817],[-76.07066938024639,8.948805793421911],[-76.06498630767527,8.950843483608196],[-76.06397069806235,8.947377842122364],[-76.0604461967543,8.944630461806298],[-76.05701275374685,8.944322362024991],[-76.05042174538073,8.950105531877966],[-76.04950345111263,8.946860032627058],[-76.03860820717404,8.934871531665351],[-76.0323318137726,8.921771004604523],[-76.03067049549583,8.895773463830665],[-76.03249724697929,8.86084791790671],[-76.03972521710563,8.82932279170086],[-76.0839641194209,8.839916542572894],[-76.11996243270772,8.841312784932654],[-76.13534494104846,8.848391086847698],[-76.1434338605165,8.848718090430964],[-76.14324423319954,8.854797570000187],[-76.13832241995146,8.858591553072984],[-76.13737589802156,8.86533645346384],[-76.13296703282106,8.866024851748193],[-76.12878539376743,8.864687889843594],[-76.12594000185089,8.86603289931088],[-76.12307051866838,8.861893145635747],[-76.11553240833075,8.860341658849336],[-76.11765396286222,8.869325513570459],[-76.11407525440592,8.869206088768294],[-76.11818837553358,8.876333459732791],[-76.11088601198924,8.882077295773172],[-76.11341211158452,8.885202456964976],[-76.11848472227376,8.886700710538207],[-76.11549415129753,8.889661684995701],[-76.12394065508704,8.889115088365827],[-76.1293732206579,8.892420679513123],[-76.1371016771937,8.891325401600398],[-76.13886382911727,8.895800889307338],[-76.1448374850367,8.893077385312779],[-76.14624972893364,8.895493426131964],[-76.14701281477056,8.893038197539056],[-76.15096550503597,8.893788815567348],[-76.15999098596802,8.891106852422979],[-76.17486155619184,8.892764064128812],[-76.17738621699607,8.896041125252168],[-76.18090382465391,8.894382458300186],[-76.1832534147166,8.896429324250619],[-76.17894289947412,8.901742939131282],[-76.18068276916205,8.904012386782256],[-76.17977419367577,8.908993929914914],[-76.1772484643198,8.91053408635014],[-76.1782629714424,8.913363330690686],[-76.18071337458298,8.912850270542947],[-76.18181829414425,8.918177334366419],[-76.17777611292468,8.921987274753349],[-76.17643931557086,8.921103679107375],[-76.17160235705813,8.923989637939087],[-76.16121870773674,8.932639914243964],[-76.15886060525531,8.93223523136885],[-76.15600809548812,8.934084349420175],[-76.15032300716967,8.933379692488074],[-76.14866025524401,8.936629464917644],[-76.15089552980697,8.940222295946683],[-76.14946160634173,8.9440716740188],[-76.140672174565,8.943115423022732],[-76.14009279221608,8.950273958880814],[-76.13167614411287,8.948677269988764],[-76.12900606256494,8.952016172389222],[-76.12533643361928,8.949692750018016],[-76.12581701863763,8.946657390370035],[-76.12783068646354,8.945476102781072],[-76.13260029741798,8.946966619381271],[-76.13235589936625,8.944300105500417],[-76.12666418479267,8.942749161731626],[-76.11772222264909,8.94531611106379],[-76.1134261302845,8.942357817755976],[-76.11031326515143,8.944950168589855],[-76.10748288335344,8.938451768387267],[-76.09875436931242,8.940201581057465],[-76.09831993359523,8.937322541587037],[-76.09655763563285,8.93734117079481],[-76.0943134074493,8.939267906431496],[-76.0926428496449,8.938412899430716],[-76.08768330489772,8.942657421573642]]]}}]}