{"type":"FeatureCollection","features":[{"type":"Feature","properties":{"code":"230004"},"geometry":{"type":"Polygon","coordinates":[[[-75.89206998662502,8.751309867924078],[-75.89009076750966,8.75110260796015],[-75.8938174534178,8.745268136308994],[-75.88818185272493,8.738076666636118],[-75.87701088231864,8.733071033265901],[-75.86955054383276,8.724496515122269],[-75.85974504684299,8.728110769637397],[-75.85981628294252,8.726460206812419],[-75.87090583875369,8.722095666456028],[-75.87828418877353,8.721629484775121],[-75.88612355563595,8.711792827005524],[-75.89010871691698,8.714146890793131],[-75.88965705170222,8.72075829420288],[-75.89166139566828,8.722977591911274],[-75.89881999734672,8.721740073199157],[-75.89966400618323,8.724560065670858],[-75.90191496963683,8.723974048839239],[-75.90107399984794,8.72639504675135],[-75.90334297544382,8.726886030351977],[-75.9035636977203,8.730070575871707],[-75.90056761120684,8.732875872928219],[-75.90257404188276,8.739816139345237],[-75.908537743507,8.73825606917751],[-75.90320576887052,8.748971840640593],[-75.89886318061963,8.749975357826429],[-75.89316720418026,8.74801674664235],[-75.89206998662502,8.751309867924078]]]}}]}