{"type":"FeatureCollection","features":[{"type":"Feature","properties":{"code":"230028"},"geometry":{"type":"Polygon","coordinates":[[[-76.12077682034277,8.6744412520286],[-76.11562846280515,8.666399063960228],[-76.10262873545247,8.663242609319468],[-76.1004866254404,8.651400450585925],[-76.09680416358901,8.649959476118795],[-76.09394700937537,8.645050356936736],[-76.08943221459538,8.641572532520854],[-76.08654241761622,8.636420175370233],[-76.08833275503542,8.630539262340278],[-76.07748613071692,8.61796785455715],[-76.07220774719161,8.615558118090632],[-76.06263552050552,8.606716256314257],[-76.05533324952097,8.608287201233168],[-76.05206871996972,8.611403948736722],[-76.04596476655382,8.60594589630341],[-76.04284123030118,8.597713883457118],[-76.04712141780226,8.593957595887957],[-76.0508197248675,8.582102856217091],[-76.05612397989279,8.575643900898854],[-76.05079713307072,8.564834368388233],[-76.05871640066084,8.554442588200232],[-76.07119151639938,8.553688516662021],[-76.07880654806672,8.551579015476875],[-76.08431826051685,8.544994756778976],[-76.08773210449522,8.534970987262795],[-76.0922163226507,8.530807308929411],[-76.11401565410506,8.523792960712399],[-76.1226914378413,8.525817594820921],[-76.12579973463266,8.52373104641589],[-76.12786458392895,8.520959931703374],[-76.12469584968454,8.511660789416169],[-76.1222606356115,8.509948457305086],[-76.12517836817483,8.49902725342048],[-76.14357915167642,8.495076247743896],[-76.14691337466343,8.487382036287045],[-76.15151929253591,8.481636794365727],[-76.14921116001955,8.472147803646408],[-76.15049345609049,8.465223404040557],[-76.15793077391908,8.458555464060282],[-76.16562455034472,8.444963125502568],[-76.17357478639593,8.43470475590658],[-76.17562646031513,8.433678919461215],[-76.17742167460881,8.435730593380413],[-76.18101210422452,8.436243511603095],[-76.19280922848856,8.43598705197752],[-76.20717094489453,8.433678919461215],[-76.21270339383119,8.430144299307244],[-76.2146760658814,8.465095926533479],[-76.21254691115973,8.485810611085526],[-76.22016258663211,8.492957868014514],[-76.24590412852262,8.502444057256412],[-76.25425852397171,8.511071509336432],[-76.2569290950583,8.520984248198317],[-76.25613629957388,8.525442028181942],[-76.25272504521377,8.530631685914216],[-76.24344704770476,8.533477775114818],[-76.23691618985623,8.538517591857499],[-76.23437549357624,8.543624401345824],[-76.23389548654262,8.553815790537442],[-76.22435739077838,8.563946871859798],[-76.22419035217291,8.56664151878573],[-76.22738664250619,8.570952948313618],[-76.23236128376112,8.573977020804932],[-76.23872338859053,8.582860666143915],[-76.24154743723949,8.59942497320958],[-76.24524806035731,8.606022662338319],[-76.25135849398947,8.612494849598022],[-76.26369567604587,8.617911663543225],[-76.26817460903521,8.622596962779937],[-76.25920855562566,8.626632569166532],[-76.25227410093726,8.622394767895457],[-76.24691111361665,8.622858775448833],[-76.24059240186244,8.618806970064156],[-76.23358882555237,8.617845617993112],[-76.21622390786757,8.623953544282472],[-76.21456810924178,8.622643552254488],[-76.20736595610805,8.632856568563852],[-76.20476400682008,8.630904612431266],[-76.20474070745485,8.633130926174545],[-76.20301620989721,8.632526031252098],[-76.19552389610499,8.638318688487345],[-76.19318219933865,8.645294786870124],[-76.19666168777451,8.65112959585042],[-76.19560053975528,8.652667020742342],[-76.19341110493224,8.65225444559934],[-76.19420451233992,8.650939878030556],[-76.192098174644,8.649855931497541],[-76.18896268171864,8.652899072341597],[-76.19048131388041,8.65320581046501],[-76.19170988000036,8.658076072003382],[-76.1901610383681,8.660908306026386],[-76.19125884110719,8.661051339754977],[-76.19084782508298,8.663470672618644],[-76.18721597083106,8.666466879459904],[-76.18628466470824,8.66259340909329],[-76.1840568432682,8.662432867159225],[-76.18298869875451,8.660375203590831],[-76.16820214817068,8.661415197575877],[-76.16228936884931,8.663723368144588],[-76.15988612391197,8.666552285440446],[-76.14860255036274,8.668852236696523],[-76.13311348817791,8.668791231543196],[-76.1299313543559,8.671947231612364],[-76.12919169129736,8.685159556545614],[-76.12329323715176,8.684299705580543],[-76.11946114822678,8.681263577686025],[-76.12077682034277,8.6744412520286]]]}}]}