{"type":"FeatureCollection","features":[{"type":"Feature","properties":{"code":"230001"},"geometry":{"type":"Polygon","coordinates":[[[-75.88266957977362,8.778982374406894],[-75.87966141934493,8.771655955592053],[-75.88286018308247,8.770307541980003],[-75.88670164626103,8.759872472589564],[-75.89219721010676,8.75344721624731],[-75.89229196154446,8.74841180740924],[-75.90210974122323,8.749689351047323],[-75.90750774906854,8.742291078038988],[-75.91704797165193,8.752245968645923],[-75.910718707049,8.75786459900877],[-75.91148535438236,8.761273749175473],[-75.90659657779332,8.766383633706937],[-75.90499273608361,8.764923319378227],[-75.901000025006,8.769217006215797],[-75.89435173856225,8.76311823100798],[-75.89028960967158,8.773030647967346],[-75.88266957977362,8.778982374406894]]]}}]}