{"type":"FeatureCollection","features":[{"type":"Feature","properties":{"code":"230027"},"geometry":{"type":"Polygon","coordinates":[[[-75.95761899131696,8.611084801425875],[-75.96077552720465,8.608284813189641],[-75.96072222508582,8.597346013681943],[-75.96217954047614,8.593131670156254],[-75.96977871561671,8.590570154085924],[-75.97175046618247,8.587595583618395],[-75.9710223946995,8.585094089510335],[-75.9635835033539,8.57797950105794],[-75.96229415833795,8.573567737706412],[-75.96258431693951,8.546218835804268],[-75.96572778235128,8.540944016860749],[-75.97648602951881,8.533610076017283],[-75.96938380088864,8.526573592631962],[-75.96921474962119,8.519891389182419],[-75.96451496785693,8.508554871412343],[-75.96555262007837,8.505603206416538],[-75.98145969683867,8.49555294113577],[-75.98003202424707,8.494410804296592],[-75.9758632026726,8.49646665060709],[-75.97032382306179,8.496580874575443],[-75.96586947293395,8.4930973423036],[-75.96505685627687,8.489408633692335],[-75.9671473898967,8.485821810824518],[-75.9764913835906,8.477735538567572],[-75.98454347658884,8.476936039694863],[-75.98739882897121,8.474594650432778],[-75.98557140282946,8.469055263622863],[-75.97317916927346,8.463915631391558],[-75.973365816164,8.460969721560105],[-75.97736378463969,8.456951893859355],[-75.97746220041807,8.452722650258465],[-75.98231630409606,8.452151571554452],[-75.98816014794386,8.457751114024177],[-75.99179907685186,8.458113611215651],[-75.98854125891648,8.453664605903612],[-75.9882361570451,8.442753496182263],[-75.98947221536883,8.440762201094913],[-75.99719339361701,8.44122098827404],[-76.00319791412483,8.446152532645215],[-76.00814198801123,8.437943247350177],[-76.012857156304,8.434447082718862],[-76.00998079386949,8.431733793215415],[-76.0054412300799,8.421585585239768],[-76.00704351369922,8.417734596626644],[-76.01487156666542,8.414099210703114],[-76.01819815860893,8.406889354534883],[-76.01619919956795,8.405163164160854],[-76.0133533006292,8.408525831811062],[-76.00874500088389,8.409664496628295],[-76.00524301835321,8.406705204702803],[-76.00620439613533,8.399135757721638],[-76.01378070694182,8.39525430355576],[-76.00776097782602,8.386726391341767],[-76.00898177817652,8.381264645771353],[-76.01246088917401,8.379882781037963],[-76.02095267631609,8.384925959759244],[-76.02131892937962,8.383560275512025],[-76.01618422133112,8.377012236502765],[-76.0169166708938,8.374652798074521],[-76.02450818825139,8.373374946932131],[-76.03993562410363,8.345892661177572],[-76.04688630041585,8.34164117545032],[-76.04987711101921,8.341873874968371],[-76.05192939274792,8.354265164414073],[-76.05642321861336,8.35635094560098],[-76.0598947499895,8.353109395569334],[-76.05640801823296,8.352506612039349],[-76.05451587014659,8.34768001097126],[-76.05648438523218,8.342585413209349],[-76.05983381991251,8.340460629368408],[-76.05869700732023,8.337365886420969],[-76.06027330733934,8.331703131760264],[-76.06644023023375,8.333242683471326],[-76.07400244932086,8.326707499993574],[-76.08307356327595,8.325909560239666],[-76.08775005698783,8.323682186172107],[-76.082333406565,8.339924357272992],[-76.09899720824524,8.340222763983547],[-76.09903516394485,8.342313376793413],[-76.0960360959765,8.342348962961466],[-76.09581427326651,8.345206719842395],[-76.09238885211073,8.345155226753945],[-76.09219801431698,8.350189485793237],[-76.08903227798248,8.350138915217713],[-76.08885709616919,8.352698248932995],[-76.08581168041025,8.352562314543093],[-76.08395846915766,8.357123829409772],[-76.087170235494,8.355518265058834],[-76.08779612915578,8.357587827707164],[-76.09085540009232,8.358873529979746],[-76.090711116806,8.36037657506671],[-76.08832278634208,8.360324315788546],[-76.08987873656906,8.365157680923119],[-76.0869336608045,8.365586049857882],[-76.08548442588705,8.368082957112279],[-76.08678872240034,8.370506010881002],[-76.08894040824072,8.37095818826009],[-76.0892142927679,8.373826982386163],[-76.09132076004761,8.374085097804198],[-76.09354781426953,8.378821251466547],[-76.11226339477014,8.380660228046224],[-76.11219527279457,8.389492424519801],[-76.11499516949942,8.391659121507189],[-76.12228893320741,8.393251294508104],[-76.12524136747817,8.390632439682065],[-76.12819531870167,8.393074958782279],[-76.13002595461256,8.392086120556542],[-76.13705329617233,8.395642511810195],[-76.13947192146753,8.394633639524159],[-76.13799082334396,8.389297623108575],[-76.1415461625009,8.38133740807956],[-76.1475748431804,8.38117371191231],[-76.14940527237434,8.384886982816226],[-76.154669935448,8.380952370513455],[-76.15910278907029,8.381762606326049],[-76.16092534245138,8.387496524066819],[-76.16404617801396,8.387920550917329],[-76.1644433727991,8.391363428856437],[-76.1725840517222,8.392679073204476],[-76.17154697851385,8.402351938133279],[-76.17500263485124,8.404800368721112],[-76.17537672876057,8.40687099889277],[-76.18029045125132,8.407508938701824],[-76.17668136157454,8.414400018826939],[-76.17717678393313,8.41803771566083],[-76.179809392121,8.417700620999597],[-76.19010915858524,8.410102772549862],[-76.19778477991514,8.410934600513201],[-76.20756600566142,8.418795993528988],[-76.21270339383119,8.430144299307244],[-76.20717094489453,8.433678919461215],[-76.19280922848856,8.43598705197752],[-76.18101210422452,8.436243511603095],[-76.17742167460881,8.435730593380413],[-76.17562646031513,8.433678919461215],[-76.17357478639593,8.43470475590658],[-76.16562455034472,8.444963125502568],[-76.15793077391908,8.458555464060282],[-76.15049345609049,8.465223404040557],[-76.14921116001955,8.472147803646408],[-76.15151929253591,8.481636794365727],[-76.14691337466343,8.487382036287045],[-76.14357915167642,8.495076247743896],[-76.12517836817483,8.49902725342048],[-76.1222606356115,8.509948457305086],[-76.12469584968454,8.511660789416169],[-76.12786458392895,8.520959931703374],[-76.12579973463266,8.52373104641589],[-76.1226914378413,8.525817594820921],[-76.11401565410506,8.523792960712399],[-76.0922163226507,8.530807308929411],[-76.08773210449522,8.534970987262795],[-76.08431826051685,8.544994756778976],[-76.07880654806672,8.551579015476875],[-76.07119151639938,8.553688516662021],[-76.05871640066084,8.554442588200232],[-76.0535453700794,8.559989714040114],[-76.05079713307072,8.564834368388233],[-76.05609762605326,8.575820790955163],[-76.0508197248675,8.582102856217091],[-76.04712141780226,8.593957595887957],[-76.04275069136406,8.598324297002137],[-76.04650630633182,8.606768187519208],[-76.0524804867569,8.61260528375567],[-76.0429007277578,8.631103124463095],[-76.04168721906473,8.645347943978607],[-76.03554827906277,8.650983813094967],[-76.03466463302317,8.654973823482464],[-76.03319925361501,8.65190293937303],[-76.02285233717504,8.647357601907174],[-76.01832128683265,8.640535652659707],[-76.01297523590335,8.638295485795652],[-76.01110065361524,8.635751715500987],[-76.00119108235634,8.637353728639937],[-75.99764056968013,8.64373093923308],[-75.99575884383023,8.643586191090776],[-75.98996891710993,8.6389542495088],[-75.98302100422273,8.636638278203634],[-75.97896805520998,8.63142734405244],[-75.96376949718342,8.62462418033607],[-75.96333525275656,8.634756552353736],[-75.95870331117459,8.629400870060294],[-75.95855856303228,8.622163460888544],[-75.9558083473002,8.618689504444944],[-75.95761899131696,8.611084801425875]]]}}]}