{"type":"FeatureCollection","features":[{"type":"Feature","properties":{"code":"230018"},"geometry":{"type":"Polygon","coordinates":[[[-75.67209306048784,8.520132713219425],[-75.67554178820802,8.514035782009046],[-75.6727037116031,8.499274219493145],[-75.67400781888296,8.49051523681402],[-75.67575470254889,8.485521174450582],[-75.68078328252858,8.482147340999973],[-75.68014190463623,8.479352605019699],[-75.68461377325389,8.468863343907572],[-75.67961616070687,8.464716033236812],[-75.67303153485506,8.46438815856277],[-75.66975896288324,8.462192725862963],[-75.67367293845848,8.447464577444464],[-75.67258163341921,8.437984368595835],[-75.67496223410922,8.427341036510029],[-75.67922737549623,8.422781899402423],[-75.6908390993421,8.421806899899138],[-75.69554662939231,8.41975170973501],[-75.69748509133058,8.413867682581099],[-75.69610413368349,8.411639774751848],[-75.69681299591707,8.406512165013567],[-75.69846920797676,8.4035746884108],[-75.70223133504254,8.402053196150405],[-75.70373337225578,8.39724995409722],[-75.70258900575323,8.396111326303924],[-75.703184716684,8.39107681838152],[-75.70553400541303,8.389226708911565],[-75.71195142708018,8.389639697488462],[-75.71469074132159,8.378513582602636],[-75.72311030403091,8.371294887999397],[-75.72773436465786,8.373627831691522],[-75.72431147758442,8.400221332279159],[-75.73252006662392,8.396206868613888],[-75.774592402564,8.394985645573513],[-75.78198628309434,8.3915093813049],[-75.79592829827902,8.398508254547323],[-75.80523687446947,8.39900199540233],[-75.8145290212907,8.404594590742875],[-75.82455929467733,8.41645514728458],[-75.81958685943164,8.42408020009583],[-75.81953588879196,8.439840989135405],[-75.82694151927808,8.453307876217764],[-75.83201221295047,8.469085041147594],[-75.82869019757618,8.488543861629807],[-75.82913183650476,8.495962194409458],[-75.83470591885145,8.500152044548088],[-75.85424344912502,8.506240231940183],[-75.8574853529409,8.511813156260644],[-75.85232189066795,8.524776617644761],[-75.85738828956443,8.542407906055644],[-75.85933200170177,8.562681004129672],[-75.86759388771787,8.573766780414587],[-75.84168395996221,8.59219614124845],[-75.8278746981947,8.585365576738013],[-75.82329699975651,8.576709868199714],[-75.81456874385452,8.568362156598539],[-75.79682506827362,8.56268477748523],[-75.78990954104137,8.584704316994873],[-75.79209158444803,8.589032175891987],[-75.79306808856268,8.597370293152892],[-75.78151672503668,8.603738916251018],[-75.75871948140815,8.625778872401497],[-75.75333296743645,8.619420000995376],[-75.75423845245297,8.625319391023595],[-75.75210739305572,8.628702786932763],[-75.7477324232637,8.625041498655946],[-75.74043005252025,8.62498728328012],[-75.7329310785343,8.62240878762384],[-75.72607195726044,8.626017334282949],[-75.7235912500326,8.623720993888583],[-75.71927405608437,8.623057075621489],[-75.71750340819722,8.627601752827331],[-75.71479471686024,8.627585063262131],[-75.71280261650236,8.62261126635849],[-75.70710418105693,8.625599967626272],[-75.69944434529128,8.617075458528575],[-75.69340878947355,8.606157810998127],[-75.69018914012531,8.585375426131975],[-75.6929431456681,8.57682503216455],[-75.68510091562177,8.573588140977506],[-75.68372740287003,8.568288381274442],[-75.68644273691723,8.567276097644594],[-75.68687027898426,8.55866309723882],[-75.69370704088931,8.555683658124394],[-75.69371389957246,8.554344834738856],[-75.69075402863382,8.551699923293143],[-75.69022764707012,8.545406948312973],[-75.68661885049949,8.538872565991937],[-75.68734364433612,8.53374598161082],[-75.68322341461374,8.532436669383344],[-75.68251388080722,8.528989234415462],[-75.67789123223184,8.529938109421835],[-75.6802637853591,8.527063179607694],[-75.68079037363975,8.519554684300886],[-75.68292641275565,8.51604014345861],[-75.68589442690217,8.518684021319586],[-75.69035766071647,8.516697461181593],[-75.69021264517909,8.513500766670404],[-75.68617673745888,8.513309583319938],[-75.68439919694993,8.510917255299944],[-75.67741767764659,8.513738849056608],[-75.67477879698777,8.519710461460761],[-75.67209306048784,8.520132713219425]]]}}]}