{"type":"FeatureCollection","features":[{"type":"Feature","properties":{"code":"230029"},"geometry":{"type":"Polygon","coordinates":[[[-76.0839641194209,8.839916542572894],[-75.90778567228944,8.798377913792535],[-75.88756989137391,8.775536445078842],[-75.89028960967158,8.773030647967346],[-75.89435173856225,8.76311823100798],[-75.901000025006,8.769217006215797],[-75.90499273608361,8.764923319378227],[-75.90659657779332,8.766383633706937],[-75.91148535438236,8.761273749175473],[-75.910718707049,8.75786459900877],[-75.91704797165193,8.752245968645923],[-75.90750774906854,8.742291078038988],[-75.90961751764871,8.737488082812035],[-75.91660628232961,8.739979156740446],[-75.92107087368805,8.736552217603503],[-75.92246224842938,8.716218680019551],[-75.92456798962871,8.715169232590824],[-75.92833325138724,8.71678177183901],[-75.93619936906799,8.725158089568822],[-75.93902664702648,8.724440122533622],[-75.94146384702202,8.7213452942255],[-75.94212732203033,8.715502981728605],[-75.9366774786252,8.708153274861331],[-75.93364048786742,8.700634760467494],[-75.93628751481941,8.699135766415623],[-75.9422117468767,8.70093637694714],[-75.94537045483503,8.699448640227104],[-75.94726262554713,8.696914721383337],[-75.94749916115575,8.692552317102013],[-75.93917530839252,8.68538457565495],[-75.932096094249,8.674851806282106],[-75.92241304773933,8.673053222810779],[-75.92035345892651,8.665509144421208],[-75.91536333961164,8.658572351054602],[-75.91383751555139,8.648692166512205],[-75.91424953636385,8.646376591157377],[-75.92099420638363,8.642557147961611],[-75.91527198100584,8.640270127313329],[-75.91504310215174,8.636694790091553],[-75.92750999960612,8.634531905540598],[-75.93709325530978,8.622492993411981],[-75.94456240446272,8.620985869521974],[-75.94540169377655,8.619509605078235],[-75.93733721215966,8.613026358976128],[-75.93623098647635,8.602092311901288],[-75.93852753255925,8.597664347494742],[-75.94170147689351,8.597859913038803],[-75.94533314088358,8.605415032787164],[-75.95212347889333,8.611271707483866],[-75.95761899131696,8.611084801425875],[-75.9558083473002,8.618689504444944],[-75.95855856303228,8.622163460888544],[-75.95870331117459,8.629400870060294],[-75.96333525275656,8.634756552353736],[-75.96376949718342,8.62462418033607],[-75.97896805520998,8.63142734405244],[-75.98302100422273,8.636638278203634],[-75.98996891710993,8.6389542495088],[-75.99575884383023,8.643586191090776],[-75.99764056968013,8.64373093923308],[-76.00119108235634,8.637353728639937],[-76.01110065361524,8.635751715500987],[-76.01297523590335,8.638295485795652],[-76.01832128683265,8.640535652659707],[-76.02285233717504,8.647357601907174],[-76.03319925361501,8.65190293937303],[-76.03466463302317,8.654973823482464],[-76.03554827906277,8.650983813094967],[-76.04168721906473,8.645347943978607],[-76.0429007277578,8.631103124463095],[-76.05162247259017,8.615819326035307],[-76.0523698561667,8.610618866571201],[-76.05598975580278,8.608027091665065],[-76.06283049366664,8.606797564979786],[-76.07220774719161,8.615558118090632],[-76.07776133987801,8.61821309284636],[-76.08689741129103,8.628372216710886],[-76.08855383726677,8.631383145706764],[-76.08685331784653,8.637591048950242],[-76.09657922881195,8.649738311611998],[-76.1004866254404,8.651400450585925],[-76.10262873545247,8.663242609319468],[-76.11562846280515,8.666399063960228],[-76.12063617054395,8.673755282925526],[-76.11932001505994,8.681064932985123],[-76.1230452097264,8.684197705679992],[-76.12919169129736,8.685159556545614],[-76.12929810218787,8.689855634888374],[-76.1339908545475,8.692676719566009],[-76.13468504296321,8.697371729356973],[-76.13894983056599,8.700065144208736],[-76.1391787886102,8.703839833699874],[-76.13703519249867,8.707308837164305],[-76.1386981768523,8.709890926198739],[-76.13766028500373,8.721553012874779],[-76.14486986554937,8.722630963587903],[-76.14032291240028,8.729198846395548],[-76.13788067817865,8.736499658020136],[-76.13421178148405,8.736666396320345],[-76.12730757020483,8.73376474756958],[-76.12935160999524,8.723459387406479],[-76.12332453265765,8.722936160076017],[-76.12022638453703,8.73327319318338],[-76.11424498238853,8.73157490651181],[-76.1124059369032,8.737781319542023],[-76.11741912007,8.73991516087625],[-76.1147709340633,8.745342039159993],[-76.11830325873359,8.760002211641734],[-76.12295782296559,8.76095976361762],[-76.12132447112623,8.764056671436549],[-76.11761692864712,8.764901226376082],[-76.11666383188424,8.766786989891273],[-76.118958957688,8.768231709946065],[-76.12665060523767,8.76821833710801],[-76.12455231510444,8.77307981780416],[-76.13202135524244,8.788736006012016],[-76.13508094499616,8.788551027255266],[-76.13878152491935,8.793825927445766],[-76.14411515534835,8.795535027161975],[-76.14548779803766,8.797662251497059],[-76.1417336239179,8.803861158953794],[-76.14171038420227,8.807044206032742],[-76.14706656426193,8.815021775000787],[-76.14555626454148,8.816134733897286],[-76.1461740849295,8.817988220772463],[-76.14277104988201,8.819449294091783],[-76.13911670667756,8.827812942438243],[-76.14722659917379,8.838970637708485],[-76.14329753531842,8.843984647743014],[-76.1434338605165,8.848718090430964],[-76.13534494104846,8.848391086847698],[-76.11996243270772,8.841312784932654],[-76.0839641194209,8.839916542572894]]]}}]}