{"type":"FeatureCollection","features":[{"type":"Feature","properties":{"code":"230557"},"geometry":{"type":"Polygon","coordinates":[[[-75.71826295310655,8.975190186962891],[-75.71730941617022,8.967534729277077],[-75.7223526535127,8.966390518069318],[-75.73000502689945,8.961553921568338],[-75.7342855918389,8.955358529328123],[-75.72767090358377,8.952023659450788],[-75.72152824473369,8.94573566624615],[-75.72322187770288,8.938803950300212],[-75.73073025165348,8.935911228430541],[-75.73488068159037,8.929505188536723],[-75.71962897776825,8.921300875761233],[-75.7230248445714,8.915083572553158],[-75.73155434264373,8.915662618601345],[-75.74565394299026,8.896643892327063],[-75.74364068962666,8.886904396664363],[-75.72777005367016,8.88519891500897],[-75.73005881135782,8.875736223621743],[-75.72959422684823,8.86798257230106],[-75.72480189348482,8.862792174090146],[-75.72183433699524,8.864086345586827],[-75.71834038042999,8.861174486458765],[-75.71600494790698,8.861695362769638],[-75.71533399817844,8.859469289681897],[-75.7189960279623,8.85493878544247],[-75.7290985885167,8.858214718364366],[-75.73612460338563,8.863896774834245],[-75.73865066801386,8.864099115757597],[-75.73598002699322,8.850625211611941],[-75.74570032574786,8.854287653801237],[-75.74428461085739,8.845627081758323],[-75.74754017650372,8.853745268643479],[-75.75423158245695,8.858628344575664],[-75.75788450229697,8.870117550064322],[-75.76366320562408,8.874153503035984],[-75.75988174486741,8.876443194549495],[-75.76571005100567,8.876477887000988],[-75.76900581949843,8.87960019426481],[-75.76917792112641,8.878366801664072],[-75.77319160009006,8.878304355662806],[-75.77647755312745,8.884470725255142],[-75.78371870171617,8.88308302102513],[-75.78381154539301,8.899968397560713],[-75.77990128455218,8.900427118919538],[-75.78034639036053,8.903394673352238],[-75.78702940627966,8.900565192469912],[-75.78799733935438,8.897925034485525],[-75.7942849458646,8.896641316078558],[-75.79392145931143,8.893893771211708],[-75.79848060258973,8.895881472920905],[-75.80012704033169,8.895198979953477],[-75.80044996202662,8.89127142379482],[-75.80386808124052,8.891435581732765],[-75.80559100425262,8.893253874276525],[-75.80498928207533,8.900995230566878],[-75.8075455119511,8.899773489191432],[-75.80837926310193,8.893580494250727],[-75.80999054250793,8.895641452949008],[-75.80826312725895,8.90037619764513],[-75.80955799398276,8.902396708727565],[-75.81821839016203,8.907310490867985],[-75.82427270991354,8.907015772152306],[-75.8259230032865,8.90448725674554],[-75.8273978752191,8.904085176858416],[-75.82814954225876,8.904353640465047],[-75.82554429064186,8.905561909243488],[-75.82804757321145,8.910128783324183],[-75.82612460373127,8.911625607362339],[-75.82328642325365,8.910223426775417],[-75.81969285174603,8.92167272972273],[-75.8150683509457,8.922228666667536],[-75.80825582737396,8.929927724145557],[-75.81246605610107,8.944572679791804],[-75.80476088864606,8.94217862810217],[-75.77732446422874,8.940113624539492],[-75.76825349631247,8.94442649285844],[-75.76740509808332,8.948682638458706],[-75.76311756236043,8.950624926203204],[-75.76349875663692,8.952347166329446],[-75.76169958798181,8.953463554053315],[-75.76247009300306,8.95535238644095],[-75.76393391534918,8.954569602844458],[-75.76264557615002,8.959281888412875],[-75.7651552618027,8.961340103226519],[-75.76403404759816,8.965961269816205],[-75.76574287169177,8.971109464859921],[-75.7628429805493,8.970700206444008],[-75.76231702990299,8.973187962616919],[-75.75801276039192,8.97736269156519],[-75.75332878887451,8.974819462231324],[-75.7481789915173,8.975631317840907],[-75.74627915582312,8.974258218523119],[-75.73576576025044,8.976857583335004],[-75.73294999159219,8.974337317065647],[-75.72736496661707,8.975911189960414],[-75.72590022998554,8.973872844656285],[-75.72358074654915,8.976197998924704],[-75.71826295310655,8.975190186962891]]]}}]}