{"type":"FeatureCollection","features":[{"type":"Feature","properties":{"code":"230529"},"geometry":{"type":"Polygon","coordinates":[[[-75.8548716259292,8.956117325531295],[-75.85476602750828,8.95040319399618],[-75.85939731500082,8.941494829012754],[-75.85784865540285,8.922021470467087],[-75.85375052279642,8.918062795694652],[-75.85822949075282,8.915874687562507],[-75.8691850857553,8.916320290108558],[-75.8706048434533,8.913470089194789],[-75.87864648439029,8.917168179258681],[-75.8819433903405,8.911535573390438],[-75.88752740744195,8.918829750532382],[-75.89005349778125,8.919788948016276],[-75.89314337413867,8.915516241406124],[-75.89834596556409,8.91454643656607],[-75.89869808679902,8.911555675327918],[-75.90061189799854,8.91241162129677],[-75.9019247676087,8.907757832510356],[-75.90570934968844,8.911102215481037],[-75.90664076791148,8.909029283654945],[-75.91223972622583,8.910238686805485],[-75.91743540651754,8.909744272320609],[-75.91768012338645,8.907909664564727],[-75.92554590990869,8.908001765706047],[-75.92942991769735,8.911992652326603],[-75.93435042173809,8.913366622735225],[-75.93358064074039,8.918737303834348],[-75.94399469699329,8.922881745150448],[-75.94260631193436,8.928997685063905],[-75.95803343822536,8.932034835230297],[-75.94451895173785,8.948619330622591],[-75.92917093016007,8.993899611206587],[-75.92151892804105,8.993801965731677],[-75.89297586759187,8.985462571145092],[-75.87938335111363,8.984997335631363],[-75.87263318509707,8.982408157542636],[-75.86434365763137,8.974867830911421],[-75.85827289102713,8.976520762239431],[-75.85804062654023,8.974661770111481],[-75.86166668654704,8.973126966719576],[-75.85830848747958,8.967823703112856],[-75.85913844162064,8.957209199299257],[-75.8548716259292,8.956117325531295]]]}}]}