{"type":"FeatureCollection","features":[{"type":"Feature","properties":{"code":"230558"},"geometry":{"type":"Polygon","coordinates":[[[-75.83527274905947,8.905868605200794],[-75.8259230032865,8.90448725674554],[-75.82427270991354,8.907015772152306],[-75.81821839016203,8.907310490867985],[-75.8087419330717,8.901661260226433],[-75.81014949652678,8.897025899073128],[-75.80751534876043,8.890089968569725],[-75.80438199396713,8.889022668407335],[-75.80156217633066,8.885590338174666],[-75.80842455365354,8.885070524244895],[-75.80874020323142,8.883163124356031],[-75.80450855513192,8.882980334124966],[-75.80198588127865,8.87911112665256],[-75.80324795302744,8.876200712486195],[-75.80685170508752,8.875633610769455],[-75.80645924628021,8.869865150729765],[-75.79427174580485,8.877761029480155],[-75.79332899517368,8.874113842178701],[-75.79159205037627,8.875026593141627],[-75.78872949272568,8.870343117333505],[-75.78424579701903,8.874060888701877],[-75.78551169457398,8.876560185028211],[-75.78348622331328,8.87888595739065],[-75.7751659464447,8.877542102864311],[-75.77531973768208,8.87389867863402],[-75.77319160009006,8.878304355662806],[-75.76917792112641,8.878366801664072],[-75.76900581949843,8.87960019426481],[-75.76571005100567,8.876477887000988],[-75.75988174486741,8.876443194549495],[-75.76366320562408,8.874153503035984],[-75.75768440543521,8.869822805637511],[-75.75409326105193,8.858380850911999],[-75.74733404576966,8.853465961138966],[-75.74284671349028,8.842590575396969],[-75.73749845243805,8.841047317179118],[-75.74351054536817,8.836750269391416],[-75.74204573263188,8.83532199824623],[-75.74255635434241,8.828870040450852],[-75.74948469185466,8.819370961738912],[-75.74518155260193,8.808407870418876],[-75.78256675970607,8.797382767100373],[-75.78815156973667,8.792560706605968],[-75.79378277075244,8.798355422783118],[-75.79070064885161,8.803703951230375],[-75.79105860444093,8.806589866867512],[-75.79732339392541,8.807614213099669],[-75.80006251893337,8.816411159705922],[-75.80196181058147,8.814764391833876],[-75.81003417829561,8.823701674564006],[-75.81896813504261,8.823843424796337],[-75.82041773197187,8.82138074308051],[-75.83234248492403,8.831856278598764],[-75.8345177292972,8.836710529344032],[-75.83698169450929,8.834048746298777],[-75.84234523307515,8.83700595459976],[-75.84607240337971,8.837011693308966],[-75.84591768551559,8.833323029949213],[-75.84201906355878,8.828490949339368],[-75.84361191018951,8.826054393148809],[-75.85311179005822,8.831775834853431],[-75.85733019593187,8.844727708775679],[-75.85520867533899,8.852105516806319],[-75.85137826277531,8.853203620879071],[-75.85415644700169,8.858716551005159],[-75.84719816947086,8.863377193332497],[-75.83853849217292,8.865312123599153],[-75.83685232775326,8.867424555845503],[-75.83583751209795,8.875002526558205],[-75.83309840971572,8.878801996371863],[-75.83356377275635,8.887635060850926],[-75.83505913846295,8.889943014418236],[-75.8420479237127,8.89117140056078],[-75.8462589679948,8.888492498061396],[-75.85298386723554,8.892130474631642],[-75.85604063699981,8.898678965127147],[-75.85606241427018,8.90288948798883],[-75.85312600827604,8.908370333793698],[-75.85504865791063,8.911306733617153],[-75.85471165272389,8.913717067608786],[-75.85201988338014,8.917667832629775],[-75.85555142232033,8.919887632218149],[-75.85220281862155,8.919856182445926],[-75.84805187137806,8.917163611945455],[-75.8480029637941,8.913371525320713],[-75.84299405483443,8.906097579700031],[-75.83893462354848,8.90836260813353],[-75.83527274905947,8.905868605200794]]]}}]}