{"type":"FeatureCollection","features":[{"type":"Feature","properties":{"code":"230528"},"geometry":{"type":"MultiPolygon","coordinates":[[[[-75.7441249533839,9.041303734606686],[-75.74412529791215,9.041302882027821],[-75.7440579431547,9.041495038284893],[-75.7441249533839,9.041303734606686]]],[[[-75.84459440601029,9.040768658589911],[-75.83803987752873,9.039547372814525],[-75.83498972373519,9.04435972275462],[-75.82834833197006,9.041401117828741],[-75.8331132223733,9.038664905370013],[-75.83135229429638,9.035113744775003],[-75.82771537290813,9.033391384320907],[-75.82986957946116,9.014911259564315],[-75.82926269553082,9.008384685178896],[-75.827098744485,9.004633838070674],[-75.82017410319514,9.002614150770682],[-75.81195109230623,9.009394528314658],[-75.80589203040626,9.010837162688063],[-75.80127560287974,9.007374841014666],[-75.7979575459807,9.001027253679865],[-75.79651491160729,9.001027253679865],[-75.7923312742899,9.006364997878904],[-75.78252136631016,9.004778100788087],[-75.77992462505512,9.012279796032999],[-75.77992462505512,9.018194593158626],[-75.77252976339065,9.016214968836948],[-75.77523924148613,9.01232207736183],[-75.77539093367233,9.008491853003136],[-75.77834892873182,9.00640608827132],[-75.77838685152125,9.003220555446774],[-75.77550470306909,9.000945175739332],[-75.77558054864795,8.995901415948083],[-75.77288801517142,8.994346572325242],[-75.77162434213756,8.989708395296304],[-75.77690147199144,8.977182531061658],[-75.77340004790506,8.973346876526477],[-75.76801993495963,8.973934641710343],[-75.76611207124313,8.972701706766486],[-75.76403404759816,8.965961269816205],[-75.7651552618027,8.961340103226519],[-75.76264557615002,8.959281888412875],[-75.76393391534918,8.954569602844458],[-75.76247009300306,8.95535238644095],[-75.76172228467976,8.953821664937436],[-75.76349875663692,8.952347166329446],[-75.76311756236043,8.950624926203204],[-75.76740509808332,8.948682638458706],[-75.76825349631247,8.94442649285844],[-75.7732424750846,8.943098930918495],[-75.7769279585001,8.940114313595984],[-75.80476088864606,8.94217862810217],[-75.81246605610107,8.944572679791804],[-75.80825582737396,8.929927724145557],[-75.8150683509457,8.922228666667536],[-75.81969285174603,8.92167272972273],[-75.82328642325365,8.910223426775417],[-75.82601782774361,8.911627235386845],[-75.8279328874724,8.910496466951258],[-75.82558219491932,8.906009080164381],[-75.82731362006575,8.904367429822344],[-75.83476866721486,8.905694750078283],[-75.83893462354848,8.90836260813353],[-75.84299405483443,8.906097579700031],[-75.8480029637941,8.913371525320713],[-75.84805187137806,8.917163611945455],[-75.85220281862155,8.919856182445926],[-75.85532964280492,8.920191458820852],[-75.85391775886285,8.91847353506779],[-75.85699416468015,8.920342017663359],[-75.85872599503296,8.927696879084522],[-75.85940490079281,8.94311035897175],[-75.85436925232767,8.952222826600519],[-75.85604007238487,8.961705334018177],[-75.85524652716589,8.965748974597716],[-75.85222514508024,8.971214556258701],[-75.84389356974214,8.96923650751097],[-75.83784317555575,8.978553012993245],[-75.83907917011607,8.982990553228092],[-75.84460294825385,8.99023480977013],[-75.84017769482176,8.999342504397191],[-75.84754184102201,9.030356427822426],[-75.84634272126817,9.03049384419802],[-75.84716077015867,9.03396513183327],[-75.843290100241,9.04668083524399],[-75.84459440601029,9.040768658589911]],[[-75.83989402157869,8.968706207581306],[-75.83886068264513,8.961140080412576],[-75.84150967392236,8.958160066398818],[-75.84666411469749,8.957141966926486],[-75.83750190541787,8.945074449697586],[-75.8275258782603,8.950560690711939],[-75.82778521752493,8.955741522350536],[-75.8297149037632,8.95642230090425],[-75.82999920744152,8.96500955939382],[-75.82855974992708,8.968752105942428],[-75.83455269428595,8.970395558115797],[-75.83438754287249,8.97206508439234],[-75.83812616591297,8.973521270552794],[-75.83989402157869,8.968706207581306]]],[[[-75.73832384337965,9.105967573220937],[-75.73832264524412,9.105967026089502],[-75.73846674855292,9.106027871834272],[-75.73832384337965,9.105967573220937]]]]}}]}