{"type":"FeatureCollection","features":[{"type":"Feature","properties":{"code":"230507"},"geometry":{"type":"Polygon","coordinates":[[[-75.76708720752919,9.11183240449526],[-75.76428752062662,9.110152592765075],[-75.75663504131029,9.116871841742636],[-75.74431641749919,9.111085822075381],[-75.7392494107932,9.112202773385718],[-75.74086523694365,9.105798879851477],[-75.73814562868932,9.105891575432565],[-75.73823999651796,9.098256349267956],[-75.73463791259161,9.095760287393261],[-75.73471715820148,9.091483909243323],[-75.72498551983966,9.078342730935049],[-75.72478815863496,9.074938575913677],[-75.72802504159444,9.067303987383411],[-75.73522036175615,9.060568745096248],[-75.74083027195485,9.058829582976784],[-75.73976275581953,9.056768128569217],[-75.74184536426128,9.05230977882843],[-75.74089925576527,9.050457946717245],[-75.73948819149189,9.051043946065306],[-75.73861839034544,9.048239284586316],[-75.74149439693889,9.04812912193745],[-75.74223527767339,9.042038834465757],[-75.7439210358582,9.041886545782916],[-75.74467607413243,9.039738918176738],[-75.74318834049768,9.03835048066719],[-75.74467643614418,9.024101186398298],[-75.74905226571411,9.02396512859525],[-75.75828512076725,9.02843729237594],[-75.75886217472231,9.02237823150449],[-75.76218023162136,9.017473276486157],[-75.77069177000203,9.015020800005459],[-75.77718362108271,9.018338856904506],[-75.77992462505512,9.018194593158626],[-75.77992462505512,9.012279796032999],[-75.78252136631016,9.004778100788087],[-75.7923312742899,9.006364997878904],[-75.79651491160729,9.001027253679865],[-75.7979575459807,9.001027253679865],[-75.80127560287974,9.007374841014666],[-75.80589203040626,9.010837162688063],[-75.81195109230623,9.009394528314658],[-75.82017410319514,9.002614150770682],[-75.827098744485,9.004633838070674],[-75.82926269553082,9.008384685178896],[-75.82986957946116,9.014911259564315],[-75.82771537290813,9.033391384320907],[-75.83135229429638,9.035113744775003],[-75.8331132223733,9.038664905370013],[-75.82834833197006,9.041401117828741],[-75.83498972373519,9.04435972275462],[-75.83803987752873,9.039547372814525],[-75.84409059053235,9.039928240046208],[-75.84371558336608,9.04886925396579],[-75.84496304608894,9.04833230824056],[-75.84712364132685,9.051057948310245],[-75.85184023606939,9.050318962995277],[-75.8502846817928,9.05210909164066],[-75.85107200596298,9.052989818960441],[-75.84355133492517,9.05527867126483],[-75.83777731615373,9.066691285553759],[-75.83166666140636,9.06722405374552],[-75.82830703588917,9.064984304429174],[-75.82606728657282,9.05863834614729],[-75.82028126587716,9.05863834614729],[-75.8160834000575,9.052326270932667],[-75.81120202414081,9.05268387273776],[-75.81028133360167,9.049257238019777],[-75.80491925131042,9.046792281389116],[-75.78468068833627,9.051389967607633],[-75.78649592640573,9.054107525147572],[-75.78601566843207,9.057464962139079],[-75.788149613639,9.060863335256613],[-75.78892476824888,9.066850762021375],[-75.79116451859369,9.068157283055882],[-75.79153780928942,9.075996407205821],[-75.79732382998503,9.083088948935938],[-75.79863035101954,9.08122249031527],[-75.80049680861174,9.081782427901487],[-75.80180332964625,9.086261927562646],[-75.79620395481265,9.093541115154835],[-75.7868716647946,9.099700426546178],[-75.77119341546626,9.106046384828005],[-75.76895366614991,9.109592655178858],[-75.77343316581107,9.11761842519087],[-75.77119341546626,9.118924946225377],[-75.76708720752919,9.11183240449526]],[[-75.7866864546383,9.043192737715799],[-75.79130727772815,9.039597728445528],[-75.79483901927154,9.040505146933981],[-75.79574005833103,9.038979514163998],[-75.8003133406371,9.039491559239025],[-75.80029172277534,9.038848550236821],[-75.79863754291807,9.038231778860109],[-75.79847369145597,9.034923348183042],[-75.78857257090925,9.037638925971123],[-75.7879166590672,9.03933444716074],[-75.7836310105364,9.038530013820775],[-75.78068025571224,9.041507159508399],[-75.78487340406605,9.041200442982301],[-75.7866864546383,9.043192737715799]]]}}]}