{"type":"FeatureCollection","features":[{"type":"Feature","properties":{"code":"231020"},"geometry":{"type":"Polygon","coordinates":[[[-75.8088124739441,9.256329125506909],[-75.80743365751431,9.245364061634177],[-75.80029478959091,9.244399728108306],[-75.79997305060493,9.242469824868692],[-75.80236024978211,9.242786854616384],[-75.8027381725829,9.239877559395495],[-75.80710070336266,9.239572223039204],[-75.80639394943626,9.236881546929851],[-75.8086568880745,9.226184898326949],[-75.83586735955674,9.2244258749256],[-75.83572333029576,9.227690302661074],[-75.83344462049143,9.227438904001133],[-75.83233930806512,9.23032543464683],[-75.83247296959706,9.226589258271133],[-75.83088354562295,9.22614423268135],[-75.83053000205206,9.229625411876725],[-75.82747889797758,9.228602367652798],[-75.82569133632478,9.228541843810547],[-75.8280240558164,9.22752285062171],[-75.82768368453725,9.226008703497769],[-75.82744278936076,9.227557100842887],[-75.82377115083847,9.228051569835259],[-75.8228181044692,9.229657216461646],[-75.82843304478035,9.229898265904467],[-75.82416110127451,9.234518673503601],[-75.82810484511845,9.236859748062216],[-75.82423801026295,9.244252829492723],[-75.82409435124129,9.24786688551842],[-75.82006705775558,9.250121631583568],[-75.8239881182713,9.258584800255733],[-75.81785750659691,9.260761149176119],[-75.81523332752391,9.256812812307942],[-75.81329763209601,9.256467045819363],[-75.81305760183966,9.259330461191041],[-75.81177558961883,9.255598389329464],[-75.8088124739441,9.256329125506909]]]}}]}