{"type":"FeatureCollection","features":[{"type":"Feature","properties":{"code":"231008"},"geometry":{"type":"Polygon","coordinates":[[[-76.14837175346332,9.217639997271021],[-76.14350276925057,9.214209660159952],[-76.14452985422514,9.20718517149976],[-76.13868376528734,9.203980253562179],[-76.12379160188436,9.211372859852247],[-76.11422404638421,9.210605499808196],[-76.10839716361039,9.207091279840029],[-76.10484357177728,9.206887428134621],[-76.10210631133555,9.202661320254947],[-76.10264444182661,9.195971167973141],[-76.09856496619597,9.196918926090973],[-76.0950451638418,9.194010628459296],[-76.08603279863712,9.195311979513235],[-76.07889427729884,9.185882319642872],[-76.0756674957018,9.1866180129133],[-76.07089457521937,9.182513450484294],[-76.07280356610886,9.181497524111023],[-76.07663483227981,9.184030206766863],[-76.07800720860257,9.180744752524106],[-76.08260020718006,9.178438821903228],[-76.08623265690022,9.18088779448027],[-76.08958911070073,9.176506959480548],[-76.09450276428583,9.177370797717288],[-76.09541812029363,9.181049026499238],[-76.09841748136813,9.183089103700581],[-76.107800900406,9.176181626087953],[-76.11408116589354,9.168925474579737],[-76.11408050254806,9.154823702162616],[-76.12020695417249,9.155352858464198],[-76.12087057933343,9.16229664626843],[-76.12619600690488,9.165735232516909],[-76.12709658625056,9.162821718624798],[-76.13227672266208,9.160941167256283],[-76.13719156512673,9.155434164044436],[-76.14347822341296,9.15221666825488],[-76.14800261767539,9.152259768223928],[-76.14859732896008,9.147492259406022],[-76.14667441912951,9.142593391739013],[-76.1496883583767,9.139712998838206],[-76.14753774005965,9.139167290782723],[-76.14650706890598,9.13564582132318],[-76.15106187112838,9.130958532050215],[-76.14946738001805,9.128105531715903],[-76.15027692574574,9.121565789152498],[-76.14607228968902,9.115399047263907],[-76.14699538369831,9.105466833814546],[-76.13869441172426,9.103592607367545],[-76.13875558039996,9.100674793557289],[-76.13564977141101,9.10256841540172],[-76.13539914305454,9.099873743793182],[-76.13130946835946,9.097728165872923],[-76.13214755233861,9.095833820004941],[-76.13880089460577,9.093297897755122],[-76.13996896465147,9.090887750940055],[-76.14039633394015,9.092790783033593],[-76.14360044866407,9.0922067819493],[-76.14404323327767,9.090253680131752],[-76.14527825287445,9.09190024128685],[-76.1471639999346,9.08950861980685],[-76.14527210998733,9.086068793256743],[-76.14905569242092,9.084691970977019],[-76.15015420067152,9.086016258355983],[-76.15093321913997,9.084542397382393],[-76.15185617533797,9.086461774512884],[-76.1544348262891,9.084233366860587],[-76.15745534036927,9.085532019281345],[-76.15750921944442,9.088865924479649],[-76.1594322927973,9.089616214434727],[-76.16046201572692,9.092990840814537],[-76.16160693347467,9.091126342405289],[-76.16320139064646,9.091837832309523],[-76.16262862632516,9.093994998720063],[-76.16478865283437,9.095919691869938],[-76.16420063773893,9.099364525906708],[-76.1656430736229,9.100603199559771],[-76.16453559529663,9.100985650592975],[-76.16663471229765,9.101409608537779],[-76.1687401449642,9.099201871551713],[-76.16895363626134,9.103678979055587],[-76.17129554077309,9.1083313197949],[-76.17479773413447,9.10614489213782],[-76.17487516145792,9.103829061729243],[-76.17678135601221,9.103517644192323],[-76.17589736338743,9.106951767000282],[-76.17834565513556,9.109076846004257],[-76.180749193179,9.107232156426392],[-76.18245748351097,9.108349484146686],[-76.18500601138072,9.10546030217614],[-76.19140010899997,9.10751954234695],[-76.19301032602488,9.11118315798916],[-76.18680757425,9.118997624201256],[-76.18708899828925,9.125606669392312],[-76.18248840774908,9.132363710547054],[-76.18325873999197,9.140851583436927],[-76.17810037776547,9.151372949439121],[-76.17992474943298,9.155767235438532],[-76.17853682923004,9.165901953333616],[-76.17543123621402,9.174450718248124],[-76.17765822255876,9.178860737361163],[-76.18147350467609,9.180626473406903],[-76.17300360690456,9.196561431243936],[-76.17382789535577,9.198813284300286],[-76.17709339369992,9.20002541899413],[-76.17697114273773,9.205223865796256],[-76.17172250588385,9.211920410876758],[-76.1703892813394,9.21628342708135],[-76.16483576270082,9.215805901679516],[-76.15512993618933,9.218581494230762],[-76.14837175346332,9.217639997271021]]]}}]}