{"type":"FeatureCollection","features":[{"type":"Feature","properties":{"code":"231028"},"geometry":{"type":"Polygon","coordinates":[[[-75.79013863381152,9.283526534740702],[-75.78454643442143,9.27972752258404],[-75.78336382014157,9.276680642322958],[-75.78484464367102,9.268948833064542],[-75.78627072526206,9.26613919906589],[-75.78838429290892,9.265810617851855],[-75.7894297582082,9.262617584596],[-75.78703458654462,9.26195575098194],[-75.78640851187697,9.257110064077551],[-75.78276906669078,9.259217367481028],[-75.77274443328292,9.258716860502659],[-75.76831852473293,9.262743687075442],[-75.76527431533714,9.2620259411554],[-75.76490842428535,9.260169309302967],[-75.7561186294684,9.259305608877582],[-75.75646958856322,9.253096222620002],[-75.76320619147987,9.24620068008278],[-75.767639665253,9.245214995061758],[-75.7647481487179,9.236162742742465],[-75.7589879326735,9.237160101614506],[-75.75707990337776,9.232722509957512],[-75.75794205394033,9.2199042348322],[-75.7612231475868,9.21128721013082],[-75.75991132904494,9.209666576011614],[-75.75687444318828,9.207737616882241],[-75.75397562882506,9.208686509372114],[-75.75279933021079,9.214485189166737],[-75.75016041561338,9.216557991409047],[-75.74700213240186,9.212745207378589],[-75.74938214687955,9.210017189549774],[-75.74943497488641,9.207355337598926],[-75.74091288674242,9.206547454862744],[-75.73554241236019,9.214645137689445],[-75.72862107956996,9.214703962544661],[-75.7279887149478,9.218955816454297],[-75.72340285890357,9.217954364381058],[-75.71763488737412,9.214171152186736],[-75.71273730423178,9.216448337839267],[-75.70812042830426,9.215471675344475],[-75.70904412600936,9.205638826925906],[-75.70642801815325,9.20529815637002],[-75.7039407803154,9.207156511892094],[-75.70131560776696,9.20346163571105],[-75.70499357840987,9.198674188478037],[-75.70448204241393,9.19096037079305],[-75.69866020106537,9.18946813052321],[-75.69596701041405,9.183763680745926],[-75.69871314117245,9.18072595979396],[-75.69506724970859,9.176878563530522],[-75.68951173589153,9.17879675178142],[-75.69045019380366,9.175508402472985],[-75.68717714771986,9.174772802790812],[-75.68952700517758,9.172587546529769],[-75.68771895283601,9.17025139821078],[-75.68897175728927,9.164290909440922],[-75.68774273454079,9.161879831885358],[-75.7001869239844,9.151941354192616],[-75.70290953117706,9.154684598112851],[-75.70137687105938,9.156764621050058],[-75.70342162664576,9.157281843304702],[-75.70300271012616,9.158288043697098],[-75.71106728841659,9.158606630506767],[-75.7252431189795,9.144582449963877],[-75.73101124786069,9.141126218727095],[-75.74048394702203,9.157378859372841],[-75.74854020212717,9.15817344229032],[-75.74326377778488,9.166251329655438],[-75.74320331359235,9.170652885715015],[-75.74496762524518,9.173170326852755],[-75.74781263972329,9.173788561703134],[-75.75359464229405,9.170272726051735],[-75.7591513665879,9.17055721484968],[-75.76126156402864,9.175033186953044],[-75.76876922732549,9.178028220341389],[-75.77345903525418,9.18680361799153],[-75.77654441114714,9.19743448946781],[-75.78009303663134,9.19286105083853],[-75.7822903380112,9.192390179459778],[-75.78550401210839,9.1976414470696],[-75.79034787147043,9.198164313416783],[-75.79390644610754,9.202739506569003],[-75.82009185144784,9.214817926317039],[-75.81930101617485,9.218347203712142],[-75.81585238615673,9.220786701248244],[-75.81634922159532,9.226216564072104],[-75.80841212081197,9.226564779282342],[-75.80708819853004,9.239592469987087],[-75.8027381725829,9.239877559395495],[-75.80236024978211,9.242786854616384],[-75.79997305060493,9.242469824868692],[-75.80029478959091,9.244399728108306],[-75.80743365751431,9.245364061634177],[-75.80876070831835,9.254970014035848],[-75.79333136779059,9.274069228278506],[-75.79013863381152,9.283526534740702]]]}}]}