{"type":"FeatureCollection","features":[{"type":"Feature","properties":{"code":"231547"},"geometry":{"type":"Polygon","coordinates":[[[-75.67667008426776,9.357071099974121],[-75.6804469293744,9.344400761162888],[-75.67470215333753,9.34090169632367],[-75.67393089035414,9.336890035164288],[-75.6716398484956,9.334715317353698],[-75.66038084238124,9.334348658055376],[-75.65676455772063,9.328074244405741],[-75.660632986662,9.31922463434347],[-75.66738465214775,9.31534105747221],[-75.67085673065526,9.311239215273645],[-75.68155339982701,9.289532978436057],[-75.69235662901343,9.294904865898275],[-75.69974338963624,9.295258943230863],[-75.70126926820393,9.29306712139271],[-75.70188650340822,9.290791288142145],[-75.69484448803058,9.28708597018425],[-75.70193959778169,9.28119393866217],[-75.70243638179812,9.274594044552714],[-75.69927767692513,9.27358699158151],[-75.69923208709673,9.272067781435055],[-75.70149837228695,9.271657593307111],[-75.70146743056534,9.266155907143059],[-75.70036108146894,9.266676016235863],[-75.70032352171972,9.262955945269994],[-75.69518060052923,9.256492192267388],[-75.6962335446625,9.25623330140371],[-75.69510517969712,9.247324658740808],[-75.70287163615558,9.224144698740929],[-75.70870075784876,9.215942489130441],[-75.71273730423178,9.216448337839267],[-75.71700937320759,9.214146939564557],[-75.7279887149478,9.218955816454297],[-75.72862107956996,9.214703962544661],[-75.73554241236019,9.214645137689445],[-75.74091288674242,9.206547454862744],[-75.74943497488641,9.207355337598926],[-75.74938214687955,9.210017189549774],[-75.74700213240186,9.212745207378589],[-75.75016041561338,9.216557991409047],[-75.75279933021079,9.214485189166737],[-75.75397562882506,9.208686509372114],[-75.75798836676381,9.208145944557657],[-75.7612231475868,9.21128721013082],[-75.75794205394033,9.2199042348322],[-75.75725800699627,9.233476324385151],[-75.7589879326735,9.237160101614506],[-75.7647481487179,9.236162742742465],[-75.767639665253,9.245214995061758],[-75.76320619147987,9.24620068008278],[-75.75646958856322,9.253096222620002],[-75.7561186294684,9.259305608877582],[-75.76490842428535,9.260169309302967],[-75.76527431533714,9.2620259411554],[-75.76831852473293,9.262743687075442],[-75.77274443328292,9.258716860502659],[-75.78276906669078,9.259217367481028],[-75.78640851187697,9.257110064077551],[-75.78703458654462,9.26195575098194],[-75.7894297582082,9.262617584596],[-75.78838429290892,9.265810617851855],[-75.78627072526206,9.26613919906589],[-75.78484464367102,9.268948833064542],[-75.78336382014157,9.276680642322958],[-75.78454643442143,9.27972752258404],[-75.79036849174292,9.28398462463582],[-75.78724056404076,9.2851642060387],[-75.7832648603171,9.292695690121093],[-75.78159439610101,9.29261777942969],[-75.78160183276884,9.289665835725998],[-75.77953426015677,9.288943704527014],[-75.77866419161523,9.293768160264051],[-75.76983667455517,9.293517480485434],[-75.7650754896303,9.295519265686494],[-75.76169516773587,9.306400603025338],[-75.75101409489491,9.306151499849136],[-75.75127332205926,9.293569799413262],[-75.75009069029596,9.29226037611403],[-75.74707768178928,9.293741983316636],[-75.74603897952795,9.300038153667742],[-75.73569392456898,9.29939154614516],[-75.73494596917834,9.301770776949638],[-75.74046929171612,9.308893942612656],[-75.73084857396526,9.307063314929337],[-75.72791929199246,9.315167917117321],[-75.72276892590656,9.312780827983488],[-75.72002990374284,9.315137646968651],[-75.7172450079006,9.31514031886229],[-75.71701603340136,9.32311044293499],[-75.71422359804694,9.324547838422177],[-75.71242249180614,9.331625922307353],[-75.70816591528842,9.33339541525362],[-75.70561674978433,9.331874077259613],[-75.70803615875275,9.32956285633037],[-75.70742607636623,9.325064785054224],[-75.70343525865133,9.321923088563608],[-75.6994827154532,9.313135914218151],[-75.69540880781034,9.308955214132595],[-75.69272342406617,9.31797811984461],[-75.68634394061513,9.32423416345398],[-75.68816112552628,9.33283000943851],[-75.69417240907211,9.337277639722913],[-75.69372248192525,9.34713559550869],[-75.70132207049977,9.355153687168865],[-75.69264677218837,9.35388498607955],[-75.68777229609259,9.357289951513678],[-75.68456418586942,9.357023166325234],[-75.68499327882773,9.355014333207578],[-75.67878155800565,9.357908753035872],[-75.67667008426776,9.357071099974121]],[[-75.7285247864969,9.241524763327163],[-75.72919272494579,9.237527958019939],[-75.72567033091644,9.239364448854076],[-75.72478231091083,9.237813172898313],[-75.72400217555378,9.23596700956233],[-75.72587101296205,9.233815870853334],[-75.72287940428726,9.2342709741514],[-75.72269304124688,9.23222381303799],[-75.72190362111081,9.233767951602658],[-75.71907218207394,9.23029712162429],[-75.71916847206165,9.239334015183033],[-75.71726016920019,9.237696726465686],[-75.71916119994461,9.242096809795555],[-75.72461976762759,9.242352240978619],[-75.72622030700842,9.244005653617762],[-75.72634307836256,9.241600121424256],[-75.7285247864969,9.241524763327163]]]}}]}