{"type":"FeatureCollection","features":[{"type":"Feature","properties":{"code":"231508"},"geometry":{"type":"Polygon","coordinates":[[[-75.93914949962755,9.432438650534493],[-75.92801664227255,9.426788083946121],[-75.91861019434981,9.397628100939187],[-75.91005052074553,9.396245499840973],[-75.90934343977437,9.39479676577497],[-75.91842795433547,9.389264400142167],[-75.92474310150794,9.3822382649455],[-75.93025346052775,9.379878055185316],[-75.92829000435091,9.37412851951649],[-75.92260756118662,9.37004410119107],[-75.92246071090784,9.368400146109309],[-75.93096176431703,9.357110887329839],[-75.93440194362296,9.354899288542128],[-75.9365604068995,9.345288752372198],[-75.93972772395017,9.343764231348587],[-75.94651176892017,9.347293680493578],[-75.95009811870443,9.346725857838578],[-75.95091860088985,9.345213574252512],[-75.94674675980815,9.3396135360735],[-75.93984264828788,9.33937517600782],[-75.93776226333887,9.337603535673566],[-75.93593596848388,9.331716639165052],[-75.93849368343064,9.319224700163772],[-75.92977976710273,9.31611502937318],[-75.92674635635336,9.309824778737266],[-75.92799929450416,9.31212833468436],[-75.93665178504574,9.307695999397083],[-75.93799390870333,9.304828849750606],[-75.93620922463265,9.302053665491087],[-75.93797066076019,9.301178090668316],[-75.93923049667501,9.296406885628016],[-75.95028558629207,9.288178792176211],[-75.95193397396105,9.283380676908962],[-75.95603779796835,9.282090640779586],[-75.9508045147328,9.27914270285953],[-75.96281313203019,9.264363416165224],[-75.96461439356585,9.26567217611904],[-75.97216772999491,9.259915527741725],[-75.97143575762954,9.258691536134052],[-75.97480864388456,9.254957404302104],[-75.97660916494158,9.256346306667638],[-75.97768483148388,9.253174408934058],[-75.98638205001907,9.253648997104051],[-75.98870920255138,9.251803326392007],[-75.99853597595995,9.236640682606662],[-76.00059587947618,9.226936874927787],[-76.01059142338744,9.226391985512521],[-76.01018712000757,9.217057205635172],[-76.0246679053746,9.210401890815206],[-76.04583904254122,9.204040008129425],[-76.03794238423143,9.220942455782392],[-76.02847315606357,9.230236661545518],[-76.02831778308166,9.236016180427555],[-76.02437970492753,9.240948621600637],[-76.01805840766883,9.25462772779673],[-76.01670845550683,9.262152342911577],[-76.01235151636905,9.270669786609176],[-76.00389562598463,9.278098723659639],[-75.99125513051843,9.282194846689379],[-75.98892516313896,9.284363451437628],[-75.98608973991577,9.298263794131458],[-75.97916147850827,9.309022781777628],[-75.97485491351347,9.321686935535524],[-75.97538807559869,9.336344367218032],[-75.97913156625759,9.346565232600653],[-75.97725809982961,9.360726882998108],[-75.9817828530185,9.368695334823258],[-75.98022208762364,9.376006800083871],[-75.96073759824458,9.38869425629241],[-75.9508944108934,9.397667969541885],[-75.94915516135626,9.401374305657896],[-75.95221573430103,9.406154325479008],[-75.95169621039202,9.413299454560445],[-75.95469453685331,9.417264189944603],[-75.95448766358379,9.420564800344778],[-75.94249385791557,9.431305284253142],[-75.93914949962755,9.432438650534493]],[[-75.95544015459404,9.362361553300843],[-75.95785738120748,9.360930929079188],[-75.95644884381733,9.359891896687827],[-75.95870479933092,9.359110281402081],[-75.95611322805644,9.35697259574971],[-75.95916072332608,9.356188489576141],[-75.95557950135628,9.353119908149495],[-75.95880614102828,9.350259389900373],[-75.962117369069,9.351397319381192],[-75.96270090118344,9.350237555037268],[-75.9611579988067,9.347862005028503],[-75.95783260499871,9.35031463577559],[-75.95438574801551,9.349305965064332],[-75.95350975564514,9.345195888126511],[-75.95564732405506,9.345473786664797],[-75.95544897040332,9.342987870375623],[-75.95268613053935,9.34140894062898],[-75.9509943179134,9.34190518677002],[-75.95318162900264,9.344040987287258],[-75.95428473953353,9.349377586829746],[-75.95120038694091,9.348885671460152],[-75.9487255685749,9.359682697081325],[-75.94975046296696,9.361084350077249],[-75.95362488464286,9.358056840531049],[-75.95516679560103,9.359920886425584],[-75.95308095373605,9.361434520356681],[-75.95544015459404,9.362361553300843]]]}}]}