{"type":"FeatureCollection","features":[{"type":"Feature","properties":{"code":"231540"},"geometry":{"type":"Polygon","coordinates":[[[-75.72622030700842,9.244005653617762],[-75.72461976762759,9.242352240978619],[-75.71916119994461,9.242096809795555],[-75.71726016920019,9.237696726465686],[-75.71916847206165,9.239334015183033],[-75.71907218207394,9.23029712162429],[-75.72190362111081,9.233767951602658],[-75.72269304124688,9.23222381303799],[-75.72287940428726,9.2342709741514],[-75.72589639389497,9.233843616175648],[-75.72400217555378,9.23596700956233],[-75.72567033091644,9.239364448854076],[-75.72919272494579,9.237527958019939],[-75.7285247864969,9.241524763327163],[-75.72634307836256,9.241600121424256],[-75.72622030700842,9.244005653617762]]]}}]}