{"type":"FeatureCollection","features":[{"type":"Feature","properties":{"code":"232039"},"geometry":{"type":"Polygon","coordinates":[[[-75.50519324541455,9.13994961363693],[-75.49963245877268,9.138885139634567],[-75.48842503213598,9.131469726603257],[-75.47981172525431,9.130892981180978],[-75.47413555867473,9.126252004731498],[-75.47278547075831,9.121841761417954],[-75.46980935762696,9.119233362766977],[-75.47938477454176,9.116506741563171],[-75.48076530949902,9.114422495840927],[-75.48036131670881,9.110378015023855],[-75.48341355618379,9.108888428135742],[-75.48339822724807,9.105975715400348],[-75.4861827014289,9.104486000985332],[-75.48602255441676,9.10030502527718],[-75.47866747599426,9.099998880565124],[-75.47936205213279,9.097657424454269],[-75.4842224992442,9.095943947686749],[-75.485480912823,9.089680838677282],[-75.48901397900033,9.087358924002785],[-75.48874703131793,9.0811457479345],[-75.49465166845994,9.080838207625902],[-75.49379762716666,9.078422493851463],[-75.49919914714314,9.077810636373158],[-75.4947046342781,9.070131525537818],[-75.49658218670822,9.066294047574047],[-75.50166334478325,9.067509275823],[-75.50565450805482,9.061383513255066],[-75.50573764837645,9.056812959407068],[-75.49804788801885,9.050334877114835],[-75.50312036912436,9.047375350704442],[-75.50457853092286,9.041418756646408],[-75.50978175895426,9.037649683479856],[-75.50955287907169,9.034076860800042],[-75.51439002681786,9.030606324956295],[-75.51432181845314,9.0333362906552],[-75.51931113352595,9.03543635485181],[-75.5270704381951,9.035287220402154],[-75.53119886974656,9.032555911557324],[-75.53581431511049,9.036780167211987],[-75.53665341621928,9.029214854569773],[-75.54403172407302,9.02172072351965],[-75.54983015498453,9.020582449510584],[-75.55807777341761,9.022124354298057],[-75.56579875111942,9.020348787370324],[-75.56798142290444,9.017717635457075],[-75.56837840994422,9.025013544496176],[-75.56583683640281,9.028128581699775],[-75.56608087244274,9.0316605361308],[-75.57245191238076,9.02742725897832],[-75.5754881770581,9.033233460801512],[-75.57649638497026,9.031055588757738],[-75.5814770755241,9.033355884542061],[-75.5825535000285,9.03201605328286],[-75.58687180469462,9.032718039349731],[-75.58970255776035,9.035780627013366],[-75.58737129454335,9.04354632242439],[-75.5796824834382,9.053553083558143],[-75.56458166858863,9.064440484594115],[-75.54330304066679,9.087014600419081],[-75.53224982898575,9.109061026501422],[-75.51394867585316,9.131937073509505],[-75.51099741503532,9.1409456746145],[-75.50885201914934,9.140872415568595],[-75.5097306998685,9.138098632047729],[-75.50800676692586,9.138045488309047],[-75.50588478970451,9.141364394701611],[-75.50519324541455,9.13994961363693]]]}}]}