{"type":"FeatureCollection","features":[{"type":"Feature","properties":{"code":"232007"},"geometry":{"type":"Polygon","coordinates":[[[-75.62743656937226,9.353915453689183],[-75.6229492525195,9.342488070965715],[-75.6127495915647,9.338648058919546],[-75.61347365315027,9.337366009674781],[-75.61087944083539,9.335624925396246],[-75.60965911973904,9.328759936857807],[-75.60655369950143,9.323117663629887],[-75.60488288252952,9.323643296487433],[-75.59945876972773,9.313591080251229],[-75.58609145130782,9.307921985242388],[-75.58122337932355,9.309262125034365],[-75.57740534817935,9.307586871361423],[-75.57592015685458,9.302566606339497],[-75.57359047023994,9.301822777060295],[-75.57499168614777,9.29725931535188],[-75.5743448276852,9.290353285786296],[-75.57694849241528,9.285730542594251],[-75.57074690483728,9.279748175766656],[-75.56851225865273,9.274933207411891],[-75.57822582316572,9.274171481175983],[-75.58888958629063,9.279385818443416],[-75.59454109698925,9.274764926447858],[-75.61294804497533,9.274373126872149],[-75.61645678128798,9.272291480024194],[-75.62048585912146,9.266059534879957],[-75.63374106393712,9.257567256142352],[-75.63859296571962,9.250379944462566],[-75.64439460948557,9.24757712081032],[-75.65506024540434,9.238686835846408],[-75.67069033174107,9.245102454653818],[-75.69529116941283,9.246866192435732],[-75.6962335446625,9.25623330140371],[-75.69518060052923,9.256492192267388],[-75.70032352171972,9.262955945269994],[-75.70036108146894,9.266676016235863],[-75.70146743056534,9.266155907143059],[-75.70149837228695,9.271657593307111],[-75.69923208709673,9.272067781435055],[-75.69927767692513,9.27358699158151],[-75.70243588197508,9.273860831885656],[-75.70193959778169,9.28119393866217],[-75.69484448803058,9.28708597018425],[-75.70188650340822,9.290791288142145],[-75.70001010489057,9.295013734766428],[-75.68880190897886,9.294145932912272],[-75.68155339982701,9.289532978436057],[-75.67085673065526,9.311239215273645],[-75.66738465214775,9.31534105747221],[-75.660632986662,9.31922463434347],[-75.65676455772063,9.328074244405741],[-75.66038084238124,9.334348658055376],[-75.64952437998159,9.330140902732467],[-75.64748731097461,9.330926012665941],[-75.6419550522998,9.336232035583919],[-75.63809412893193,9.347286771416748],[-75.62743656937226,9.353915453689183]]]}}]}