{"type":"FeatureCollection","features":[{"type":"Feature","properties":{"code":"232050"},"geometry":{"type":"Polygon","coordinates":[[[-75.39451933414898,9.121043296129926],[-75.3908263307618,9.120480380174172],[-75.39217990201303,9.118006736289544],[-75.39004309979282,9.11628118766373],[-75.38981230906404,9.106134406137869],[-75.39185568139527,9.100662846140494],[-75.39425589037029,9.100593236008649],[-75.39460756731796,9.096970563691514],[-75.40776696140011,9.089905203697185],[-75.40632569896906,9.0990760745197],[-75.41351795437203,9.099446401244052],[-75.40780962119584,9.112880174534212],[-75.41009269776703,9.113739583269023],[-75.40967242267487,9.11506197214311],[-75.4075092295912,9.113902686024915],[-75.3990074243905,9.115203628787185],[-75.39507487822874,9.117972503551869],[-75.39451933414898,9.121043296129926]]]}}]}