{"type":"FeatureCollection","features":[{"type":"Feature","properties":{"code":"232557"},"geometry":{"type":"Polygon","coordinates":[[[-75.44234490403721,8.75585032748711],[-75.43672996166924,8.749508138447084],[-75.43799954413379,8.748202675679977],[-75.43808459427316,8.7313107551646],[-75.43595543440932,8.719887373082543],[-75.43131718024716,8.709666055185153],[-75.41968275764646,8.699162045178866],[-75.41644788837738,8.6909320131129],[-75.4132357733991,8.686674546992379],[-75.40865095196801,8.68484433685677],[-75.40463781807892,8.675719717151196],[-75.40408069225452,8.660784381788176],[-75.40001443211025,8.653551290018129],[-75.3998998430448,8.641373592656919],[-75.39613817466443,8.62726727658071],[-75.3963444997741,8.623744650123399],[-75.39911375403409,8.619230193701014],[-75.39904507875644,8.615148086285956],[-75.39538292555949,8.610486244794629],[-75.39521519172689,8.595469232583696],[-75.39235385997978,8.586420538675497],[-75.39271382308885,8.584142145631517],[-75.39872061336933,8.5856665165025],[-75.39992649204737,8.583107640444155],[-75.4012614114651,8.584549370816546],[-75.40823512386129,8.58207689215726],[-75.41298832087313,8.583210745920383],[-75.42044300601043,8.580674246714352],[-75.42682148158787,8.583477951741827],[-75.42689787635504,8.581799768036205],[-75.4288805407528,8.582604109844738],[-75.42975140222347,8.58473321211585],[-75.43199394993195,8.58502478585433],[-75.43120828875328,8.587410505102696],[-75.43641827159507,8.588474660287886],[-75.43670850115922,8.587248824682774],[-75.43823454427775,8.59004110474234],[-75.44392586290093,8.58664372304338],[-75.44930587505905,8.588112741081147],[-75.45321892914978,8.59061171550502],[-75.4542579934228,8.593225978335227],[-75.4592474288234,8.58537798489698],[-75.46155097242917,8.586841988249034],[-75.46327536714256,8.585429089234196],[-75.46306240137955,8.586964239211227],[-75.46495420493761,8.586794752912567],[-75.46702087252032,8.59007531279741],[-75.47424681558641,8.592312405646737],[-75.47864929518738,8.588915833332067],[-75.48527200632259,8.596741045740032],[-75.4853017241976,8.600481975577054],[-75.48912464147219,8.603856524823641],[-75.49296975356481,8.604004004509306],[-75.4926645231381,8.60756762468543],[-75.49525887326428,8.613748688664487],[-75.49990552774494,8.617990056574229],[-75.49804297617737,8.62253451883555],[-75.49965259876251,8.62885248085513],[-75.50359007219242,8.628440173107151],[-75.50716095625802,8.635767669729773],[-75.50206412471903,8.643282196851999],[-75.50559739761331,8.645993180587311],[-75.50994637763444,8.655905135775981],[-75.50660399395605,8.659443923179026],[-75.51146325218792,8.671963903694007],[-75.51005273915973,8.672939756804567],[-75.51397370403032,8.673149888179978],[-75.51582865540763,8.674841108422982],[-75.51429511597155,8.675861482810149],[-75.51523222970928,8.67760360170189],[-75.5095334661907,8.68229812915331],[-75.5099989300187,8.68497529255643],[-75.5069841546478,8.686167316056867],[-75.50975476336657,8.691111385829458],[-75.51195949318674,8.69024666827437],[-75.51405026951892,8.697349051170988],[-75.51298976839001,8.700357346325632],[-75.51560547926732,8.703934805224264],[-75.52026827206794,8.701617922718981],[-75.52201569772302,8.704687913111854],[-75.52856837295116,8.705573689055939],[-75.52845466114718,8.709813342552025],[-75.53728186864612,8.70950506999236],[-75.54082229332965,8.707836252312745],[-75.54534711028202,8.709937317183858],[-75.55197697217801,8.708329934546555],[-75.55344923906569,8.710077748952926],[-75.55653161087804,8.706293253262402],[-75.56126175020859,8.705878291104284],[-75.56422929847065,8.709150044435773],[-75.56374954032009,8.7127515781454],[-75.5655583681073,8.712724177351333],[-75.5665261818827,8.717695079189298],[-75.56322974181694,8.720167609270675],[-75.56152832765167,8.725561305884924],[-75.5596748407765,8.726806863932211],[-75.55770670312933,8.725759252273406],[-75.55671493589927,8.72725109556444],[-75.55334994294054,8.72560445727612],[-75.55148816681861,8.72822388083091],[-75.554959970732,8.735518213267653],[-75.55048138947001,8.73951153832536],[-75.55328181170898,8.739640760070984],[-75.55351696509086,8.742841824434436],[-75.54560564016236,8.744632798459577],[-75.53946413522476,8.742479302560355],[-75.53006405130435,8.753129235190272],[-75.53225655808518,8.774326434118791],[-75.50799777730981,8.767826587925981],[-75.50207756543432,8.770123346896469],[-75.49652126074494,8.767790026794444],[-75.48970337076014,8.758404653715786],[-75.48465305156242,8.757672131133631],[-75.46445091088003,8.762753227502117],[-75.45495232273515,8.760121477035284],[-75.4521605743804,8.756671973869516],[-75.44138693657055,8.749554040922021],[-75.44234490403721,8.75585032748711]]]}}]}