{"type":"FeatureCollection","features":[{"type":"Feature","properties":{"code":"232520"},"geometry":{"type":"Polygon","coordinates":[[[-75.61876492923096,8.88948982093791],[-75.61734266316165,8.88902997651985],[-75.6189986109116,8.887159840188758],[-75.61712139169686,8.876667545171188],[-75.61416217381924,8.87573499874668],[-75.61396305294943,8.874103475478137],[-75.60950328498643,8.873196544471398],[-75.620577965405,8.868059192297153],[-75.62316266051283,8.870955134220367],[-75.62398245158488,8.869377494140679],[-75.6274099275688,8.871543429052167],[-75.62851460853148,8.869712667671308],[-75.63056043472648,8.869302930001197],[-75.62763081131078,8.871832191028773],[-75.63251906545105,8.875641795114973],[-75.63068087768676,8.875495022997825],[-75.63103735437574,8.879763339186866],[-75.62802850283367,8.879035300614134],[-75.62491774086561,8.881968695328567],[-75.62661521095379,8.892296740876759],[-75.6243576315295,8.892083841962517],[-75.62038341801906,8.886878224859174],[-75.61876492923096,8.88948982093791]]]}}]}