{"type":"FeatureCollection","features":[{"type":"Feature","properties":{"code":"232517"},"geometry":{"type":"Polygon","coordinates":[[[-75.69444540502496,8.723688018405937],[-75.68049294292115,8.704711253614846],[-75.67865459471983,8.697748787237572],[-75.65926701033709,8.669227359048364],[-75.66808454944788,8.658762076073572],[-75.67522761135984,8.647073341423436],[-75.67579308299526,8.63779043721513],[-75.66920883561022,8.626202270873591],[-75.6697646501704,8.606105806773712],[-75.66737555454523,8.589146702222422],[-75.66975837152881,8.540414274346915],[-75.67192359681496,8.534650172846625],[-75.674106366302,8.534638935055227],[-75.67047512294494,8.53232419890952],[-75.67214542261024,8.524422342851267],[-75.67071080186099,8.522760641993841],[-75.67209306048784,8.520132713219425],[-75.67477879698777,8.519710461460761],[-75.67741767764659,8.513738849056608],[-75.68439919694993,8.510917255299944],[-75.68617673745888,8.513309583319938],[-75.68986251398047,8.512681991699537],[-75.69035766071647,8.516697461181593],[-75.685635267615,8.518725768886782],[-75.68292641275565,8.51604014345861],[-75.68079037363975,8.519554684300886],[-75.6802637853591,8.527063179607694],[-75.67789123223184,8.529938109421835],[-75.68251388080722,8.528989234415462],[-75.68322341461374,8.532436669383344],[-75.68734364433612,8.53374598161082],[-75.68661885049949,8.538872565991937],[-75.69022764707012,8.545406948312973],[-75.69075402863382,8.551699923293143],[-75.69371389957246,8.554344834738856],[-75.69370704088931,8.555683658124394],[-75.68687027898426,8.55866309723882],[-75.68644273691723,8.567276097644594],[-75.68372740287003,8.568288381274442],[-75.68510091562177,8.573588140977506],[-75.6929431456681,8.57682503216455],[-75.69020536483453,8.585855519554798],[-75.69430944595246,8.608011392490027],[-75.69944434529128,8.617075458528575],[-75.70710418105693,8.625599967626272],[-75.71280261650236,8.62261126635849],[-75.71479471686024,8.627585063262131],[-75.71750340819722,8.627601752827331],[-75.71927405608437,8.623057075621489],[-75.7235912500326,8.623720993888583],[-75.72607195726044,8.626017334282949],[-75.7329310785343,8.62240878762384],[-75.74043005252025,8.62498728328012],[-75.7477324232637,8.625041498655946],[-75.74948687215277,8.627757686310417],[-75.75261480808251,8.62876535943252],[-75.75288231626604,8.636797807121809],[-75.74919733164518,8.643107695867627],[-75.75514800701654,8.647676378978701],[-75.75738380814204,8.653813515092452],[-75.75956519540239,8.653292173925536],[-75.76061054037388,8.655155044310277],[-75.76335715347182,8.648343071983675],[-75.76708790789854,8.648288236457006],[-75.77123042808404,8.657062684854736],[-75.76716425844273,8.66402625577922],[-75.77252024001291,8.667375945513243],[-75.77197097251786,8.672122128547073],[-75.76964436300324,8.675474188841122],[-75.76890362830756,8.681076420688044],[-75.76614976057613,8.682455586788251],[-75.76226615799379,8.688673863931399],[-75.76418085571083,8.695132007808525],[-75.76275374773411,8.700113672297448],[-75.76425732761118,8.701829871352345],[-75.76852906851383,8.700507230509857],[-75.77210071157003,8.706118562016172],[-75.78385767515374,8.709439429648626],[-75.7865239555781,8.713404070416061],[-75.78592416173052,8.717106649631546],[-75.7876701485946,8.717299047572624],[-75.78188558725884,8.731593446245085],[-75.7664901647654,8.747671916036438],[-75.73721822859119,8.728189782819186],[-75.71409856720464,8.719783501416543],[-75.7046102017784,8.719396965409658],[-75.69444540502496,8.723688018405937]]]}}]}