{"type":"FeatureCollection","features":[{"type":"Feature","properties":{"code":"232559"},"geometry":{"type":"Polygon","coordinates":[[[-75.45639223687806,9.00427219860029],[-75.45594668575416,8.984438916026306],[-75.45250775497743,8.963507322662679],[-75.45422501538502,8.963652865791062],[-75.45610198263137,8.96011620726398],[-75.46373911861372,8.961242415585446],[-75.46586560658398,8.956517237461583],[-75.46054080944782,8.955207299941094],[-75.46103298604174,8.951759369263868],[-75.45801250487176,8.951754722760597],[-75.45472553881848,8.949431530760478],[-75.45837383580937,8.944631869744114],[-75.45140274388473,8.941130751105163],[-75.45210279442279,8.938601094127193],[-75.44778004482811,8.936148399616684],[-75.4504302897767,8.932898120164907],[-75.44741096354767,8.929928553070226],[-75.44821203182369,8.925228737367377],[-75.44466027781732,8.925720833742844],[-75.4481399225765,8.909807252083567],[-75.45420504817349,8.905395241905808],[-75.45378029729949,8.90362409213867],[-75.45042294566872,8.902262536059652],[-75.4466759233382,8.904288656267624],[-75.44732942553946,8.905928192131853],[-75.4464094518247,8.904941004556349],[-75.44449447745666,8.898063745670242],[-75.444120122323,8.887342665386825],[-75.44766035674468,8.872850414942661],[-75.4471948764616,8.86419845404896],[-75.44947559070039,8.853669883806901],[-75.45630359541741,8.842411658280412],[-75.45998108269231,8.832463201609869],[-75.46133887775699,8.813812030407348],[-75.45888079317922,8.807032394370424],[-75.46469747277479,8.804278972983013],[-75.46797698159139,8.808570653329184],[-75.46797698159139,8.812417007780368],[-75.4737465122397,8.815301772590317],[-75.47624664263293,8.821071304267036],[-75.48201617328124,8.82203289287986],[-75.48496504502714,8.826808781447369],[-75.48988816336879,8.82745849692327],[-75.48958557501089,8.842568725107185],[-75.49724146361416,8.854653679578973],[-75.49834907872332,8.858900766657541],[-75.49449889949443,8.889581576522573],[-75.50983401206173,8.89688119206852],[-75.51038928360424,8.91037400515836],[-75.51706642608815,8.916277664251481],[-75.51946348185845,8.921121057729067],[-75.52037518072461,8.928321411088461],[-75.5187562075401,8.937183429309698],[-75.5364948663784,8.9248160748067],[-75.53968372621449,8.930403164894415],[-75.54529929798929,8.930055662394864],[-75.54457361557832,8.936981026679803],[-75.53844814611654,8.945135483647334],[-75.5415680601946,8.947052956102254],[-75.5458175106341,8.94713785506059],[-75.54119391486313,8.96249025986043],[-75.54447543942706,8.964710964478229],[-75.5482436497303,8.963611395903342],[-75.5574903949281,8.970471042711324],[-75.55827576300067,8.977245730911307],[-75.52132530940247,8.969313381532345],[-75.52238686262808,8.979863130491196],[-75.52007397870727,8.983669563889123],[-75.51714496310109,8.98311154229134],[-75.51369648529248,8.985122520740049],[-75.51177316202808,8.989477635420826],[-75.50691353355688,8.984618903751539],[-75.50111530113475,8.984993798817527],[-75.49963470283427,8.991603498098016],[-75.49875718116982,8.990092862076835],[-75.49535538642402,8.989685629692701],[-75.48629833436348,8.996995427847992],[-75.47554877753521,8.98919955587661],[-75.47221404546917,8.992965569426644],[-75.47764676530636,8.999451914226086],[-75.46649909220844,9.001404637576798],[-75.46018947908522,9.004893647333517],[-75.45639223687806,9.00427219860029]]]}}]}