{"type":"FeatureCollection","features":[{"type":"Feature","properties":{"code":"232508"},"geometry":{"type":"Polygon","coordinates":[[[-75.71533399817844,8.859469289681897],[-75.70189081155394,8.843627571472098],[-75.7116562949306,8.836092614339293],[-75.70509521012798,8.82990404684358],[-75.70026598036083,8.83063554406857],[-75.69766401358936,8.837468289905587],[-75.67756836298753,8.836047335100488],[-75.67509624634005,8.831318453555184],[-75.67052623653814,8.827759838808788],[-75.67118221008673,8.8216675520448],[-75.6695646088445,8.821359193095986],[-75.66262118408054,8.809594698227727],[-75.66298739394944,8.805968806885517],[-75.65534237906894,8.809986792966413],[-75.65222162063958,8.803767937838586],[-75.64761342990914,8.79964420112725],[-75.64059405055133,8.797002521047943],[-75.63587122653246,8.79815751958921],[-75.63639873732603,8.792566221114726],[-75.63852728835195,8.791920224487],[-75.64067828513583,8.78578217511631],[-75.63521562322313,8.785156238259901],[-75.63511686085963,8.782988560138335],[-75.6387710323142,8.782298981202018],[-75.63883171762194,8.778066513433828],[-75.63204940454915,8.778242462465244],[-75.62120831427978,8.765555089560621],[-75.62359545483577,8.763196494455201],[-75.62356536672144,8.759618501794876],[-75.61949935237487,8.762021238681598],[-75.61631744275337,8.761253500170767],[-75.61861405877033,8.756626603099335],[-75.61203679965229,8.754939381440806],[-75.61171657659054,8.747727948670217],[-75.6099927680894,8.744548839497668],[-75.60723827197955,8.746906589223272],[-75.60414015779759,8.74464586893555],[-75.59816598560002,8.743899327653367],[-75.59639705212652,8.741323631417629],[-75.59851756381727,8.73466275889433],[-75.59706808824421,8.732728656523875],[-75.60543073694458,8.73276064005779],[-75.60520115052202,8.727819742001884],[-75.6077419321627,8.729756204647913],[-75.61009256506611,8.72807912446109],[-75.60490426899167,8.72335816089469],[-75.6039040829312,8.719217993785662],[-75.60117272266422,8.717203336598061],[-75.60220573969525,8.715317401332982],[-75.60977786679757,8.713098400844387],[-75.61681053671805,8.716004107829349],[-75.63131579387476,8.712064831539749],[-75.63767257754262,8.717806470826929],[-75.6469476666162,8.718851302605628],[-75.65522971730479,8.714178727259764],[-75.66207626689732,8.713937068978908],[-75.6695735850908,8.707947190407197],[-75.6768574448974,8.711149083695318],[-75.68509874046583,8.710975606011289],[-75.69444540502496,8.723688018405937],[-75.70284631487232,8.747842217890025],[-75.70463885830071,8.773566534396764],[-75.70191543143937,8.787475470756306],[-75.6989501683766,8.791142497742385],[-75.69744504377888,8.799347727888573],[-75.69383614025026,8.802362615359755],[-75.693404523494,8.800178083122205],[-75.6918074664195,8.800243064234337],[-75.69225883441436,8.802150474407654],[-75.69569844499159,8.80352190147795],[-75.69496211511523,8.809512237706542],[-75.69777691806593,8.80716019789378],[-75.701862174572,8.81685245924848],[-75.72484905580183,8.835018917264392],[-75.73609699073245,8.851132841583194],[-75.73890963703917,8.86320320656938],[-75.73612460338563,8.863896774834245],[-75.7290985885167,8.858214718364366],[-75.7189960279623,8.85493878544247],[-75.71533399817844,8.859469289681897]]]}}]}