{"type":"FeatureCollection","features":[{"type":"Feature","properties":{"code":"233057"},"geometry":{"type":"Polygon","coordinates":[[[-75.62415330982583,8.335545731367802],[-75.61716104124127,8.323874612909606],[-75.61423445275943,8.310357426760504],[-75.61499767435078,8.30731845419399],[-75.62252456746586,8.299876290344287],[-75.63013393550023,8.279638738329083],[-75.62909958869301,8.253365181066783],[-75.63177753885464,8.242116342135148],[-75.6300041275424,8.222540840735405],[-75.63193876881672,8.181675798610229],[-75.62984956805849,8.17922597653967],[-75.62993028536954,8.173373969943611],[-75.63225267107072,8.171849898349365],[-75.64139297041095,8.14215134982021],[-75.68486958907448,8.143184449126636],[-75.71251492719131,8.138272747525434],[-75.72594679786278,8.127472097672864],[-75.73865901588181,8.120858366897721],[-75.74740074849456,8.123636804120963],[-75.75176470366716,8.12094697441978],[-75.7557163685754,8.126154777991928],[-75.75457906850141,8.134451976610364],[-75.76110377420679,8.128303957517858],[-75.76331643126184,8.123990408369934],[-75.76970123998831,8.122552857587948],[-75.77513497695514,8.125478925677896],[-75.77423453542076,8.129742998513109],[-75.7835499106447,8.128538162675795],[-75.78494611083835,8.130554578500096],[-75.788844611439,8.129920232069253],[-75.79072958305346,8.133030408853529],[-75.7882725022356,8.138990011105932],[-75.79072213815806,8.140630264823074],[-75.80275420085951,8.129759852629093],[-75.80907865132298,8.131743922907788],[-75.80780395235695,8.13787140811695],[-75.81119960318716,8.139212617489136],[-75.81023051414309,8.148385717975032],[-75.81901220894673,8.15601677380522],[-75.81792901111987,8.160771952625794],[-75.8074152360519,8.164333806966113],[-75.8043477026082,8.167906690324003],[-75.80239471186246,8.17399301520669],[-75.79495639850154,8.178577492109525],[-75.79185759526308,8.191337562530464],[-75.79000382453773,8.193766468137085],[-75.78508300167982,8.195448021020468],[-75.78634082904637,8.199513191015683],[-75.77948269919108,8.206958983210598],[-75.77350050514184,8.219934544220962],[-75.76122414723295,8.23628173267275],[-75.75492168589898,8.233050958661806],[-75.7488338790306,8.248547337186665],[-75.75699783983544,8.24873470295853],[-75.75998101013931,8.246309036945831],[-75.76021705929469,8.255741544573539],[-75.76519953316784,8.252749353800311],[-75.77437702716014,8.259367153094047],[-75.78453261421083,8.245404425077027],[-75.79049844573956,8.249781642015932],[-75.7959162932695,8.25066453934943],[-75.79751119884219,8.252461889718177],[-75.79687689560592,8.25592726483734],[-75.78611180312498,8.285255123601928],[-75.78489162909591,8.288328732055618],[-75.77441586114969,8.288896439525047],[-75.77466032913549,8.296321242236559],[-75.76740326334186,8.297301023997534],[-75.75994961178924,8.296473891902735],[-75.75843906215727,8.28797316348141],[-75.75582273112911,8.285357470087604],[-75.74415665409612,8.281772963272374],[-75.74045619450067,8.284167644368893],[-75.74044043567596,8.287714065900786],[-75.73368820146152,8.289544089888352],[-75.72628773169993,8.296841420235012],[-75.72585265012083,8.299952364237413],[-75.72724953937103,8.301871733140331],[-75.72549385943626,8.303948748911637],[-75.72549421219202,8.30893558235266],[-75.72964461641783,8.313571939038354],[-75.7293088741585,8.317915051794898],[-75.72572358367006,8.322043423696641],[-75.7236397256707,8.328818283646513],[-75.72332786898886,8.345003619928491],[-75.72355612049301,8.35089106665373],[-75.72681429118421,8.35418832227441],[-75.71803323915708,8.350384947464534],[-75.71649907648487,8.35231118944887],[-75.71341631592122,8.352707898809115],[-75.70800750428725,8.350042323896332],[-75.7040775477438,8.332011288105946],[-75.69401602204584,8.322836697406842],[-75.68437016710294,8.32095583647714],[-75.68167619689223,8.322118660437582],[-75.67511766057015,8.3209930681532],[-75.66935957751554,8.327159928312597],[-75.66632018740137,8.338307780359514],[-75.66750934977472,8.346366781406232],[-75.6648213630425,8.349065440286381],[-75.64335137693502,8.346926760130145],[-75.62415330982583,8.335545731367802]]]}}]}