{"type":"FeatureCollection","features":[{"type":"Feature","properties":{"code":"233009"},"geometry":{"type":"Polygon","coordinates":[[[-75.28853184517936,8.496279910128294],[-75.2777977540697,8.495818916939982],[-75.27741626668717,8.491935227968497],[-75.27294035731882,8.489194061502133],[-75.26038058533436,8.489304601589367],[-75.24973503798333,8.486620182524291],[-75.2469098436494,8.488273904724622],[-75.24085358116997,8.487207190774484],[-75.23729460544024,8.48489676277444],[-75.23542346329236,8.480881775631929],[-75.22853858776097,8.476128974570486],[-75.22618672278338,8.477030846668413],[-75.22159880676878,8.483293205943255],[-75.21842332594144,8.484170323429794],[-75.22105812059806,8.481223488000069],[-75.21789466843444,8.475187208158786],[-75.21911535051407,8.471906649302412],[-75.2170276852205,8.472143248674513],[-75.20471467362017,8.463909485419038],[-75.20236441095608,8.463602083950207],[-75.19695573096277,8.467154502330459],[-75.19997891590816,8.45501974861503],[-75.20537987538353,8.447504386397497],[-75.21732805625629,8.442969075217718],[-75.21813918681391,8.437044369048408],[-75.22147553970535,8.433298890410128],[-75.2218874689865,8.427095104022044],[-75.21729294420027,8.420467395684682],[-75.21530076670922,8.408779846828793],[-75.20934873893594,8.413489884221804],[-75.20842145710867,8.419523406808707],[-75.20582962255293,8.422906184623912],[-75.20198496606037,8.423565821484772],[-75.19416170152249,8.421530310568187],[-75.19653987303121,8.419781083081773],[-75.19597367428696,8.407315239780985],[-75.18618240065723,8.396438202360287],[-75.18361886266894,8.39842631338962],[-75.18701559027846,8.392125971675682],[-75.20052740795757,8.39039614884274],[-75.20187800906683,8.386939028003155],[-75.20522686370555,8.387807519942271],[-75.21237595640446,8.384940568785225],[-75.21612220328933,8.373372074492181],[-75.22465234002448,8.366984422122187],[-75.23187686898211,8.357322258137799],[-75.23853881931319,8.355364857430516],[-75.23548725141114,8.350171279275287],[-75.2376996153601,8.340866002328482],[-75.23163367729347,8.341318713469207],[-75.23569943247253,8.330271301175571],[-75.23828710594984,8.33288534083374],[-75.24304686031115,8.332960699959301],[-75.24625992659878,8.328152167597807],[-75.25166185178165,8.324633284671222],[-75.25520968639353,8.324869152820668],[-75.25820022343123,8.321217195602856],[-75.30587827969521,8.31072472060788],[-75.30953278642204,8.308465930706689],[-75.31197429764865,8.31177825095341],[-75.31013588979766,8.313607715468208],[-75.31143257789324,8.31704899829299],[-75.30899825342294,8.319335688811236],[-75.30893023429167,8.323906646837145],[-75.31668991845612,8.328651054779186],[-75.32186261819976,8.32553540565226],[-75.33078790723323,8.328588835035248],[-75.33371118413015,8.328107293565381],[-75.33915117608444,8.32294763858664],[-75.33938747515128,8.320740066151359],[-75.34534594817382,8.322536993830226],[-75.34754337090988,8.326387663626235],[-75.35444767680582,8.329449235188633],[-75.36220728280864,8.32790672670535],[-75.36406919674181,8.32622613027354],[-75.36371813480275,8.331816007440466],[-75.36696880403417,8.339187448383484],[-75.36542727771354,8.345184575418102],[-75.36725796504652,8.352139115588841],[-75.36323753230084,8.355424491669964],[-75.35930794291136,8.354394268917247],[-75.35249553143979,8.356564256920706],[-75.3469027088135,8.355914383064658],[-75.35030582099415,8.365171380805918],[-75.35787372633996,8.373001297309997],[-75.35111390221971,8.377664951945462],[-75.34892431107346,8.381258472030936],[-75.3494811437917,8.38327138086629],[-75.34040111118304,8.386860988756439],[-75.3405079385928,8.388847108721052],[-75.34989215158828,8.397324443160414],[-75.37145339037204,8.398026119666099],[-75.37591678873719,8.402654385594474],[-75.38668310506472,8.404556667953386],[-75.39444185746027,8.411544866990937],[-75.38894950544051,8.413231641276923],[-75.39252515942258,8.420869279139254],[-75.39207258814997,8.443950735943133],[-75.39471997402842,8.45123105482213],[-75.39426484193393,8.455279130045767],[-75.38465916926867,8.462076991112554],[-75.37904354607178,8.46133809321526],[-75.37549683657596,8.463259226925516],[-75.37313236289316,8.46695371641215],[-75.3619011154708,8.472421560646694],[-75.35816822085519,8.477453659956723],[-75.35567561660429,8.476813456545699],[-75.3507943610154,8.479250981529106],[-75.33994635858392,8.478719360050718],[-75.3247006207568,8.484400101142626],[-75.3173066291547,8.484159068154838],[-75.31484569270583,8.487665541893989],[-75.30656434752882,8.487089113232003],[-75.30342675452385,8.489017412101305],[-75.30254576289434,8.492472775332601],[-75.29994921807184,8.493411714555805],[-75.28853184517936,8.496279910128294]]]}}]}