{"type":"FeatureCollection","features":[{"type":"Feature","properties":{"code":"233539"},"geometry":{"type":"Polygon","coordinates":[[[-75.12496054318018,8.21890323029072],[-75.02651949801793,8.20539619589772],[-75.0101767442103,8.208878919813799],[-74.97484358743532,8.232410889976734],[-74.9628954374158,8.242399689361946],[-74.96153763206672,8.24194369029044],[-74.95893029682532,8.245537584728993],[-74.95703503770034,8.240431557885415],[-74.95180195398262,8.237171476348067],[-74.93384942846569,8.22907356829245],[-74.91827732160436,8.225100400708072],[-74.91430230282344,8.219187481518475],[-74.91257055783143,8.199264959958725],[-74.92110061846188,8.185350703465986],[-74.92039871981257,8.18287492864846],[-74.91803353650442,8.181369990198846],[-74.90516223282594,8.187038601839674],[-74.89430524797751,8.185234146990013],[-74.89110846707712,8.182564730844433],[-74.89306175504277,8.16995508865375],[-74.89707496092285,8.169289437461089],[-74.89844831426598,8.166776498844683],[-74.89796775084488,8.15502418999182],[-74.89313063806577,8.144306650636054],[-74.89289416519216,8.138145797609354],[-74.89447356493702,8.129242190201069],[-74.8933215293386,8.12262645910522],[-74.89732631021752,8.112843215554676],[-74.91231212668157,8.10099791698616],[-74.91846852038145,8.09248167039567],[-74.92400800797873,8.080352525805722],[-74.93120309365554,8.07444863017082],[-74.95001700663067,8.078486537183323],[-74.95457248968205,8.076293448304],[-74.96402617602655,8.080495283911773],[-74.96721530634301,8.078089075003106],[-74.97773626816729,8.078969172916004],[-74.9804971755878,8.077101753730062],[-74.98494581374592,8.078217521303031],[-74.98898207525036,8.074404704362394],[-74.99285820722622,8.075836954551676],[-74.99592593093178,8.074007258637266],[-75.00300627224829,8.074556430487178],[-75.01126049122547,8.070293133097607],[-75.01363348349764,8.06722291130518],[-75.0190043630862,8.068772381315853],[-75.022765532672,8.064616359736931],[-75.02888545471484,8.06304608844789],[-75.03501190633926,8.05775997000643],[-75.0626615207201,8.0501999908671],[-75.07435070685648,8.05224221442802],[-75.08539768823272,8.06375665686761],[-75.09338695779132,8.076513608022424],[-75.10041422221792,8.060220928052559],[-75.1124067351339,8.050970702605298],[-75.12375983448271,8.049709083371226],[-75.13339563948534,8.052832908616153],[-75.14199593965446,8.051846758739146],[-75.15794832856369,8.060929213329928],[-75.16139678168969,8.056210085533394],[-75.16517372964057,8.05395588865656],[-75.18453743358805,8.050180690086393],[-75.18823833232847,8.051313226414607],[-75.19698916151526,8.062138951752729],[-75.20732025125335,8.069406150790428],[-75.21635378077656,8.068683915718793],[-75.22676069346778,8.062077111504038],[-75.22674536453201,8.065636742351671],[-75.23055285825416,8.06993484223608],[-75.22398994590924,8.079713216111259],[-75.22156145476492,8.081410528847755],[-75.21934529997685,8.07898367395552],[-75.21386570578653,8.078887022984532],[-75.21024996414354,8.081811437338843],[-75.20918439587837,8.08496706614028],[-75.2118785254977,8.09270259733222],[-75.2103557230015,8.098823673287598],[-75.21241049150427,8.098841681316117],[-75.21471764494328,8.101748448625244],[-75.22299182804664,8.102944626005012],[-75.22875168207929,8.096949601106928],[-75.22546935635864,8.110314455378614],[-75.21995187537436,8.119878648900226],[-75.22788933405576,8.122362742789278],[-75.24040207742075,8.120758824974757],[-75.24820664384515,8.121730903701234],[-75.24708922150819,8.130788817596624],[-75.24871656827167,8.131792140406787],[-75.2550305059957,8.13115359793045],[-75.26071886064761,8.12329142946902],[-75.26382097341411,8.1220078385889],[-75.27024697743406,8.126955457516658],[-75.27774302138732,8.126917623173313],[-75.29378471201733,8.135225255341084],[-75.30189108004112,8.135626947505386],[-75.30235887843361,8.138260683894714],[-75.31177382643381,8.136009520923267],[-75.32515977303308,8.138186866404453],[-75.32826565092762,8.141463334116509],[-75.32909713436271,8.146853022890298],[-75.33262900343294,8.152512331240075],[-75.32908102175378,8.160472709791406],[-75.32537236855677,8.163286419507756],[-75.32673799726814,8.165734263883337],[-75.33242268140862,8.167442243625658],[-75.3308361082772,8.169276532564368],[-75.32727228035571,8.169805033748105],[-75.3319199087714,8.175337739795395],[-75.32605921492132,8.179624897051383],[-75.33274310295974,8.180194085478036],[-75.33987771107422,8.183808146645958],[-75.33805270999994,8.1867992524123],[-75.3314163000104,8.185496627118084],[-75.32867658056261,8.186874681471977],[-75.3318123398546,8.192648081121035],[-75.32991254838345,8.196971632900897],[-75.33303272060056,8.2011779154941],[-75.33271958865004,8.202967596766996],[-75.32820381067899,8.206025755957114],[-75.32242076012534,8.202957662012238],[-75.3199102054387,8.203480657943146],[-75.31978760172069,8.207095890507105],[-75.32426592381523,8.211292272284197],[-75.32177982240637,8.213321509701416],[-75.3186587194487,8.212831653273781],[-75.31487457651394,8.205714269514601],[-75.31240968878893,8.205609949447705],[-75.31247170181592,8.213229210070665],[-75.31008307104679,8.21763435230929],[-75.31477561668947,8.21865508870826],[-75.30661832430599,8.22511640327366],[-75.30786310690758,8.227320572592646],[-75.313332921638,8.226918510189023],[-75.31337900203351,8.22880542864516],[-75.3067103143755,8.232717526284375],[-75.30050735691208,8.227984810705323],[-75.29803576579872,8.228915503876408],[-75.29779103144631,8.231578451118594],[-75.30208623523657,8.23651364543224],[-75.29634932678499,8.243092877103095],[-75.30141540686424,8.248761319050914],[-75.2989425487097,8.25149886642805],[-75.29200708511922,8.249178538640365],[-75.29251867253731,8.256442815872902],[-75.29645616242226,8.257445613148946],[-75.29135150752103,8.260560623613117],[-75.29431926249998,8.264560808382441],[-75.2895811445124,8.267558385109169],[-75.29270992479343,8.270422448399643],[-75.29239760222714,8.271773654233073],[-75.28860558450799,8.270187398890414],[-75.28752924536428,8.263704491145859],[-75.28327147996703,8.263718450196166],[-75.28116620156686,8.266372331717548],[-75.28176074932912,8.270540150560578],[-75.28324158005768,8.272365193801022],[-75.28814695365207,8.273048740921979],[-75.28763590925166,8.274713628922768],[-75.28335493910583,8.276092682922751],[-75.28182215866036,8.280516695024687],[-75.27848778860607,8.280022728940764],[-75.27310905068828,8.282660445402598],[-75.26842409700822,8.27971827293129],[-75.26953801132782,8.287055429714485],[-75.2663488213617,8.288088693571751],[-75.26311380811069,8.284993087761052],[-75.26168011707347,8.285816591510581],[-75.26430478054283,8.289676740461289],[-75.2685075643746,8.290895949811215],[-75.26727954127227,8.294123457488752],[-75.26389192977723,8.29577995339855],[-75.25700266793848,8.295678287741794],[-75.25693397723421,8.30119401934536],[-75.2534703340122,8.295619781703806],[-75.25189839150408,8.296327264795934],[-75.2498687149419,8.304346038313497],[-75.24579439489361,8.305569339836268],[-75.24023126545967,8.313443564729369],[-75.23486937240187,8.313008240437853],[-75.22826213829813,8.307531130964662],[-75.22250955124031,8.287704891165049],[-75.22384479770278,8.281562193234151],[-75.21974019824984,8.260420809938012],[-75.22505115769195,8.250922370917294],[-75.2201035809303,8.248155657938753],[-75.21496407108367,8.255434890782396],[-75.20538140981972,8.235130791337156],[-75.20266526330295,8.232254438158577],[-75.12496054318018,8.21890323029072]]]}}]}