{"type":"FeatureCollection","features":[{"type":"Feature","properties":{"code":"233501"},"geometry":{"type":"Polygon","coordinates":[[[-75.33539043638763,8.057842047946963],[-75.33164882777851,8.056045870002663],[-75.33547014273967,8.049236302174677],[-75.3276451823001,8.041828261019361],[-75.32878885974617,8.039896996121797],[-75.33006189366381,8.041007397281703],[-75.33105669685614,8.038238990458353],[-75.33999943958764,8.046965558686168],[-75.33806394264911,8.054141392947429],[-75.33539043638763,8.057842047946963]]]}}]}