{"type":"FeatureCollection","features":[{"type":"Feature","properties":{"code":"234038"},"geometry":{"type":"Polygon","coordinates":[[[-75.56855714708331,7.901807530622932],[-75.57748198154519,7.890162081061533],[-75.59782895264533,7.8523748485777105],[-75.59782895264533,7.836387943080695],[-75.58910882246767,7.797147355738673],[-75.59782895264533,7.776800384638591],[-75.6080024387096,7.759360123254851],[-75.63416282924248,7.753546702793642],[-75.65305644548437,7.733199731693503],[-75.66468328640684,7.717212826196487],[-75.66613664126504,7.708492696018823],[-75.68503025750692,7.7012259206994145],[-75.69229703282639,7.685239014173874],[-75.69520374254279,7.666345397931991],[-75.6966570984294,7.635824941796045],[-75.68939032310999,7.609664550234754],[-75.66200089234508,7.582275120498252],[-75.67811588830097,7.5757488176216725],[-75.68562880179684,7.5814264085941545],[-75.69080633316344,7.590416092527448],[-75.70020323611118,7.612170511897091],[-75.70202719125945,7.620402319054847],[-75.7057523201056,7.62496833747133],[-75.71096666560055,7.6502354763114795],[-75.71276604508643,7.652017140874932],[-75.71824183712471,7.651058554285839],[-75.72049978473149,7.65632683027809],[-75.71870220810536,7.665060781694706],[-75.71424363930635,7.669542778414325],[-75.70923768506202,7.690567839719392],[-75.71761879122027,7.700886711560315],[-75.72271995661606,7.704723341059037],[-75.72699566833523,7.705518728218578],[-75.72987701254539,7.714031753727113],[-75.72564361609358,7.72419581103037],[-75.72577345799004,7.732211712107983],[-75.7245841094686,7.733655921026866],[-75.72742881232864,7.732452580544987],[-75.72791868726824,7.7337259456210745],[-75.72449040807072,7.741654418800181],[-75.72512013576625,7.746624385783889],[-75.72922042398812,7.754523751982788],[-75.72459405450775,7.76834258032261],[-75.7254332564039,7.774833898670067],[-75.72382194820148,7.779102158294791],[-75.72444347818168,7.7819411471282365],[-75.72974776508869,7.785370787983652],[-75.73363400459766,7.790429458134611],[-75.73589478659198,7.796103363169038],[-75.73511030297999,7.803615675026094],[-75.73043930835024,7.806069389751599],[-75.72984632279218,7.81053668899915],[-75.72660015505363,7.813086254567395],[-75.72864638131279,7.8159196373606505],[-75.72317626936251,7.822232556926622],[-75.72197348321112,7.826905190893683],[-75.72463107432463,7.829939137461622],[-75.72057347778014,7.833202239534671],[-75.72151223599747,7.835599377580365],[-75.71445731058088,7.839966660792982],[-75.71446858231093,7.842859875286649],[-75.70993804104751,7.843600749850509],[-75.70964333055935,7.848819571127308],[-75.70142149003806,7.855843052942305],[-75.70308546683873,7.860525546587837],[-75.69793480456138,7.866172081681555],[-75.69725673903906,7.873208071414467],[-75.6942138079973,7.876736488003189],[-75.68220255583014,7.882898232689513],[-75.68048847639528,7.885482555501142],[-75.68158705046625,7.8912891265351846],[-75.67721081363305,7.894165244200394],[-75.67752901786207,7.889312109315313],[-75.67929058460186,7.887811856449787],[-75.6768758941277,7.886062561086192],[-75.6764181744719,7.880333474968381],[-75.67437425192395,7.877214790907544],[-75.66957804647444,7.881378182305525],[-75.67044516955656,7.88531999576287],[-75.66913060404471,7.888001396349125],[-75.66268398180915,7.8909185139037845],[-75.66600582851885,7.895800447236354],[-75.66181175456683,7.8995514774073285],[-75.66159197537212,7.906280854486795],[-75.65914640076915,7.908492181765723],[-75.6546074406753,7.908753971808835],[-75.65597339540295,7.913030625581428],[-75.65463343455997,7.915604776068051],[-75.65033659143234,7.915009289337775],[-75.65012406687117,7.923696056840072],[-75.64349666500965,7.923353974232612],[-75.64585256148183,7.929829045245185],[-75.64171145129103,7.938041219435263],[-75.64210315316473,7.944278995848549],[-75.6406375588121,7.9461195829692315],[-75.63352441737834,7.947247255792831],[-75.63035870675492,7.95386536978998],[-75.6196766188412,7.952314673875833],[-75.6144121943662,7.955637329969818],[-75.61084754471909,7.954060073499193],[-75.60938583787919,7.957001611421447],[-75.6072919607928,7.954929539373325],[-75.605698909502,7.955547094423196],[-75.6076709809418,7.9578642906034815],[-75.6038649527502,7.957388943442879],[-75.60436575180626,7.960078561284888],[-75.60155271571978,7.9626580319046525],[-75.59590813260996,7.962801050206679],[-75.59591712428295,7.965247839400263],[-75.59763698150789,7.965730898851291],[-75.59653748183865,7.967080672064299],[-75.58953838850954,7.966005116593806],[-75.58916172966462,7.963682026409515],[-75.5855952514467,7.961615167536536],[-75.57296136372366,7.963373609867915],[-75.57133993976066,7.956161271039434],[-75.56508303225962,7.9566730620891235],[-75.56227370165152,7.9603533528983235],[-75.55663252885711,7.9614745249367616],[-75.55346144873528,7.966991246930434],[-75.5549906913385,7.968958601932854],[-75.55411096366487,7.9715410293248965],[-75.54971928579567,7.973466391990826],[-75.54751214427785,7.965337586436647],[-75.54515396260632,7.9652927720538855],[-75.5422556480662,7.968122086328549],[-75.5382114860663,7.968239141599099],[-75.53670065978326,7.967287422949198],[-75.53697588848485,7.963692274839218],[-75.5356482576392,7.962300400274785],[-75.53179558032343,7.966090005267745],[-75.52740895416389,7.964708780225578],[-75.5274007687899,7.962381179292379],[-75.53294737320942,7.961173198477866],[-75.52776592759062,7.956793715880053],[-75.52227271990665,7.958648986074593],[-75.51887796484988,7.958105948884281],[-75.51322386967524,7.951530214946445],[-75.51471212061654,7.94667671290739],[-75.51321520196166,7.943320406174166],[-75.52358651202974,7.945099153046215],[-75.52351676922876,7.94849135653709],[-75.5248515168966,7.948875402684621],[-75.52701107854983,7.944812697866098],[-75.52468525270842,7.944923599965136],[-75.52421111293933,7.9435117355634475],[-75.5271413863307,7.942701568656446],[-75.52771388428539,7.938209383156845],[-75.53084913449828,7.938338569935354],[-75.52850773083804,7.942563506418992],[-75.53142127044123,7.940220129177533],[-75.53342829452845,7.9432468725340755],[-75.53191055814017,7.937868229232947],[-75.53409234237927,7.936935226179969],[-75.53496991546581,7.938332098975025],[-75.53661695073293,7.935681258558191],[-75.54282837022134,7.936710266720297],[-75.54774115271567,7.934903231508372],[-75.54798507768385,7.937531626167242],[-75.5495192537258,7.938234655074837],[-75.55160943561822,7.938165120019278],[-75.5522728118961,7.936202418719233],[-75.55560054643922,7.937404128091316],[-75.55775192271841,7.936384123943469],[-75.55614956402275,7.933885985643371],[-75.55386797560783,7.93366018080394],[-75.5580641938626,7.928145044668611],[-75.55711794652683,7.926251318951472],[-75.55934663905771,7.927387989618637],[-75.55897962803203,7.926001802341318],[-75.56078758472847,7.925001081490677],[-75.5607201178708,7.921184575526752],[-75.55781281577151,7.917558934096064],[-75.56309189555236,7.9149606717745655],[-75.56111571857002,7.91835282384335],[-75.56324549241413,7.918298935512212],[-75.56788398723177,7.9123064796635845],[-75.56527443672519,7.906379387507627],[-75.56632773567117,7.904939553583233],[-75.56640385378728,7.90642054886257],[-75.56797541680015,7.905566429407656],[-75.56720501565161,7.902771598810659],[-75.56857141158105,7.903805078640801],[-75.56976850118934,7.902652872320971],[-75.56855714708331,7.901807530622932]]]}}]}