{"type":"FeatureCollection","features":[{"type":"Feature","properties":{"code":"234039"},"geometry":{"type":"Polygon","coordinates":[[[-75.67811588830097,7.5757488176216725],[-75.69004546773391,7.567307725496676],[-75.71179751037283,7.558198457352546],[-75.71877778834607,7.550869168154634],[-75.75258558900214,7.534796199502296],[-75.75616350452924,7.530767227598403],[-75.76692897650548,7.52449395963373],[-75.77030132797046,7.520203589523305],[-75.77761095437586,7.505986373405051],[-75.78147971036196,7.4846919105537495],[-75.78709572950925,7.477318693490474],[-75.78811814638328,7.473449756498496],[-75.78708757807385,7.46195368307076],[-75.78968158470025,7.456162560271764],[-75.80164462862427,7.445982070513935],[-75.80671841173802,7.445723929384826],[-75.81180767805387,7.447542208558843],[-75.81550750824249,7.444302233072676],[-75.82442718712207,7.442868550263029],[-75.82349735475736,7.4362732584338005],[-75.82829527153518,7.431415611771342],[-75.82768536192702,7.425008881792621],[-75.82624343409361,7.423576363179848],[-75.82223721750893,7.423533341372433],[-75.81743122745729,7.416102480106019],[-75.8214450863984,7.411192626615957],[-75.82996589927365,7.407087545851937],[-75.83554461783928,7.388534172333834],[-75.83533841614269,7.377719783517648],[-75.83338532255272,7.3721633821546675],[-75.84223593226113,7.357500522352609],[-75.9652256226658,7.365106512981754],[-75.96809498552057,7.377856398736469],[-75.9727333075599,7.386205407203704],[-75.97252764065342,7.3929199356300614],[-75.97495370261652,7.396062553605191],[-75.97372475700121,7.397261832767583],[-75.97773808115215,7.401743118833394],[-75.98140803817097,7.41045302937772],[-75.97959896869975,7.42402355055583],[-75.97715062552953,7.428539139293434],[-75.98145364445446,7.4345023256680065],[-75.98259035934467,7.439465722960904],[-75.98145267977537,7.440718889425966],[-75.98642813967058,7.443265236997547],[-75.98886912536301,7.451318243252786],[-75.99517934938109,7.4567856360010865],[-75.99657507546277,7.460609122004371],[-75.99662099336433,7.469848378083725],[-75.993417154263,7.476697840225484],[-75.99628549278901,7.480122925080536],[-75.99384446390195,7.484238699589923],[-75.99123408652758,7.4852079778674465],[-75.99047876440324,7.488500825583458],[-75.97586076115005,7.499028111300788],[-75.97096981249041,7.49917343639936],[-75.95688623013609,7.505330657995501],[-75.95410743501486,7.513155387035511],[-75.95499275433048,7.5167462527108455],[-75.95809135907956,7.519734541573143],[-75.954618815716,7.522064115059095],[-75.95315483704655,7.5277933379597926],[-75.95023980723022,7.529217895399029],[-75.94287728391231,7.539437916430359],[-75.93536171394936,7.540778023312157],[-75.93775038894154,7.544109515784271],[-75.93727721385153,7.545707781278736],[-75.934278749579,7.549114099114718],[-75.93224182661083,7.548503672199956],[-75.92907545264194,7.551576289235015],[-75.92353577581127,7.562557785562319],[-75.92119358744935,7.56433001005189],[-75.92288643674533,7.571075057510029],[-75.91869147627585,7.572583979117496],[-75.91927072081342,7.576221408556307],[-75.91667707619882,7.584659941916357],[-75.91753096322572,7.587252388395427],[-75.91145814076486,7.5943883663953216],[-75.90498817494102,7.598551454402752],[-75.9068724821816,7.6031787124574635],[-75.90195822592915,7.619309023979326],[-75.89923517033554,7.622008046928158],[-75.90171474113441,7.625993402584811],[-75.89738029711987,7.631619510753239],[-75.89921158712013,7.635051781336244],[-75.89472499326246,7.639128558333709],[-75.89516832089367,7.6423497668007485],[-75.89129177445551,7.648264287275367],[-75.89087240953495,7.653271808866066],[-75.88821807961267,7.657959961002348],[-75.87542233663447,7.666264964471054],[-75.87283593945432,7.673171580248891],[-75.8693116366357,7.675026574820777],[-75.87059280656206,7.680937605789893],[-75.86991432554896,7.685768867759521],[-75.86693807460631,7.6902086664541685],[-75.86722063610301,7.694536604541383],[-75.86425974803473,7.6972501120746415],[-75.85993338654993,7.6980193675382225],[-75.85809496121539,7.710694669613019],[-75.85387583234672,7.712362702591065],[-75.85489016669095,7.7145682592790195],[-75.86623616670107,7.719585595296621],[-75.86599908293255,7.721248416127935],[-75.85950581877182,7.7243009229979975],[-75.85736202519934,7.729082942111404],[-75.86431246394136,7.73615992350625],[-75.8598032165803,7.7468806757163975],[-75.85978115854516,7.752685309164804],[-75.85051821743463,7.732134079096056],[-75.82884415130746,7.728341894769244],[-75.81087374940262,7.736493467983905],[-75.78179103431057,7.7807551523578695],[-75.77757020748328,7.7792598884669815],[-75.77786825115362,7.78368470172569],[-75.77987366469989,7.783739935259632],[-75.74701114155829,7.832661946229052],[-75.7327697539555,7.842312627652689],[-75.7117963461759,7.8519409054845255],[-75.70414180791767,7.853120498200212],[-75.70964333055935,7.848819571127308],[-75.70993804104751,7.843600749850509],[-75.71446858231093,7.842859875286649],[-75.71445731058088,7.839966660792982],[-75.72151223599747,7.835599377580365],[-75.72057347778014,7.833202239534671],[-75.72463107432463,7.829939137461622],[-75.72197348321112,7.826905190893683],[-75.72317626936251,7.822232556926622],[-75.72864638131279,7.8159196373606505],[-75.72660015505363,7.813086254567395],[-75.72984632279218,7.81053668899915],[-75.73043930835024,7.806069389751599],[-75.73511030297999,7.803615675026094],[-75.73589478659198,7.796103363169038],[-75.73363400459766,7.790429458134611],[-75.72974776508869,7.785370787983652],[-75.72444347818168,7.7819411471282365],[-75.72382194820148,7.779102158294791],[-75.7254332564039,7.774833898670067],[-75.72459405450775,7.76834258032261],[-75.72922042398812,7.754523751982788],[-75.72512013576625,7.746624385783889],[-75.72449040807072,7.741654418800181],[-75.72791868726824,7.7337259456210745],[-75.72742881232864,7.732452580544987],[-75.7245841094686,7.733655921026866],[-75.72577345799004,7.732211712107983],[-75.72564361609358,7.72419581103037],[-75.72987701254539,7.714031753727113],[-75.72699566833523,7.705518728218578],[-75.72271995661606,7.704723341059037],[-75.71761879122027,7.700886711560315],[-75.70923768506202,7.690567839719392],[-75.71424363930635,7.669542778414325],[-75.71870220810536,7.665060781694706],[-75.72049978473149,7.65632683027809],[-75.71824183712471,7.651058554285839],[-75.71276604508643,7.652017140874932],[-75.71096666560055,7.6502354763114795],[-75.7057523201056,7.62496833747133],[-75.70202719125945,7.620402319054847],[-75.70020323611118,7.612170511897091],[-75.69080633316344,7.590416092527448],[-75.68562880179684,7.5814264085941545],[-75.67811588830097,7.5757488176216725]]]}}]}