{"type":"FeatureCollection","features":[{"type":"Feature","properties":{"code":"234518"},"geometry":{"type":"Polygon","coordinates":[[[-76.25172068161976,7.845544598770687],[-76.25147292467477,7.8421069010965425],[-76.25535392632594,7.836813704913652],[-76.25207593651902,7.825367265150305],[-76.25708964521988,7.816858568356338],[-76.25660963407245,7.812963491440826],[-76.24875203498112,7.804979514247464],[-76.24542406595305,7.7836745962495115],[-76.24488321420313,7.767857823941426],[-76.24162175969497,7.759391465040608],[-76.24687803479145,7.753403733856885],[-76.24657787355795,7.73964910604127],[-76.24839559737296,7.735513029048207],[-76.25091923590531,7.734583123664038],[-76.24974421461661,7.729545183828975],[-76.2540913167017,7.725625524051964],[-76.2569717024034,7.717774940995469],[-76.26028724270361,7.716291897058625],[-76.26276051737739,7.712581973735155],[-76.26977939074146,7.710506254829852],[-76.27053672552779,7.7086537552594905],[-76.2673262241758,7.705674133082255],[-76.26839359015855,7.701971406799487],[-76.27466806551467,7.704297908327646],[-76.28180098801187,7.69960790396641],[-76.28247162817922,7.70572398889027],[-76.28400985731315,7.7066085060207],[-76.28820325763536,7.701933510749598],[-76.29280808433032,7.7026747051590405],[-76.29349048679478,7.6987190015570945],[-76.29800651056354,7.6946797267160605],[-76.29703047130494,7.6913062964148935],[-76.29917290013418,7.684761654351291],[-76.29808277883234,7.672287351082332],[-76.2938863939699,7.665354442143098],[-76.29432940072707,7.662142491715542],[-76.29845156803509,7.659370146985793],[-76.29613225737705,7.655255364923505],[-76.29611568196896,7.652045766544006],[-76.2983958511332,7.648595091982145],[-76.29363720337608,7.6300725696827385],[-76.28542039605242,7.6277986061406295],[-76.28286346889263,7.622080009108117],[-76.27940271970789,7.619346429462155],[-76.27457497604007,7.618912396894473],[-76.27225386869293,7.614338827652944],[-76.26742388816268,7.613446170399982],[-76.26739946779509,7.608631675128777],[-76.2632449549414,7.604984354129783],[-76.26022432876096,7.598350739447028],[-76.2555536951146,7.595011031776039],[-76.2516961954318,7.596100793123071],[-76.24977635653067,7.5924330462272565],[-76.24512392117464,7.5908838569814066],[-76.24311765710638,7.587749000661972],[-76.24005597858599,7.589171147431898],[-76.23377953787616,7.586039308562874],[-76.2287820189174,7.573668258865894],[-76.21058827529299,7.550907815996027],[-76.20753203209125,7.536707564037101],[-76.20290581070662,7.53031026179093],[-76.20332625960555,7.522283534298936],[-76.19893673735191,7.517260637492598],[-76.19589799515649,7.506499230949601],[-76.18699921217205,7.495307277230609],[-76.18766855753029,7.491177044876338],[-76.18279157203472,7.480194901658706],[-76.17150246340788,7.473370132421849],[-76.16711168645435,7.467888135789792],[-76.16114011210254,7.468145597118394],[-76.15883424421668,7.46632217470335],[-76.15675274546442,7.463351257263582],[-76.1557993052017,7.45601865545234],[-76.14751028064438,7.451930336244459],[-76.13735908504327,7.442576855168284],[-76.13549154450106,7.436165469430307],[-76.12323347744234,7.418108242294295],[-76.1217051439823,7.391987139294031],[-76.12315728322147,7.383427717658151],[-76.12087555802367,7.373186995107346],[-76.39760653742502,7.387228176833503],[-76.40344362132015,7.391231876819347],[-76.4174589264041,7.391086387169992],[-76.42227319747485,7.404585211506344],[-76.4209303076276,7.409745469152369],[-76.42176170467349,7.413245526438686],[-76.42708763206798,7.4212470817715825],[-76.42821636727268,7.448729484768592],[-76.438355652481,7.460203931078638],[-76.4393177368031,7.465216406676973],[-76.43796607434115,7.467736431262324],[-76.44087386803596,7.46948596111082],[-76.44564906240481,7.479738560115834],[-76.45382823181757,7.482240059366063],[-76.45554467255647,7.485564512149153],[-76.45282934673685,7.489392951131663],[-76.45322654974956,7.504111570001726],[-76.46308276541055,7.510061624193838],[-76.46219839431899,7.514101573693154],[-76.46462445525356,7.5176174515106595],[-76.4740394721594,7.5197841546686846],[-76.47714404804572,7.524435746701897],[-76.48100429161309,7.5372220547483835],[-76.48993121792711,7.537105223678282],[-76.4919995742124,7.538786560588676],[-76.49341780673012,7.540983105034854],[-76.49211460447964,7.549243216987634],[-76.50241342374835,7.555649085131506],[-76.5037792170105,7.562014083998179],[-76.50968506051555,7.571019963844265],[-76.51448351928263,7.586420241614917],[-76.5050765684515,7.613586840767709],[-76.50509824699134,7.617436399845758],[-76.50850951986342,7.622348795645678],[-76.50943231151064,7.6292232026606825],[-76.50389288459144,7.643759874622617],[-76.50094817083868,7.658301269192577],[-76.50136813945494,7.667114086723757],[-76.50300015534748,7.670663257282513],[-76.50396223966959,7.697580951748478],[-76.502923873709,7.728057001793331],[-76.50061919264579,7.742011035357336],[-76.4980406106003,7.747560267447454],[-76.49603380248595,7.750834157882537],[-76.48674886093306,7.75665967899846],[-76.4841462637263,7.761014268145061],[-76.48102580765908,7.775361497909728],[-76.4834140342503,7.791693339942242],[-76.48236862860068,7.8058300866040895],[-76.4791573106653,7.811892301708838],[-76.48152903692477,7.822179084086258],[-76.47734036640969,7.828637615686205],[-76.47633488901243,7.834345128165353],[-76.46972883350378,7.822412692747491],[-76.46677988565318,7.8211459025044405],[-76.46218879792184,7.822088611997913],[-76.44728949609936,7.820888973909064],[-76.44082882636741,7.8163412833666825],[-76.4395109842377,7.810848023232211],[-76.43656937946662,7.810864417634377],[-76.43048382900116,7.8075979052459274],[-76.4168768598202,7.807306613300682],[-76.41521504069192,7.806032288687732],[-76.41333892499597,7.799258400616054],[-76.41094078833265,7.79780471871311],[-76.4067082197771,7.797094566812632],[-76.3991896045959,7.8006196903284035],[-76.39294067369502,7.801020596762612],[-76.3903576786027,7.7993844506448795],[-76.37970425543887,7.80127612359081],[-76.37258498140238,7.793886116175031],[-76.3698645833042,7.7980007737957635],[-76.36807028638128,7.797755059337646],[-76.36778083843353,7.791625841202858],[-76.3659782378657,7.789847430631539],[-76.36290751727864,7.790374880746981],[-76.36036002607898,7.792943112546993],[-76.35445662718178,7.790675755719633],[-76.3506160731464,7.790951808203602],[-76.34652897367135,7.793017346556439],[-76.34398688282334,7.796607269149945],[-76.34324732877968,7.801975742183004],[-76.34068866355204,7.802500312659447],[-76.3334866687984,7.796918743251183],[-76.3281091722107,7.797202780562884],[-76.32786939083746,7.800269524162729],[-76.33196217040052,7.799225947083926],[-76.33376878086568,7.801770874376416],[-76.32996496588243,7.808943873221665],[-76.33357016701802,7.812501038892549],[-76.3292334275198,7.815845066022064],[-76.32772799644619,7.8217285439876605],[-76.32261448459798,7.823543956892365],[-76.31864651887582,7.827870926186733],[-76.3106145411848,7.8320184775130315],[-76.30827444364655,7.832486497020682],[-76.30078613255262,7.824062146911388],[-76.29470187998157,7.824530166419038],[-76.29282980195097,7.821722049373193],[-76.28768158839529,7.821722049373193],[-76.28955366539748,7.826870263957289],[-76.28908564588983,7.832486497020682],[-76.29470187998157,7.835762633574234],[-76.29938207402967,7.84231490565287],[-76.29797801550671,7.847931138716206],[-76.29095772392037,7.8446550031911215],[-76.28908564588983,7.847463119208555],[-76.28382644898812,7.84684012986844],[-76.27978349335132,7.848150013909901],[-76.27470755050831,7.844737563471199],[-76.2719559535779,7.846127511762745],[-76.26945460448025,7.851413608606947],[-76.2605025378889,7.85421131678612],[-76.25172068161976,7.845544598770687]]]}}]}