{"type":"FeatureCollection","features":[{"type":"Feature","properties":{"code":"234501"},"geometry":{"type":"Polygon","coordinates":[[[-76.04446923321103,8.159459466624696],[-76.04660333062748,8.15754183681804],[-76.05585805859607,8.169462717684155],[-76.0593564888863,8.163356782459516],[-76.05840746681264,8.161916873458836],[-76.06022516388816,8.161165501582218],[-76.0607712966904,8.162725159344461],[-76.06426316757421,8.162753184403073],[-76.06720336440748,8.166179008708355],[-76.07852999473118,8.154396933643682],[-76.078002710195,8.156191207940822],[-76.08080142316248,8.157704497343673],[-76.07894971960661,8.158915998516989],[-76.0764607632413,8.157854337304911],[-76.07007222949608,8.164598508529991],[-76.07544361096456,8.171804784689812],[-76.07530441949723,8.17623118483533],[-76.07369233276376,8.177718875275445],[-76.06655423822917,8.178471433974778],[-76.06462061819826,8.184658139989494],[-76.0621730576728,8.181954579552269],[-76.0590945692594,8.182521933237467],[-76.05641467534139,8.188643504902132],[-76.0549076285846,8.18764297225647],[-76.05536305687048,8.182971289598697],[-76.05293472410636,8.182092751833068],[-76.04919157180507,8.184849510516472],[-76.04589773986953,8.18093792298481],[-76.04876548601266,8.178076032793342],[-76.05309961326697,8.181481746933628],[-76.05610612715913,8.177538715800381],[-76.05146975916057,8.172648475737617],[-76.04895503413951,8.173638722929638],[-76.0492543253107,8.170138542230234],[-76.0462520784265,8.171523169360285],[-76.0446619232298,8.16891086468462],[-76.04578686039628,8.166323714684495],[-76.043859177564,8.164863296483077],[-76.04446923321103,8.159459466624696]]]}}]}