{"type":"FeatureCollection","features":[{"type":"Feature","properties":{"code":"234509"},"geometry":{"type":"Polygon","coordinates":[[[-76.21238362122727,8.060014267670681],[-76.20502309103097,8.059272491162744],[-76.20201262997637,8.052267937832312],[-76.19808510055725,8.049480158237202],[-76.17835097115494,8.047085447315908],[-76.17619180339523,8.0533367138097],[-76.17400453447215,8.054127912122908],[-76.16709760296249,8.050262920236378],[-76.1642250910167,8.050902400652319],[-76.1659268651369,8.056319884113577],[-76.16458398146028,8.060914723603275],[-76.15748077169587,8.057974432153287],[-76.14419747805817,8.063994946999173],[-76.13309638517882,8.059709918619205],[-76.12949953191116,8.061450501017816],[-76.12393574221716,8.053544063248125],[-76.11485798040962,8.052372739210284],[-76.10856211344907,8.044466301440593],[-76.09538471750909,8.039634589013133],[-76.09465263921408,8.035974201651982],[-76.09728811881348,8.032753060033656],[-76.09465263921408,8.023528882978496],[-76.08689261772048,8.017379431265624],[-76.0829393988356,8.009326577219838],[-76.07722919389403,8.004348450573218],[-76.07269031299023,8.002737879764084],[-76.05585252866064,8.003323541783004],[-76.04809250613857,7.998931076126837],[-76.04311437846349,7.9980525836127185],[-76.03594001796034,7.999077491374464],[-76.02232337524907,8.010058655514854],[-76.0210056359636,8.009472993495933],[-76.01763807909771,7.992928039661535],[-76.0079746552712,7.979018566455011],[-75.9981648151687,7.975211762817821],[-75.9923081949795,7.976090256360408],[-75.98472080064795,7.973135142996853],[-75.98689713517018,7.9583199132649725],[-75.98975102407883,7.953810830454756],[-75.99445058267105,7.93399120148365],[-76.00359055188119,7.925733260573054],[-76.01141881464969,7.9234524815424265],[-76.01701918604408,7.919784584493982],[-76.02228371130644,7.919545467494572],[-76.02467214461461,7.91557164993452],[-76.02245985059977,7.903926520218761],[-76.0139292747196,7.87982150085594],[-76.01273167603233,7.870018483441072],[-75.99789919931942,7.853196216252172],[-75.9933603544111,7.841903544072011],[-75.98979812983146,7.8195007996808386],[-75.97495802824574,7.7941459316085115],[-75.97447758926626,7.788185761655825],[-75.97924001243587,7.770488535681295],[-75.9888802417982,7.769900180171419],[-76.00339571241756,7.765586736953082],[-76.0187964211056,7.772159913154383],[-76.02221956117592,7.792329124135733],[-76.03783383520891,7.811231519163016],[-76.03665067276927,7.816616721870503],[-76.03273930943806,7.819948429287081],[-76.03036764899889,7.829598997582082],[-76.04243939415494,7.824062146911388],[-76.04618355021614,7.817509874832751],[-76.05601195884833,7.821722049373193],[-76.06396828944992,7.821254029865543],[-76.0831570872067,7.8034692906317105],[-76.10187786545578,7.810957601725647],[-76.10630666392922,7.819213094943109],[-76.10827926090315,7.844059145193057],[-76.10999960252457,7.845758098295391],[-76.11749492039735,7.846788920630104],[-76.11988334444959,7.853819770207281],[-76.12909296287245,7.855268837488609],[-76.13917226725619,7.859487699990723],[-76.14815213984787,7.857736340542942],[-76.16185165651422,7.858308907403284],[-76.17107835016822,7.863171308555536],[-76.1753573960981,7.862936594318569],[-76.19116347157552,7.856882268396419],[-76.19736835839706,7.856637668769963],[-76.20187966881377,7.860029257252222],[-76.21020818967759,7.856572779189264],[-76.21726680411746,7.8558967602675125],[-76.22644337868218,7.850941942242116],[-76.23308698571248,7.85282854085267],[-76.23044672488385,7.838758120505702],[-76.23064864928796,7.836409740919862],[-76.23256399698067,7.8352824187951455],[-76.23711511326508,7.835486041157878],[-76.24353667235647,7.8387742187164235],[-76.25351963430194,7.837190020258788],[-76.25454666065531,7.838562326647434],[-76.25147292467477,7.8421069010965425],[-76.25172068161976,7.845544598770687],[-76.2605025378889,7.85421131678612],[-76.26945460448025,7.851413608606947],[-76.2719559535779,7.846127511762745],[-76.27470755050831,7.844737563471199],[-76.27978349335132,7.848150013909901],[-76.28382644898812,7.84684012986844],[-76.28908564588983,7.847463119208555],[-76.29095772392037,7.8446550031911215],[-76.29797801550671,7.847931138716206],[-76.29938207402967,7.84231490565287],[-76.29470187998157,7.835762633574234],[-76.28908564588983,7.832486497020682],[-76.28955366539748,7.826870263957289],[-76.28768158839529,7.821722049373193],[-76.29282980195097,7.821722049373193],[-76.29470187998157,7.824530166419038],[-76.30078613255262,7.824062146911388],[-76.30827444364655,7.832486497020682],[-76.3106145411848,7.8320184775130315],[-76.31864651887582,7.827870926186733],[-76.32261448459798,7.823543956892365],[-76.32772799644619,7.8217285439876605],[-76.3292334275198,7.815845066022064],[-76.33357016701802,7.812501038892549],[-76.32996496588243,7.808943873221665],[-76.33376878086568,7.801770874376416],[-76.33196217040052,7.799225947083926],[-76.32786939083746,7.800269524162729],[-76.3281091722107,7.797202780562884],[-76.3334866687984,7.796918743251183],[-76.34068866355204,7.802500312659447],[-76.34324732877968,7.801975742183004],[-76.34398688282334,7.796607269149945],[-76.34652897367135,7.793017346556439],[-76.3506160731464,7.790951808203602],[-76.35445662718178,7.790675755719633],[-76.36036002607898,7.792943112546993],[-76.36290751727864,7.790374880746981],[-76.3659782378657,7.789847430631539],[-76.36778083843353,7.791625841202858],[-76.36807028638128,7.797755059337646],[-76.3698645833042,7.7980007737957635],[-76.37258498140238,7.793886116175031],[-76.37970425543887,7.80127612359081],[-76.3903576786027,7.7993844506448795],[-76.39294067369502,7.801020596762612],[-76.3991896045959,7.8006196903284035],[-76.4067082197771,7.797094566812632],[-76.41094078833265,7.79780471871311],[-76.41333892499597,7.799258400616054],[-76.41521504069192,7.806032288687732],[-76.4168768598202,7.807306613300682],[-76.42533194699104,7.806893082734575],[-76.43453469541788,7.808675468236231],[-76.43656937946662,7.810864417634377],[-76.4395109842377,7.810848023232211],[-76.44082882636741,7.8163412833666825],[-76.44728949609936,7.820888973909064],[-76.46218879792184,7.822088611997913],[-76.46677988565318,7.8211459025044405],[-76.47213455287385,7.82514930629884],[-76.47633488901243,7.834345128165353],[-76.47469275735926,7.83804952978096],[-76.46787985532063,7.843701980476055],[-76.46565168009636,7.8491567316089],[-76.46393570421344,7.857650920164247],[-76.46523120342948,7.866749116096173],[-76.4634236169723,7.873477620027984],[-76.46107371734843,7.876083861006521],[-76.4484843375323,7.879726081959063],[-76.44807292555777,7.8871423547683435],[-76.44366238193902,7.895983874073295],[-76.43695613350337,7.9051850541252975],[-76.42007924676074,7.920035858712367],[-76.4140975700181,7.9312317935323335],[-76.41239680171475,7.9398773986512765],[-76.41508963035432,7.997054145904428],[-76.42085707634959,8.019009546596408],[-76.4077266246968,8.024166004147332],[-76.38434917493697,8.044604539541751],[-76.37758107802512,8.043881270885379],[-76.36433567426667,8.035577480978816],[-76.34944275290161,8.034633380002617],[-76.33857837252305,8.039607185133775],[-76.30374857768282,8.042261592189277],[-76.29639359387704,8.045653486118965],[-76.2931275268042,8.052801156481848],[-76.27762478941918,8.05236044932218],[-76.27142860219288,8.056462192790264],[-76.26634930765573,8.05364612176993],[-76.26663134464673,8.04787276017322],[-76.2639431460554,8.042739182383002],[-76.26390143036997,8.034939545283578],[-76.25882437989435,8.027906654247943],[-76.2554327019376,8.031708493593158],[-76.25595706878238,8.042001560782865],[-76.25286843889728,8.049817797972992],[-76.24709326415643,8.052812306855628],[-76.24994288502864,8.05888119141008],[-76.24308271988559,8.063909384695421],[-76.23981986361031,8.068450565196656],[-76.2229550374131,8.076027218474508],[-76.2212447796706,8.078220184969155],[-76.21920830818874,8.077918817372563],[-76.21604662288934,8.072007306120781],[-76.21569671177741,8.064989046736912],[-76.21238362122727,8.060014267670681]]]}}]}