{"type":"FeatureCollection","features":[{"type":"Feature","properties":{"code":"235008"},"geometry":{"type":"Polygon","coordinates":[[[-76.266772353372,8.993164098942032],[-76.25793491492692,8.993104892534689],[-76.2550120761465,8.991258584188301],[-76.25333035871233,8.99220944306029],[-76.24913594845958,8.98896217591664],[-76.23261393609249,8.963022091141056],[-76.21664614008586,8.959846690532174],[-76.20632734434969,8.96313741554286],[-76.2012563997373,8.96245052906903],[-76.19128820828331,8.953795502388175],[-76.1759143779405,8.946238390546625],[-76.16804745396081,8.944755172803013],[-76.1580819302867,8.947441163328222],[-76.15190401848395,8.957544290554495],[-76.14316063522097,8.967650031053154],[-76.13586562298377,8.969293275481107],[-76.10358576806487,8.965523288029203],[-76.09313332622338,8.961742071013362],[-76.0908187330312,8.963715277853737],[-76.0901993350123,8.961894957221318],[-76.0807712692278,8.964415659550298],[-76.07271454926666,8.964624075483584],[-76.0723864843307,8.95580644998364],[-76.07817811620873,8.954716850102102],[-76.08303733124603,8.955650689278855],[-76.0821532347486,8.948536054546537],[-76.08296858911962,8.946719877509054],[-76.08507502143232,8.946472411613286],[-76.08437188865202,8.942948711461952],[-76.08768330489772,8.942657421573642],[-76.0926428496449,8.938412899430716],[-76.0943134074493,8.939267906431496],[-76.09655763563285,8.93734117079481],[-76.09831993359523,8.937322541587037],[-76.09875436931242,8.940201581057465],[-76.10820012019445,8.938638738208681],[-76.10814671523133,8.942228612465442],[-76.11031326515143,8.944950168589855],[-76.1134261302845,8.942357817755976],[-76.11772222264909,8.94531611106379],[-76.12666418479267,8.942749161731626],[-76.13235589936625,8.944300105500417],[-76.13260029741798,8.946966619381271],[-76.12783068646354,8.945476102781072],[-76.12581701863763,8.946657390370035],[-76.12533643361928,8.949692750018016],[-76.12900606256494,8.952016172389222],[-76.13167614411287,8.948677269988764],[-76.14009279221608,8.950273958880814],[-76.140672174565,8.943115423022732],[-76.14920176725406,8.944323878977684],[-76.15093393390754,8.940786822443386],[-76.14869027445269,8.937624378153373],[-76.15032300716967,8.933379692488074],[-76.15600809548812,8.934084349420175],[-76.15886060525531,8.93223523136885],[-76.16121870773674,8.932639914243964],[-76.17160235705813,8.923989637939087],[-76.17643931557086,8.921103679107375],[-76.17777611292468,8.921987274753349],[-76.18181829414425,8.918177334366419],[-76.18071337458298,8.912850270542947],[-76.1782629714424,8.913363330690686],[-76.1772484643198,8.91053408635014],[-76.17977419367577,8.908993929914914],[-76.18068276916205,8.904012386782256],[-76.17894289947412,8.901742939131282],[-76.19067717561586,8.886213172220039],[-76.18780901912419,8.883841713355594],[-76.19181351923834,8.875708436133323],[-76.19465313850702,8.886680823545248],[-76.20068724730612,8.89183186223255],[-76.19978651266558,8.884902154834833],[-76.2034419254503,8.88453688393389],[-76.20463978227667,8.882611122232277],[-76.2119718544401,8.885084548087093],[-76.21397817198732,8.880590320100623],[-76.22069211420148,8.88212968360665],[-76.25559875940888,8.877184175042942],[-76.25633095494629,8.879350638573897],[-76.26585267790563,8.878097808409507],[-76.2735511152328,8.879346916640372],[-76.28869613871245,8.885095379643701],[-76.29173192105031,8.889488768841261],[-76.291495200322,8.894893158172351],[-76.29890436350814,8.899152026059994],[-76.30322178988433,8.89805449174446],[-76.30704490564835,8.902169670785554],[-76.30552581685816,8.905247269596202],[-76.30646416164154,8.906982020725707],[-76.30324449480986,8.90979988329292],[-76.30322228970743,8.91345354566846],[-76.3000411647875,8.916838098575454],[-76.30702178728899,8.927313056108972],[-76.30726578013434,8.930554023013713],[-76.30347361637638,8.927766877967656],[-76.29892688742774,8.930346477142791],[-76.29694330874457,8.929601658501895],[-76.29288436905415,8.932947402102002],[-76.29224987555602,8.93621396899789],[-76.29948365946785,8.942207260970292],[-76.30431327695794,8.9514019104123],[-76.30747199931443,8.951865158975124],[-76.3100129012829,8.949545942933753],[-76.3184437758315,8.952747635675621],[-76.32109830424321,8.958512762533019],[-76.30249657438628,8.968229209770413],[-76.28661158342908,8.980699085594381],[-76.28607808401472,8.983488470588213],[-76.27306882402831,8.99182190123662],[-76.27084524388522,8.992484289181164],[-76.26914971755338,8.99033619774741],[-76.266772353372,8.993164098942032]]]}}]}