{"type":"FeatureCollection","features":[{"type":"Feature","properties":{"code":"235028"},"geometry":{"type":"Polygon","coordinates":[[[-76.18123984253583,8.894655006880498],[-76.17738621699607,8.896041125252168],[-76.17486155619184,8.892764064128812],[-76.15999098596802,8.891106852422979],[-76.15096550503597,8.893788815567348],[-76.14701281477056,8.893038197539056],[-76.14624972893364,8.895493426131964],[-76.1448374850367,8.893077385312779],[-76.13886382911727,8.895800889307338],[-76.1371016771937,8.891325401600398],[-76.1293732206579,8.892420679513123],[-76.12394065508704,8.889115088365827],[-76.11549415129753,8.889661684995701],[-76.11848472227376,8.886700710538207],[-76.11341211158452,8.885202456964976],[-76.11088601198924,8.882077295773172],[-76.11818837553358,8.876333459732791],[-76.11407525440592,8.869206088768294],[-76.11765396286222,8.869325513570459],[-76.11575434314096,8.860122446326443],[-76.12307051866838,8.861893145635747],[-76.12594000185089,8.86603289931088],[-76.12878539376743,8.864687889843594],[-76.13296703282106,8.866024851748193],[-76.13737589802156,8.86533645346384],[-76.13832241995146,8.858591553072984],[-76.14291576408573,8.85566908556035],[-76.14329753531842,8.843984647743014],[-76.14722659917379,8.838970637708485],[-76.13911670667756,8.827812942438243],[-76.14277104988201,8.819449294091783],[-76.1461740849295,8.817988220772463],[-76.14555626454148,8.816134733897286],[-76.14706656426193,8.815021775000787],[-76.14188670450147,8.808023643265471],[-76.1423596121964,8.802997070805532],[-76.14542662936196,8.808432297985632],[-76.1485325926173,8.808094454618185],[-76.15090377585909,8.810078334635023],[-76.16360728811219,8.80969640810747],[-76.17530474601176,8.806410143452013],[-76.19199803313904,8.810748784540522],[-76.20876756796622,8.80584727069089],[-76.21365815564252,8.802121737666823],[-76.22093777929439,8.801891789232513],[-76.23029934701401,8.796776268836027],[-76.24308585354999,8.795050685243098],[-76.25998595326865,8.782214556355655],[-76.26449540734666,8.78500859505192],[-76.27336169874656,8.787297240639418],[-76.27612308027909,8.790033512747812],[-76.28514171178404,8.790320804051646],[-76.29904993954665,8.776819766507003],[-76.30277424975259,8.771285320334925],[-76.3099754803734,8.766178725791065],[-76.31236370696467,8.75879881459548],[-76.3163156300119,8.754368641094402],[-76.32121465297377,8.75067144783236],[-76.32522040264558,8.750326951470356],[-76.32627303721767,8.747917424806076],[-76.33037117393786,8.747894399006555],[-76.32164006205096,8.757106488776742],[-76.32043067844086,8.76790626033943],[-76.32481858912507,8.777949918905506],[-76.3373219068144,8.786540013839499],[-76.33856623587286,8.789566060940444],[-76.33239303125151,8.798337804534299],[-76.32664632791335,8.80255263657017],[-76.29505126864473,8.815107401068019],[-76.29259622619992,8.822899648808004],[-76.2912360698312,8.856712854957891],[-76.28721321613187,8.8645589735454],[-76.27542770606914,8.878229221766105],[-76.27361100863976,8.879366942473098],[-76.26585267790563,8.878097808409507],[-76.25633095494629,8.879350638573897],[-76.25559875940888,8.877184175042942],[-76.22069211420148,8.88212968360665],[-76.21397817198732,8.880590320100623],[-76.2119718544401,8.885084548087093],[-76.20463978227667,8.882611122232277],[-76.2034419254503,8.88453688393389],[-76.19978651266558,8.884902154834833],[-76.20068724730612,8.89183186223255],[-76.19465313850702,8.886680823545248],[-76.19181351923834,8.875708436133323],[-76.18780901912419,8.883841713355594],[-76.19067717561586,8.886213172220039],[-76.1832534147166,8.896429324250619],[-76.18123984253583,8.894655006880498]]]}}]}