{"type":"FeatureCollection","features":[{"type":"Feature","properties":{"code":"235048"},"geometry":{"type":"Polygon","coordinates":[[[-76.23926159107253,8.79598021833101],[-76.23863787153823,8.79032154247335],[-76.24114537689275,8.793066734263789],[-76.24307423317794,8.789609574343388],[-76.24376317756526,8.78435961902619],[-76.2410529672187,8.783194079977534],[-76.2376161108105,8.78587329409504],[-76.23747079496798,8.781542252168322],[-76.23023515985955,8.771782134176249],[-76.22439007776694,8.760447874865918],[-76.22791793076914,8.750911338220533],[-76.23520687313862,8.747838537094253],[-76.23927492071601,8.742536209370257],[-76.24465145056774,8.71759257020966],[-76.23740065107444,8.708721976834681],[-76.22606585800241,8.704729607200022],[-76.22281965838215,8.698442697973803],[-76.2176557579927,8.694018385566665],[-76.20349945343946,8.688511886291622],[-76.20133403891992,8.681823333237901],[-76.19651041005068,8.677708149054581],[-76.18786509598095,8.677488601259427],[-76.18552454592799,8.672366368218661],[-76.18664632474747,8.665904970349402],[-76.18435007691295,8.662466278171337],[-76.18628466470824,8.66259340909329],[-76.18721597083106,8.666466879459904],[-76.19084782508298,8.663470672618644],[-76.19125884110719,8.661051339754977],[-76.1901610383681,8.660908306026386],[-76.19170988000036,8.658076072003382],[-76.19048131388041,8.65320581046501],[-76.18896268171864,8.652899072341597],[-76.192098174644,8.649855931497541],[-76.19420451233992,8.650939878030556],[-76.19341110493224,8.65225444559934],[-76.19560053975528,8.652667020742342],[-76.19666168777451,8.65112959585042],[-76.19318219933865,8.645294786870124],[-76.19552389610499,8.638318688487345],[-76.20301620989721,8.632526031252098],[-76.20474070745485,8.633130926174545],[-76.20476400682008,8.630904612431266],[-76.20736595610805,8.632856568563852],[-76.21456810924178,8.622643552254488],[-76.21622390786757,8.623953544282472],[-76.23358882555237,8.617845617993112],[-76.24059240186244,8.618806970064156],[-76.24691111361665,8.622858775448833],[-76.25227410093726,8.622394767895457],[-76.25920855562566,8.626632569166532],[-76.26817460903521,8.622596962779937],[-76.26911245502401,8.626716261761828],[-76.26641177731119,8.638595045390275],[-76.28103821482148,8.642981489515478],[-76.28167873190745,8.6483323185887],[-76.29154445963331,8.650748824263871],[-76.30085946358952,8.650490441450813],[-76.30154635520557,8.65333929819019],[-76.31398995843688,8.653795377480208],[-76.3186213785985,8.646663388808804],[-76.32077989021184,8.645791287036445],[-76.3268007033061,8.648805312672835],[-76.32718207858841,8.650634923226505],[-76.34033563008865,8.637053656880937],[-76.34650799035865,8.637429413781774],[-76.34497420203951,8.645307850147049],[-76.34635574589885,8.649744838108234],[-76.36225518544501,8.675320349266997],[-76.36761914670069,8.690344578059069],[-76.37609598851611,8.699051567826643],[-76.37641564490605,8.706800239428617],[-76.37322629758819,8.716215548412094],[-76.36152980642458,8.724866729746395],[-76.3434170711605,8.73192864857208],[-76.33281959526971,8.738088058693904],[-76.33310093291976,8.743913897598532],[-76.33120918901136,8.747506366615767],[-76.32627303721767,8.747917424806076],[-76.32522040264558,8.750326951470356],[-76.32121465297377,8.75067144783236],[-76.3163156300119,8.754368641094402],[-76.31236370696467,8.75879881459548],[-76.31092983492152,8.765068549860075],[-76.30277424975259,8.771285320334925],[-76.28659790925735,8.789765634324965],[-76.27612308027909,8.790033512747812],[-76.27336169874656,8.787297240639418],[-76.26449540734666,8.78500859505192],[-76.26057296974636,8.782125324568938],[-76.24513844998211,8.794138732351598],[-76.23926159107253,8.79598021833101]]]}}]}