{"type":"FeatureCollection","features":[{"type":"Feature","properties":{"code":"235047"},"geometry":{"type":"Polygon","coordinates":[[[-76.14331326020454,8.802660898657223],[-76.14540420931507,8.798456735684056],[-76.14411515534835,8.795535027161975],[-76.13878152491935,8.793825927445766],[-76.13508094499616,8.788551027255266],[-76.13202135524244,8.788736006012016],[-76.13018996959698,8.782865774386039],[-76.12609275538978,8.777893339140348],[-76.12455231510444,8.77307981780416],[-76.12665060523767,8.76821833710801],[-76.118958957688,8.768231709946065],[-76.11666383188424,8.766786989891273],[-76.11761692864712,8.764901226376082],[-76.12132447112623,8.764056671436549],[-76.12295782296559,8.76095976361762],[-76.11830325873359,8.760002211641734],[-76.1147709340633,8.745342039159993],[-76.11741912007,8.73991516087625],[-76.1124059369032,8.737781319542023],[-76.11424498238853,8.73157490651181],[-76.12022638453703,8.73327319318338],[-76.12332453265765,8.722936160076017],[-76.12935160999524,8.723459387406479],[-76.12730757020483,8.73376474756958],[-76.13421178148405,8.736666396320345],[-76.13788067817865,8.736499658020136],[-76.14032291240028,8.729198846395548],[-76.14486986554937,8.722630963587903],[-76.13766028500373,8.721553012874779],[-76.1386981768523,8.709890926198739],[-76.13703519249867,8.707308837164305],[-76.1391787886102,8.703839833699874],[-76.13908728088018,8.700600909282002],[-76.13468504296321,8.697371729356973],[-76.1339908545475,8.692676719566009],[-76.12869537727914,8.688818595618613],[-76.1299313543559,8.671947231612364],[-76.13437306492517,8.668410589540372],[-76.14860255036274,8.668852236696523],[-76.15988612391197,8.666552285440446],[-76.16228936884931,8.663723368144588],[-76.16820214817068,8.661415197575877],[-76.18365269518318,8.660378322856957],[-76.18664632474747,8.665904970349402],[-76.18552454592799,8.672366368218661],[-76.18796039866385,8.677605462154418],[-76.19651041005068,8.677708149054581],[-76.20133403891992,8.681823333237901],[-76.20349945343946,8.688511886291622],[-76.2176557579927,8.694018385566665],[-76.22281965838215,8.698442697973803],[-76.22606585800241,8.704729607200022],[-76.23740065107444,8.708721976834681],[-76.24454668929906,8.717296908412209],[-76.23927492071601,8.742536209370257],[-76.23520687313862,8.747838537094253],[-76.22767929713774,8.751202908873665],[-76.2243603300671,8.760853732222415],[-76.23759151663614,8.781782876864384],[-76.23684578885207,8.786426964352529],[-76.23917785836801,8.787493380054343],[-76.23816292649866,8.789732029965649],[-76.23926159107253,8.79598021833101],[-76.23029934701401,8.796776268836027],[-76.22093777929439,8.801891789232513],[-76.21365815564252,8.802121737666823],[-76.20876756796622,8.80584727069089],[-76.19199803313904,8.810748784540522],[-76.17530474601176,8.806410143452013],[-76.16360728811219,8.80969640810747],[-76.15090377585909,8.810078334635023],[-76.1485325926173,8.808094454618185],[-76.14542662936196,8.808432297985632],[-76.14331326020454,8.802660898657223]]]}}]}