{"type":"FeatureCollection","features":[{"type":"Feature","properties":{"code":"080020"},"geometry":{"type":"Polygon","coordinates":[[[-74.80160442696553,10.998971589085158],[-74.81112995413372,10.985391515732942],[-74.81910237677539,10.98730676469512],[-74.82639684599502,10.984713791653519],[-74.82912773523526,10.986718437981665],[-74.83240933384701,10.983080894385694],[-74.84649775090963,10.980054227133962],[-74.8724352028724,10.96783916851291],[-74.85911921504703,10.984684959267497],[-74.85461893364788,10.98638008142143],[-74.85704773641027,10.987817980845477],[-74.85569134208424,10.991963843469136],[-74.84991510907605,10.992090383036668],[-74.84872000024808,10.995848238980614],[-74.85215239218729,10.999245254554069],[-74.87487464281577,11.004682722710356],[-74.8660052095239,11.015643732462706],[-74.85252077206997,11.017053478272771],[-74.84183706847301,11.012603543248645],[-74.83912223527739,11.013988303047768],[-74.8370919827874,11.019163918425932],[-74.83060799414977,11.014961646758536],[-74.82082653391853,11.011646524005982],[-74.81712064826036,11.007885977656372],[-74.80493910349566,11.00329144155728],[-74.80160442696553,10.998971589085158]]]}}]}