{"type":"FeatureCollection","features":[{"type":"Feature","properties":{"code":"080013"},"geometry":{"type":"Polygon","coordinates":[[[-74.8125465524563,10.93149425672749],[-74.81460053111522,10.922320628650596],[-74.8273210178121,10.913511128874973],[-74.83193416255011,10.914768791690676],[-74.84036988929051,10.921085945354491],[-74.83872414471875,10.925432503393495],[-74.84727169504265,10.932383071719244],[-74.85045779762436,10.938596748638986],[-74.8387435617135,10.94366840287671],[-74.83189701109256,10.943213659533512],[-74.82398207016013,10.944916836449295],[-74.8240535541143,10.936840618246379],[-74.82086772612678,10.936300315684775],[-74.82092507722382,10.933376950341767],[-74.8125465524563,10.93149425672749]]]}}]}