{"type":"FeatureCollection","features":[{"type":"Feature","properties":{"code":"081027"},"geometry":{"type":"Polygon","coordinates":[[[-74.92266894393765,10.95027507750774],[-74.91770423743748,10.945495737487079],[-74.92266717707344,10.941959846178122],[-74.92804032334925,10.899861904076204],[-74.92523951235904,10.897894868919423],[-74.92531843092416,10.89366890707862],[-74.93344884804776,10.88107579812987],[-74.9368702695906,10.871197351655383],[-74.94562098770564,10.860612405279767],[-74.94534371754571,10.857409807508532],[-74.94831235184301,10.851661352732776],[-74.95135617351605,10.847047121959406],[-74.95868282681579,10.84279806849878],[-74.9598533692373,10.83943738368572],[-74.96320787619612,10.838214547018993],[-74.9658261201273,10.834567509870169],[-74.96534425058428,10.824996053487553],[-74.97080800778821,10.819678665251274],[-74.9717858427075,10.816715630823467],[-74.9768763606379,10.818093905263993],[-74.97698043696391,10.81637496026758],[-74.98076864636039,10.817502910770656],[-74.98416247890424,10.816114501029062],[-74.98612924666594,10.820231852140807],[-74.98940766121967,10.821128407190884],[-74.99134428841654,10.818624427337284],[-74.99317172689962,10.818967053990832],[-74.99262592319894,10.816677167073237],[-74.99568593461407,10.815481688005946],[-74.99776700964799,10.816353470961133],[-74.99589330770664,10.828642503395656],[-75.00726121251398,10.833043535977993],[-75.0076497467847,10.83579937626223],[-75.00609967307821,10.837798351758352],[-75.00752247290922,10.840497979431348],[-75.00719323657722,10.845313586448981],[-75.01006875877425,10.84611847127519],[-75.0103475643989,10.85296759711622],[-75.003564509819,10.849368485388766],[-74.99576089778924,10.853711502500175],[-74.99033680452789,10.86026534912429],[-74.98644328364594,10.868382962138583],[-74.98721497754673,10.873708295093309],[-74.98201407585236,10.878432006658102],[-74.98081103773256,10.878407825917577],[-74.98249889599703,10.874497317222108],[-74.97961546816236,10.870731852860331],[-74.98081267706993,10.86666167537851],[-74.97708755233754,10.86657200753217],[-74.9783031672809,10.870752587289985],[-74.97499766869345,10.87184131608069],[-74.9730857570272,10.869446628813591],[-74.97387634855932,10.874207221355505],[-74.97205205711037,10.872722171955786],[-74.9746268555158,10.876320265525123],[-74.98039737038357,10.880064997514125],[-74.98084067950282,10.882459152048057],[-74.97315976786462,10.8881007269635],[-74.97157115430326,10.890945990324724],[-74.97199437896859,10.895822678600439],[-74.969758596355,10.902700282014791],[-74.96439723705885,10.911418543512355],[-74.9670563060443,10.92559601855487],[-74.96357984122938,10.928862543284595],[-74.95490129509659,10.944560787592422],[-74.95059645685677,10.955012548604941],[-74.95127514458687,10.961087388870055],[-74.94800082323434,10.96661419268571],[-74.94690208152724,10.973159629735392],[-74.94359153637237,10.972774678558437],[-74.93298581442946,10.977213546512587],[-74.92991442844004,10.974492206361049],[-74.92472832089135,10.974674988364598],[-74.9185129131028,10.971987071566502],[-74.92419141013312,10.967208696224986],[-74.92732007831393,10.967506448846109],[-74.92835750530645,10.956442380925864],[-74.9305661720046,10.953040758958423],[-74.92825579645512,10.949627970162055],[-74.92266894393765,10.95027507750774]]]}}]}