{"type":"FeatureCollection","features":[{"type":"Feature","properties":{"code":"081040"},"geometry":{"type":"MultiPolygon","coordinates":[[[[-75.02890336401288,10.83234501473396],[-75.02902792177167,10.827092676515463],[-75.0308392671862,10.824828403987226],[-75.03410423588241,10.826290716579763],[-75.03623944915898,10.824752965671564],[-75.04297326293948,10.829046111548394],[-75.03620048044348,10.832813977323383],[-75.02890336401288,10.83234501473396]]],[[[-75.05077764218737,10.841723037533939],[-75.05007615697201,10.83807896332803],[-75.04621912111685,10.84022096226829],[-75.04549435813345,10.839335189409553],[-75.05357644565782,10.83395256500745],[-75.05576735629586,10.837809023906345],[-75.0553020673031,10.839873806353864],[-75.0537065261529,10.838686765657485],[-75.05333710240109,10.841630184601115],[-75.05077764218737,10.841723037533939]]]]}}]}