{"type":"FeatureCollection","features":[{"type":"Feature","properties":{"code":"082020"},"geometry":{"type":"Polygon","coordinates":[[[-74.91540071028675,10.807658926376462],[-74.91020790449187,10.807593039206552],[-74.91247601413914,10.805294279915302],[-74.91031418374178,10.805514758450897],[-74.90315463589621,10.79886381759701],[-74.90612450946679,10.796619692257764],[-74.90471875915586,10.792829107159037],[-74.90646781180703,10.793393890766367],[-74.90892629850583,10.790973749546936],[-74.90675536433531,10.789259695823091],[-74.90644502049241,10.785921518474595],[-74.91238097782286,10.78526494740089],[-74.9120211535535,10.779950607468265],[-74.91493948981258,10.781660293396726],[-74.91743899388433,10.77776988149651],[-74.92219513944082,10.779503957967734],[-74.92008200271141,10.784826527497387],[-74.92569929815585,10.787202997962197],[-74.92473174354802,10.78861163408277],[-74.9272721734614,10.791388458708184],[-74.9248615792738,10.792784833737073],[-74.92643506958791,10.798387438908605],[-74.93099760569805,10.798119861819373],[-74.93407431593437,10.800046679731508],[-74.93204347620372,10.801522426868644],[-74.93045105740504,10.800492896257765],[-74.93049290370266,10.80343857057585],[-74.92673577692443,10.80331327439535],[-74.92200553577811,10.798867273163864],[-74.9160262162257,10.798170570206196],[-74.91540071028675,10.807658926376462]]]}}]}