{"type":"FeatureCollection","features":[{"type":"Feature","properties":{"code":"082027"},"geometry":{"type":"Polygon","coordinates":[[[-74.89959221694096,10.843732569992483],[-74.90316316374157,10.834766007503845],[-74.91250472002673,10.821269180402851],[-74.91593423129842,10.80766360373309],[-74.9160262162257,10.798170570206196],[-74.92200553577811,10.798867273163864],[-74.92673577692443,10.80331327439535],[-74.93049290370266,10.80343857057585],[-74.93045105740504,10.800492896257765],[-74.93373729223566,10.800714312732907],[-74.93099760569805,10.798119861819373],[-74.92643506958791,10.798387438908605],[-74.9248615792738,10.792784833737073],[-74.9272721734614,10.791388458708184],[-74.92473174354802,10.78861163408277],[-74.92569929815585,10.787202997962197],[-74.92083287373652,10.785004721618805],[-74.92362385281626,10.779660825276665],[-74.92966292590745,10.778004587505905],[-74.93746238611476,10.770730484533487],[-74.94580340049828,10.780524800296234],[-74.95054223325343,10.779582697583805],[-74.95311762815555,10.781391301170629],[-74.95477714871481,10.78619453396783],[-74.96134262805231,10.784592873584643],[-74.96749208593587,10.786703011375721],[-74.97206904081008,10.791911313742446],[-74.97515326484745,10.789751915611646],[-74.98105440425644,10.790272869055741],[-74.98571244051044,10.794416329237663],[-74.98592247624066,10.798912857850098],[-74.99123670304465,10.805316406856093],[-74.99331398518257,10.806849258264094],[-74.99433490258735,10.805434953368376],[-74.99538482412811,10.806253305649363],[-74.99076825776177,10.809725651551958],[-74.991940756281,10.813848706405906],[-74.99387809927384,10.81311983685157],[-74.99492292693878,10.81545005722785],[-74.99250387998211,10.81676340094998],[-74.99308458799345,10.819064497891077],[-74.99134428841654,10.818624427337284],[-74.9898827235017,10.82099595613579],[-74.98612924666594,10.820231852140807],[-74.98416247890424,10.816114501029062],[-74.98076864636039,10.817502910770656],[-74.97698043696391,10.81637496026758],[-74.9768763606379,10.818093905263993],[-74.9717858427075,10.816715630823467],[-74.97080800778821,10.819678665251274],[-74.96534425058428,10.824996053487553],[-74.9658261201273,10.834567509870169],[-74.96320787619612,10.838214547018993],[-74.9598533692373,10.83943738368572],[-74.95868282681579,10.84279806849878],[-74.95107011531479,10.847337188001177],[-74.9436328519937,10.86291516418396],[-74.93822910955288,10.859847794262635],[-74.93239452374462,10.853157779792127],[-74.92804385604933,10.853948317845152],[-74.92785322394406,10.856073146937604],[-74.92433284977585,10.856208235947804],[-74.92026696501307,10.850535710054714],[-74.92108980644565,10.848286019812974],[-74.91446308027088,10.847494965481758],[-74.91213680705692,10.845184847042901],[-74.90201732348089,10.849723363878013],[-74.9016826487449,10.845950750812335],[-74.89959221694096,10.843732569992483]]]}}]}