{"type":"FeatureCollection","features":[{"type":"Feature","properties":{"code":"082047"},"geometry":{"type":"Polygon","coordinates":[[[-74.80857742562256,10.81247722688505],[-74.80983751247732,10.807993088948137],[-74.81386645661325,10.80329979357083],[-74.81649989269738,10.802396335614503],[-74.81750990963991,10.793354095183133],[-74.81710283974968,10.792342596254912],[-74.80869152617782,10.794454637693093],[-74.80816487619063,10.779993808224674],[-74.81063889751368,10.778940501051181],[-74.81303035547131,10.774444600817162],[-74.819326603984,10.775538587006054],[-74.82189157253583,10.772264988648658],[-74.83775391821729,10.728508940095935],[-74.84062974380481,10.724302924897756],[-74.84217712093499,10.724631360072976],[-74.84303924475802,10.707469387007336],[-74.84697050536664,10.708742275914574],[-74.85104936701708,10.708016939060258],[-74.8513773537914,10.706692936559875],[-74.85343266428333,10.708654008806946],[-74.85616108937535,10.707742124821095],[-74.85538280212955,10.710138485364212],[-74.85753385239246,10.710420141831491],[-74.85821034851153,10.713151873366144],[-74.8605974129627,10.71210971553802],[-74.8649944562165,10.714482933039164],[-74.86883781070082,10.714142151411465],[-74.86810639986504,10.71739831663973],[-74.86996717634082,10.717417333570381],[-74.86960587728487,10.7197561702381],[-74.8718260903072,10.723103164424288],[-74.87254169912364,10.721250451966284],[-74.87510682297034,10.726051936411238],[-74.8773602526291,10.725245026581717],[-74.87673060206674,10.72652916150787],[-74.87972590387858,10.728448099493392],[-74.88219337710814,10.727342273874228],[-74.88330652523803,10.730460378921919],[-74.8867513839574,10.728006237392776],[-74.88988972875387,10.731270458411302],[-74.8892784225207,10.73278282632964],[-74.8916838744957,10.737340489679127],[-74.89471271073273,10.738482881572054],[-74.89228286718657,10.74149607314149],[-74.89524143714539,10.742838643143159],[-74.89751519294208,10.74191174081119],[-74.89424096620633,10.744314727609435],[-74.89642810863097,10.74687513707562],[-74.89623958071905,10.754328875017393],[-74.89286761697696,10.766161647156082],[-74.88476628112244,10.76450147970644],[-74.88590584685528,10.773482758179114],[-74.8819824959981,10.78144110349956],[-74.8876455437649,10.783480671621874],[-74.88650222113148,10.788239669049517],[-74.88342216742859,10.794037599109515],[-74.88023182972057,10.791887618426813],[-74.87808507320523,10.794970059144873],[-74.88234569047358,10.797965895746813],[-74.88620984623628,10.798104044373474],[-74.88666993233835,10.804425935043469],[-74.87765453322828,10.807884409313374],[-74.87775404429794,10.809212968842587],[-74.88132442031298,10.809148388823075],[-74.8809062782106,10.810721244588194],[-74.88245012161224,10.810831372269945],[-74.88297569482012,10.812764905911706],[-74.80857742562256,10.81247722688505]],[[-74.84978607656387,10.784248237354404],[-74.85487738639506,10.783985795278738],[-74.85536005400951,10.781454629575592],[-74.85798701193414,10.782478423534144],[-74.85816411384963,10.779360875902285],[-74.85994009523972,10.781020424229496],[-74.86144182700559,10.775752225370468],[-74.85811536773116,10.773613528759086],[-74.85990871437315,10.770194371846685],[-74.85760998182144,10.772409130009862],[-74.85301960165856,10.770505301901835],[-74.85299956348456,10.773415093860478],[-74.84641558863683,10.78459670967527],[-74.84817654345323,10.782745946115881],[-74.84978607656387,10.784248237354404]],[[-74.84148317728858,10.772142573135625],[-74.84035660798384,10.775102611710395],[-74.84274205572336,10.776016778838652],[-74.84433965273013,10.772060475654712],[-74.84148317728858,10.772142573135625]],[[-74.86075153947235,10.766387565124148],[-74.86024525881766,10.767692079667256],[-74.86103878449626,10.767451337728744],[-74.86075153947235,10.766387565124148]]]}}]}