{"type":"FeatureCollection","features":[{"type":"Feature","properties":{"code":"083028"},"geometry":{"type":"Polygon","coordinates":[[[-74.81434069099907,10.876264533196604],[-74.8010368583358,10.826940533871436],[-74.80207816049978,10.812968469653242],[-74.88264279620438,10.813233169160242],[-74.86702774158346,10.83657760180148],[-74.87033178286788,10.839778382314762],[-74.87158615569598,10.843640752701276],[-74.87187498966358,10.852913027956163],[-74.8693855005651,10.859034232466854],[-74.84143915274967,10.869165857835299],[-74.84043348611897,10.87034824688618],[-74.84589222863724,10.871789881613438],[-74.84598090095119,10.87405977046626],[-74.83930288120575,10.885538223588355],[-74.84006598349777,10.881282292932553],[-74.8292154582968,10.884884161914442],[-74.82289045658814,10.889733536813708],[-74.82100511473436,10.890383306796991],[-74.81820143541796,10.890281838601254],[-74.82160445298194,10.885867615215147],[-74.82427778337973,10.876580700081036],[-74.81434069099907,10.876264533196604]]]}}]}