{"type":"FeatureCollection","features":[{"type":"Feature","properties":{"code":"083007"},"geometry":{"type":"Polygon","coordinates":[[[-74.73514941789358,10.874275132500372],[-74.73794616139367,10.87551215961696],[-74.74139757849099,10.883303955870645],[-74.75590424769933,10.886820564910806],[-74.76490776521297,10.891475491154608],[-74.76532596387972,10.898370862970353],[-74.76311323894737,10.901697936224991],[-74.76466738425773,10.903608674438317],[-74.76072544121666,10.90843979139754],[-74.76015249794636,10.914700002255927],[-74.75211999780652,10.920325000734863],[-74.75381960396987,10.927327650418192],[-74.7517043599617,10.928515083979676],[-74.74858299783654,10.9248403087077],[-74.72382483931267,10.912195630565748],[-74.71813254572601,10.907092068898862],[-74.71597589765048,10.902105356814104],[-74.71596504963878,10.896989896067282],[-74.72302319510885,10.891611105698871],[-74.73514941789358,10.874275132500372]]]}}]}