{"type":"FeatureCollection","features":[{"type":"Feature","properties":{"code":"083047"},"geometry":{"type":"Polygon","coordinates":[[[-74.73891160563744,10.8308437179993],[-74.73879136322353,10.818165427270515],[-74.73536812956496,10.796839486879094],[-74.73132217601818,10.784095985695501],[-74.72415808965582,10.771485436418573],[-74.73875275960512,10.770740652744678],[-74.73870787734518,10.774545447833702],[-74.75359512067905,10.776196904375183],[-74.75611745000413,10.778187188503523],[-74.76476559948986,10.778248544355733],[-74.76621025372435,10.776519841496679],[-74.77878998880652,10.776957319346877],[-74.77801401349956,10.779443912351269],[-74.78102104984049,10.780763735261246],[-74.78143665888899,10.783179448007274],[-74.78895624389145,10.778947885268508],[-74.80360600750652,10.774797524237215],[-74.81074601802953,10.777419990953433],[-74.81063889751368,10.778940501051181],[-74.80816487619063,10.779993808224674],[-74.80869152617782,10.794454637693093],[-74.81710283974968,10.792342596254912],[-74.81750990963991,10.793354095183133],[-74.81649989269738,10.802396335614503],[-74.81386645661325,10.80329979357083],[-74.80983751247732,10.807993088948137],[-74.80857742562256,10.81247722688505],[-74.79918035812403,10.813908651234954],[-74.76793664670151,10.824762425285883],[-74.76823711235403,10.826085892996161],[-74.75364332172308,10.823072798100327],[-74.7521341759151,10.827109972861706],[-74.75517473228308,10.831370107790576],[-74.73891160563744,10.8308437179993]],[[-74.74855651441328,10.790948857124192],[-74.75184578931999,10.79866976694882],[-74.75638422490812,10.796319653408887],[-74.76518415708301,10.796328629655193],[-74.76503576105512,10.786010959035139],[-74.75444005717077,10.782939164754055],[-74.74859723250944,10.783012853689002],[-74.74995562201394,10.78624192151375],[-74.74623342937116,10.79193247086198],[-74.74855651441328,10.790948857124192]]]}}]}