{"type":"FeatureCollection","features":[{"type":"Feature","properties":{"code":"083087"},"geometry":{"type":"Polygon","coordinates":[[[-74.72950119101193,10.748129596292927],[-74.73088559496989,10.738491162591231],[-74.73010579282828,10.730239261723511],[-74.72311925164013,10.71199739213148],[-74.71998324963573,10.696428936241091],[-74.7213258299218,10.67628263895898],[-74.72737881784019,10.665798410016123],[-74.73683267696305,10.657900355081438],[-74.74266103246657,10.649858221520503],[-74.75375342266534,10.650343098229484],[-74.75503545442655,10.651257902992086],[-74.75393511040602,10.652451297406401],[-74.75550672586945,10.652828733753836],[-74.75662957632608,10.651491771849294],[-74.75882198437643,10.652601215529216],[-74.76286102884632,10.651383351382094],[-74.76507477913583,10.648998742851632],[-74.76819128084162,10.651349110416845],[-74.77152762550554,10.650850213979481],[-74.77171537797176,10.652047596693876],[-74.77372950139767,10.650583198419895],[-74.7758068359862,10.652321050303613],[-74.77872056585119,10.65160607912145],[-74.7803738653617,10.656732568885843],[-74.78192839428112,10.653370738387878],[-74.79547028259105,10.659791279321155],[-74.80022943428503,10.656594937565785],[-74.8015462675126,10.657664260674608],[-74.81131186298956,10.65712976367098],[-74.81252783274556,10.660192583762637],[-74.81453189286151,10.659362996775542],[-74.81646551186395,10.661787929508762],[-74.81733377137505,10.661087563238823],[-74.81730903321875,10.663631239945232],[-74.82024358904476,10.665401774703696],[-74.8193603975767,10.667488691291169],[-74.82239523271897,10.669837531619237],[-74.82339391005434,10.667331121555947],[-74.8248990243676,10.669900526808817],[-74.82766337707056,10.669768496386723],[-74.83157498414266,10.673227064244884],[-74.83579700807707,10.671195355480336],[-74.83733442474141,10.67200070413412],[-74.83651634808302,10.675198287219644],[-74.83894504594423,10.678826435993187],[-74.83705631948618,10.679420854171667],[-74.83719319078722,10.681413808136824],[-74.83895084636004,10.682315799534138],[-74.83992481125011,10.685998310750733],[-74.8371416730161,10.685522551184704],[-74.83668470618022,10.689230006246191],[-74.83377275963454,10.69004046625929],[-74.83200343946663,10.694624547211731],[-74.82837359273447,10.693908938395225],[-74.82850648499141,10.697778796871717],[-74.82609248563068,10.697151800719553],[-74.82369476548655,10.702270691322155],[-74.81744774131812,10.700331762470967],[-74.81768874550949,10.698407966122943],[-74.81520900296073,10.69775390444903],[-74.81005533660283,10.706497393641541],[-74.8013118124432,10.706262353388354],[-74.79993312251185,10.71031090169555],[-74.79793942703964,10.711330225014478],[-74.79786012897927,10.714780262970407],[-74.7958984190978,10.715570110938529],[-74.79441283079422,10.723291356035418],[-74.79154382069521,10.72776364734301],[-74.79008317109424,10.727690062280772],[-74.78876969675986,10.736462985498235],[-74.78807721453029,10.732037249726602],[-74.77825036398855,10.731990402113013],[-74.77849641680427,10.735953663739053],[-74.765736441,10.737223546508801],[-74.76461521136878,10.743663371767752],[-74.76000220649894,10.742790698181352],[-74.76133966205589,10.739514162592116],[-74.76249433046718,10.7397280539534],[-74.762953158784,10.733545452452802],[-74.76028593219252,10.734212319264543],[-74.75841687881137,10.733618662133495],[-74.75908442130986,10.73209951677893],[-74.75107991023316,10.730389153106842],[-74.75019357687324,10.73547147640727],[-74.74649282211476,10.735429809058587],[-74.74580665657913,10.736726193763616],[-74.74678364817555,10.74738804192856],[-74.74377983394498,10.74656717510561],[-74.74423542163947,10.750593520367318],[-74.74248384313347,10.748874001499928],[-74.73954770247752,10.750523268487257],[-74.72950119101193,10.748129596292927]]]}}]}