{"type":"FeatureCollection","features":[{"type":"Feature","properties":{"code":"083020"},"geometry":{"type":"Polygon","coordinates":[[[-74.76979829015431,10.88979560331967],[-74.76410079264843,10.889494524715474],[-74.76338997226031,10.883898255778263],[-74.7594280434958,10.87908073894289],[-74.76159417381137,10.876740459370353],[-74.76454928408958,10.877340001249479],[-74.76610941185004,10.874551150017282],[-74.76361430025628,10.873756209201815],[-74.76598629802459,10.870916092166908],[-74.77075047263185,10.871476345485007],[-74.77197984196545,10.865446160194097],[-74.78337496758934,10.860898187858425],[-74.80060114117924,10.861037923371896],[-74.80364477464724,10.884134464342196],[-74.79912217913079,10.879834272605706],[-74.80066437805283,10.875980647065944],[-74.79672744764059,10.877578042497987],[-74.7952424280657,10.881396858343805],[-74.79133123545591,10.880112120750368],[-74.7896365071955,10.876049233897504],[-74.78758372975744,10.875511574433176],[-74.78470071844202,10.878999661676971],[-74.7796749471388,10.876244940338154],[-74.779039204083,10.878906362400073],[-74.78051697725192,10.880191185354306],[-74.77828800087093,10.884017851301905],[-74.77398754893852,10.881250094454174],[-74.76953135378483,10.880806963255509],[-74.76979829015431,10.88979560331967]]]}}]}