{"type":"FeatureCollection","features":[{"type":"Feature","properties":{"code":"083010"},"geometry":{"type":"Polygon","coordinates":[[[-74.79911192555886,10.92129759985329],[-74.79908059200062,10.90825211195073],[-74.80202580146272,10.903970482573243],[-74.80465887450663,10.885041142352009],[-74.805616873855,10.885954598826515],[-74.80825120571251,10.880174202683008],[-74.8113772277107,10.879646984995532],[-74.81435444436084,10.876248835049978],[-74.82427778337973,10.876580700081036],[-74.82160445298194,10.885867615215147],[-74.81820143541796,10.890281838601254],[-74.81990291026136,10.890434971635386],[-74.8292154582968,10.884884161914442],[-74.84006598349777,10.881282292932553],[-74.83666893707107,10.891050213718017],[-74.83689828283809,10.896082526944099],[-74.82885291996763,10.906810058647352],[-74.82977195574279,10.909240636501522],[-74.8267545506443,10.913828190504375],[-74.81461405924807,10.922707044329684],[-74.79911192555886,10.92129759985329]]]}}]}