{"type":"FeatureCollection","features":[{"type":"Feature","properties":{"code":"084067"},"geometry":{"type":"Polygon","coordinates":[[[-74.87084404288737,10.34234597090358],[-74.8740926614044,10.32056746849554],[-74.89611804452443,10.293635686423954],[-74.90184699180247,10.280538149045526],[-74.90939613835678,10.253740475878374],[-74.93580554670513,10.28713645729664],[-74.93546618638504,10.290983819621488],[-74.93274181232812,10.29388602887343],[-74.93227569441069,10.299838876315334],[-74.92856555922799,10.298767233040167],[-74.92541709764248,10.300575534264851],[-74.92748016464793,10.306362443534852],[-74.93567669519888,10.314691445709741],[-74.9384875345321,10.325552154548575],[-74.9307908476141,10.332030375680517],[-74.91966364669298,10.329232381594352],[-74.92219013298268,10.335121958224079],[-74.92178647649314,10.339109588795623],[-74.91174232633159,10.349106657887091],[-74.9044273664233,10.349237300940274],[-74.90326933397654,10.353081095597986],[-74.89688002787096,10.353731280043633],[-74.89197539578362,10.351033970480046],[-74.88336448825834,10.35363984121932],[-74.88419990959983,10.35185235669968],[-74.88083333078276,10.345814139272704],[-74.87084404288737,10.34234597090358]],[[-74.88039893311793,10.327043708847214],[-74.87584452684592,10.339243101203408],[-74.87639998762182,10.344125563155387],[-74.88318771235913,10.333214454462507],[-74.88374671200575,10.323950568213263],[-74.88039893311793,10.327043708847214]],[[-74.88520435958304,10.33803455988766],[-74.88531646598824,10.340141713138564],[-74.88641150118849,10.340610233497728],[-74.88661064982625,10.338612958017109],[-74.88520435958304,10.33803455988766]]]}}]}