{"type":"FeatureCollection","features":[{"type":"Feature","properties":{"code":"084020"},"geometry":{"type":"Polygon","coordinates":[[[-74.88117928650473,10.46965799129839],[-74.876770595111,10.462270321532458],[-74.87428236893987,10.463810699082785],[-74.87285382834278,10.462774537074552],[-74.87670498150675,10.460646171168264],[-74.87760928792812,10.45874227106924],[-74.87648876278001,10.457155112754037],[-74.88150849506877,10.45180220931229],[-74.88213472194593,10.456256283817538],[-74.88561808452482,10.456574078726476],[-74.88150347832612,10.464653786434837],[-74.88196971451447,10.467092576402479],[-74.88325354193631,10.46447292556195],[-74.88407730176806,10.465822329564105],[-74.88117928650473,10.46965799129839]]]}}]}