{"type":"FeatureCollection","features":[{"type":"Feature","properties":{"code":"084001"},"geometry":{"type":"Polygon","coordinates":[[[-74.7553932403228,10.64790624070531],[-74.75257505482466,10.644065022296047],[-74.74866950425059,10.647560537980155],[-74.74907604654976,10.644889495866948],[-74.74733736162761,10.645114737119854],[-74.74526239245694,10.636206814366744],[-74.74664258082902,10.63505343767929],[-74.74957478357857,10.636507240938386],[-74.7509249722824,10.635449992773204],[-74.75081908178379,10.636684257493187],[-74.75346690886403,10.637408551506724],[-74.7534582483496,10.640604478799787],[-74.75574207259854,10.641417393705183],[-74.75617937458503,10.637920217086446],[-74.75935071490284,10.639358647186782],[-74.7612955593554,10.648090556116586],[-74.75645778734463,10.646337100703022],[-74.7553932403228,10.64790624070531]]]}}]}