{"type":"FeatureCollection","features":[{"type":"Feature","properties":{"code":"084008"},"geometry":{"type":"Polygon","coordinates":[[[-74.72333514743588,10.599736034586783],[-74.72141554507647,10.582884635735127],[-74.72678881990765,10.563286002606219],[-74.73452991805891,10.559074335087985],[-74.75299967714335,10.541770112995323],[-74.77287450365287,10.526664277289399],[-74.79967529814309,10.495635728383093],[-74.8054146018373,10.485369048971506],[-74.80744010806507,10.48734418311318],[-74.80751665812704,10.491279811517188],[-74.81096372285566,10.49080974746579],[-74.81615859273467,10.49483864223646],[-74.8203059466,10.493749679989321],[-74.8180066216654,10.500893702466612],[-74.82407365810866,10.505674986243605],[-74.8231483673461,10.507814990005386],[-74.82937884490286,10.51229446395547],[-74.82822530263616,10.514612284400357],[-74.83996760885708,10.535012708800366],[-74.83922537469226,10.538057555830562],[-74.83603615078749,10.540489010946146],[-74.83742736200651,10.547862286630618],[-74.84155780107773,10.550151898954084],[-74.84594268608407,10.557408292146306],[-74.85630534489366,10.564498550734015],[-74.84661826277551,10.58830732620089],[-74.84746016433331,10.59388287407819],[-74.84433975865971,10.59777422288954],[-74.84001948863994,10.60146277414907],[-74.83148359674044,10.601291158974448],[-74.8259162352656,10.596873686738434],[-74.81537009716845,10.596637430866167],[-74.81453970799618,10.598542289473585],[-74.8101902620906,10.595136902378101],[-74.8091806164158,10.599977400789953],[-74.81073560093523,10.60090604427512],[-74.80886725100879,10.60221776922873],[-74.80301758617628,10.600531736449739],[-74.79781007571029,10.603828537498828],[-74.78585116715362,10.60352334101077],[-74.78211904284143,10.606027855654474],[-74.77210544667867,10.604817185462764],[-74.75706985359676,10.600297056151419],[-74.7557198284153,10.59680764118832],[-74.75370925620138,10.596248671366538],[-74.74641634404378,10.599103877710036],[-74.74863450738013,10.58751997631964],[-74.74544259409817,10.588753910909588],[-74.7428274858882,10.592405962744124],[-74.74388516188554,10.595076205757493],[-74.7461150083289,10.59416976840322],[-74.74563597420189,10.595809289869294],[-74.74325963846303,10.595787181440471],[-74.74360907957669,10.597351506274833],[-74.74270909569924,10.595782699487927],[-74.73287057850553,10.598844081816935],[-74.72333514743588,10.599736034586783]]]}}]}