{"type":"FeatureCollection","features":[{"type":"Feature","properties":{"code":"085068"},"geometry":{"type":"Polygon","coordinates":[[[-75.15493355524961,10.683985298042728],[-75.15612749885224,10.676061194715885],[-75.15335546676897,10.672794256552208],[-75.15100997916352,10.662967382356271],[-75.16113620109496,10.641574423508075],[-75.16599804380286,10.616982830506117],[-75.16310956117326,10.615195983620822],[-75.15406927581108,10.618046063178326],[-75.15145321320648,10.617229037588174],[-75.1508659365328,10.610929610159644],[-75.14749955723357,10.610929747970943],[-75.14820902521978,10.607876609637174],[-75.14548069782978,10.605771794036173],[-75.14101104961952,10.605591494692874],[-75.1403598120487,10.602524807657346],[-75.13835795382823,10.605419585383629],[-75.14003125346034,10.606292998420201],[-75.13908008297028,10.607338002977258],[-75.13172599493788,10.602811402705584],[-75.11968784899892,10.602669297660611],[-75.12407538944382,10.600069097753362],[-75.12331027757517,10.596171839511328],[-75.12946273336865,10.589994557115403],[-75.13180030402361,10.581724907386672],[-75.1404485460692,10.585487912742394],[-75.14480844300766,10.57610633667349],[-75.16120815813264,10.58008659125528],[-75.1633024568805,10.582332404268755],[-75.17127640778779,10.570340519731133],[-75.17889486725403,10.568865583006698],[-75.18032435298977,10.564464214123632],[-75.18477625850977,10.56257306362653],[-75.18956342909172,10.55546627076842],[-75.18852230587675,10.545654593867596],[-75.19342694824854,10.537801628938212],[-75.19190064596245,10.532316872994897],[-75.18941821506496,10.529756592084027],[-75.1963431762004,10.524631600760415],[-75.20155007371466,10.524418886965805],[-75.20869331560408,10.530145756789977],[-75.20926432231715,10.532998939158631],[-75.20478975712314,10.544226659023082],[-75.20005470697959,10.547601466408764],[-75.20455354444545,10.55150844548956],[-75.21208389107045,10.56608977756781],[-75.21457314568408,10.567764350411778],[-75.21782783921111,10.565331336177337],[-75.21675504202346,10.559592031454656],[-75.21872516147937,10.552853152594707],[-75.22541195281104,10.552383839306401],[-75.22636416202806,10.550923186620082],[-75.22772301947384,10.556394939964662],[-75.23047425850626,10.558639676198766],[-75.23262310173152,10.557755010972642],[-75.23646817988549,10.565642037918224],[-75.23416654095524,10.57557846489658],[-75.22803492757782,10.583575911601656],[-75.22558055053531,10.596945341414084],[-75.22728129415606,10.59915708418373],[-75.22578962261497,10.603416477605492],[-75.2281340087585,10.606716185033179],[-75.22690250437824,10.609227859693704],[-75.22856484184155,10.617659639271665],[-75.22391110550575,10.622520343493761],[-75.22497456340687,10.628686668863054],[-75.22387308295737,10.63071160636207],[-75.22824106859628,10.638765590666196],[-75.2289820439475,10.644327463343302],[-75.24733445568364,10.657977315491962],[-75.25391601369148,10.660036177195934],[-75.26440247538301,10.668298848942129],[-75.26574172145843,10.669750152057532],[-75.26488386978565,10.674771063969843],[-75.26693766435329,10.68520194759924],[-75.26255390754841,10.694799685830446],[-75.25646911710197,10.70225031273361],[-75.25004774004492,10.722837765576344],[-75.2483602499629,10.722090483815577],[-75.2495227540777,10.719563160373696],[-75.24774074087225,10.717097729631007],[-75.2447250255048,10.716609614356571],[-75.24991345219144,10.70093607323804],[-75.2479649505973,10.7007592016937],[-75.24809638657962,10.69659293374201],[-75.24568738647798,10.693683521278672],[-75.23724354532612,10.696133959386316],[-75.22792392983365,10.701332958462046],[-75.22131428197531,10.695333891784855],[-75.20565818118507,10.672661029023004],[-75.20182957662331,10.675936780939026],[-75.19688279073404,10.684104283699924],[-75.19431343793173,10.68547495177961],[-75.1840811455242,10.686110101424106],[-75.18070759798064,10.68798630145227],[-75.17716413116409,10.68725981788458],[-75.16923699496027,10.690283994248603],[-75.16325428257602,10.688048409095984],[-75.15999199091567,10.68363507222739],[-75.15493355524961,10.683985298042728]]]}}]}