{"type":"FeatureCollection","features":[{"type":"Feature","properties":{"code":"810007"},"geometry":{"type":"Polygon","coordinates":[[[-70.14578832840931,6.9828829126389],[-70.14453766105953,6.978750880510177],[-70.13391719536469,6.975248849642753],[-70.12687468016401,6.9783222081848635],[-70.11791016119065,6.979853403800405],[-70.01861954023252,6.85571081699095],[-69.99187752843136,6.8184051311192775],[-69.76333457394355,6.528844934992662],[-69.77278777897698,6.529471878694267],[-69.78378913555775,6.534428400848924],[-69.78909212559876,6.5285625030797405],[-69.79373106778894,6.528267000690789],[-69.79777420648855,6.530778089139119],[-69.79927038260792,6.523596013260203],[-69.80126085494123,6.528638768263136],[-69.8038553768173,6.529860139399261],[-69.80850243650428,6.524131321704942],[-69.8134153321273,6.525422900498086],[-69.81623853642492,6.52333039226869],[-69.81793984671754,6.520292576700001],[-69.81646782151381,6.517506731605295],[-69.82109123730731,6.51389537729807],[-69.82296729129666,6.5150696509090835],[-69.82809436624484,6.508811763302333],[-69.82772846593713,6.501446353146207],[-69.83422920996026,6.500690600104463],[-69.83619041179105,6.496644206384303],[-69.8469854802861,6.50010827126772],[-69.85468373557893,6.50033154202481],[-69.86326759712284,6.505353927695182],[-69.86863925215704,6.511364099494699],[-69.87130107016935,6.510973824070788],[-69.87479661876358,6.507316256699028],[-69.88071533631211,6.50761738569696],[-69.88025846409289,6.512543397047409],[-69.88471483099653,6.513465948039084],[-69.89171070632898,6.521802075263736],[-69.89715824602285,6.521713188005265],[-69.89975163146994,6.52355564483446],[-69.89805103594495,6.527905822991102],[-69.89924143039241,6.539691918237622],[-69.89708147278884,6.5437878746596425],[-69.89886685414353,6.548094272018261],[-69.90357391008178,6.548280492105107],[-69.90685478878373,6.550950634331173],[-69.90805309401105,6.54733831328798],[-69.91007441344937,6.546947511301539],[-69.91253207945101,6.553278293885569],[-69.91470554050483,6.554524171778496],[-69.91799450070812,6.554730708747286],[-69.92201611410582,6.552315986391477],[-69.92258774096967,6.5543412859022965],[-69.92877649049967,6.5569185669679655],[-69.92628741689191,6.551856839257425],[-69.93284929359527,6.552365746554301],[-69.93239084374522,6.5482681363967],[-69.93600015865093,6.545737065310277],[-69.94580431249477,6.550574643973846],[-69.95122135989641,6.550161947474578],[-69.95558524616342,6.55175162341709],[-69.9593471243461,6.558797163267229],[-69.95998782140953,6.563355144405477],[-69.96532164929943,6.563840563103668],[-69.9726222356951,6.5615626616551594],[-69.97372838938742,6.557535155281869],[-69.97714741465921,6.561334196234952],[-69.9779253563483,6.559056493275875],[-69.9764830839867,6.557167170321122],[-69.97771896541832,6.556821822408665],[-69.98082434348981,6.55834072916457],[-69.98288394567243,6.565249059356063],[-69.98663069238029,6.563408410528837],[-69.98963632592569,6.566654979359953],[-69.99272654681135,6.5653089702465195],[-69.99781490809778,6.568575845675184],[-69.99907412283329,6.566858534873916],[-69.99792281434378,6.564140391121782],[-69.99999044557705,6.562215749394056],[-70.00718441230839,6.566926856367331],[-70.00900822347472,6.566449328908618],[-70.00768042087918,6.562752143874093],[-70.01778199104348,6.5622085986332195],[-70.01925473204312,6.564744330621124],[-70.0267244355266,6.564753334635384],[-70.02820445789928,6.569224954369986],[-70.035581343417,6.572045383929719],[-70.03843576608728,6.576470128282779],[-70.03826722801267,6.573828678574557],[-70.04024361171196,6.571186033816161],[-70.04711714763613,6.570463445988764],[-70.05635725835123,6.574614202970395],[-70.06257594892827,6.579729466256197],[-70.06829012674336,6.577887646032934],[-70.07331773381645,6.579694715183507],[-70.07577434977827,6.5758854484264475],[-70.08373909818192,6.581111353615313],[-70.08889789132581,6.578374246411613],[-70.0881724238593,6.582884337095493],[-70.09235384694,6.582337713726133],[-70.09256745136577,6.586903925489821],[-70.10186782367026,6.58320406033414],[-70.10260855116684,6.587572410041673],[-70.1052479316487,6.588469258197904],[-70.10705545742769,6.587677161025965],[-70.10572006286952,6.587450788486308],[-70.10673429436952,6.581406486793355],[-70.11176319316644,6.587320161888215],[-70.1129537182261,6.586495210091584],[-70.11176371767209,6.5829769977095225],[-70.11275499639197,6.581148077240812],[-70.11955319890166,6.582673353141217],[-70.11834700860555,6.586365487494504],[-70.12043167598921,6.588359716728348],[-70.12274302650218,6.588252243456736],[-70.12214747909377,6.582933752730071],[-70.12580920034486,6.583493403380828],[-70.12973069794867,6.587689241111775],[-70.1322111799476,6.587201220454062],[-70.13155518171635,6.579740942646254],[-70.13554495659054,6.582510604169499],[-70.14083940027422,6.582659600807858],[-70.14591364721554,6.59115889866564],[-70.15210799455815,6.585133148018883],[-70.15416930395531,6.591265854630706],[-70.1564360210914,6.585988792654064],[-70.16166126499172,6.5863114973475945],[-70.16291955824278,6.5928371348218775],[-70.16573541226171,6.593752094879335],[-70.16981734998376,6.601929539593982],[-70.17459380316626,6.604898157436253],[-70.17559277360772,6.601239376502292],[-70.18043748554857,6.602109341171115],[-70.18396538791603,6.6072587713742905],[-70.18396538688762,6.610438109889515],[-70.18904703758659,6.6145034300373595],[-70.19277357951279,6.61077688708275],[-70.19887155973453,6.61077688708275],[-70.19887155973453,6.614164652844181],[-70.2029368788539,6.617213643469256],[-70.20564709331421,6.614842206202127],[-70.20835730674611,6.614842206202127],[-70.22495736144532,6.6270381645887255],[-70.22970023495111,6.6270381645887255],[-70.23342677687725,6.630764707543335],[-70.23952475607058,6.628732048497852],[-70.24223496950248,6.631781039122984],[-70.24121864100817,6.636523910571896],[-70.2466390668435,6.639234125032203],[-70.24799417150257,6.653801519657463],[-70.25307582323,6.659899498850791],[-70.26357789770742,6.655834179731414],[-70.26798199504844,6.651091307254035],[-70.2774677400032,6.6582056159700755],[-70.28627593262837,6.653123967327929],[-70.29000247558298,6.653123967327929],[-70.29237391182164,6.65515662740188],[-70.29982699875933,6.653462743492696],[-70.30185965883328,6.6561729558961815],[-70.30456987226512,6.656850510282595],[-70.30592497795266,6.666675033458944],[-70.30965152090727,6.666336255237297],[-70.32015359641315,6.671417904907855],[-70.33878631221467,6.673450564981749],[-70.34048019509538,6.678532214652307],[-70.34590062195917,6.681242428084204],[-70.35640269849347,6.682936310964919],[-70.3682598807153,6.69140572742532],[-70.37571296662458,6.690728174067374],[-70.3841823810281,6.70089147340849],[-70.41162329048325,6.713764986181502],[-70.42686823846651,6.7256221684033335],[-70.43804786835881,6.731042594238659],[-70.44245196364295,6.72968748752271],[-70.43194988916548,6.751030415727655],[-70.43262744149501,6.7547569586823215],[-70.44245196467136,6.761871268426773],[-70.4709092015924,6.796426485569555],[-70.46210100999565,6.8065897849106705],[-70.45295404120571,6.8242061701610055],[-70.44075807973383,6.826577607428135],[-70.4167049401538,6.838434788621498],[-70.38418238205651,6.848936865155849],[-70.38045583807349,6.852663408110459],[-70.38519871157928,6.86452059033229],[-70.39807222435229,6.878410432628073],[-70.40247631963643,6.8855247423725245],[-70.4055253092331,6.895688040685229],[-70.39908855284659,6.898737031310304],[-70.39434568139768,6.9061901172195235],[-70.37808440286324,6.909916660174133],[-70.37401908168698,6.918047299441355],[-70.37605174176088,6.9197411823220705],[-70.37334152935745,6.930243257827954],[-70.38079461629513,6.935663683663279],[-70.38282727534062,6.943455546765733],[-70.38519871157928,6.944471877316914],[-70.37605174176088,6.950569856510185],[-70.37910073238595,6.956667835703513],[-70.37401908168698,6.963104592090019],[-70.37401908271539,6.969202572311758],[-70.37103593298036,6.9728072108893],[-70.36580430965108,6.96778077418378],[-70.36115810254296,6.967536393615603],[-70.36202742957738,6.96265861827618],[-70.36024253159064,6.956755111392511],[-70.35153668750803,6.956740643263174],[-70.3511557863377,6.9550933406010245],[-70.35403165409139,6.95391219082336],[-70.35388735435004,6.952138674609955],[-70.34824838139417,6.952532344922645],[-70.34292345364582,6.944483818563015],[-70.33846032267576,6.945225044854169],[-70.33261574246308,6.941251115193893],[-70.32729007320768,6.941023433446901],[-70.32218552012222,6.93551576688958],[-70.30226506058972,6.937538179562239],[-70.29432929061096,6.934482623360111],[-70.28767748380847,6.936728539217825],[-70.28315233878294,6.941416871331512],[-70.277323526651,6.9384741980086915],[-70.27350842451108,6.94124571278536],[-70.26612331762391,6.941662552879507],[-70.25924125179745,6.945487623712722],[-70.24933042378177,6.954315098606685],[-70.24961975860089,6.958936894603198],[-70.23063729829516,6.965876304327651],[-70.2282037071044,6.968127727495016],[-70.22808952015998,6.971855956066918],[-70.22383962234801,6.974579873495372],[-70.21607944658803,6.975717353546827],[-70.20933538129248,6.97479968868555],[-70.20492645747072,6.978446466666867],[-70.20196574218079,6.975763606720648],[-70.19567018375301,6.97876710521939],[-70.1924366432317,6.97624868191906],[-70.1887737012193,6.978306569687959],[-70.18290769854895,6.97665107342425],[-70.17984754932257,6.979320292108866],[-70.17266843021588,6.976475512115655],[-70.1693337577995,6.978369994766524],[-70.15698871947069,6.980355383508481],[-70.14904549431213,6.984195800760972],[-70.14578832840931,6.9828829126389]]]}}]}