{"type":"FeatureCollection","features":[{"type":"Feature","properties":{"code":"812018"},"geometry":{"type":"Polygon","coordinates":[[[-69.4268947950685,6.102189706320246],[-69.4400786784239,6.094488903575325],[-69.4490281142593,6.0860076353433215],[-69.46437186060155,6.084069578611377],[-69.47039845045737,6.08129202790559],[-69.48399472692148,6.072453848981866],[-69.5034427857812,6.0565219271071555],[-69.51654278319415,6.053984534184565],[-69.53376306895063,6.046687933003682],[-69.56609688419155,6.045838150490852],[-69.58980266011173,6.041652520051855],[-69.6029176697001,6.0413462971781655],[-69.66236707540179,6.041944279938434],[-69.7304776126191,6.047728048344993],[-69.7484901631837,6.044524710095118],[-69.76030865745486,6.046313150037861],[-69.77601080470197,6.0550846426917815],[-69.79033196242034,6.057029093250833],[-69.79857077224324,6.054793653108618],[-69.80577391885248,6.04854258407579],[-69.82618288138224,6.044770168471075],[-69.83130985040088,6.041747655098618],[-69.8365826690237,6.035616971433228],[-69.84266252294606,6.0331279122236765],[-69.85226889392374,6.036627652749644],[-69.85671661059735,6.043341605248202],[-69.8645605293463,6.045448647427293],[-69.87595156588276,6.045709667166989],[-69.89635944546262,6.060016803100041],[-69.90399692905856,6.070918201238669],[-69.90331760883635,6.084194567287568],[-69.90518715998365,6.089015108772344],[-69.902013625998,6.093627373163599],[-69.90072385623529,6.101924976988414],[-69.9101849885036,6.103786518625384],[-69.91570063268955,6.1110469289141065],[-69.92641289716363,6.111384773309908],[-69.93421749855514,6.119396859894209],[-69.93730735845747,6.133807960053048],[-69.94272532837203,6.139360619942124],[-69.95485644140098,6.1420634532704526],[-69.97325063772826,6.135139330315667],[-69.97909476234088,6.134557443709241],[-69.98459647524442,6.140591129818461],[-69.98622880481196,6.154974687258175],[-69.99327857156084,6.16014315598926],[-70.00387597751757,6.150420661509884],[-70.0072561883402,6.149166752509359],[-70.01069710092565,6.150285613637436],[-70.01554208129005,6.155505843880519],[-70.01992107949144,6.156983614992555],[-70.03539391799552,6.157092337821837],[-70.0464647160436,6.154600985185482],[-70.05609299901761,6.159349878165358],[-70.05318650835949,6.1713952972498305],[-70.04013215836773,6.180581709895705],[-70.03725523748892,6.184357423715539],[-70.037369484083,6.187258375182296],[-70.04432040516451,6.189708579833507],[-70.05307239032072,6.186948433460429],[-70.0599835641558,6.190167090361626],[-70.06278352976625,6.193422274455713],[-70.06168530022359,6.209260612174944],[-70.06304367944358,6.211113982836139],[-70.08368135010602,6.218878706368969],[-70.08724462575395,6.227025744152115],[-70.09213441330195,6.231873300765017],[-70.0985671865306,6.229383675912118],[-70.103663528531,6.233462577671844],[-70.11319949233388,6.232750725755864],[-70.11741149615284,6.234473010105148],[-70.11925835985818,6.236587714180985],[-70.11832781992501,6.24628093095879],[-70.1221114887478,6.261443998462482],[-70.13267818643936,6.270510296221232],[-70.14049147302791,6.2697674172229085],[-70.14574833433659,6.266228720322772],[-70.14937213794047,6.265985365111817],[-70.15406439047706,6.273598820176744],[-70.16080100573498,6.280140624767455],[-70.1624340274443,6.282853719895286],[-70.16160250801374,6.285092791468003],[-70.1529125615956,6.289350043672471],[-70.15145511867843,6.291185153308277],[-70.15235203265496,6.294845356578207],[-70.14620513250793,6.2978181622384],[-70.14745281120372,6.3105444935741275],[-70.15269306727953,6.31778103576886],[-70.16142682534894,6.321025005725744],[-70.15918100205107,6.325516651293071],[-70.1604286807468,6.3312559776130115],[-70.16641754321734,6.33524855293615],[-70.16991104726787,6.333252264760404],[-70.17390362053413,6.333252264760404],[-70.17989248506154,6.338742055958278],[-70.17664851818995,6.347226277877155],[-70.18039155633414,6.353215143433033],[-70.18114016375728,6.36219843353922],[-70.18887577825308,6.364194723771902],[-70.18862624313095,6.366690082191894],[-70.19162067385201,6.37043312239291],[-70.20160211061722,6.370932192637099],[-70.21085535865706,6.378557443937723],[-70.20883742279466,6.394412649142737],[-70.2094139758982,6.3987367963908355],[-70.21287329349099,6.403349220190648],[-70.21056708210529,6.40997957779598],[-70.2120084628072,6.413727172968947],[-70.21690916418726,6.418339596768817],[-70.21662088763549,6.4217989143615455],[-70.19730636380928,6.42496995540256],[-70.16905526893515,6.407385089858508],[-70.16646078099768,6.403060943638877],[-70.15406489235704,6.399889901569452],[-70.15020018637756,6.400666897091412],[-70.15129473718139,6.411490777403628],[-70.14995695149435,6.420368793048283],[-70.1174853105577,6.399207498076578],[-70.10958022827526,6.390207867047195],[-70.09985089773846,6.386316133598314],[-70.09656724944074,6.388262000322754],[-70.06786572245448,6.380113685213985],[-70.06458207209988,6.379992068800789],[-70.0588660914251,6.382789252474254],[-70.05290687586711,6.382546018619507],[-70.03466437995354,6.373059919880575],[-70.01411116910452,6.354817424995474],[-70.00621560917136,6.361659588280645],[-70.00438563352054,6.365319536496827],[-69.99633374826766,6.3711754542598555],[-69.99303979291903,6.379227340541149],[-69.98535390156218,6.381789305012433],[-69.9740080599322,6.381057316191914],[-69.96851813606526,6.383253285738704],[-69.96559017769795,6.380691322295888],[-69.94948640307842,6.381789305012433],[-69.94582645383377,6.377397367975732],[-69.9348466081567,6.378861346645124],[-69.93082066398756,6.375567392324967],[-69.92716071474291,6.3748354035044485],[-69.92167079190443,6.375567392324967],[-69.91691285788636,6.379959332446958],[-69.91178892997232,6.3770313730512385],[-69.90812898072767,6.377763361871757],[-69.90703099595424,6.381423310087939],[-69.90373704163409,6.379959332446958],[-69.90263905686066,6.384717265436564],[-69.89861311371999,6.384351270512127],[-69.89751512997503,6.386913233954942],[-69.89275719492855,6.385083259332589],[-69.89239120103252,6.390207187246688],[-69.88726727209007,6.390207187246688],[-69.88726727209007,6.393135146642408],[-69.88250933910047,6.392769152746382],[-69.88067936447811,6.398991065433847],[-69.87701941626193,6.402651014678497],[-69.8620136253873,6.407408947668046],[-69.8572556923977,6.411800884704746],[-69.84224990152308,6.418022800477559],[-69.8250481431586,6.417656803496186],[-69.82431615330967,6.421682747665329],[-69.82138819288548,6.424610707061049],[-69.81443429137755,6.426806676607839],[-69.80857837258611,6.4322965994463175],[-69.78771666394852,6.444740425849716],[-69.78259273603442,6.445106419745741],[-69.77124689543291,6.455354277630761],[-69.75807107918064,6.456818257328621],[-69.75001919187082,6.453890296904433],[-69.74855521217296,6.459746215695873],[-69.73245143652497,6.461942185242663],[-69.72879148830879,6.465968128383338],[-69.72366756039469,6.465968128383338],[-69.72073960099897,6.46816409690166],[-69.71857234248199,6.473943455346671],[-69.4268947950685,6.102189706320246]]]}}]}