{"type":"FeatureCollection","features":[{"type":"Feature","properties":{"code":"812010"},"geometry":{"type":"Polygon","coordinates":[[[-70.19601190229179,6.296071713603681],[-70.20018715266042,6.297578540273776],[-70.20411240099412,6.296514687450667],[-70.20892953833419,6.297557101361008],[-70.21203084480175,6.302073775105498],[-70.20991787879376,6.306197538556319],[-70.21234944292428,6.307516066657172],[-70.21236254425355,6.310863837317527],[-70.20693799950595,6.312258939134551],[-70.1931605351242,6.303331157156435],[-70.19601190229179,6.296071713603681]]]}}]}