{"type":"FeatureCollection","features":[{"type":"Feature","properties":{"code":"816017"},"geometry":{"type":"Polygon","coordinates":[[[-71.58903804569064,7.043822682731218],[-71.59044215769262,7.033563043008712],[-71.5888481221823,7.0262543648273095],[-71.5819809019236,7.02280545610131],[-71.5682553090972,7.0252002390136],[-71.55513214807343,7.030569947206118],[-71.54928802448921,7.034711423522424],[-71.5395368868572,7.035514525029328],[-71.53516550530117,7.034385134706724],[-71.53073334073537,7.027078928901119],[-71.5263685504674,7.026233141887531],[-71.51182624983954,7.036022329835816],[-71.50927028735885,7.036309509039427],[-71.50177783369844,7.029742728722169],[-71.49593451435629,7.027706693299876],[-71.49411026198817,7.019999930730535],[-71.48968565647488,7.0185322064734805],[-71.48223097750815,7.019755947141164],[-71.47849269282528,7.022479666080187],[-71.47447178596764,7.031550022073134],[-71.46913865536175,7.034160856076028],[-71.46505645950066,7.033710981379727],[-71.4628363925172,7.029746726278233],[-71.46334057000689,7.011951423911285],[-71.459761862579,7.009233770726269],[-71.45352075092666,7.012186507359104],[-71.44703593130748,7.021853125528025],[-71.436359949257,7.024927751111363],[-71.43094472117014,7.034443028821443],[-71.42596789138952,7.03734923665786],[-71.4120762668029,7.035056919530632],[-71.3933618936938,7.0361446764431435],[-71.3876845773155,7.032295333338027],[-71.3823132225865,7.020312280036364],[-71.37755356387038,7.01719801827835],[-71.3520544197109,7.018602560169313],[-71.3403122255902,7.015775589715133],[-71.33531531238407,7.0157783212584945],[-71.326754560972,7.018560004246297],[-71.31875830211806,7.015901166660456],[-71.30245483481463,7.027101185425693],[-71.2983116852223,7.027783561150613],[-71.28742360130053,7.024784191848596],[-71.28203032840463,7.025468091725372],[-71.26651855203835,7.032018828339346],[-71.26215485500478,7.028789053974549],[-71.25834712062704,7.019214762175864],[-71.25188506455459,7.019159521442816],[-71.24272188339677,7.01216404411764],[-71.23761785584543,7.014942883461913],[-71.23285716251615,7.024805050719806],[-71.22780582618878,7.026677279931448],[-71.21231861622897,7.019030972298651],[-71.20145268290219,7.0245598700233245],[-71.19850837435575,7.024389935323711],[-71.192946226056,7.019688178949821],[-71.18375610896015,7.020146929105067],[-71.1694398723393,7.026011517666916],[-71.15791837169871,7.025673336970385],[-71.1508915135069,7.028168976155143],[-71.14493279880037,7.032589258096095],[-71.13061173672719,7.033244301932655],[-71.12550830567255,7.028029666416899],[-71.12414238385509,7.02372338835761],[-71.12470682499105,7.016695219930057],[-71.12158628150615,7.011992361065779],[-71.11733646905492,7.010689475575589],[-71.10973763021502,7.011709532174052],[-71.10414544522308,7.007884944708792],[-71.10862381668284,7.001196774235723],[-71.11504028395535,7.007713613384226],[-71.11253738910858,7.000460717925023],[-71.11423945839175,6.993547752543122],[-71.11271321781226,6.990713096538002],[-71.09598202640751,6.988106346480436],[-71.09084722991287,6.983149025225941],[-71.20629134862946,6.870905945161724],[-71.20259313823783,6.869527872295919],[-71.20406926692715,6.868989920753847],[-71.21110577602354,6.868989920753847],[-71.2201354602002,6.865849162202835],[-71.22647737670297,6.865456566612636],[-71.23215490391198,6.862829201424688],[-71.23789282949326,6.85739327181841],[-71.24118458808863,6.85669868025326],[-71.2466809170956,6.860201835208386],[-71.24912708510993,6.863886188365541],[-71.25347582858927,6.865758562587587],[-71.25716018071802,6.872221279948576],[-71.2625357109236,6.875362038499645],[-71.26477048154976,6.880012778982405],[-71.27645773215733,6.884119925887433],[-71.2852760179174,6.890733640207486],[-71.28986635899946,6.889948450055499],[-71.29339971314073,6.892877813275277],[-71.29635927451812,6.890824239822734],[-71.29838264878458,6.891458430958778],[-71.29732566184373,6.898404342496804],[-71.30082881577039,6.901333703659645],[-71.30366758040338,6.908400411942182],[-71.3079559255105,6.906044841486221],[-71.31312005832791,6.906981029625683],[-71.31456963880208,6.910242588006554],[-71.32006596780906,6.912990753024246],[-71.32459590949043,6.910695582997448],[-71.32864265802328,6.911329774133492],[-71.34183988747725,6.909064804321247],[-71.35225875272738,6.910000992460709],[-71.36213402439984,6.902813485376839],[-71.36255681917618,6.897015159366447],[-71.3746668625032,6.891911425949672],[-71.37496885950657,6.884210525502681],[-71.37847201446175,6.884935315225562],[-71.38155237361207,6.882640145198707],[-71.38750169658152,6.8814623604849885],[-71.3959273877798,6.882126751835585],[-71.40263170068664,6.884814517452639],[-71.41516453981842,6.884270923874908],[-71.42099306398649,6.882307950037614],[-71.42845236785922,6.874939244751715],[-71.43379769887872,6.878261201504813],[-71.43802564355667,6.875664035503007],[-71.44035101379808,6.876902218589009],[-71.44134760133824,6.8754224379002835],[-71.44367297055118,6.876177428866185],[-71.44560574623074,6.870469703499452],[-71.45073967986207,6.8679027346269095],[-71.45674940326063,6.868657725592755],[-71.46200413363647,6.866211557578481],[-71.46602068298313,6.867087346317248],[-71.47109421721382,6.86527537046743],[-71.47468797075572,6.8607756269437346],[-71.47212100291165,6.856819479054593],[-71.47399337919057,6.8531955263265445],[-71.4814828832778,6.850356761693604],[-71.48423104726709,6.845796620826093],[-71.48990857447609,6.842837059448641],[-71.49220374450294,6.835649553393239],[-71.4977906720967,6.832810788760298],[-71.49782087128284,6.82997202618418],[-71.50062943467276,6.825623281676428],[-71.49905905539725,6.822784518071899],[-71.50292460572803,6.821727532159514],[-71.50370979588001,6.824203900388397],[-71.50793774055802,6.827314459753325],[-71.51267907962756,6.825864879279152],[-71.51880960079905,6.828009051318475],[-71.5270540937953,6.821516134771343],[-71.5327316210043,6.824475697177206],[-71.53729176187181,6.823720706211361],[-71.54103651442966,6.820308149843015],[-71.54535505666604,6.822573120683728],[-71.54469066634385,6.827827853116446],[-71.546623440995,6.83108941149726],[-71.54991519856196,6.821123540209555],[-71.55169697522564,6.82127453716862],[-71.55251236456377,6.823388511050268],[-71.54958300340087,6.82828084810734],[-71.55275396216649,6.829700229395371],[-71.55344855270323,6.824203900388397],[-71.55734430222014,6.820036354082617],[-71.5610286553773,6.824052902400922],[-71.56281043204098,6.824113300773149],[-71.56419961414292,6.819643758492418],[-71.57045093308727,6.812275054234988],[-71.57473927819439,6.816442600540711],[-71.57784983653085,6.816895594503137],[-71.5792390196612,6.816201002937987],[-71.57954101563621,6.812154256462065],[-71.584372954321,6.8103120803976935],[-71.58615472995626,6.8144192273027215],[-71.58923509013505,6.815687609574866],[-71.58805730644974,6.821667132758819],[-71.59228525112769,6.82390190441339],[-71.59470121995588,6.821123540209555],[-71.59171145836387,6.815959407392143],[-71.59621120085916,6.814479624646538],[-71.59509381451767,6.80904369606867],[-71.59627159923144,6.805600940514239],[-71.60188872703975,6.809285291614515],[-71.60409329950824,6.815476213215106],[-71.60572407715597,6.815687609574866],[-71.60971042628813,6.813332041175784],[-71.60798904799668,6.805631139700324],[-71.60907623412362,6.802580979736092],[-71.61340708167472,6.800705807121972],[-71.62249828316908,6.800920561346516],[-71.62368271573524,6.799241480838987],[-71.70011973647178,6.862711119768505],[-71.69868491620463,6.907482528022626],[-71.69548716959673,6.945987932201717],[-71.69491542137666,7.032201221591606],[-71.6864230253966,7.027061842357114],[-71.65972691298504,7.018570240334668],[-71.65350903076381,7.0181687281478276],[-71.64624558965505,7.022667954364977],[-71.64510092181882,7.02610074122606],[-71.64944147375354,7.034343931185674],[-71.65771207273468,7.043724903558768],[-71.64700018672744,7.053977908798572],[-71.64296452994716,7.0543049051827325],[-71.63288552586863,7.051572715991142],[-71.62226538927536,7.042598623246363],[-71.61739703241255,7.04186393682113],[-71.60934107761261,7.046008654788295],[-71.60169518649906,7.055312337649241],[-71.59602702840135,7.056281598443263],[-71.5902891706973,7.051470807621968],[-71.58903804569064,7.043822682731218]],[[-71.42308431957292,7.020461636629534],[-71.42614263302943,7.024338567705229],[-71.4258193596072,7.02593670772967],[-71.42306778941634,7.024768172827919],[-71.42079192119871,7.030634457291512],[-71.42233334467511,7.031213351130248],[-71.422708822868,7.034607633103462],[-71.42608243314663,7.0338866496463766],[-71.4265070575222,7.035849801404197],[-71.43078871878134,7.032545051522902],[-71.43432300469152,7.024869506297762],[-71.43241605526043,7.026985889820253],[-71.42344959253074,7.018752996627143],[-71.42308431957292,7.020461636629534]]]}}]}