{"type":"FeatureCollection","features":[{"type":"Feature","properties":{"code":"816019"},"geometry":{"type":"Polygon","coordinates":[[[-70.96321498337102,6.657348335082872],[-70.95609448445947,6.653462781545102],[-70.95793413158373,6.649562574758306],[-70.95375237323077,6.650559571618601],[-70.95295071154345,6.646881353121046],[-70.9486557504656,6.644303141314879],[-70.94251344951351,6.644714027755299],[-70.93998917848899,6.646739929933403],[-70.9327941524619,6.646137645198053],[-70.92904828301545,6.642973925639353],[-70.92894087762102,6.639417956047112],[-70.92203627141987,6.639450837411289],[-70.92163218298452,6.6428755335151095],[-70.91362917857612,6.638346020694257],[-70.90612230306624,6.631352525177817],[-70.89529439743,6.629387505768307],[-70.89205943457273,6.625833760697276],[-70.8854682184612,6.622823483733896],[-70.86799662043398,6.528455366108744],[-70.87245223657453,6.5285736544819315],[-70.87276424135206,6.52974024974111],[-70.8708197116029,6.529941772024188],[-70.87299408591372,6.531459542351115],[-70.87919686442808,6.526221977709383],[-70.88061544044564,6.52847525310176],[-70.88840580716425,6.529573537151919],[-70.89192282141073,6.532734061339738],[-70.8925108282786,6.53643153022432],[-70.89492155102153,6.536310337529471],[-70.8948913497785,6.538516688175093],[-70.89756957453426,6.53937217648695],[-70.89747003672511,6.541179495549045],[-70.89507443414414,6.540074293166072],[-70.8951583591674,6.545357387986542],[-70.89654690774876,6.546667913776162],[-70.89704357246586,6.543724783824871],[-70.90110887924396,6.546937472674074],[-70.90411581171224,6.551731019599686],[-70.90306872661597,6.553134483682868],[-70.90406950814469,6.554817865137011],[-70.90609797011626,6.552432498644407],[-70.90896692776465,6.552708166490902],[-70.90895109077832,6.551104232221292],[-70.91185787454259,6.551478238713003],[-70.91145484848835,6.548454553944509],[-70.91450645855656,6.5483221789941695],[-70.91779517810431,6.550666383103419],[-70.92059492054278,6.550016226425669],[-70.91931225114718,6.547884055282111],[-70.92155508270577,6.546326080051813],[-70.92944533176177,6.547273464844977],[-70.92881276762182,6.546095493983103],[-70.93088655305513,6.544658365890996],[-70.92821756577007,6.54471633713888],[-70.92996426020255,6.542950187659244],[-70.93256523555544,6.545473813850322],[-70.93130753777262,6.54852639785355],[-70.93564766907434,6.5481072057113465],[-70.94197397999034,6.550287085274931],[-70.94262975607796,6.551465055108338],[-70.94102004813209,6.552426493568532],[-70.94387358222804,6.553436648322418],[-70.94204087914773,6.555656076643061],[-70.947054723603,6.555051578699363],[-70.95285983424873,6.560677506890329],[-70.95510457048283,6.560315243155344],[-70.95550009302048,6.558331665500646],[-70.95756812328949,6.5618259398546],[-70.9588044520936,6.560164695625701],[-70.96050446757704,6.561997339056347],[-70.96212302732766,6.559364118945211],[-70.96568578464053,6.560726965719539],[-70.97299514467937,6.5576959728385305],[-70.97762423850395,6.559309895341812],[-70.97910592283978,6.5568495235078785],[-70.9780540472583,6.555055507349778],[-70.97951897209481,6.55430301961303],[-70.98057190902898,6.556457593319976],[-70.98057118500549,6.554434352751116],[-70.9822273713541,6.555243975612029],[-70.98444706706982,6.55261078326879],[-70.98249477566497,6.548950467898635],[-70.98448554110445,6.549501311996039],[-70.98435561179036,6.546300256888628],[-70.98568308734116,6.546075582307537],[-70.98675124008241,6.548518385257921],[-70.98646955790406,6.546914439675447],[-70.98836938537073,6.547224480127795],[-70.98921591183449,6.54410724514247],[-70.99019206627872,6.545999567035608],[-70.9929926438125,6.546487218482525],[-70.997981821074,6.543823934939667],[-70.99959195273817,6.546318791479678],[-71.00202623401384,6.543995257008191],[-71.00312432883061,6.5467952071920195],[-71.0032387214635,6.545340516387],[-71.00680910673452,6.544861801077161],[-71.00845799525501,6.549582204142382],[-71.01024394431005,6.54790735464735],[-71.01279825408363,6.551890917728713],[-71.0170183311763,6.548813637735293],[-71.01759772072432,6.5521311711571],[-71.02194704630216,6.550122009966287],[-71.02347338149838,6.555267353138902],[-71.03064448081028,6.557420228887281],[-71.03231565053795,6.556166872160361],[-71.03091150665426,6.554472412323378],[-71.03250599776464,6.551211618075342],[-71.03591758019792,6.551141858819335],[-71.03426105857699,6.547204843046359],[-71.03572565842569,6.548819057627327],[-71.0384195525317,6.548496034116624],[-71.0368091904964,6.546248832705771],[-71.03769502609015,6.54256974311744],[-71.04001408786513,6.543799714089914],[-71.0417761883665,6.542511305985045],[-71.04443996247647,6.544067937041007],[-71.0462093772611,6.543135571622372],[-71.051595180579,6.545950374573067],[-71.05921851589125,6.543964815109632],[-71.0617885783189,6.544727865979496],[-71.0626655209702,6.547509599361035],[-71.06679304749218,6.547110734385228],[-71.06572608465893,6.549179176031259],[-71.06753376573278,6.553139827470204],[-71.07014296348359,6.54958619347093],[-71.07428628379739,6.554273663749768],[-71.0760104800213,6.549745667881609],[-71.09231510226567,6.55386327713245],[-71.09544343620263,6.549222128933025],[-71.09894484383392,6.549535123072303],[-71.10008174795757,6.5468754689030675],[-71.10330961661839,6.546701259996382],[-71.10398845244418,6.549488576792385],[-71.10626984236967,6.550591652356218],[-71.11351798950977,6.551266021656147],[-71.11911077922593,6.549951076648995],[-71.13188277443788,6.543950261619557],[-71.13586484730604,6.5370447750715925],[-71.14576767712424,6.542350402039233],[-71.14936900411686,6.541894408109954],[-71.15242140711422,6.547996526784402],[-71.15609907539505,6.551460384950872],[-71.16230149909677,6.553491717305519],[-71.16420179141943,6.55239274214199],[-71.17403593978929,6.555916443321735],[-71.17774367150184,6.553051533623091],[-71.18059796253146,6.5469168020079],[-71.18295493064079,6.546506019440187],[-71.18432884757044,6.541740371074809],[-71.18687690132816,6.541870936994769],[-71.18606008451184,6.543377816115424],[-71.19044757867687,6.543564509285886],[-71.18982957831139,6.547208754213273],[-71.19380437803403,6.546551177322783],[-71.19590208195501,6.549217096763812],[-71.20115933510033,6.544683327219332],[-71.20649969565716,6.5430702151287505],[-71.20746178820679,6.544213840124257],[-71.20623289401362,6.547278402397524],[-71.2089799030619,6.549605020139666],[-71.21223699183156,6.55108036309889],[-71.21647998879428,6.549568003408069],[-71.21513640989053,6.552586295023957],[-71.21656358574438,6.555707812443927],[-71.22007258739524,6.55438778898764],[-71.22187400319729,6.555840858967258],[-71.2242995396262,6.554074623098472],[-71.2258256495935,6.559062241241122],[-71.22217875231286,6.560352948943432],[-71.22290388347864,6.564676166479444],[-71.22722278978364,6.561573355400469],[-71.23691883374988,6.560675231975495],[-71.23660630549512,6.567871990928268],[-71.24228260474376,6.568357348948325],[-71.24203148582018,6.571260058023313],[-71.24325917262183,6.571954798712682],[-71.24573913937104,6.569055888704327],[-71.24488428046601,6.573011103796091],[-71.24730337987319,6.572307257276691],[-71.24981324447486,6.575984416478491],[-71.25809893893529,6.571902288494584],[-71.26447762122967,6.573553615452283],[-71.26421057070303,6.571202690471182],[-71.2657827888338,6.569729328292226],[-71.27708888630264,6.565719227280113],[-71.28639754785382,6.5683615285387305],[-71.29247031889253,6.565510646796042],[-71.29596513729257,6.567071242497832],[-71.29889403051413,6.564108579337812],[-71.30212227249956,6.567312694061741],[-71.31331489779154,6.569251751468244],[-71.31909068445566,6.573229945051253],[-71.32894765807885,6.57199651028435],[-71.33210642362991,6.575919344863394],[-71.34175762647396,6.568056572706212],[-71.46495675714067,6.668912520201729],[-71.46180818962557,6.674507943759181],[-71.45962644755258,6.6729902114846595],[-71.46048017414245,6.668152435360128],[-71.45725498868819,6.668152435360128],[-71.45545268122646,6.671662193944655],[-71.45621154839222,6.674413086391894],[-71.44947660538185,6.676689685832173],[-71.43041007709922,6.677353694602175],[-71.42832319342199,6.688736695917214],[-71.42414942606746,6.6933847562787605],[-71.42576201776615,6.698412248166278],[-71.42158825041162,6.698507105533565],[-71.41494816682535,6.6927207475087584],[-71.40859265739783,6.691297871573056],[-71.40508289778484,6.690918439018617],[-71.3941741884484,6.6945230559989],[-71.38848268676242,6.6908235795945075],[-71.3843089204363,6.696609939676193],[-71.38023001044905,6.696515081280438],[-71.38089401921906,6.700404274476284],[-71.37823798516752,6.703250023262399],[-71.36989045148687,6.704198607219553],[-71.36590640092373,6.701542573167956],[-71.36220692349087,6.704388324010949],[-71.35253137329869,6.702206580909547],[-71.35072906378014,6.704957474385253],[-71.34427869698533,6.706095774105393],[-71.34162266293379,6.709795250509785],[-71.33536201190196,6.7073289332496415],[-71.33450828736898,6.715297034375908],[-71.33261112048314,6.718522217773284],[-71.32910136087014,6.718142785218845],[-71.32758362756715,6.713115292302916],[-71.32198698530533,6.719850235313288],[-71.32198698530533,6.722221693149265],[-71.31942580862108,6.723739427480666],[-71.31430345936627,6.720514243054822],[-71.31354459220057,6.724403436250668],[-71.3170543507851,6.726205743712342],[-71.31193200050183,6.730948662469643],[-71.30766337372313,6.729905220116791],[-71.30510219909576,6.734553278421458],[-71.3033947479729,6.730664087282491],[-71.294478063918,6.732276677952768],[-71.29267575542787,6.731422953419781],[-71.29191688826216,6.728102910598238],[-71.28679453797889,6.726964609849631],[-71.27465266949815,6.730284652671173],[-71.2716172018637,6.728672060972485],[-71.26583084281049,6.729905220116791],[-71.26241594159319,6.728861777763939],[-71.26165707545596,6.725446877575109],[-71.26013934215297,6.724782868805107],[-71.254922133474,6.729336068714076],[-71.25245581621385,6.724593152013654],[-71.2518866658396,6.712451282504446],[-71.24771289951349,6.7063803492925445],[-71.2424956898061,6.708182657782629],[-71.23737333849442,6.706475206659775],[-71.2316818378369,6.708941524948386],[-71.22523147001363,6.709415816926935],[-71.22380859510639,6.713684441648752],[-71.2211525610548,6.715391892771606],[-71.21612506813887,6.7132101496702035],[-71.21356389351143,6.70960553268992],[-71.20957984191989,6.71150269957576],[-71.20701866832093,6.710648975042773],[-71.20778019503899,6.708905176704434],[-71.20549915992615,6.7057447101094],[-71.2001126253856,6.702831582911699],[-71.19621013545645,6.698022176374025],[-71.16944234985732,6.7017597720004005],[-71.16537496562535,6.698544341323384],[-71.1633412740236,6.704562970005725],[-71.1604006647849,6.703051441296452],[-71.16020828946955,6.698791680720717],[-71.15506909432628,6.696510647664752],[-71.14940773526212,6.699808527550033],[-71.14572510268925,6.699451257931912],[-71.13984388729722,6.703711018507647],[-71.11920465854433,6.692855499189761],[-71.10279771244001,6.695521284933307],[-71.09713635337584,6.692553192625155],[-71.08938633657101,6.693899827031657],[-71.08372497750685,6.6899423719920605],[-71.0795476640825,6.690217195487264],[-71.07864074850244,6.686644494163659],[-71.07611237399232,6.686369670668512],[-71.0733366590564,6.68958510237394],[-71.06682334849415,6.691014182903359],[-71.06844480536733,6.69376241579829],[-71.06627370150375,6.6966205778855965],[-71.0634430224859,6.696785472188367],[-71.06294834060594,6.699836009591024],[-71.05605027632765,6.6980771414844185],[-71.04970185903977,6.698846645831111],[-71.0485476020055,6.701842219151786],[-71.03956088101506,6.6970602946551026],[-71.03084898351977,6.695961001702813],[-71.01925144292466,6.6884033632987325],[-71.01683299863538,6.691728724196537],[-71.00669202061067,6.688265951036897],[-71.00688439695443,6.692745569997385],[-71.00405371793659,6.694971637942956],[-71.00056346170749,6.691124113124204],[-71.0012780019722,6.687496445661793],[-70.9931981986187,6.686809388466486],[-70.99344554007291,6.683071790783231],[-70.9916866709379,6.6823022864365385],[-70.98610775902512,6.685242894646819],[-70.97951200131143,6.679911324188197],[-70.97431784311465,6.674332412275419],[-70.97393308939866,6.670402439276813],[-70.96612810851184,6.665015903707797],[-70.96321498337102,6.657348335082872]]]}}]}