{"type":"FeatureCollection","features":[{"type":"Feature","properties":{"code":"110151"},"geometry":{"type":"Polygon","coordinates":[[[-74.03464069634208,4.825605630836037],[-74.02405047817012,4.822021566251067],[-74.00575851725677,4.821835959115958],[-74.00382380399145,4.8191684764422575],[-74.00449360803503,4.8106426046582556],[-73.99910154870128,4.804346264614139],[-74.0079052799428,4.797007577508452],[-74.01294169048384,4.797121204980158],[-74.01534883013301,4.792094788843485],[-74.01595329310959,4.785204281560823],[-74.0409907611949,4.783251328867436],[-74.03517864171346,4.8232369775628285],[-74.03464069634208,4.825605630836037]]]}}]}