{"type":"FeatureCollection","features":[{"type":"Feature","properties":{"code":"110131"},"geometry":{"type":"Polygon","coordinates":[[[-74.02383405889714,4.747061284070298],[-74.00828366040054,4.746863631816382],[-74.00704285684299,4.7405611344869385],[-74.00816872886372,4.722430075462512],[-74.00484235186468,4.71761623428074],[-74.01001798884016,4.714161039713986],[-74.04111557503586,4.729483533291614],[-74.04989199495787,4.730084697024608],[-74.04661033875334,4.751444206808344],[-74.02383405889714,4.747061284070298]]]}}]}