{"type":"FeatureCollection","features":[{"type":"Feature","properties":{"code":"110211"},"geometry":{"type":"Polygon","coordinates":[[[-74.03232763655768,4.6775839508593435],[-74.0304539150759,4.675589054166267],[-74.02388951251777,4.675849237782245],[-74.01697560199716,4.672369440813554],[-74.01303361678993,4.66864294105352],[-74.01440095477278,4.666421772608146],[-74.01159580992572,4.66612966716491],[-74.01012269662988,4.662839536593992],[-74.02560926587,4.6564638336976145],[-74.02600074971389,4.662116005684766],[-74.03312468979408,4.662590935297715],[-74.03955411030012,4.667996447688097],[-74.03872827609979,4.673662034679467],[-74.03232763655768,4.6775839508593435]]]}}]}