{"type":"FeatureCollection","features":[{"type":"Feature","properties":{"code":"110221"},"geometry":{"type":"Polygon","coordinates":[[[-74.04847753579577,4.685095950069865],[-74.03300784226889,4.677727423732961],[-74.03527951238414,4.676838195307312],[-74.03604126124583,4.674302226777627],[-74.03872827609979,4.673662034679467],[-74.03955411030012,4.667996447688097],[-74.03312468979408,4.662590935297715],[-74.02600074971389,4.662116005684766],[-74.02560926587,4.6564638336976145],[-74.02891973080642,4.653628052576437],[-74.02809609644464,4.648438754798974],[-74.03479747211964,4.6442111484785755],[-74.03108821728375,4.642037802610332],[-74.03328584467988,4.636173414594737],[-74.0386353532329,4.646220771440085],[-74.04347415574307,4.645063146256575],[-74.0506215638531,4.652930145312553],[-74.06184562349068,4.659395651809689],[-74.05713381511958,4.68686669977285],[-74.04847753579577,4.685095950069865]],[[-74.04247170505215,4.680449231825776],[-74.04206130197969,4.680241640703343],[-74.04247169271082,4.6804492482808655],[-74.04247170505215,4.680449231825776]]]}}]}