{"type":"FeatureCollection","features":[{"type":"Feature","properties":{"code":"110431"},"geometry":{"type":"Polygon","coordinates":[[[-74.1018119642062,4.566481219172772],[-74.09981118173658,4.563579872784089],[-74.10093891009603,4.560313532145585],[-74.09191131777146,4.554093145666798],[-74.08803759749333,4.553542746884943],[-74.08656633333709,4.550036668067776],[-74.08449229902067,4.549326249800629],[-74.08190921239697,4.552007033321445],[-74.08291067166931,4.553243834180648],[-74.08099865304507,4.552442834810279],[-74.07561543728849,4.559900054029981],[-74.03810468306392,4.528383501949463],[-74.04242930956616,4.5104952767156306],[-74.05056584386591,4.5113600117542205],[-74.05592906258613,4.508283500007337],[-74.06139164222338,4.5117142186705905],[-74.06729238053981,4.509915964300831],[-74.06889587977821,4.511861252012125],[-74.07025418083663,4.511327273343568],[-74.07183724492216,4.5186353663411865],[-74.06861929558943,4.528663369955211],[-74.07378744756022,4.5292204474427535],[-74.07865224806886,4.526956724102831],[-74.07650794130353,4.531960897084673],[-74.08376781783056,4.535027251933286],[-74.08425219574491,4.538670053955798],[-74.10124602771475,4.548967147497933],[-74.10314194504292,4.54688100429928],[-74.10172628260307,4.555858740815893],[-74.10620493379918,4.563812846896326],[-74.1018119642062,4.566481219172772]]]}}]}