{"type":"FeatureCollection","features":[{"type":"Feature","properties":{"code":"110441"},"geometry":{"type":"Polygon","coordinates":[[[-74.10021402575649,4.54726411764949],[-74.09779487287028,4.547320772490934],[-74.088028630503,4.541492257578852],[-74.0837294445833,4.537886233689221],[-74.08376781783056,4.535027251933286],[-74.07834736011353,4.532202138846287],[-74.07924368376405,4.530004312960784],[-74.07964303622163,4.532024926887459],[-74.08170768908542,4.530100972159346],[-74.0798972754398,4.526616462867082],[-74.08284517016529,4.52748012421165],[-74.08714426352515,4.522157004465271],[-74.08693372385807,4.519898972526221],[-74.08184481132645,4.517757699666333],[-74.09102081819088,4.519589493603519],[-74.0898513186101,4.516679330377144],[-74.09456842551702,4.516422087078354],[-74.09384708210501,4.528385938329791],[-74.09573720004585,4.537945215896116],[-74.09695973846425,4.5398552629960705],[-74.09777079086024,4.538681478923706],[-74.09856352978034,4.542986751166268],[-74.10274756304807,4.5465478855967945],[-74.10124602771475,4.548967147497933],[-74.10021402575649,4.54726411764949]]]}}]}