{"type":"FeatureCollection","features":[{"type":"Feature","properties":{"code":"110541"},"geometry":{"type":"Polygon","coordinates":[[[-74.12123085437918,4.511134031051142],[-74.11301301552771,4.506930596215284],[-74.10463554182849,4.506122565383407],[-74.10994083558069,4.490714140291175],[-74.10559333034615,4.486780443302223],[-74.10607320882445,4.485097514362792],[-74.10446846208532,4.486234210741031],[-74.10371623351608,4.483509481871408],[-74.10268850370801,4.484627300158763],[-74.09900620126518,4.479723722225003],[-74.09103302888894,4.475196305369991],[-74.08738767530048,4.470045260512052],[-74.08291022943905,4.468103714274662],[-74.07655590580572,4.462886053080979],[-74.07683017908414,4.461714457534299],[-74.07956361886187,4.4616281958896025],[-74.0813455744746,4.458076240308515],[-74.08453139731989,4.456661797601441],[-74.08960028710413,4.459103758257413],[-74.09316900321295,4.455941691405826],[-74.09781579036263,4.4547651511075514],[-74.10101113555726,4.458206478155319],[-74.10077106827703,4.462360527181431],[-74.10635287834083,4.465151991686071],[-74.10740936751546,4.464113127959308],[-74.1114790801413,4.466357498067907],[-74.11309202356733,4.46539864614067],[-74.1187195622993,4.469037455749344],[-74.12397764642611,4.4688462014363495],[-74.12334723070256,4.46564864611878],[-74.12488624042436,4.4693093954917344],[-74.12892172134099,4.465682074614392],[-74.12879143721426,4.463722834023486],[-74.12958203594542,4.462947264951254],[-74.13341054691892,4.4711310746967],[-74.13028076390646,4.476289376245063],[-74.12838594392645,4.475209435495628],[-74.12453779998526,4.478976661579395],[-74.12128151545767,4.485514948896707],[-74.12040976644107,4.490925772164246],[-74.12310131775502,4.491506322823852],[-74.1213249794954,4.492857754914667],[-74.12182289994081,4.497442577374159],[-74.12282554706428,4.499771402153954],[-74.12699780980745,4.502093237638405],[-74.12046819740277,4.506322819596903],[-74.12123085437918,4.511134031051142]]]}}]}