{"type":"FeatureCollection","features":[{"type":"Feature","properties":{"code":"110561"},"geometry":{"type":"Polygon","coordinates":[[[-74.10038535810946,4.342126666776608],[-74.10522633988933,4.336635326744272],[-74.10424543712605,4.332681692368624],[-74.10690102483352,4.324895545349705],[-74.11099169506099,4.323673664106082],[-74.11427949209582,4.317993071109925],[-74.11475105767329,4.313204427798269],[-74.12434795978072,4.306507796328617],[-74.13743283497485,4.304095804487645],[-74.14893686032019,4.296384086882256],[-74.14987222262033,4.301663860861822],[-74.15575773278835,4.310053934010341],[-74.16095781070027,4.330512949809076],[-74.1592635997464,4.36778632613067],[-74.15704820703422,4.37269994166337],[-74.15657211219587,4.381628175127787],[-74.15372864758064,4.3869221518985455],[-74.14268832639812,4.3876493029254675],[-74.14125262064198,4.391478714814582],[-74.14083192080307,4.388688405250889],[-74.13319256338485,4.379881179361689],[-74.10841665600003,4.37733650609448],[-74.10648922307928,4.3746771861690945],[-74.1009191588575,4.372490610416264],[-74.09574149893558,4.365850805537946],[-74.10306447143955,4.353385993765016],[-74.10610758245878,4.34456530144945],[-74.10038535810946,4.342126666776608]]]}}]}