{"type":"FeatureCollection","features":[{"type":"Feature","properties":{"code":"110811"},"geometry":{"type":"Polygon","coordinates":[[[-74.15707715254888,4.661520021188323],[-74.15112816382327,4.664163760209533],[-74.1447974820266,4.6612185178373124],[-74.14126464210659,4.66298710164034],[-74.13711080082584,4.65807566640575],[-74.15646418023886,4.640446585032464],[-74.17087630678333,4.656726801307457],[-74.16721694889316,4.65665787508982],[-74.16620845815925,4.659863313419294],[-74.1633463756491,4.659044261797419],[-74.16228769794878,4.663356480140692],[-74.15707715254888,4.661520021188323]]]}}]}