{"type":"FeatureCollection","features":[{"type":"Feature","properties":{"code":"110861"},"geometry":{"type":"Polygon","coordinates":[[[-74.17102015915219,4.62813996623089],[-74.16113689750983,4.611899399500317],[-74.16151248883142,4.6058219377353],[-74.16905517059598,4.603158107061006],[-74.1747014537213,4.603035016889692],[-74.17866826347404,4.604969871051651],[-74.17747234629024,4.609533770876567],[-74.18191894813214,4.613917571904494],[-74.1796466959184,4.616780822725389],[-74.18191921244187,4.614659578783574],[-74.18275544933823,4.617093926907955],[-74.18513361981854,4.615753512521849],[-74.18520768310651,4.618829947135566],[-74.18015337972253,4.618415364472753],[-74.17718839948151,4.6223060787350505],[-74.17699467073578,4.625792806377831],[-74.17102015915219,4.62813996623089]]]}}]}