{"type":"FeatureCollection","features":[{"type":"Feature","properties":{"code":"111156"},"geometry":{"type":"Polygon","coordinates":[[[-74.06816794919189,4.7622385420238516],[-74.05738647362159,4.753735801968958],[-74.04659953393622,4.751556027306492],[-74.05100959624389,4.723371622815932],[-74.07392789886967,4.731543869782115],[-74.08569917734485,4.73804934566931],[-74.08455181704613,4.746413560687586],[-74.0788533744016,4.757512764318051],[-74.07164784180571,4.761991341466285],[-74.06816794919189,4.7622385420238516]]]}}]}