{"type":"FeatureCollection","features":[{"type":"Feature","properties":{"code":"111511"},"geometry":{"type":"Polygon","coordinates":[[[-74.10886517109532,4.598246448654379],[-74.10293140434737,4.594955221763712],[-74.0888601561042,4.591836015254103],[-74.08353273952497,4.588328344407898],[-74.0862448072387,4.5871910731302705],[-74.09455656448944,4.575753839984316],[-74.10295699816794,4.581486535935369],[-74.10896658169827,4.589228487693958],[-74.12302696856005,4.588903616072059],[-74.12907994208024,4.592855083519282],[-74.11556176862638,4.595411561249705],[-74.10886517109532,4.598246448654379]]]}}]}