{"type":"FeatureCollection","features":[{"type":"Feature","properties":{"code":"111841"},"geometry":{"type":"Polygon","coordinates":[[[-74.12072004034991,4.554910369746381],[-74.11528973735261,4.549854711903549],[-74.11142110272272,4.55152789326479],[-74.11134177895127,4.553242071430191],[-74.10608594505663,4.552841415935973],[-74.10560101898244,4.549887775302125],[-74.1027650373149,4.549437198179589],[-74.10226136890424,4.545919620346581],[-74.10345260770299,4.544744437592385],[-74.09816216466072,4.535080567421858],[-74.1002230678231,4.537017900130309],[-74.10510277046382,4.537570098686558],[-74.10620871435384,4.539881838979227],[-74.10993453637025,4.539868828152919],[-74.11213208560474,4.54152800624081],[-74.11547447442535,4.540261484421251],[-74.1183646354732,4.541937764479769],[-74.12111952136274,4.545376755934626],[-74.12072004034991,4.554910369746381]]]}}]}