{"type":"FeatureCollection","features":[{"type":"Feature","properties":{"code":"111931"},"geometry":{"type":"Polygon","coordinates":[[[-74.16263131910625,4.5843550019882855],[-74.16049128757646,4.580012040412782],[-74.15744150607907,4.580438451193004],[-74.15387960237354,4.574396779227584],[-74.1577395075833,4.57195044357718],[-74.1589466111364,4.568606098658904],[-74.17841643595358,4.564954058137232],[-74.17990728988292,4.5701433322605],[-74.17575802825667,4.571860126783633],[-74.17531698376786,4.57508627074634],[-74.1779028142762,4.5776712826144035],[-74.16263131910625,4.5843550019882855]]]}}]}