{"type":"FeatureCollection","features":[{"type":"Feature","properties":{"code":"111981"},"geometry":{"type":"Polygon","coordinates":[[[-74.14033469661325,4.457312859308615],[-74.14453164300528,4.445256608667535],[-74.1425527499062,4.433920982557083],[-74.1447297200059,4.425505843179053],[-74.14370962535514,4.419936528691835],[-74.14501225990534,4.415041011690505],[-74.14327416222386,4.408095091924963],[-74.14429218867673,4.40294863083534],[-74.14109391344942,4.391971734731385],[-74.14268832639812,4.3876493029254675],[-74.15118011971089,4.387108639380472],[-74.15856243231974,4.390043670346984],[-74.16266537392335,4.389486450934328],[-74.16778557064794,4.385066778859823],[-74.1766295900967,4.3885243275314565],[-74.18152589282812,4.3835385657275765],[-74.19507514478647,4.387014119342382],[-74.2109161472003,4.386781857940832],[-74.21295356587774,4.396042509738322],[-74.20776990910753,4.405146567792656],[-74.2081750650662,4.407776597675081],[-74.20407030003406,4.4143311035309125],[-74.20341349550387,4.4192642296466715],[-74.19883479124888,4.42630566601116],[-74.19422804239491,4.42666060517854],[-74.19473553146952,4.434670642076924],[-74.19089298842636,4.442600221860175],[-74.19050433382785,4.447115141081667],[-74.18620524972397,4.452632425633453],[-74.18643888718157,4.4583564065625865],[-74.18339629038366,4.464971629607817],[-74.18513377305646,4.464895535145843],[-74.18519209500329,4.466227203656786],[-74.18396734851882,4.467422788653664],[-74.180331153211,4.46612549994768],[-74.17910250687248,4.469835530229204],[-74.17469383399072,4.471738726873525],[-74.17151380847582,4.468100970389969],[-74.16671967945183,4.4685386251322825],[-74.14319605407144,4.461423718891126],[-74.14033469661325,4.457312859308615]]]}}]}