{"type":"FeatureCollection","features":[{"type":"Feature","properties":{"code":"111971"},"geometry":{"type":"Polygon","coordinates":[[[-74.1588023083097,4.525252288373451],[-74.15846691469238,4.523140408400764],[-74.15319801854935,4.518877417487033],[-74.15496894822974,4.518181695663543],[-74.15374383767664,4.514885540476371],[-74.15751595400457,4.512208960200155],[-74.16147411764103,4.499441299873411],[-74.1557113613436,4.505763254306885],[-74.156027377047,4.499638498584147],[-74.14984248109113,4.500058838468192],[-74.15021780501769,4.501249595955869],[-74.14470646897746,4.50275408086236],[-74.14141884986321,4.50660573487778],[-74.12744784596919,4.511416917535712],[-74.12670709173312,4.506142780449579],[-74.12838456889875,4.504245835707309],[-74.12681443850636,4.501248859591044],[-74.12277531587478,4.499720869630835],[-74.12162222200902,4.496754281934102],[-74.12133378810557,4.4928241567259875],[-74.12309685534296,4.491468349640684],[-74.12038867822724,4.490756689015029],[-74.12256402750154,4.4823083165454705],[-74.1283443958771,4.475235912748303],[-74.13029474352561,4.476275247501746],[-74.13815131828818,4.465859504603088],[-74.13763480771581,4.463615515018205],[-74.14033469661325,4.457312859308615],[-74.14319605407144,4.461423718891126],[-74.16671967945183,4.4685386251322825],[-74.17151380847582,4.468100970389969],[-74.17469383399072,4.471738726873525],[-74.17910250687248,4.469835530229204],[-74.180331153211,4.46612549994768],[-74.1841423123023,4.467772716220622],[-74.18256630641775,4.479922404978311],[-74.17802137415822,4.486327707478836],[-74.17876564052551,4.496433180582471],[-74.18151962035722,4.50402909556027],[-74.17377600560707,4.507343326653142],[-74.1696664079235,4.506525964762261],[-74.16861049981884,4.513334415701706],[-74.16981309570838,4.5138895021245276],[-74.1588023083097,4.525252288373451]]]}}]}