{"type":"FeatureCollection","features":[{"type":"Feature","properties":{"code":"112031"},"geometry":{"type":"Polygon","coordinates":[[[-74.30629384365147,4.110652023760508],[-74.2955496244399,4.103961370627246],[-74.28014934152708,4.101813482825094],[-74.27334317373004,4.098880681521962],[-74.26652354773421,4.0922182303394266],[-74.26104453050016,4.090497894888699],[-74.25722045725615,4.092830237970304],[-74.25189845851213,4.101834840490881],[-74.24625307835936,4.102200152529463],[-74.24793235735626,4.093162015583744],[-74.24602915556972,4.081476306611535],[-74.2537721275433,4.057632150665086],[-74.24707114576177,4.054001101683696],[-74.24251659550777,4.053828051831715],[-74.24130707202943,4.045374122687178],[-74.23794449076843,4.047259826552704],[-74.23293952897114,4.043489496629434],[-74.23312981449129,4.033174013506596],[-74.23512132863692,4.024690033271668],[-74.22861610471818,4.019689795110878],[-74.2148367788555,4.013267648778765],[-74.2174839168793,4.010446980620372],[-74.21813820892436,4.006731349440884],[-74.22942963771754,3.9934919888107174],[-74.23303906780876,3.9837430520457247],[-74.23290587113286,3.9789924467090714],[-74.23860611869401,3.9712680412083046],[-74.24577735067498,3.9528919763226327],[-74.25201336125252,3.949197769657701],[-74.26178187442088,3.949172458658836],[-74.25821706536516,3.9428181185704716],[-74.25668506550755,3.9314793176579883],[-74.2627755977486,3.934788585487297],[-74.26446698974149,3.9342231539611134],[-74.26519188539396,3.93642147555596],[-74.27271942334244,3.939075644012803],[-74.2743799054955,3.938078811703349],[-74.2768953751089,3.9401604163851403],[-74.28270345281123,3.9369973005221937],[-74.29148854764588,3.936342879921824],[-74.30385644619497,3.9389265630421733],[-74.32970797487064,3.9596353751874176],[-74.33076311678559,3.9631816650786504],[-74.33766132813116,3.9713093280332146],[-74.34027707294706,3.9800990025224223],[-74.34588574798636,3.9888969189499335],[-74.35441204451712,3.9886243446585468],[-74.36583080169322,3.981385701355748],[-74.37438029783038,3.985584332336657],[-74.3629119244734,4.0091655957495504],[-74.36483700328921,4.032853335873256],[-74.3666195019195,4.0359535110540605],[-74.36165956739262,4.047879258510193],[-74.35529133407425,4.051703358493683],[-74.35113586785434,4.057415495878786],[-74.35094696147559,4.074938717606699],[-74.34519156265594,4.088114056661652],[-74.34505863337506,4.093902532249615],[-74.34204847776795,4.098694608502399],[-74.34304469095503,4.101104412846098],[-74.33959641369268,4.103013250497668],[-74.33085949213404,4.119398830708633],[-74.330064615082,4.130645644636957],[-74.3191849746733,4.125478706228307],[-74.30629384365147,4.110652023760508]]]}}]}