{"type":"FeatureCollection","features":[{"type":"Feature","properties":{"code":"630007"},"geometry":{"type":"Polygon","coordinates":[[[-75.68559272814707,4.5507265627359175],[-75.68135919285555,4.54926343973068],[-75.68438266987863,4.549324576524668],[-75.68495106229079,4.550047833868177],[-75.68650312294818,4.549254209459093],[-75.69085729866089,4.544398182593625],[-75.69678650735153,4.544495087589951],[-75.69947948305838,4.542570074594494],[-75.70524080673539,4.541839969880698],[-75.70641435735126,4.5404128361929565],[-75.70356038925257,4.539032811343191],[-75.70473344415916,4.536811664495133],[-75.70312801453417,4.536638277314012],[-75.7032778987184,4.534827255858829],[-75.71029028261017,4.531710946471833],[-75.70799269162967,4.534225526482487],[-75.7123768412996,4.534398923948004],[-75.71415465845962,4.532977664723944],[-75.71020302749002,4.53133212892601],[-75.71685501529839,4.531169657633825],[-75.71700443154128,4.5235978277513595],[-75.71283553591894,4.522487426591454],[-75.71929875927367,4.522973207301391],[-75.71900576731298,4.519406042083858],[-75.71354294907701,4.51934677294156],[-75.71586479587432,4.516589004327557],[-75.71519903155297,4.515321734830252],[-75.71387048025127,4.5163384911566595],[-75.71340135619636,4.51255532215697],[-75.71030900952002,4.509676776338949],[-75.70581915858486,4.508950994169027],[-75.71765365850695,4.500786101595338],[-75.72577205005223,4.500060661896782],[-75.74252754972434,4.488753774584097],[-75.74788151451878,4.490023909322247],[-75.7587305669901,4.487723364654869],[-75.77582134200861,4.487250516609549],[-75.78117771952918,4.484672623620611],[-75.78191000968337,4.4827060111536525],[-75.78477075727517,4.4829665752933465],[-75.79250744237959,4.478646994330063],[-75.7970091594845,4.478720595847335],[-75.79623075293938,4.481412682979851],[-75.79013506203069,4.481664828289013],[-75.78494696444562,4.4839418329356135],[-75.78653420092252,4.488717553867048],[-75.78930347472289,4.487882296047928],[-75.78952393680345,4.489008282225768],[-75.78735712874425,4.490633621469499],[-75.7857098260821,4.489812667228932],[-75.78700701400072,4.492578993513064],[-75.78258139855689,4.497200997254993],[-75.78299406008904,4.50133546062176],[-75.78064379845341,4.503253855589662],[-75.78139891386081,4.50528985604484],[-75.77988066222281,4.506968470667914],[-75.78072685341431,4.508470387553416],[-75.77819435999191,4.510224265656916],[-75.7746463957962,4.519528793897621],[-75.7720674949336,4.521437581155453],[-75.77131184473603,4.5283933019782125],[-75.76523883304179,4.537906563940965],[-75.75760161581246,4.539560492858243],[-75.75602270149244,4.537935962998802],[-75.75090267548933,4.539447797155503],[-75.75079644149088,4.540993200704463],[-75.74822405581159,4.539184519984474],[-75.74679797319209,4.5401256395057885],[-75.74539403499693,4.538200119488181],[-75.7446076240837,4.539452191690373],[-75.74082380099458,4.538894815954507],[-75.73934423627878,4.54083434747298],[-75.73450627811991,4.538444948457311],[-75.73486479318194,4.540627697375498],[-75.73232407221934,4.540854423699386],[-75.73063832329052,4.543728284961787],[-75.727707998477,4.5414745786519575],[-75.72738087250906,4.544184889785868],[-75.72662498165602,4.542034669476095],[-75.72260473814379,4.5449901366238805],[-75.71994184335222,4.542487758055245],[-75.7152038199813,4.545724477492399],[-75.71322758232088,4.543892825480327],[-75.71195316823338,4.547466861722285],[-75.71052637084637,4.5473768719734835],[-75.71013721539634,4.545314496081403],[-75.70842797684043,4.548807037509732],[-75.70768068479526,4.546206493074294],[-75.70424693222662,4.546900689717518],[-75.70423238799248,4.549956634670934],[-75.70294265319683,4.5487335491211525],[-75.69987515369172,4.551838193913113],[-75.69600730170657,4.551781360122675],[-75.69465657101358,4.553236936416681],[-75.69281058868341,4.550993062017369],[-75.6897125434071,4.552043499836259],[-75.68801953058875,4.550219032523614],[-75.68559272814707,4.5507265627359175]]]}}]}