{"type":"FeatureCollection","features":[{"type":"Feature","properties":{"code":"631028"},"geometry":{"type":"Polygon","coordinates":[[[-75.60323947355073,4.648637411841207],[-75.59994337698481,4.64445259387179],[-75.59258922004676,4.643902353470139],[-75.59061506395398,4.638723242415836],[-75.57303399850503,4.641077391564181],[-75.57347228265411,4.6367724813334235],[-75.57566061292988,4.63561997985056],[-75.57451082653529,4.633428194007934],[-75.57132347131056,4.632571544584437],[-75.567875216674,4.634629804649535],[-75.56608872048758,4.6398906696849735],[-75.56235784984688,4.641579358930983],[-75.54567959752075,4.638912475839277],[-75.53928946043362,4.641067618274974],[-75.52418823832085,4.639815256051975],[-75.50437835898481,4.634134627060291],[-75.48709789082903,4.637613895409459],[-75.48191618398579,4.642710244608963],[-75.47807033861369,4.643968356854089],[-75.47709491230682,4.637867619377971],[-75.46115579030607,4.632813841528105],[-75.43060610686217,4.602072368981112],[-75.45827738332775,4.602577562572037],[-75.46934678475088,4.598343172644775],[-75.47476726097989,4.585428497488408],[-75.48472222974846,4.581915422176735],[-75.49885647832343,4.563427687973956],[-75.51462591964992,4.555015415893649],[-75.51860747623994,4.546958782321667],[-75.52384175809317,4.541480653661949],[-75.5221332096221,4.52712418642659],[-75.52791442440588,4.515307768580897],[-75.5250457506076,4.506677225002591],[-75.52496610801893,4.497982909760651],[-75.53388179859843,4.494954192822945],[-75.53766566488213,4.491856009735272],[-75.54270831601241,4.486774928793409],[-75.54697416393941,4.4781098408594175],[-75.55561375575496,4.472059851879351],[-75.55833848256765,4.474297437352675],[-75.560321708495,4.473970234251567],[-75.56744022868315,4.480866388712059],[-75.56760780207873,4.487173759830625],[-75.56611259886597,4.486364344715128],[-75.56463985786633,4.490257975640418],[-75.5672271600759,4.491586106309114],[-75.5645327291229,4.495746100761437],[-75.56915696252821,4.495984693255139],[-75.5711098504297,4.501200207060776],[-75.56730987873613,4.499896608859956],[-75.5693773125085,4.503021373072954],[-75.57485645829786,4.504222634044083],[-75.57898445996034,4.515580283222619],[-75.58702543652339,4.517662020573482],[-75.58562175029664,4.518409605724798],[-75.588795111504,4.520480520775095],[-75.58952754666853,4.525642518545851],[-75.59261027329353,4.529589944213967],[-75.59513513053031,4.529501021988494],[-75.5969052014612,4.531662944945708],[-75.59801162049172,4.537388574468196],[-75.60108686622584,4.542555190974326],[-75.60997513030026,4.541541434614771],[-75.61343200945578,4.543424552975807],[-75.60910568293804,4.557728657060295],[-75.61170707172477,4.566091236855016],[-75.61686493515663,4.569007982113476],[-75.63253670324025,4.570360109431476],[-75.6368462270641,4.565743302409601],[-75.63929532922492,4.565739107392574],[-75.63873917733565,4.563963428364559],[-75.6410586957391,4.563140292797414],[-75.64220322473557,4.559978407980168],[-75.64239409749638,4.554771647248799],[-75.6469939465295,4.549618024085419],[-75.64868231592988,4.548994034070688],[-75.65047134208487,4.552687600015986],[-75.64193121094536,4.566404540555482],[-75.64172060545792,4.567714061556785],[-75.6466978671844,4.566238184835868],[-75.64400877590492,4.568220988073335],[-75.64381022787762,4.571766588908076],[-75.64207523506411,4.573091543746273],[-75.64352903626633,4.5739552595983355],[-75.64306257382066,4.576349421331372],[-75.64069586121849,4.579553405443107],[-75.64257659050753,4.57847517396516],[-75.64213984387999,4.580513989267558],[-75.64499132623314,4.58159540583199],[-75.64298865348621,4.582857445699062],[-75.64071170951769,4.596817562500576],[-75.63476925448742,4.604017180523499],[-75.63565982914429,4.607505842666683],[-75.63189193457288,4.609644097047749],[-75.63118874625667,4.6153970790275025],[-75.6263157542034,4.623316414494809],[-75.6190239033985,4.625834641362644],[-75.61327195808883,4.625472532922458],[-75.60836451732496,4.635827600797825],[-75.61085361664374,4.639369808800723],[-75.61016026538022,4.642413233494892],[-75.60323947355073,4.648637411841207]]]}}]}