{"type":"FeatureCollection","features":[{"type":"Feature","properties":{"code":"631007"},"geometry":{"type":"Polygon","coordinates":[[[-75.64180164672837,4.613231807461432],[-75.63672259901739,4.6115631368490995],[-75.63662036257506,4.606972214697009],[-75.63476925448742,4.604017180523499],[-75.64090658806214,4.596333504431811],[-75.64298865348621,4.582857445699062],[-75.64557660052924,4.581723281346285],[-75.64680660235501,4.575937690539661],[-75.6527292279851,4.5683494775678355],[-75.65803005623991,4.564739760541158],[-75.66317652350023,4.557806550268253],[-75.66821022512369,4.557757702333959],[-75.66997665022586,4.553910357492612],[-75.67348975639084,4.551590925478365],[-75.67945397429321,4.55154069943103],[-75.68134297740238,4.549501244437408],[-75.68801953058875,4.550219032523614],[-75.6897125434071,4.552043499836259],[-75.69281058868341,4.550993062017369],[-75.69484791685795,4.553208819826693],[-75.69600730170657,4.551781360122675],[-75.69987515369172,4.551838193913113],[-75.70294265319683,4.5487335491211525],[-75.70423238799248,4.549956634670934],[-75.70424693222662,4.546900689717518],[-75.70768068479526,4.546206493074294],[-75.70842797684043,4.548807037509732],[-75.71013721539634,4.545314496081403],[-75.71052637084637,4.5473768719734835],[-75.71195316823338,4.547466861722285],[-75.71322758232088,4.543892825480327],[-75.7152038199813,4.545724477492399],[-75.71994184335222,4.542487758055245],[-75.72260473814379,4.5449901366238805],[-75.72662498165602,4.542034669476095],[-75.72738087250906,4.544184889785868],[-75.727707998477,4.5414745786519575],[-75.73063832329052,4.543728284961787],[-75.73232407221934,4.540854423699386],[-75.73486479318194,4.540627697375498],[-75.73407901990305,4.538708640090647],[-75.7356891680223,4.539472155816554],[-75.7355597817259,4.538282079157796],[-75.73719972691026,4.540268096278169],[-75.7408624889452,4.540064773192228],[-75.73802363689464,4.543105699799526],[-75.73267585818195,4.544284626084448],[-75.73061511751354,4.546642979505862],[-75.7272200199854,4.54549201348766],[-75.72015557530489,4.549867402884274],[-75.7207501816884,4.552151886364868],[-75.72320714320693,4.550466637259092],[-75.72051360802737,4.553338299711356],[-75.72120042251021,4.554572855480558],[-75.72511495550128,4.552890493212942],[-75.72420675333962,4.564965818377402],[-75.72055869906114,4.568246447167894],[-75.71891936682852,4.567056431187268],[-75.71718675177414,4.567920829925129],[-75.71959735521767,4.569842971509104],[-75.72790692702807,4.571714269980305],[-75.73367451906222,4.580670268307358],[-75.73490335257725,4.582784903477545],[-75.73281983910613,4.5828575135763],[-75.73205674504169,4.58618690391188],[-75.73092075417497,4.585518350454379],[-75.73100399939779,4.591608991710302],[-75.72854002287283,4.58855938813349],[-75.72487130924105,4.591195494054375],[-75.72175122238463,4.590508337100175],[-75.7207569467833,4.5922377290157215],[-75.71530950170609,4.591614092785221],[-75.71319982054354,4.598264055590278],[-75.71211092720199,4.597021359698488],[-75.7035013638511,4.605773181332381],[-75.69951403461323,4.606292435789385],[-75.69984715125884,4.607450443553546],[-75.69747816374178,4.60656203891034],[-75.6971982144891,4.6097400887871345],[-75.68977562498583,4.617938291585631],[-75.68284482024,4.611055139723874],[-75.67259353661296,4.610631509852169],[-75.66716320173396,4.6120327288453495],[-75.65589082998065,4.619675263122531],[-75.64905368035278,4.620871784002077],[-75.6449009096807,4.619236631359854],[-75.64456797712631,4.6158099699023865],[-75.64180164672837,4.613231807461432]]]}}]}