{"type":"FeatureCollection","features":[{"type":"Feature","properties":{"code":"632001"},"geometry":{"type":"Polygon","coordinates":[[[-75.63385755150745,4.521207294363535],[-75.63775756186169,4.518669666956043],[-75.64265726462406,4.512152370150602],[-75.64228648847029,4.51461164052256],[-75.64389830472334,4.512626501692125],[-75.64537298022339,4.513402396780634],[-75.64587714845715,4.507808588906414],[-75.6507731981917,4.5065938491675865],[-75.65245550080965,4.508135119406063],[-75.65401557406267,4.504562837687047],[-75.6558787540086,4.505329232023541],[-75.65511760061514,4.507024996954101],[-75.66208323356693,4.503485242815032],[-75.66277949532275,4.504979387760443],[-75.659821513633,4.505570876934655],[-75.65635862425938,4.511557297882632],[-75.6585958127539,4.513421200823643],[-75.65776227243379,4.517030610346012],[-75.65372273431143,4.521894774248722],[-75.6498335863671,4.522910391060805],[-75.65024246734458,4.525158287698787],[-75.6472900968372,4.52968957149767],[-75.64854037749257,4.531759477645835],[-75.65080796263413,4.531953736039441],[-75.64893462270459,4.535747523708153],[-75.65173471584194,4.536521541889044],[-75.65065866363369,4.5408418293923205],[-75.64700878901198,4.540427687931356],[-75.64593700381175,4.538626538495919],[-75.64752869241624,4.537151648051406],[-75.6457388939009,4.534022489303538],[-75.64333381216522,4.534498975978465],[-75.6418133761153,4.536936873258014],[-75.64217899154448,4.540539658582134],[-75.64036617751401,4.541553536297897],[-75.63709006358624,4.541231768515502],[-75.63568552478063,4.537971609844931],[-75.63703758010757,4.537052724222406],[-75.6350535139427,4.536433461957984],[-75.63802813274702,4.533254443288342],[-75.63205030237947,4.532512527940639],[-75.63229231650138,4.531456894430164],[-75.63031461125348,4.532780150281326],[-75.62764789991166,4.532914388769541],[-75.63366974350532,4.530171516117036],[-75.63183080703487,4.529104993457167],[-75.63235308408451,4.528048366471182],[-75.62887596620862,4.5280469677894075],[-75.63385755150745,4.521207294363535]]]}}]}