{"type":"FeatureCollection","features":[{"type":"Feature","properties":{"code":"632067"},"geometry":{"type":"Polygon","coordinates":[[[-75.59296992067078,4.360040654495492],[-75.59460230474576,4.353738400906877],[-75.59376359135979,4.34520617026277],[-75.59867703822795,4.3331526635063256],[-75.59568594377447,4.325219351505211],[-75.5957395523692,4.3167714253796134],[-75.59785319303546,4.312922258138201],[-75.59745570925799,4.307178133105424],[-75.6011792460751,4.301386176239532],[-75.60380339120951,4.290181470861739],[-75.60266726561684,4.287437841275562],[-75.59650968509425,4.282979796982204],[-75.59712052441449,4.279627070257391],[-75.60607057320158,4.273122388327863],[-75.6155921398377,4.272029289684895],[-75.61890301306573,4.2700524154184905],[-75.62120683229415,4.262498003238534],[-75.63005773510866,4.25523395946243],[-75.62930298171307,4.2459311888300135],[-75.63892767233733,4.231567192366981],[-75.65779789871107,4.221265571620904],[-75.66247741707235,4.22422677027879],[-75.66359724390799,4.227803651192744],[-75.66864427311805,4.230418215356622],[-75.67105154235094,4.235557999797436],[-75.68990482924795,4.241218981423231],[-75.69962493876915,4.2410489253674655],[-75.7099102988106,4.236189969497673],[-75.71242811841518,4.233276740484143],[-75.72653887633459,4.23061350013586],[-75.73348539362524,4.232511646098999],[-75.73938380149087,4.239021506236611],[-75.75610760147924,4.246747325845831],[-75.75656563686692,4.249592580979538],[-75.75139263373279,4.263041945458269],[-75.74869836733058,4.265742675621652],[-75.74543339554901,4.27390271600359],[-75.7445329972092,4.27964636178217],[-75.74567756117273,4.283760180193838],[-75.74978224598641,4.283685673647142],[-75.75235399505976,4.285964739292581],[-75.75661014991601,4.286446924567429],[-75.76317998882132,4.292389915416322],[-75.7719542479856,4.292937122940998],[-75.77607450341901,4.299660500086816],[-75.77911861716967,4.299436771672845],[-75.78238402912467,4.3035903054492906],[-75.7858624500372,4.304553672239194],[-75.79157020008654,4.309880150878882],[-75.79491933857537,4.309804153090511],[-75.79720785560755,4.313248659054125],[-75.79581909105332,4.3196665116386725],[-75.79701730989143,4.3227808690418215],[-75.79214157806729,4.331389690885658],[-75.79223306728534,4.3378738738989],[-75.78049149434395,4.349269057115578],[-75.77817888501733,4.349265239536976],[-75.77495963161948,4.3437224177290545],[-75.77199179025132,4.344670861818031],[-75.76907696612346,4.342630009170989],[-75.76601796155359,4.34408880140478],[-75.7635770303686,4.338491055624161],[-75.74777511802642,4.33390704460578],[-75.73641448842153,4.340474307262582],[-75.72140021083925,4.341529173554932],[-75.71624180644659,4.34459234845923],[-75.71353323646588,4.348394827495667],[-75.71064158109107,4.348727647949829],[-75.71639450856333,4.359789655899704],[-75.71529544803906,4.366884083793366],[-75.7162804347476,4.377007850832513],[-75.70979556062099,4.372710725911645],[-75.70875736949563,4.368402846567335],[-75.7061406054932,4.365476890577668],[-75.70289032501302,4.368681116373409],[-75.69851754683202,4.36789226702291],[-75.69526825571353,4.370003800410473],[-75.69249919685763,4.369823328288874],[-75.69078914994583,4.362907759918926],[-75.68697456511251,4.35752437858315],[-75.67268418559343,4.360313625765684],[-75.65636437325304,4.360603459379433],[-75.6544489515125,4.358423242486708],[-75.64749843358044,4.361482496968108],[-75.6434395206295,4.365218749448559],[-75.63199470683378,4.3810057699430445],[-75.61560703785602,4.3801412930434935],[-75.60549035472894,4.3728893704908955],[-75.60170506610922,4.366769658250291],[-75.59296992067078,4.360040654495492]],[[-75.70257712621373,4.339607092649089],[-75.7007801635678,4.3465491495845185],[-75.70160131629774,4.34572402706641],[-75.70298739661706,4.338732580207477],[-75.70543899892158,4.334603800014008],[-75.70716318486114,4.334254928657458],[-75.7055178928041,4.330162753818627],[-75.70745410348172,4.3264997233602],[-75.70638744301056,4.326163845346457],[-75.69754171223343,4.336411030630018],[-75.69870975039743,4.337939930761877],[-75.7011739655211,4.3361589192594465],[-75.70257712621373,4.339607092649089]]]}}]}