{"type":"FeatureCollection","features":[{"type":"Feature","properties":{"code":"632027"},"geometry":{"type":"Polygon","coordinates":[[[-75.58231850605523,4.424594495011718],[-75.5796632114538,4.4188136597232415],[-75.58076228534782,4.411913247510711],[-75.57902238686353,4.407718411482733],[-75.58250195140414,4.389228339630108],[-75.58963588588875,4.375770176825597],[-75.58933711510952,4.366808794601923],[-75.59285539948257,4.359968086562901],[-75.60170506610922,4.366769658250291],[-75.60549035472894,4.3728893704908955],[-75.61560703785602,4.3801412930434935],[-75.63199470683378,4.3810057699430445],[-75.6434395206295,4.365218749448559],[-75.65087822171324,4.359504759838501],[-75.6544489515125,4.358423242486708],[-75.65636437325304,4.360603459379433],[-75.67268418559343,4.360313625765684],[-75.68697456511251,4.35752437858315],[-75.69078914994583,4.362907759918926],[-75.69249919685763,4.369823328288874],[-75.69526825571353,4.370003800410473],[-75.69851754683202,4.36789226702291],[-75.70289032501302,4.368681116373409],[-75.7061406054932,4.365476890577668],[-75.70875736949563,4.368402846567335],[-75.70979556062099,4.372710725911645],[-75.71788976319817,4.378365330165366],[-75.72088009351893,4.384528771781845],[-75.72299401392155,4.401167997799689],[-75.72783142083523,4.405580957229915],[-75.72439761581603,4.405698176022895],[-75.72450440928719,4.408954385474203],[-75.72184235061934,4.408587968888298],[-75.72007949215578,4.411434214412111],[-75.71579923677751,4.41187868772829],[-75.70980998555575,4.421813847665476],[-75.70374409993968,4.419125490694],[-75.69312418651845,4.423824982437509],[-75.68603627997874,4.421486714498485],[-75.67285216522379,4.420405016140819],[-75.66196423453994,4.423131810122982],[-75.6507491120679,4.419165772730594],[-75.64057047556349,4.419568663030418],[-75.63606933850014,4.425687350942269],[-75.63014048050843,4.422295164934894],[-75.6255013902225,4.427638393817915],[-75.61855895584864,4.427344390898213],[-75.61689554057756,4.431707347453141],[-75.61268466598847,4.434586273794878],[-75.60159829834913,4.431747490649968],[-75.5880787961475,4.419887025639639],[-75.58450019156385,4.4209367404633895],[-75.58231850605523,4.424594495011718]],[[-75.6854470379514,4.393983582214048],[-75.68942653868481,4.397828139976127],[-75.68840776249738,4.394717476738549],[-75.68931779734356,4.393982842763876],[-75.69050783183616,4.395768869980486],[-75.69127760974857,4.39471548156007],[-75.68970919068448,4.393543221639504],[-75.69145862283096,4.394273354121253],[-75.69139425467057,4.391926081139559],[-75.69035346364251,4.393427091967169],[-75.68744112834554,4.389056783076683],[-75.6841642677685,4.388149509598634],[-75.68375899559578,4.390594163745504],[-75.68599956766616,4.391690553404544],[-75.6854470379514,4.393983582214048]]]}}]}