{"type":"FeatureCollection","features":[{"type":"Feature","properties":{"code":"633007"},"geometry":{"type":"Polygon","coordinates":[[[-75.73802363689464,4.543105699799526],[-75.74082380099458,4.538894815954507],[-75.7446076240837,4.539452191690373],[-75.74539403499693,4.538200119488181],[-75.74679797319209,4.5401256395057885],[-75.74822405581159,4.539184519984474],[-75.75079644149088,4.540993200704463],[-75.75090267548933,4.539447797155503],[-75.75602270149244,4.537935962998802],[-75.75760161581246,4.539560492858243],[-75.76523883304179,4.537906563940965],[-75.76850473453538,4.534104171293677],[-75.76912191008995,4.530063326020922],[-75.77068676148696,4.529763644041623],[-75.7720674949336,4.521437581155453],[-75.7746463957962,4.519528793897621],[-75.77819435999191,4.510224265656916],[-75.78287175050565,4.508128925096798],[-75.78447363714616,4.51609756204158],[-75.79024913584641,4.514150004557621],[-75.80639370672378,4.514755201842206],[-75.81280983666716,4.512337791137611],[-75.83392109688191,4.516573749439715],[-75.83720950584006,4.513926423210933],[-75.84441232231922,4.514515111936191],[-75.85437653678605,4.5122260014927065],[-75.86524847416024,4.518170550431989],[-75.87006237499173,4.516741271413139],[-75.87348861375932,4.519193260412067],[-75.87235945586474,4.525104272869271],[-75.87622789303367,4.5250084569935325],[-75.87788312293077,4.527156214183492],[-75.88124084377239,4.527417766656413],[-75.87950814335727,4.529892738260344],[-75.88043956980789,4.533239523672705],[-75.87923418992449,4.538920449884245],[-75.87607551076258,4.542197106829747],[-75.87136727417231,4.542726030703307],[-75.87054385578352,4.5482414342337165],[-75.87715061577524,4.551240622529804],[-75.87559387467593,4.555516163527557],[-75.86978819735845,4.559005312124043],[-75.87155801940628,4.562022379893335],[-75.86794144883862,4.564927518149602],[-75.86568336650595,4.574323054297224],[-75.86659906704199,4.575601665458578],[-75.86920015552352,4.573869050404198],[-75.87016143868891,4.5755054258646055],[-75.8661413412155,4.578050558845575],[-75.86608651494481,4.579785569142587],[-75.86389691557099,4.579679198361362],[-75.8632786385545,4.581667567529735],[-75.85347476856077,4.577844831261018],[-75.85393255506534,4.580169485706392],[-75.85269664689423,4.579857878936082],[-75.84988968376086,4.574812720463001],[-75.84699759232643,4.574054949616993],[-75.84732585369488,4.571785950366973],[-75.8447856407829,4.574258127692531],[-75.8427256251664,4.570977023761657],[-75.83936909320431,4.575989983756358],[-75.83675944910942,4.574249639956463],[-75.83760601876781,4.571198625356487],[-75.83490476512713,4.572747525609998],[-75.83389752189407,4.56969935362514],[-75.83178417844766,4.572025833555983],[-75.82967162895892,4.5693458789598935],[-75.82318635991032,4.568443101832543],[-75.820691616499,4.569979578500465],[-75.8214471453403,4.571388935559241],[-75.81671658331987,4.570476759495705],[-75.81153557787451,4.573993049718695],[-75.8095052719055,4.5729573474242216],[-75.81010115355775,4.570956026050737],[-75.80809461283849,4.572785619120907],[-75.80668312690364,4.570622481573082],[-75.79894671742181,4.568241786266412],[-75.79937376789326,4.566483253432068],[-75.79555079919658,4.567265234843376],[-75.7912480291547,4.5639502519590565],[-75.78644943154791,4.562830676063413],[-75.78490034926006,4.564587373127836],[-75.78148275249492,4.562527228956071],[-75.78184878855711,4.564246617211211],[-75.77880402071702,4.5641657003822615],[-75.77735429420397,4.567241894340441],[-75.77703440744295,4.565037663314911],[-75.77505075059821,4.566349647436027],[-75.77505068169256,4.564644061907927],[-75.7732420955893,4.5657110000585135],[-75.77248678272093,4.563878399822443],[-75.76987002077539,4.568427333751856],[-75.76917587555425,4.566989473408626],[-75.76475013052664,4.5688461546262715],[-75.76330147359386,4.56783659534068],[-75.76231681393006,4.569287441827555],[-75.76089074673723,4.568746056315945],[-75.76101151365685,4.566785248378608],[-75.758429923417,4.567014981868454],[-75.75706551546693,4.565526331891419],[-75.75614299224321,4.56322768161516],[-75.75855508487155,4.560164036712592],[-75.75744118289327,4.557792131504129],[-75.75456707583317,4.559144006853671],[-75.75261501274258,4.557559978089046],[-75.7502650514121,4.559266615713852],[-75.7496581602827,4.557947844900582],[-75.74838761622448,4.558708220791459],[-75.74890062597854,4.559631356966918],[-75.74028253683917,4.567409525328799],[-75.74103005514166,4.569945678978115],[-75.74532446497432,4.568497063183088],[-75.73973762068437,4.573348712997188],[-75.74251396811246,4.573169225095057],[-75.74469997616501,4.575664581458113],[-75.74278445055177,4.5784983488889],[-75.74127356461906,4.57516521193719],[-75.73890122746474,4.574970729343136],[-75.7381383308612,4.578870711929426],[-75.73490335257725,4.582784903477545],[-75.72790692702807,4.571714269980305],[-75.71959735521767,4.569842971509104],[-75.71718675177414,4.567920829925129],[-75.71891936682852,4.567056431187268],[-75.72055869906114,4.568246447167894],[-75.72420675333962,4.564965818377402],[-75.72511495550128,4.552890493212942],[-75.72120042251021,4.554572855480558],[-75.72051360802737,4.553338299711356],[-75.72320714320693,4.550466637259092],[-75.7207501816884,4.552151886364868],[-75.72015557530489,4.549867402884274],[-75.7272200199854,4.54549201348766],[-75.73061511751354,4.546642979505862],[-75.73267585818195,4.544284626084448],[-75.73802363689464,4.543105699799526]]]}}]}