{"type":"FeatureCollection","features":[{"type":"Feature","properties":{"code":"634008"},"geometry":{"type":"Polygon","coordinates":[[[-75.66176951129034,4.648477982681982],[-75.67572692225957,4.62916729597481],[-75.67641289856175,4.625475892844122],[-75.681648396034,4.620075922730507],[-75.68977562498583,4.617938291585631],[-75.6918598624805,4.614635827932034],[-75.69288567321485,4.615859484267446],[-75.69791907144776,4.60633279701608],[-75.69936534136542,4.6075131199259545],[-75.70091893028837,4.606598289452279],[-75.700134320178,4.6151593421979555],[-75.70849919237105,4.615346405607738],[-75.70498895144698,4.620411485012426],[-75.704712343604,4.62331266067963],[-75.70680444765554,4.624476776363849],[-75.71214448013916,4.623066764187172],[-75.71677054931433,4.616255058227182],[-75.72304140455282,4.612501616358486],[-75.72422757827218,4.613670607888707],[-75.72940780930037,4.608465475181788],[-75.7352779895042,4.609973241848309],[-75.73920347643656,4.614376980262932],[-75.74717015419833,4.6181909531729275],[-75.7453469806664,4.620559018177062],[-75.74523109679183,4.624220210808687],[-75.74362928934136,4.624225672866942],[-75.74064328464988,4.629676030493329],[-75.73721005761536,4.631690258820413],[-75.73683744569178,4.637784200348392],[-75.74095689071243,4.654721877299835],[-75.73591698038149,4.6550870525555865],[-75.72529762746143,4.651993979798817],[-75.7228707725692,4.653623954232955],[-75.7161181691439,4.65219489941461],[-75.70488750073469,4.656040107152364],[-75.70850502364016,4.68249430622933],[-75.69264021072513,4.677156616537729],[-75.68335970587322,4.668527174421399],[-75.6729216869096,4.664570455746684],[-75.67132537648445,4.66335648116916],[-75.67388923637526,4.65921265280474],[-75.67393060958932,4.654557264790242],[-75.66176951129034,4.648477982681982]]]}}]}