{"type":"FeatureCollection","features":[{"type":"Feature","properties":{"code":"634007"},"geometry":{"type":"Polygon","coordinates":[[[-75.57453988003641,4.7058895202767985],[-75.56455563973691,4.706295090697836],[-75.56609255554974,4.703948180756356],[-75.5701025629736,4.7025536600093005],[-75.57079958680532,4.69798751817973],[-75.57479867628336,4.694409284863809],[-75.57857342748105,4.693647465039646],[-75.5802610368624,4.690714891022367],[-75.58568855278048,4.690750668480689],[-75.58933212716335,4.688982837497576],[-75.59191386241355,4.684173658245697],[-75.59453521635493,4.6828803393278235],[-75.59515067543896,4.6781539476418175],[-75.59731277117453,4.675685890256943],[-75.60355281427513,4.676035641960311],[-75.6081746791773,4.674411939997071],[-75.61131336747354,4.669707176457223],[-75.61411840844784,4.669291438853463],[-75.61815325687229,4.664738386011777],[-75.622442119286,4.664109173565976],[-75.62527028684724,4.660638457744767],[-75.6371694747753,4.6578047746463085],[-75.64427343427428,4.660632562712237],[-75.64841411046234,4.656952638028542],[-75.65056059341202,4.65695971988373],[-75.65241300247942,4.653343090694875],[-75.65864518725078,4.651845492239545],[-75.6607598213925,4.648177423441211],[-75.67393060958932,4.654557264790242],[-75.67388923637526,4.65921265280474],[-75.67132537648445,4.66335648116916],[-75.6729216869096,4.664570455746684],[-75.68335970587322,4.668527174421399],[-75.69264021072513,4.677156616537729],[-75.70850502364016,4.68249430622933],[-75.71366933437815,4.714381150067197],[-75.71176228621658,4.71665289834408],[-75.70855841420507,4.716276244641335],[-75.70549289548023,4.718006569354259],[-75.70299904784235,4.721240064624112],[-75.7002431129414,4.720014893392886],[-75.69822866864138,4.720921271097495],[-75.69616375146785,4.718754333454569],[-75.69162740567492,4.718575618941202],[-75.68803473919672,4.714187916002345],[-75.68392243568087,4.714748273193095],[-75.67672647994169,4.708654657681393],[-75.6700986769876,4.706468136436058],[-75.66776887004522,4.702410152168682],[-75.65988666032439,4.699542737184061],[-75.65672449988449,4.7011702639250075],[-75.65397201952197,4.705953393756317],[-75.64778680269205,4.708018235853558],[-75.6472541136904,4.709535283185346],[-75.63999344629104,4.706380928624242],[-75.638893514676,4.703533614548633],[-75.63561883234019,4.70474547361988],[-75.62504513815418,4.704301215248165],[-75.62166856493269,4.70094588964912],[-75.61418890921095,4.70187937607011],[-75.60661667720751,4.709452236451966],[-75.5990837718175,4.70798108953818],[-75.59318420078336,4.703231598004777],[-75.58304249462134,4.707868481253058],[-75.57453988003641,4.7058895202767985]],[[-75.6560814569437,4.679390696050518],[-75.65763698345239,4.684307759951025],[-75.65795889315984,4.6788707011148745],[-75.66194192967862,4.674672176063552],[-75.66137868050748,4.670857131516414],[-75.66576234372411,4.667930747694641],[-75.66513220053781,4.667110233627511],[-75.65868995432515,4.672121884414878],[-75.6577174292546,4.670701733851843],[-75.65427655369308,4.671924233189429],[-75.6529886063305,4.676660907243729],[-75.6560814569437,4.679390696050518]]]}}]}