{"type":"FeatureCollection","features":[{"type":"Feature","properties":{"code":"634001"},"geometry":{"type":"Polygon","coordinates":[[[-75.65763698345239,4.684307759951025],[-75.6560814569437,4.679390696050518],[-75.6529886063305,4.676660907243729],[-75.65427655369308,4.671924233189429],[-75.6577174292546,4.670701733851843],[-75.65868995432515,4.672121884414878],[-75.66513220053781,4.667110233627511],[-75.66576234372411,4.667930747694641],[-75.66137868050748,4.670857131516414],[-75.66194192967862,4.674672176063552],[-75.65795889315984,4.6788707011148745],[-75.65763698345239,4.684307759951025]]]}}]}