{"type":"FeatureCollection","features":[{"type":"Feature","properties":{"code":"634027"},"geometry":{"type":"Polygon","coordinates":[[[-75.822056840004,4.6636015333102705],[-75.82087426891877,4.6616601228273],[-75.81692900606527,4.6615151597405315],[-75.81385427763769,4.6589278667868825],[-75.80904752036798,4.6587259300414985],[-75.80717897195206,4.656217089768518],[-75.80170019640201,4.659553949682163],[-75.78393823922687,4.658957472561724],[-75.7822828972296,4.656933234403596],[-75.78219157050546,4.652690097572702],[-75.78024545798326,4.653852188253609],[-75.77928433011272,4.652843507257899],[-75.77847585293682,4.654565962328661],[-75.77392877020395,4.653470384110733],[-75.77382943088418,4.654816143312644],[-75.76809911372067,4.652249191923602],[-75.7626827646315,4.653466341303215],[-75.76214089060971,4.651723292699444],[-75.76075232454485,4.652858689126333],[-75.75801258864203,4.650774177037533],[-75.74095689071243,4.654721877299835],[-75.73683744569178,4.637784200348392],[-75.73721005761536,4.631690258820413],[-75.74064328464988,4.629676030493329],[-75.74362928934136,4.624225672866942],[-75.74523109679183,4.624220210808687],[-75.7453469806664,4.620559018177062],[-75.74717015419833,4.6181909531729275],[-75.73920347643656,4.614376980262932],[-75.7352779895042,4.609973241848309],[-75.72940780930037,4.608465475181788],[-75.72422757827218,4.613670607888707],[-75.72304140455282,4.612501616358486],[-75.71677054931433,4.616255058227182],[-75.71214448013916,4.623066764187172],[-75.70680444765554,4.624476776363849],[-75.704712343604,4.62331266067963],[-75.70498895144698,4.620411485012426],[-75.70853263423646,4.615438420359851],[-75.700134320178,4.6151593421979555],[-75.70091893028837,4.606598289452279],[-75.70550768139833,4.604399116307036],[-75.70597395461061,4.601956830663255],[-75.70767406779606,4.6021071797034665],[-75.71211092720199,4.597021359698488],[-75.71319982054354,4.598264055590278],[-75.71530950170609,4.591614092785221],[-75.7207569467833,4.5922377290157215],[-75.72175122238463,4.590508337100175],[-75.72487130924105,4.591195494054375],[-75.72854002287283,4.58855938813349],[-75.73100399939779,4.591608991710302],[-75.73101208912664,4.585328312788874],[-75.73205674504169,4.58618690391188],[-75.73281983910613,4.5828575135763],[-75.73443022890939,4.583431744456618],[-75.73728351309381,4.580011070591468],[-75.73890122746474,4.574970729343136],[-75.74127356461906,4.57516521193719],[-75.74354788914445,4.578024261570363],[-75.74561270655903,4.5734010103277],[-75.74498293464052,4.571114220050504],[-75.74828779662204,4.572514360207492],[-75.75051512132433,4.568393098957301],[-75.75706920449028,4.571510165278028],[-75.75815513694579,4.568881897117592],[-75.76262197750799,4.569293515809079],[-75.76330147359386,4.56783659534068],[-75.76475013052664,4.5688461546262715],[-75.76925242253094,4.566984207782923],[-75.76972488388179,4.56847343060241],[-75.77248678272093,4.563878399822443],[-75.7732420955893,4.5657110000585135],[-75.77505068169256,4.564644061907927],[-75.77505075059821,4.566349647436027],[-75.77703440744295,4.565037663314911],[-75.77735429420397,4.567241894340441],[-75.77880402071702,4.5641657003822615],[-75.78184878855711,4.564246617211211],[-75.78148275249492,4.562527228956071],[-75.78490034926006,4.564587373127836],[-75.78613633456439,4.562794142699829],[-75.79075209771707,4.563731117597797],[-75.79555079919658,4.567265234843376],[-75.79937376789326,4.566483253432068],[-75.79894671742181,4.568241786266412],[-75.80668312690364,4.570622481573082],[-75.80809461283849,4.572785619120907],[-75.81010115355775,4.570956026050737],[-75.8095052719055,4.5729573474242216],[-75.81153557787451,4.573993049718695],[-75.81671658331987,4.570476759495705],[-75.8214471453403,4.571388935559241],[-75.820691616499,4.569979578500465],[-75.82318635991032,4.568443101832543],[-75.82967162895892,4.5693458789598935],[-75.83178417844766,4.572025833555983],[-75.83389752189407,4.56969935362514],[-75.83490476512713,4.572747525609998],[-75.83760601876781,4.571198625356487],[-75.83675944910942,4.574249639956463],[-75.83965851338417,4.576014686945655],[-75.84293204180744,4.570904206946011],[-75.8447856407829,4.574258127692531],[-75.84750177701522,4.571895682098386],[-75.84699759232643,4.574054949616993],[-75.84988968376086,4.574812720463001],[-75.85269664689423,4.579857878936082],[-75.85393255506534,4.580169485706392],[-75.85347476856077,4.577844831261018],[-75.8632786385545,4.581667567529735],[-75.86389691557099,4.579679198361362],[-75.86608651494481,4.579785569142587],[-75.8661413412155,4.578050558845575],[-75.87122978991954,4.576425462314319],[-75.87116132238731,4.586331593432988],[-75.86037315576999,4.5916593195734094],[-75.85939662183051,4.594363195742517],[-75.86157780237392,4.597213740156064],[-75.86064753909181,4.6011659213423854],[-75.86659872251374,4.607752382964122],[-75.86475938392226,4.6151278903688535],[-75.85886235519803,4.616364857835833],[-75.85216300966857,4.623739815023782],[-75.85211737664554,4.626686545552332],[-75.84844757492158,4.630150783214106],[-75.84911883523978,4.635356768499889],[-75.8465022543001,4.640005507633475],[-75.83649890451017,4.6442450839963385],[-75.8348893415747,4.648137786238067],[-75.83136464177721,4.650962490004929],[-75.82597035997918,4.6632350313636834],[-75.822056840004,4.6636015333102705]],[[-75.76378967422909,4.63358672225155],[-75.7627116638663,4.6281766600314995],[-75.76649328814528,4.629566312131658],[-75.77127109578657,4.627633188838445],[-75.77076472668585,4.621897498062765],[-75.77402171878191,4.6207101334069876],[-75.77371647292858,4.61828335153416],[-75.77097362804403,4.617288829106599],[-75.77090663529833,4.615084431473349],[-75.77011935432273,4.617596332391258],[-75.7652200372263,4.620745340079736],[-75.76511154888192,4.618512067894358],[-75.75832767771868,4.619456047514348],[-75.75544008160648,4.618158893534314],[-75.75207909340293,4.617784247351381],[-75.75915545259005,4.620661682451498],[-75.75600946749415,4.621459800125933],[-75.75421163684274,4.624682957491586],[-75.75694172389785,4.6264927335028005],[-75.75516502568331,4.628037114779886],[-75.7557216609406,4.630924900125535],[-75.75768034617255,4.632036051020009],[-75.75835337438349,4.630498165385916],[-75.75937452318783,4.633110568792006],[-75.76360029682365,4.633663215749209],[-75.76301577431906,4.634901856492149],[-75.76378967422909,4.63358672225155]]]}}]}