{"type":"FeatureCollection","features":[{"type":"Feature","properties":{"code":"680006"},"geometry":{"type":"Polygon","coordinates":[[[-73.11771324482373,7.1170990435255135],[-73.1253648232244,7.114274885861676],[-73.12474709231088,7.111546492651371],[-73.13656034563894,7.103324903070018],[-73.13832452153736,7.09867782384265],[-73.15699404426823,7.089061442005402],[-73.15708184651982,7.0909873939689305],[-73.16425333355454,7.092769156234397],[-73.16626522526025,7.096611098667154],[-73.17208072523226,7.0987596395303285],[-73.17200881241757,7.101970259153234],[-73.1715568674665,7.102815856933432],[-73.17091284030619,7.10313829731723],[-73.17053212322708,7.100899890118342],[-73.16629312587736,7.099289880838796],[-73.16076073350501,7.097548064309194],[-73.15796612916535,7.09879088772783],[-73.14734625482492,7.109644809874453],[-73.13531658119541,7.11594294043698],[-73.13143391346739,7.119621078716023],[-73.13209033541693,7.120638947817156],[-73.12123648011902,7.125585799526789],[-73.11771324482373,7.1170990435255135]]]}}]}