{"type":"FeatureCollection","features":[{"type":"Feature","properties":{"code":"680008"},"geometry":{"type":"Polygon","coordinates":[[[-73.05948642793413,7.187322744211826],[-73.06745813786517,7.17101258071915],[-73.06714412659625,7.1600147650659665],[-73.06218779573192,7.154590584386995],[-73.06581802093092,7.1467036438306195],[-73.06254784420173,7.144779743609945],[-73.05700757293124,7.148151026523067],[-73.05452895035643,7.145438905330309],[-73.04933815619512,7.144299468152781],[-73.04765556047101,7.139332271793251],[-73.04438781395157,7.13639345101609],[-73.05192134771994,7.133119421741242],[-73.05327241574213,7.126962209401086],[-73.05776953056676,7.12349144010085],[-73.05984351243262,7.114728615160516],[-73.06276622060085,7.116103619153876],[-73.06812234923837,7.114995426060034],[-73.07072782299878,7.119167870837487],[-73.07481873902401,7.118219556332292],[-73.07795100881049,7.1205453646902015],[-73.08250277815591,7.114715889212789],[-73.08382668603963,7.106760429702035],[-73.08662539386489,7.1079474220616135],[-73.08743992033976,7.105337449893625],[-73.09033845496657,7.103345736230153],[-73.09250303850456,7.10609386011015],[-73.08955579169782,7.1071690895643655],[-73.09061090584481,7.108962595614969],[-73.09654012790526,7.112288760754836],[-73.09535721640555,7.1189381548311985],[-73.09905345013067,7.122149905740855],[-73.09830176046529,7.122885151638798],[-73.09772376548534,7.124408461157145],[-73.0980045169232,7.1259245623218135],[-73.10003358053365,7.1219915111947785],[-73.10108322748022,7.126391049450149],[-73.10555800659023,7.124239722536174],[-73.10181186769188,7.13064639492211],[-73.09901179615179,7.127895373919557],[-73.09516380133482,7.128445472396152],[-73.09705717326773,7.129796612409336],[-73.09592175627199,7.130078981587246],[-73.09893008845057,7.130667403945893],[-73.09799430757431,7.13336301863626],[-73.10131936302474,7.133999558735013],[-73.10067141955534,7.14020596353771],[-73.10366577314318,7.1372875450032325],[-73.10595033889916,7.138805615635363],[-73.10528079093774,7.141344727085425],[-73.10584379636799,7.139428086640464],[-73.10773568425839,7.141517174270064],[-73.10656325978704,7.137886994322571],[-73.10780583946479,7.135625968587362],[-73.10905727608952,7.139345593209157],[-73.11915036263144,7.143419398007779],[-73.1219086629502,7.146779369081685],[-73.11927404312877,7.1492036652089155],[-73.11542253206682,7.148650879412003],[-73.11565750444282,7.152796923041592],[-73.10717595750288,7.159401486280103],[-73.09447785074366,7.158306987926835],[-73.08745697705893,7.1687615349901535],[-73.08297471808646,7.18063048156597],[-73.07838416205988,7.182978027084914],[-73.07659198475699,7.1913076339840245],[-73.07408393535638,7.193786785178361],[-73.07362387188005,7.191524175641689],[-73.05948642793413,7.187322744211826]]]}}]}