{"type":"FeatureCollection","features":[{"type":"Feature","properties":{"code":"680002"},"geometry":{"type":"Polygon","coordinates":[[[-73.10012182501555,7.121992837885614],[-73.10539477322209,7.119233390853481],[-73.11771324482373,7.1170990435255135],[-73.12123641532719,7.125585302789091],[-73.12448149805886,7.141708060400674],[-73.12303110922886,7.145139616216056],[-73.12128259753848,7.144777730947908],[-73.12174427978334,7.146224185985261],[-73.11915036263144,7.143419398007779],[-73.10905727608952,7.139345593209157],[-73.10768257240142,7.135597457075448],[-73.10656325978704,7.137886994322571],[-73.10773568425839,7.141517174270064],[-73.10584379636799,7.139428086640464],[-73.10579771802941,7.1403456589418965],[-73.1054950875054,7.140595902660891],[-73.10547102812109,7.141272797815645],[-73.10528079093774,7.141344727085425],[-73.10595033889916,7.138805615635363],[-73.10366577314318,7.1372875450032325],[-73.10200542880142,7.138060422641388],[-73.1015440180654,7.140084632003152],[-73.10067141955534,7.14020596353771],[-73.10131936302474,7.133999558735013],[-73.09799430757431,7.13336301863626],[-73.09893008845057,7.130667403945893],[-73.09592175627199,7.130078981587246],[-73.09705717326773,7.129796612409336],[-73.09516380133482,7.128445472396152],[-73.09901179615179,7.127895373919557],[-73.10181186769188,7.13064639492211],[-73.10555800659023,7.124239722536174],[-73.10108322748022,7.126391049450149],[-73.10012182501555,7.121992837885614]]]}}]}