{"type":"FeatureCollection","features":[{"type":"Feature","properties":{"code":"680004"},"geometry":{"type":"Polygon","coordinates":[[[-73.11178914440711,7.096760974623862],[-73.10787216886507,7.087227130441022],[-73.11099433626066,7.079381718393506],[-73.12331380236623,7.070577680676081],[-73.1258306737468,7.075646992121733],[-73.12333057009306,7.082190982152781],[-73.13041146265476,7.081098004866021],[-73.13362863962715,7.078464545127758],[-73.13705128604505,7.078807153269338],[-73.13916743816793,7.07628333784487],[-73.14139533674114,7.077835032376697],[-73.14226363019088,7.076445810165524],[-73.14856691016507,7.077123868488798],[-73.15146805086522,7.080288415943755],[-73.14890516696636,7.082678151260154],[-73.14358100849302,7.082621999327046],[-73.13462157928166,7.087422469727699],[-73.13239353775492,7.086539060229825],[-73.12366018900565,7.091961056496871],[-73.11500952806324,7.094034241319832],[-73.11178914440711,7.096760974623862]]]}}]}