{"type":"FeatureCollection","features":[{"type":"Feature","properties":{"code":"680003"},"geometry":{"type":"Polygon","coordinates":[[[-73.09033845496657,7.103345736230153],[-73.09387955636527,7.099981287317519],[-73.09352358258474,7.097759411303684],[-73.09750696466023,7.097275129034472],[-73.09875604718002,7.095623277571065],[-73.10142865252584,7.0965194623818775],[-73.10501706228047,7.093698618359781],[-73.10654295833172,7.0962183066444595],[-73.10497980489333,7.0901349375055815],[-73.10787216886507,7.087227130441022],[-73.11155035959467,7.099247087345589],[-73.11297133188327,7.098713240317636],[-73.11389599632429,7.106110534248671],[-73.1250614686769,7.114408792162919],[-73.11143503210747,7.118827687763371],[-73.10539477322209,7.119233390853481],[-73.09878906532708,7.1225087241934375],[-73.09808472926903,7.125975588497397],[-73.09772376548534,7.124408461157145],[-73.09830176046529,7.122885151638798],[-73.09905345013067,7.122149905740855],[-73.09535721640555,7.1189381548311985],[-73.09654012790526,7.112288760754836],[-73.09061090584481,7.108962595614969],[-73.08955579169782,7.1071690895643655],[-73.09250303850456,7.10609386011015],[-73.09033845496657,7.103345736230153]]]}}]}