{"type":"FeatureCollection","features":[{"type":"Feature","properties":{"code":"680001"},"geometry":{"type":"Polygon","coordinates":[[[-73.12132642255955,7.15468228649263],[-73.11542253206682,7.148650879412003],[-73.11947345093404,7.149078629224391],[-73.1219086629502,7.146779369081685],[-73.12128259753848,7.144777730947908],[-73.12303110922886,7.145139616216056],[-73.12457208533277,7.142720056066594],[-73.12344491953138,7.136430481117429],[-73.13000928506563,7.135087977964531],[-73.140475908101,7.136392121239908],[-73.14987343531334,7.140469519416683],[-73.15282426727066,7.146315877806444],[-73.14927432435161,7.151560945964775],[-73.14438128178296,7.154759277756455],[-73.14379288513538,7.166566760493595],[-73.14178858436395,7.1650867134382565],[-73.1374299266987,7.165647376076436],[-73.13458472504402,7.15878839672763],[-73.13020593253117,7.159268714350901],[-73.12855754486213,7.15589298959452],[-73.12132642255955,7.15468228649263]]]}}]}