{"type":"FeatureCollection","features":[{"type":"Feature","properties":{"code":"680507"},"geometry":{"type":"Polygon","coordinates":[[[-72.98263275839378,7.620622324506883],[-72.98071953340644,7.610935104577436],[-72.99224752249091,7.595091319198161],[-72.98795438587013,7.57877256409671],[-72.98654621666242,7.562344673760492],[-72.98413566566944,7.556766265784518],[-72.98479485412935,7.549543424501053],[-72.97741822572226,7.539219798170336],[-72.9777002174618,7.529368623934545],[-72.96692219128772,7.520474871062447],[-72.96070281988176,7.519319932170845],[-72.95888627054808,7.52029844791906],[-72.95215714749389,7.515728188205571],[-72.93966906515209,7.5124876604457995],[-72.93735537184705,7.50482216413252],[-72.93166065010757,7.50149627255837],[-72.92815297617602,7.494966723917173],[-72.92509848749722,7.493096382925955],[-72.91560991226868,7.492707486643496],[-72.9095529699888,7.487784776593571],[-72.90206180085306,7.4768825269045465],[-72.89802112013109,7.480162370993355],[-72.895986119322,7.479884557815808],[-72.8941578961373,7.4722168822328285],[-72.90112746391014,7.446993923226387],[-72.90010889752494,7.43457999467546],[-72.89280756139465,7.4254320725193],[-72.89159945922387,7.420019360002868],[-72.886007023292,7.416239069613823],[-72.87692995465471,7.405891747967473],[-72.87513536154034,7.393092687233718],[-72.87635456266275,7.392659794180304],[-72.88258664356141,7.392087840271699],[-72.88238054573753,7.397567942512637],[-72.88590422840537,7.400200213371363],[-72.88989527854824,7.400790616510278],[-72.89202949937777,7.398970182749224],[-72.89608874965785,7.400734816304521],[-72.89612526656634,7.398080451415183],[-72.89999851273251,7.3978590760777365],[-72.90471484830755,7.393460999239153],[-72.91012587212134,7.392606233922379],[-72.9106323327535,7.395012296792231],[-72.91773877285578,7.382612809631155],[-72.91997674502352,7.384774766526959],[-72.92198312324882,7.38459014155444],[-72.9259581039774,7.376970329686287],[-72.93148761362534,7.374422758268054],[-72.93430549264764,7.3707494238440745],[-72.93760164886322,7.363742469100316],[-72.94429958131269,7.359675490074721],[-72.9460538224564,7.353100730071958],[-72.95058051837321,7.348581755701616],[-72.96257559828172,7.348979105781552],[-72.97119078001407,7.352582826988396],[-72.97474414661826,7.351580194263136],[-72.97979905061271,7.35308771924565],[-72.97944523141922,7.342785109137822],[-72.9745046079575,7.335387938619874],[-72.96865823516953,7.329527651004639],[-72.96260065525524,7.3267157081525625],[-72.95976450903692,7.321613171842898],[-72.95305891571917,7.31505674794181],[-72.94695007617287,7.314297815984219],[-72.93849025919491,7.305156881066523],[-72.93510816323709,7.304375338800185],[-72.92629240641719,7.297831314830489],[-72.92567776597343,7.295656639186063],[-72.92193070867586,7.293366588746096],[-72.92372060592169,7.292256939377694],[-72.92938862517963,7.291317654597776],[-72.92951016137425,7.293364512320693],[-72.9315823516933,7.2938342236162725],[-72.93380003166163,7.291848698091428],[-72.94426585559717,7.302467214887713],[-72.94642237614585,7.306778187787131],[-72.95495162533513,7.307719428664711],[-72.96670317725426,7.317803998674094],[-72.97303689912707,7.317839963308984],[-72.97837206296379,7.31384356217967],[-72.97947678506415,7.329038974200557],[-72.9812331982784,7.333294603522688],[-72.99328216651804,7.339826409595219],[-72.99426188760089,7.341904726346343],[-72.99656707671471,7.338851176635558],[-73.00154417389035,7.33928582729726],[-73.00164004118818,7.344119416632282],[-73.00523401790213,7.350189800655926],[-73.00920711143868,7.351615306319161],[-73.01538774347188,7.358170988713198],[-73.0165848248526,7.363147326898286],[-73.01138210590028,7.3683999973036975],[-73.00304237604149,7.381652767795913],[-73.00454395662626,7.38845155651785],[-73.00215102593893,7.393967357027066],[-73.00133220777349,7.40620749936113],[-73.00298300919707,7.409840197964343],[-73.0001122846844,7.4115961463226085],[-73.00045548829422,7.415231309074102],[-72.99826446761284,7.416788870870562],[-73.00956126693285,7.424022766882672],[-73.01110891042964,7.431967575842691],[-73.02313178811096,7.440727445039272],[-73.03004327150722,7.443302407995532],[-73.03790478485081,7.452571909540893],[-73.04344721070834,7.456316501661718],[-73.04453643109463,7.464005934974637],[-73.05221378329327,7.484014092886014],[-73.06357675774711,7.488268187771951],[-73.0834886606379,7.490228114334059],[-73.09131928368197,7.488972164903544],[-73.08507698315003,7.494366765518805],[-73.07322072344112,7.49909522437423],[-73.06726731652645,7.5130687479523885],[-73.06864056291158,7.514680033529089],[-73.0800556835149,7.510931692735312],[-73.08153359449511,7.518295396705241],[-73.08604162623709,7.5252682122995225],[-73.09484616377756,7.531293488834308],[-73.09596510203886,7.534259150932769],[-73.08949805699172,7.543067246884334],[-73.08521443346422,7.557201847186661],[-73.08281175725557,7.5594520372515035],[-73.0809611222515,7.558513218356097],[-73.07636061810047,7.56255403688931],[-73.0720982864184,7.562857225857613],[-73.07278944092872,7.565634349759762],[-73.07066724053533,7.571903714785037],[-73.06080703554579,7.576873469909572],[-73.05986299524767,7.580504506549687],[-73.05490351015015,7.586732055102175],[-73.051778417864,7.596391426865068],[-73.0493263856705,7.598754269438075],[-73.04849801327401,7.606521648409455],[-73.04171382020832,7.612558159650291],[-73.03862957045988,7.620564146542051],[-73.03459959890989,7.622891436885595],[-73.02728253686507,7.622478145946616],[-73.02191388899678,7.620122395513192],[-73.01192890821864,7.6222438636555125],[-72.9987287497604,7.61695851243212],[-72.99767961394974,7.618441919409179],[-72.99084490275908,7.6177162123155995],[-72.98263275839378,7.620622324506883]],[[-72.98186849704706,7.369085583826177],[-72.98571325329857,7.368866730229797],[-72.98652732314491,7.362705296133072],[-72.98293818833832,7.365241422014492],[-72.98186849704706,7.369085583826177]]]}}]}