{"type":"FeatureCollection","features":[{"type":"Feature","properties":{"code":"680567"},"geometry":{"type":"Polygon","coordinates":[[[-72.97837206296379,7.31384356217967],[-72.98738956626727,7.3105317931782],[-72.99828270806938,7.294403576593709],[-73.00697805792447,7.294988249250935],[-73.01274613126975,7.291957464115342],[-73.01884774189358,7.2909558906858365],[-73.02629798107392,7.2814466530186905],[-73.03438233425715,7.277029800933519],[-73.03985380272314,7.2763168979493],[-73.04614856102262,7.278851449285241],[-73.05260571348117,7.27570752107431],[-73.05749923941772,7.267818056719989],[-73.05871796539975,7.256881392258947],[-73.0619077847727,7.251077542483813],[-73.06125928080206,7.249078066136178],[-73.05850454300827,7.248149707529649],[-73.05760810828588,7.24419119319424],[-73.05343638753197,7.240832153889301],[-73.05462061338119,7.237114522389106],[-73.05309998192723,7.235461136489448],[-73.05584707736472,7.23021233508473],[-73.05694375087387,7.222629539948173],[-73.05650706595287,7.217044695978927],[-73.0606047542721,7.213480472107051],[-73.06407353353603,7.213820461833961],[-73.06427018820074,7.207843756582463],[-73.06619362356537,7.2064512094166275],[-73.0684093649196,7.200309446339986],[-73.07040990056299,7.200362471807807],[-73.07027362164484,7.203130936223943],[-73.07200207459238,7.20495083519495],[-73.08039933552567,7.2071752884857005],[-73.08997591972269,7.215090016530553],[-73.08957768209683,7.218679539059963],[-73.08623415376195,7.222608455848103],[-73.0825113255417,7.231748614291689],[-73.08313913210657,7.241654297009404],[-73.08159864862665,7.252550877923227],[-73.0833168130352,7.259129651937144],[-73.07992998624184,7.27272536790008],[-73.08221600415868,7.277401155071971],[-73.08768567182182,7.2816307791965755],[-73.09087646512978,7.288731498073162],[-73.09789473274122,7.288271041731775],[-73.10343527140674,7.290229106812944],[-73.10820237501832,7.289244895550041],[-73.11261578902008,7.291676212854384],[-73.10709818770806,7.2989739576634065],[-73.11233372014738,7.308616129753659],[-73.108932588747,7.326318909317763],[-73.11559165532526,7.334092037282858],[-73.11050869644737,7.336004123784335],[-73.10661378511111,7.339744786226277],[-73.09967434247653,7.3411672199317195],[-73.09237604642232,7.35234044262711],[-73.08458291113652,7.356763713222051],[-73.07549679323353,7.3654705641498595],[-73.06337098285422,7.37278498515434],[-73.0580250049444,7.372668452332505],[-73.05213894558807,7.376733761167486],[-73.04329694497193,7.378595867419392],[-73.04245278392597,7.376412360539064],[-73.03995252394895,7.375623835148019],[-73.03638431691917,7.376087180384388],[-73.03138666631975,7.3799849363926455],[-73.02660096743904,7.377938301841766],[-73.01936700354975,7.377824965419336],[-73.00436083832204,7.380390261015918],[-73.01138210590028,7.3683999973036975],[-73.01644240304728,7.364006986573031],[-73.01603342950995,7.3594020457209695],[-73.00920711143868,7.351615306319161],[-73.00523401790213,7.350189800655926],[-73.00164004118818,7.344119416632282],[-73.00116374683205,7.338862258103688],[-72.99656707671471,7.338851176635558],[-72.99426188760089,7.341904726346343],[-72.99328216651804,7.339826409595219],[-72.9812331982784,7.333294603522688],[-72.97947678506415,7.329038974200557],[-72.97837206296379,7.31384356217967]],[[-73.01243195339316,7.324543844270011],[-73.01726036040634,7.325005011265148],[-73.01908768473231,7.3228472493863705],[-73.01851205722704,7.320210592220292],[-73.01617724382646,7.319360566995044],[-73.01243195339316,7.324543844270011]]]}}]}