{"type":"FeatureCollection","features":[{"type":"Feature","properties":{"code":"680517"},"geometry":{"type":"Polygon","coordinates":[[[-72.87513536154034,7.393092687233718],[-72.87344278889543,7.388595107553044],[-72.86315897871685,7.383527226670935],[-72.86608544378555,7.380509004989108],[-72.86436794272242,7.377308604999541],[-72.87029915379065,7.374905325095142],[-72.87168181762388,7.37636680362084],[-72.8812711113136,7.377874139369908],[-72.88658653419617,7.376290496271224],[-72.88379230729498,7.371020472955195],[-72.88521035880683,7.371546320757204],[-72.89200277118516,7.367038633543473],[-72.8962605633219,7.36171501500246],[-72.90305294073318,7.35712122349571],[-72.91018292188477,7.355397389283553],[-72.92254336833935,7.348461615103417],[-72.92517557029242,7.33993763153984],[-72.93102396808371,7.338198804692638],[-72.93316835609596,7.326035849026482],[-72.93167182516396,7.315517988984823],[-72.92338799115606,7.3106917931230555],[-72.92312754117353,7.308544027705523],[-72.91992699411668,7.308469115952448],[-72.91748765393226,7.305960895830367],[-72.91914918201132,7.296296448703629],[-72.92193070867586,7.293366588746096],[-72.93510816323709,7.304375338800185],[-72.93861675865315,7.305260047220884],[-72.94695007617287,7.314297815984219],[-72.95305891571917,7.31505674794181],[-72.95976450903692,7.321613171842898],[-72.96260065525524,7.3267157081525625],[-72.96865823516953,7.329527651004639],[-72.9745046079575,7.335387938619874],[-72.97919908398677,7.342078211229477],[-72.97979905061271,7.35308771924565],[-72.97474414661826,7.351580194263136],[-72.97119078001407,7.352582826988396],[-72.96257559828172,7.348979105781552],[-72.95025276402691,7.348828411184627],[-72.9460538224564,7.353100730071958],[-72.94429958131269,7.359675490074721],[-72.93760164886322,7.363742469100316],[-72.93430549264764,7.3707494238440745],[-72.93148761362534,7.374422758268054],[-72.9259581039774,7.376970329686287],[-72.92198312324882,7.38459014155444],[-72.91997674502352,7.384774766526959],[-72.91773877285578,7.382612809631155],[-72.9106323327535,7.395012296792231],[-72.91012587212134,7.392606233922379],[-72.90471484830755,7.393460999239153],[-72.89999851273251,7.3978590760777365],[-72.89612526656634,7.398080451415183],[-72.89608874965785,7.400734816304521],[-72.89202949937777,7.398970182749224],[-72.88989527854824,7.400790616510278],[-72.88590422840537,7.400200213371363],[-72.88238054573753,7.397567942512637],[-72.88258664356141,7.392087840271699],[-72.87513536154034,7.393092687233718]],[[-72.94332878813935,7.348898570504787],[-72.94515234116659,7.349734213989848],[-72.94481259209522,7.348637455119956],[-72.94831069739757,7.3487229803998275],[-72.94809233128291,7.347338092045447],[-72.94388932119381,7.3469884277596975],[-72.94332878813935,7.348898570504787]]]}}]}