{"type":"FeatureCollection","features":[{"type":"Feature","properties":{"code":"681002"},"geometry":{"type":"Polygon","coordinates":[[[-73.09452135797596,7.087499584404611],[-73.08229108971852,7.0838188883890325],[-73.08363677487256,7.071442511359805],[-73.08736306791565,7.069325654753811],[-73.0962503179457,7.069980474389865],[-73.10095850722752,7.067424662061796],[-73.10684779177961,7.072149904977493],[-73.10474184592027,7.079197375214221],[-73.10538950039734,7.082947747182004],[-73.10133789247357,7.084574415173449],[-73.10117221346917,7.085975156969255],[-73.09452135797596,7.087499584404611]]]}}]}