{"type":"FeatureCollection","features":[{"type":"Feature","properties":{"code":"681001"},"geometry":{"type":"Polygon","coordinates":[[[-73.08673208552023,7.085350143654239],[-73.09452135797596,7.087499584404611],[-73.10117221346917,7.085975156969255],[-73.10133789247357,7.084574415173449],[-73.10538950039734,7.082947747182004],[-73.10474184592027,7.079197375214221],[-73.10684779177961,7.072149904977493],[-73.1081928495837,7.073774850327709],[-73.10816004021046,7.087019869448625],[-73.10497980489333,7.0901349375055815],[-73.10654295833172,7.0962183066444595],[-73.10501706228047,7.093698618359781],[-73.10142865252584,7.0965194623818775],[-73.09875604718002,7.095623277571065],[-73.0923261309647,7.099058496698717],[-73.0925931547518,7.096436928841285],[-73.09039400011852,7.09641384647739],[-73.08879511344486,7.0993436436999104],[-73.08796304996821,7.092841767361563],[-73.08903199358173,7.092693978114767],[-73.08903877410324,7.0901671215857505],[-73.08831385479664,7.091813625148063],[-73.08706931799276,7.091011732061133],[-73.08673208552023,7.085350143654239]]]}}]}