{"type":"FeatureCollection","features":[{"type":"Feature","properties":{"code":"681038"},"geometry":{"type":"Polygon","coordinates":[[[-72.91355951258976,6.961589008231897],[-72.91532173856115,6.960126523889471],[-72.91835894220657,6.961259514789276],[-72.92001349538845,6.956196331832587],[-72.91952591696099,6.9530230251327225],[-72.91522985030747,6.950580603734522],[-72.91499326019135,6.945147781053095],[-72.90953842061248,6.941668463338658],[-72.89507340641148,6.938372398654394],[-72.89821636891486,6.935103036451721],[-72.90226001875033,6.935254321374714],[-72.90120727413489,6.932932823219403],[-72.90338153840236,6.9308148116724055],[-72.90065851057665,6.930770785076618],[-72.90049054328762,6.9287328665761265],[-72.90238983390725,6.924391335564167],[-72.90515893595779,6.923625207594284],[-72.91234590722308,6.926239763530589],[-72.91389466555154,6.925069419598458],[-72.90842452686172,6.922836549534111],[-72.90423615048121,6.918588487492002],[-72.89759064803138,6.917496245541656],[-72.90047527194469,6.913900737476752],[-72.8991167590271,6.908577034603468],[-72.89372253790714,6.9082110859588965],[-72.89309713069866,6.905512081522033],[-72.89102222837676,6.904553147319348],[-72.88693263081478,6.905699003006703],[-72.88325521553088,6.904814017934882],[-72.88402937357995,6.900096024510503],[-72.88867930159313,6.893947610496127],[-72.90138995637949,6.885442686029307],[-72.9123914939662,6.883915859237561],[-72.91472685861197,6.881464792751558],[-72.91584075647643,6.8763245506538055],[-72.9310543328491,6.867196430129866],[-72.93563904217996,6.865942840974981],[-72.940178723212,6.8674487729000475],[-72.94428425237697,6.862761905288494],[-72.94864789695998,6.863164356443349],[-72.9487467806797,6.869165343222733],[-72.94709923633354,6.8715764372333865],[-72.94566539102993,6.871117626400007],[-72.94594682329677,6.876411586715733],[-72.96020655214346,6.8857006122138955],[-72.95757454765135,6.8888609286563],[-72.9576276512808,6.894643711814922],[-72.95163127398081,6.905020674203058],[-72.95443828030875,6.907764373723353],[-72.95553003374897,6.905645792419193],[-72.95847473104664,6.908031580573208],[-72.96509010835825,6.9080482269438335],[-72.96801911470845,6.911861217691239],[-72.96515019099866,6.914250297889794],[-72.9657682273596,6.9202638038999],[-72.96409335215355,6.925093257867616],[-72.97652745154755,6.921190723715426],[-72.98176805832225,6.917229452125639],[-72.98328699181764,6.902939530263495],[-72.98535883760843,6.898446508640063],[-72.99055457857821,6.895163045462027],[-72.99388796646991,6.888335813105357],[-72.99829414229328,6.886093532791904],[-72.99739613096853,6.893135410358241],[-73.00222837612921,6.908002672082489],[-73.0011258260995,6.911475232929547],[-73.00219468538074,6.913385261517533],[-72.99932754499025,6.9150490552554515],[-72.99931994582852,6.918387354988624],[-73.00205997483744,6.920420977684728],[-73.00026489938352,6.922564082200722],[-72.99704457743394,6.9218764336509935],[-72.99489190017499,6.924112501143156],[-72.99559801441012,6.928372326510782],[-72.99391302344344,6.932300089386388],[-72.98665825827572,6.942088122393727],[-72.98069948289111,6.956146234340622],[-72.97567773999725,6.956185469422735],[-72.97750879037045,6.949868168691637],[-72.97238939068882,6.946793701488502],[-72.96990257554086,6.9423963764414225],[-72.9662934323851,6.94254841726962],[-72.96538644789939,6.9353125867571634],[-72.96001445039383,6.93923154925011],[-72.95726039548578,6.944133008592303],[-72.95063867062697,6.950377971761952],[-72.94872306788056,6.949342788830961],[-72.94609931355433,6.941767242157255],[-72.94308528586112,6.9418233313553515],[-72.93941538026445,6.95032967712973],[-72.9348071854202,6.9534590662486835],[-72.93023767029916,6.951343821212106],[-72.92771167046277,6.958576938693227],[-72.91735877671488,6.96878784669542],[-72.91525301700364,6.968747629450718],[-72.91653482250751,6.964898375820098],[-72.91355951258976,6.961589008231897]]]}}]}