{"type":"FeatureCollection","features":[{"type":"Feature","properties":{"code":"681007"},"geometry":{"type":"Polygon","coordinates":[[[-73.00222380881598,7.106212635965051],[-73.00317568276074,7.099719078698229],[-73.01170051993165,7.102508661153081],[-73.01948619078166,7.097630981458792],[-73.02291070587961,7.097619582201958],[-73.02594906446592,7.094801245522717],[-73.02902614596997,7.071891998333285],[-73.03211908091544,7.067853203774916],[-73.03752243666185,7.066113662160149],[-73.0407203560481,7.059081374820323],[-73.048589718465,7.051716973566329],[-73.0508241579326,7.044411206905693],[-73.06947369185468,7.036860931121566],[-73.07171738627653,7.036660298441234],[-73.07672769597491,7.041165750849359],[-73.08242046881583,7.053282973733587],[-73.07732104045942,7.055289928915215],[-73.07077550365085,7.067829309969852],[-73.07427158600677,7.068083592382607],[-73.0764199304374,7.073681176697789],[-73.08363677487256,7.071442511359805],[-73.08229717912667,7.083841614911819],[-73.08647585626579,7.084776663536957],[-73.08706931799276,7.091011732061133],[-73.08831385479664,7.091813625148063],[-73.08903877410324,7.0901671215857505],[-73.0884794206724,7.098982619238143],[-73.09039400011852,7.09641384647739],[-73.0925931547518,7.096436928841285],[-73.09191315575754,7.098658310174301],[-73.09401540333761,7.099499710880593],[-73.08743992033976,7.105337449893625],[-73.08662539386489,7.1079474220616135],[-73.08382668603963,7.106760429702035],[-73.08250277815591,7.114715889212789],[-73.07795100881049,7.1205453646902015],[-73.07481873902401,7.118219556332292],[-73.07072782299878,7.119167870837487],[-73.06812234923837,7.114995426060034],[-73.06276622060085,7.116103619153876],[-73.05984351243262,7.114728615160516],[-73.05776953056676,7.12349144010085],[-73.05327241574213,7.126962209401086],[-73.05192134771994,7.133119421741242],[-73.04438781395157,7.13639345101609],[-73.03589945872216,7.145058013415962],[-73.03544211239097,7.147650554511756],[-73.03261736542953,7.148434078586831],[-73.0238675513155,7.141199535684393],[-73.0183837518237,7.126883290835963],[-73.0070024248131,7.11989674861934],[-73.00222380881598,7.106212635965051]]]}}]}