{"type":"FeatureCollection","features":[{"type":"Feature","properties":{"code":"681018"},"geometry":{"type":"Polygon","coordinates":[[[-72.91114742716053,7.077462229162791],[-72.90825517837442,7.07375965920329],[-72.90787438107674,7.067768262650418],[-72.91668568165522,7.049084426056595],[-72.91367988458751,7.041520207677195],[-72.91455752760811,7.025710568646446],[-72.92201197928904,7.006319042243547],[-72.92103506688272,6.996121173864026],[-72.92555184449986,6.9853118614400955],[-72.93907250267091,6.965957246867617],[-72.94170499773008,6.957692585085113],[-72.94555034327914,6.952465041587288],[-72.94844897663643,6.956700748949459],[-72.94934179226954,6.953655049340398],[-72.95336299223334,6.952892798598782],[-72.95751350855943,6.9486298292824245],[-72.96705001743686,6.947475923975503],[-72.97265825538807,6.950887256497197],[-72.9743514327572,6.955654532887081],[-72.98069948289111,6.956146234340622],[-72.98665825827572,6.942088122393727],[-72.99391302344344,6.932300089386388],[-72.99559801441012,6.928372326510782],[-72.99489190017499,6.924112501143156],[-72.99704457743394,6.9218764336509935],[-73.00026489938352,6.922564082200722],[-73.00205997483744,6.920420977684728],[-73.00003307301319,6.919582350687904],[-72.999205500745,6.916002574708273],[-73.00219468538074,6.913385261517533],[-73.0011258260995,6.911475232929547],[-73.00222455752214,6.908044268468586],[-73.0101458583431,6.917736954570046],[-73.00976494997371,6.91965501220875],[-73.01198150585435,6.920649968639054],[-73.01142659735211,6.921998065490811],[-73.01352593238295,6.921819705790085],[-73.01123473008738,6.92283165003397],[-73.01092828198472,6.920813726512904],[-73.00801463130978,6.921028661743321],[-73.02511342612308,6.944505372661297],[-73.02493311958068,6.949283064088547],[-73.02654014946228,6.948297799700583],[-73.02976731878215,6.950089414445358],[-73.0337804290171,6.947332923157035],[-73.03537213921891,6.95070982033792],[-73.03329046871676,6.954084248228298],[-73.03459033881342,6.95748762677556],[-73.0397002521413,6.961534528546338],[-73.03993277373883,6.966359487191767],[-73.04628826979655,6.974440199688445],[-73.0488052388792,6.980954037841741],[-73.03782357697264,6.994888994825487],[-73.03447484780389,6.9931943087311765],[-73.0334374917739,6.990223207200188],[-73.03230529277477,6.992254882026202],[-73.0294318716858,6.990968061836611],[-73.0252692958428,6.985545543120736],[-73.01559543743855,6.987053931995035],[-73.01549356815013,6.989084495074621],[-73.01829722175552,6.98968526388569],[-73.01862128605006,6.991930378586687],[-73.01500942574916,6.992599146988709],[-73.0127745553641,6.999019834989269],[-73.01714984500171,7.006877179026901],[-73.01071809815875,7.0159440516850395],[-73.01116686008021,7.021517594099407],[-73.0063663094611,7.023998481304716],[-73.00586538287814,7.0288477101651665],[-73.00203065188435,7.033324240712773],[-73.0027187539772,7.03512832943693],[-73.00092650468338,7.035831636024],[-72.9996630332243,7.0392359525108645],[-72.98453220225139,7.039873131272429],[-72.97117267634042,7.049121868563361],[-72.96643776195128,7.050454262126266],[-72.96093395411032,7.057765137060926],[-72.94500779768435,7.067517581843333],[-72.94385915388938,7.069555689577271],[-72.9447196908256,7.072463204564201],[-72.94702635781135,7.070571435973136],[-72.95188021774845,7.072528087974263],[-72.95155346613359,7.073851929009152],[-72.94711330748407,7.074932891001993],[-72.94759316847893,7.085036917086995],[-72.9416421917739,7.09721921672849],[-72.93898775900738,7.097860224381577],[-72.93472947630352,7.093790504556637],[-72.91445861817732,7.084628347727573],[-72.91072738963862,7.081642395486654],[-72.91114742716053,7.077462229162791]]]}}]}