{"type":"FeatureCollection","features":[{"type":"Feature","properties":{"code":"681048"},"geometry":{"type":"Polygon","coordinates":[[[-72.87310757628399,6.915023389444002],[-72.86369383464688,6.908239528565218],[-72.86521140339909,6.904675812743903],[-72.86373898327344,6.902504628661802],[-72.86426554070084,6.899107911336728],[-72.8608168263504,6.893280513313243],[-72.86080902047172,6.88969145563982],[-72.86004629664654,6.894797335416115],[-72.85889400085216,6.894374014077243],[-72.85988608175722,6.887123882043056],[-72.85729254718598,6.889619195211594],[-72.85631587132144,6.893480343808392],[-72.85662117373909,6.886405894439065],[-72.85404984427026,6.888616478154006],[-72.85388166306518,6.881206821315459],[-72.85768854794935,6.878393199016784],[-72.86028054397059,6.873351911601276],[-72.8583833739994,6.871123132681248],[-72.85721442257847,6.871937129508183],[-72.8574522591669,6.867357658035132],[-72.85411059745519,6.861329378448204],[-72.84938810048101,6.860299144382623],[-72.85123378764814,6.8548321784379596],[-72.84916654002387,6.852330621594945],[-72.84952450075536,6.848532320092033],[-72.84619890228731,6.847787024253762],[-72.84801416401098,6.840494958504394],[-72.84747254195759,6.837420987010489],[-72.84484037702845,6.8348936028904745],[-72.84646420960388,6.833013483467823],[-72.84600661336117,6.827609577504688],[-72.85348373602892,6.8292175278423315],[-72.85761114222316,6.833394514221936],[-72.86346381319316,6.83540163292588],[-72.88343758307207,6.838580871682211],[-72.88594778500288,6.837146267387993],[-72.88973173767579,6.830881546809167],[-72.8885423593295,6.822187308700393],[-72.8858484621382,6.817488620170536],[-72.89171591079872,6.816251015069213],[-72.90999630584753,6.797243835119048],[-72.91408611835396,6.796538377030231],[-72.9198232335225,6.804733908963499],[-72.9260492661507,6.804295664923643],[-72.93102451110138,6.806856971191678],[-72.93614363310354,6.805505119496331],[-72.93837853845565,6.806570420366484],[-72.93203145197236,6.817952230745107],[-72.93358754926663,6.820643258581811],[-72.9324582360772,6.825311194623453],[-72.91904520647267,6.8432483428678665],[-72.91354402013167,6.853678003679136],[-72.91299526068718,6.858005976733352],[-72.9163444773377,6.87378086571988],[-72.91472685861197,6.881464792751558],[-72.9123914939662,6.883915859237561],[-72.90138995637949,6.885442686029307],[-72.88867930159313,6.893947610496127],[-72.87913471532812,6.904757344581469],[-72.87768556165764,6.913068645203737],[-72.87310757628399,6.915023389444002]]]}}]}