{"type":"FeatureCollection","features":[{"type":"Feature","properties":{"code":"681037"},"geometry":{"type":"Polygon","coordinates":[[[-72.84502116179658,7.047222210789755],[-72.8473254983316,7.042858454106522],[-72.84744024372031,7.036676330831654],[-72.8435487221306,7.033035265848525],[-72.84264081101816,7.029054020876629],[-72.84849254199167,7.018508123435026],[-72.85516051488213,7.017071235998401],[-72.85954074721451,7.012872122678004],[-72.85647380821058,7.00229825571364],[-72.85252844148437,6.998544133016026],[-72.85478700718505,6.984696875439624],[-72.87049703127349,6.962860882066366],[-72.87316715498753,6.952699522367823],[-72.86983334543442,6.946909683065087],[-72.87007001474058,6.935292254448541],[-72.87527394931197,6.923407189093155],[-72.8837038334704,6.917347653081208],[-72.88127035232299,6.908803963530545],[-72.88179740648809,6.904278284743384],[-72.88402937357995,6.900096024510503],[-72.883506861017,6.905021447591821],[-72.89102222837676,6.904553147319348],[-72.89309713069866,6.905512081522033],[-72.89372253790714,6.9082110859588965],[-72.90000917253923,6.909412099075382],[-72.89931528751401,6.912429907323315],[-72.90047527194469,6.913900737476752],[-72.89774401657883,6.9176672580489935],[-72.90423615048121,6.918588487492002],[-72.90842452686172,6.922836549534111],[-72.91389466555154,6.925069419598458],[-72.91234590722308,6.926239763530589],[-72.90515893595779,6.923625207594284],[-72.90238983390725,6.924391335564167],[-72.90049054328762,6.9287328665761265],[-72.90065851057665,6.930770785076618],[-72.90338153840236,6.9308148116724055],[-72.90120727413489,6.932932823219403],[-72.90226001875033,6.935254321374714],[-72.89821636891486,6.935103036451721],[-72.89507340641148,6.938372398654394],[-72.90953842061248,6.941668463338658],[-72.91499326019135,6.945147781053095],[-72.91522985030747,6.950580603734522],[-72.91952591696099,6.9530230251327225],[-72.92003722875648,6.955740975537708],[-72.91835894220657,6.961259514789276],[-72.91532173856115,6.960126523889471],[-72.91349864319085,6.961048680987631],[-72.91653482250751,6.964898375820098],[-72.91525301700364,6.968747629450718],[-72.91796153659067,6.968347457324455],[-72.92771167046277,6.958576938693227],[-72.93023767029916,6.951343821212106],[-72.9348071854202,6.9534590662486835],[-72.93941538026445,6.95032967712973],[-72.94361880378744,6.941465246182304],[-72.94647250963328,6.94224050980705],[-72.94872306788056,6.949342788830961],[-72.95063867062697,6.950377971761952],[-72.95726039548578,6.944133008592303],[-72.96001445039383,6.93923154925011],[-72.96592743128997,6.935620105468445],[-72.9662934323851,6.94254841726962],[-72.96990257554086,6.9423963764414225],[-72.97238939068882,6.946793701488502],[-72.97750879037045,6.949868168691637],[-72.97567773999725,6.956185469422735],[-72.9738094888013,6.955261121741955],[-72.97265825538807,6.950887256497197],[-72.96705001743686,6.947475923975503],[-72.95751350855943,6.9486298292824245],[-72.95336299223334,6.952892798598782],[-72.94934179226954,6.953655049340398],[-72.94844897663643,6.956700748949459],[-72.94555034327914,6.952465041587288],[-72.94170499773008,6.957692585085113],[-72.93907250267091,6.965957246867617],[-72.93152592208071,6.975086893600235],[-72.92184402742663,6.993718376299171],[-72.92088308056196,6.997205663414718],[-72.92201197928904,7.006319042243547],[-72.91455752760811,7.025710568646446],[-72.91367988458751,7.041520207677195],[-72.91671658943824,7.048934214827625],[-72.90787438107674,7.067768262650418],[-72.90825517837442,7.07375965920329],[-72.91114742716053,7.077462229162791],[-72.90621067269956,7.078834113889968],[-72.9001296124141,7.077783590710396],[-72.88170424502255,7.081301750641842],[-72.88403828297749,7.075908398555839],[-72.88443555489584,7.069242123624008],[-72.88371872223274,7.067351982028981],[-72.88040733272652,7.066624749755135],[-72.87840814125752,7.054074930008937],[-72.86305688214264,7.054212553101479],[-72.8546805932092,7.056407753373264],[-72.84502116179658,7.047222210789755]],[[-72.9058142975831,6.988605782850129],[-72.90566600954162,6.992353075661015],[-72.90737818635785,6.992833840656772],[-72.90819336692215,6.989768940025897],[-72.90709934165244,6.988097040104037],[-72.9058142975831,6.988605782850129]]]}}]}