{"type":"FeatureCollection","features":[{"type":"Feature","properties":{"code":"681529"},"geometry":{"type":"Polygon","coordinates":[[[-72.5383431600967,6.587366105500848],[-72.54220392097068,6.587040177668484],[-72.54937612277297,6.5912316311490144],[-72.55780650572603,6.592702613512017],[-72.5594770984975,6.590296465281426],[-72.56278124159769,6.589471512456328],[-72.56737547327782,6.5797929694963955],[-72.57917696739412,6.573891924704128],[-72.58091689673176,6.566775170351775],[-72.5914687478271,6.564914023636732],[-72.59877746097555,6.560879218406853],[-72.60282910283786,6.564362378382555],[-72.60457687404966,6.573991273279887],[-72.60173830584927,6.5817116915089855],[-72.60336288610239,6.59210745485484],[-72.60601015988055,6.5929333723590275],[-72.61079490128128,6.591604001388646],[-72.6174622025988,6.585630354725197],[-72.62735031643297,6.589131591635066],[-72.636529050727,6.597674747424037],[-72.63932170102584,6.605707815264168],[-72.63801653445017,6.614286074881704],[-72.63951561900495,6.616771769027309],[-72.63182286382272,6.617360738517391],[-72.62340549992348,6.622727423088861],[-72.61230252910809,6.625259307673332],[-72.59762378295443,6.623799528134725],[-72.59134402346064,6.620623717177352],[-72.58880343208182,6.621530506258978],[-72.58200886203105,6.628523345629105],[-72.56554133552015,6.651035843349007],[-72.56114621442543,6.6541430170811395],[-72.54261730652644,6.6587083227869925],[-72.51678261036943,6.687166460623644],[-72.50997672745103,6.688402060262035],[-72.50949457714313,6.689862341680623],[-72.49322495896837,6.698419657066211],[-72.4914149556713,6.703287854520454],[-72.49230149677663,6.706740101570915],[-72.48731273397743,6.711212653074426],[-72.48502617509985,6.698359448955841],[-72.49069536575382,6.6811098710995225],[-72.4855611976376,6.6724383903667785],[-72.48643881494718,6.654394784951933],[-72.49190886210556,6.651013715379747],[-72.49152734901196,6.6456048872907445],[-72.498531641118,6.6398050093606],[-72.49795225054157,6.6347616002681775],[-72.51305101056295,6.627687875950812],[-72.51868135180081,6.619910461437314],[-72.52017720190383,6.61674467265226],[-72.52115339028666,6.602366354098763],[-72.52492995874223,6.597916181504445],[-72.52715822755476,6.591731267036607],[-72.53686294951905,6.589205546936569],[-72.5383431600967,6.587366105500848]]]}}]}