{"type":"FeatureCollection","features":[{"type":"Feature","properties":{"code":"681501"},"geometry":{"type":"MultiPolygon","coordinates":[[[[-72.69695495951487,6.836609498554878],[-72.69777876562654,6.832233092028673],[-72.69865980147904,6.831757588544804],[-72.69854690111623,6.835219621225804],[-72.69695495951487,6.836609498554878]]],[[[-72.69699707732133,6.837949888258379],[-72.69666957288655,6.8370243794660155],[-72.69677232252172,6.8370438777077425],[-72.69699707732133,6.837949888258379]]],[[[-72.69240124744152,6.84615131008195],[-72.69095645745261,6.845749422513563],[-72.6922815254195,6.841809640230224],[-72.6935114326285,6.843050536347562],[-72.6969995682091,6.839019398543769],[-72.69606252851924,6.840923289386808],[-72.69763705447497,6.844193455831487],[-72.69582935591762,6.845702460742814],[-72.69286839585834,6.844534548048841],[-72.69240124744152,6.84615131008195]]],[[[-72.69105595001031,6.846894434878038],[-72.6910528286873,6.846418679425767],[-72.69155221466332,6.846562437177909],[-72.69105595001031,6.846894434878038]]]]}}]}