{"type":"FeatureCollection","features":[{"type":"Feature","properties":{"code":"681507"},"geometry":{"type":"Polygon","coordinates":[[[-72.6844702802893,7.0094189736834664],[-72.68321641139806,7.008459346310531],[-72.68595920897423,7.00192878979567],[-72.68444925789578,7.001210183069247],[-72.68190089869063,7.003607193588039],[-72.6830677562026,6.996844415780913],[-72.68219034560997,6.994876809838502],[-72.68006930632822,6.995437762497488],[-72.68231273129817,6.991744914405103],[-72.68075611258354,6.990760610582413],[-72.68455503423729,6.985738983902536],[-72.68315889986394,6.985177779275148],[-72.68003877289829,6.988210411493526],[-72.67636191400175,6.98563787051944],[-72.67825346970523,6.970179911521711],[-72.67492726856983,6.968001650726649],[-72.67338530104735,6.962123524775905],[-72.67606396083431,6.9580376008106555],[-72.67777312225707,6.949478648144577],[-72.67805470776182,6.930717513811032],[-72.67447589234746,6.920359866601814],[-72.67457523680946,6.911216472678063],[-72.66703007135618,6.9042935077495144],[-72.6671060238931,6.899646199179472],[-72.66265084689746,6.891344751036513],[-72.66087276645618,6.873644284439592],[-72.65540975281618,6.869396402374946],[-72.6515500779775,6.862477505965046],[-72.65521961539179,6.86527599164674],[-72.65449467448786,6.862306574704633],[-72.64928303585356,6.858367874342832],[-72.64832262892122,6.853237281092788],[-72.65218265343037,6.855439735998118],[-72.65135091185624,6.852654186066388],[-72.65605870415925,6.842703018421389],[-72.66792257434281,6.847014850070309],[-72.67706227615793,6.8430844060450795],[-72.69182603234174,6.844126937197814],[-72.69150472015934,6.846146555592156],[-72.69294371693155,6.844507256269708],[-72.69582935591762,6.845702460742814],[-72.69753029905621,6.84432658463021],[-72.69595341693866,6.838761386998442],[-72.69754676647784,6.829803056163712],[-72.69328223907104,6.8164604707579315],[-72.69309156274272,6.810022424704471],[-72.695273103241,6.8061844808562455],[-72.6938767621507,6.801460747694136],[-72.69505415091407,6.80117800004939],[-72.718233904197,6.810653271345473],[-72.72202482765329,6.816564749687075],[-72.72440529978792,6.82433787559529],[-72.73175302793175,6.832291059162799],[-72.73452207856013,6.831376736739685],[-72.7346905826962,6.82812621354708],[-72.73646800287736,6.826844122136208],[-72.74280835923281,6.832872207347464],[-72.74576827336602,6.83039669581126],[-72.74916339763365,6.830383486495521],[-72.75650384543292,6.826814825922611],[-72.75764069813442,6.82904745533142],[-72.74892747806211,6.843717985257797],[-72.73930614838793,6.850580837721111],[-72.73923727667778,6.853776266219597],[-72.74406662677274,6.862523504085118],[-72.74508935320796,6.867569532620621],[-72.7387261109211,6.8747950272857565],[-72.73742177121323,6.879059359288533],[-72.73919885509372,6.8904467787926365],[-72.73914607953742,6.9095887536183795],[-72.73482715369204,6.925356896021924],[-72.73727614375258,6.931053341431095],[-72.73542925742152,6.94230282828147],[-72.73735990525353,6.948960564055085],[-72.73634533848127,6.953800822839867],[-72.74206015393071,6.953588770333852],[-72.74551594705093,6.9604282288152035],[-72.74452362857568,6.9701998653634405],[-72.74107584805108,6.979235686256629],[-72.74421883626553,6.988330876051123],[-72.74035007205185,6.992236442051819],[-72.73084359061068,6.996469323253905],[-72.72393840642485,7.004936766133142],[-72.70909975082924,7.004278965042147],[-72.69925736566324,7.00069750858745],[-72.69216204816678,7.0078677285810045],[-72.6844702802893,7.0094189736834664]],[[-72.6910528286873,6.846418679425767],[-72.6912750833431,6.846596686370674],[-72.69155221466332,6.846562437177909],[-72.6910528286873,6.846418679425767]],[[-72.69654381493535,6.837906507524508],[-72.69673506821994,6.837417885227865],[-72.69666957288655,6.8370243794660155],[-72.69654381493535,6.837906507524508]],[[-72.69667558207618,6.836488875617192],[-72.69940643634942,6.833146238941936],[-72.69865980147904,6.831757588544804],[-72.69667558207618,6.836488875617192]]]}}]}