{"type":"FeatureCollection","features":[{"type":"Feature","properties":{"code":"681567"},"geometry":{"type":"Polygon","coordinates":[[[-72.62433632473522,6.701350708988571],[-72.62749520238657,6.698695656071209],[-72.62998261403118,6.682683666861067],[-72.63375138483565,6.673956824039124],[-72.64166287328652,6.667229621087131],[-72.64850745855381,6.6589013779028505],[-72.65067425015792,6.652538059511244],[-72.65628208290275,6.6493248029617575],[-72.65845610342933,6.645893703774846],[-72.66200473919798,6.635595177612231],[-72.66272126229984,6.6256998173720945],[-72.66771103400112,6.619541001690038],[-72.66798627093021,6.616138294715711],[-72.68008635173453,6.60904917358539],[-72.68651868067599,6.600086126313272],[-72.69821505356873,6.59899891447526],[-72.70254075993563,6.5944977146769475],[-72.70872850056355,6.59249886773614],[-72.71484714630924,6.587247619666698],[-72.71632020509765,6.58327857613682],[-72.72318649564431,6.581845247111346],[-72.71990584937032,6.593561178923892],[-72.7083157701257,6.613508831505044],[-72.70585236541478,6.622048145032807],[-72.70830808457475,6.636718846709073],[-72.70981925435757,6.662316226669532],[-72.70650749461208,6.692413314158216],[-72.7087576589658,6.698927216074935],[-72.70726999423675,6.704672438455873],[-72.7096885598823,6.710798098179566],[-72.70720153596051,6.718197077727893],[-72.7013263328434,6.7197941718262655],[-72.69980847612732,6.716949124437974],[-72.69666547042937,6.717244195909473],[-72.69779441235102,6.712513893056553],[-72.69681745675013,6.7110579712058325],[-72.69273632944078,6.707377390375825],[-72.6872273619037,6.706618234217785],[-72.68635714732335,6.702220131668184],[-72.68175736719581,6.702511016350172],[-72.67748443638521,6.693640941310207],[-72.67034340873255,6.697299670822019],[-72.66687868873123,6.696326980172216],[-72.64731642544353,6.699987837531637],[-72.63736727251745,6.699182401460234],[-72.62433632473522,6.701350708988571]],[[-72.6999978535327,6.671856294986526],[-72.70209692219692,6.671594809362375],[-72.7020449241432,6.670369423186628],[-72.7007491523899,6.667584379248638],[-72.69877396476926,6.667402491990117],[-72.6999978535327,6.671856294986526]]]}}]}