{"type":"FeatureCollection","features":[{"type":"Feature","properties":{"code":"681509"},"geometry":{"type":"Polygon","coordinates":[[[-72.59417747104578,6.924991944966621],[-72.55238432433936,6.923070849308715],[-72.55095327845623,6.9149477598380145],[-72.55286786407305,6.910265950106805],[-72.55165525629559,6.907620332121041],[-72.54883128477985,6.906373447382919],[-72.54776338092165,6.901976800079467],[-72.55008360689357,6.896377274064889],[-72.5468561074436,6.88950851936994],[-72.54722964907927,6.8855572082459275],[-72.55405791502073,6.875834754904247],[-72.55445579886236,6.864523402094164],[-72.55104466483004,6.861414319572702],[-72.55073971002594,6.859200989916189],[-72.5518920973517,6.855894046366984],[-72.55540164921928,6.854353830282093],[-72.55440973492193,6.848809638588762],[-72.55741538595083,6.844659974841534],[-72.55907114960962,6.835874523137306],[-72.55668331896874,6.8277417889327126],[-72.5597203426367,6.822906312405621],[-72.56910612297855,6.817282866874905],[-72.57115708213018,6.814652059489902],[-72.57048568502915,6.810652306666384],[-72.574277564937,6.806904913068138],[-72.5757579400655,6.806699349005953],[-72.57660450252479,6.808550543482738],[-72.57631493630606,6.804619774469643],[-72.58224298491359,6.796929833106162],[-72.5841733560946,6.799243130460809],[-72.59908893919055,6.80118846033821],[-72.60345287687966,6.800291069164359],[-72.61445533697923,6.804028493040789],[-72.62192459309023,6.794527923087173],[-72.62730365805277,6.811267309121945],[-72.63384966383114,6.818606774758564],[-72.64012873118315,6.812815366052575],[-72.64377531170351,6.8121697149815645],[-72.64604195890547,6.817474807159044],[-72.64937601939857,6.8185299151354],[-72.65370214742694,6.823972191260452],[-72.6591186343274,6.825429999274775],[-72.67356218801837,6.824632834966565],[-72.67604909983993,6.826268367104092],[-72.6799712011395,6.824996149769788],[-72.68394619009558,6.820685530654657],[-72.68219075904386,6.81163050256896],[-72.69126214965002,6.807602323594267],[-72.69145359113952,6.801567672805959],[-72.6938767621507,6.801460747694136],[-72.695273103241,6.8061844808562455],[-72.69309156274272,6.810022424704471],[-72.69328223907104,6.8164604707579315],[-72.69766092462584,6.830602278385413],[-72.69611340659907,6.840113279831485],[-72.6935114326285,6.843050536347562],[-72.6929172993286,6.84130976677244],[-72.6922815254195,6.841809640230224],[-72.69212125705116,6.844069168553119],[-72.67706227615793,6.8430844060450795],[-72.66792257434281,6.847014850070309],[-72.65605870415925,6.842703018421389],[-72.65135091185624,6.852654186066388],[-72.65218265343037,6.855439735998118],[-72.64838352505967,6.852908643314379],[-72.64928303585356,6.858367874342832],[-72.65449467448786,6.862306574704633],[-72.65521961539179,6.86527599164674],[-72.65154961929215,6.862250375463191],[-72.65340357205179,6.866131637310332],[-72.66087276645618,6.873644284439592],[-72.66265084689746,6.891344751036513],[-72.6671060238931,6.899646199179472],[-72.66690638160293,6.903105665896419],[-72.66296293909267,6.903105665896419],[-72.66053112916433,6.904842674457257],[-72.65670971341581,6.910748496364988],[-72.64003443945927,6.911790703558381],[-72.63656043879263,6.9135277038917025],[-72.63026761087974,6.912547057210588],[-72.62934340101032,6.908717130071807],[-72.62372991800225,6.902843145659062],[-72.615933265443,6.903057136779296],[-72.60860932003237,6.909650635004709],[-72.60237157035857,6.909655642491373],[-72.60166798506361,6.9157739982162525],[-72.59819319455312,6.921069407607433],[-72.59417747104578,6.924991944966621]]]}}]}