{"type":"FeatureCollection","features":[{"type":"Feature","properties":{"code":"681508"},"geometry":{"type":"Polygon","coordinates":[[[-72.56367082586439,6.999158584226336],[-72.55702540260461,6.992980658025431],[-72.55263831261755,6.986209356486654],[-72.5543932263626,6.969860832088045],[-72.54943369807052,6.960674902810183],[-72.5448181745449,6.955710747555202],[-72.54313243487206,6.950138603822609],[-72.54211788146955,6.936319402158119],[-72.55006827795785,6.924320858455246],[-72.56221655672084,6.922907536750529],[-72.56812238068545,6.9242971477129345],[-72.59417747104578,6.924991944966621],[-72.60166798506361,6.9157739982162525],[-72.60237157035857,6.909655642491373],[-72.60860932003237,6.909650635004709],[-72.615933265443,6.903057136779296],[-72.62063401702858,6.9025189898331405],[-72.62512047307496,6.903927766850359],[-72.62934340101032,6.908717130071807],[-72.63026761087974,6.912547057210588],[-72.63343382441155,6.913180307321738],[-72.65670971341581,6.910748496364988],[-72.65844672197665,6.906927079588058],[-72.66296293909267,6.903105665896419],[-72.66690638160293,6.903105665896419],[-72.67404118820679,6.910183248930082],[-72.67447589234746,6.920359866601814],[-72.67813106447664,6.9316646538349005],[-72.67768813279577,6.95030214366659],[-72.67606396083431,6.9580376008106555],[-72.67338530104735,6.962123524775905],[-72.67492726856983,6.968001650726649],[-72.67825346970523,6.970179911521711],[-72.67636191400175,6.98563787051944],[-72.68003877289829,6.988210411493526],[-72.68315889986394,6.985177779275148],[-72.68455503423729,6.985738983902536],[-72.68075611258354,6.990760610582413],[-72.68231273129817,6.991744914405103],[-72.68006930632822,6.995437762497488],[-72.68219034560997,6.994876809838502],[-72.6830677562026,6.996844415780913],[-72.68190089869063,7.003607193588039],[-72.68444925789578,7.001210183069247],[-72.68595920897423,7.00192878979567],[-72.68376946664694,7.008096443912734],[-72.6819301794776,7.00674922020869],[-72.67681036739049,7.007118127682361],[-72.67822959132678,6.996942541538488],[-72.67326338535742,6.987596500215545],[-72.66825811297048,6.965689696517927],[-72.66383272069868,6.97221436828471],[-72.66448898838183,6.976225435004324],[-72.65699619225006,6.985075261039583],[-72.65749253712158,6.991468910257879],[-72.6496184099305,6.997284615918431],[-72.64717691618745,6.997229720742098],[-72.63858597278835,6.990029454800322],[-72.63178098872868,6.986853766227625],[-72.62719564176348,6.989288212054078],[-72.62132806351923,6.987639575501987],[-72.61219578088844,6.993568182553759],[-72.5994306351036,6.9895225992463],[-72.59223655627204,6.992919049176351],[-72.58781862637915,6.998480069274649],[-72.57883872601951,6.999031129344985],[-72.57421538838764,7.001932632056935],[-72.56367082586439,6.999158584226336]]]}}]}