{"type":"FeatureCollection","features":[{"type":"Feature","properties":{"code":"681517"},"geometry":{"type":"Polygon","coordinates":[[[-72.49711063386235,6.898849433906946],[-72.4965921795336,6.884749117764386],[-72.50210013919701,6.882074841199483],[-72.50070452418714,6.871622234807148],[-72.49721757337232,6.866949980335335],[-72.49241914031631,6.8667521902701765],[-72.49024439473777,6.864932668737595],[-72.48950378962587,6.856117196796276],[-72.4840943773815,6.847622931107708],[-72.47831952248629,6.8419769606289265],[-72.47743422785328,6.836255752380794],[-72.4838055269588,6.82226652859913],[-72.48449899855007,6.81732902646047],[-72.4825391336945,6.81213642943942],[-72.48407263816352,6.808171133554083],[-72.4891309195632,6.806856824124395],[-72.49209119467974,6.802454395945574],[-72.49865278856134,6.798038862323722],[-72.4985844166743,6.7930253613682225],[-72.49595114616943,6.79046888055251],[-72.49797336138113,6.780776593486735],[-72.49805056450413,6.764383392516663],[-72.49123658568618,6.761458513306309],[-72.48772682710165,6.7425362847650945],[-72.49151205504324,6.736964761183344],[-72.49822563524566,6.734513254523961],[-72.49845499746772,6.7286035862411495],[-72.50739631374944,6.722920866425852],[-72.51567497674836,6.7247055330130365],[-72.52203812441843,6.728929065672617],[-72.53011034506528,6.729590881803119],[-72.53562638725845,6.7408452270159955],[-72.53574001267327,6.745645410481131],[-72.5503510708541,6.745992060401818],[-72.55656136111264,6.743648855938716],[-72.56448194099539,6.744861093476857],[-72.5704933366415,6.743587118534322],[-72.57442291677506,6.744446709303475],[-72.57842790025717,6.7479889605009475],[-72.58163357924224,6.756308344681372],[-72.58343620140732,6.7675746918184245],[-72.58268511132394,6.779592137266377],[-72.58433750889031,6.783047148770322],[-72.58283533695106,6.791609584771209],[-72.5858861180946,6.798967147910901],[-72.5841733560946,6.799243130460809],[-72.58224298491359,6.796929833106162],[-72.57991548682463,6.799112418501977],[-72.57599370434224,6.805405203220289],[-72.57660450252479,6.808550543482738],[-72.5757579400655,6.806699349005953],[-72.57409405068239,6.80702750033106],[-72.57048568502915,6.810652306666384],[-72.57115708213018,6.814652059489902],[-72.56910612297855,6.817282866874905],[-72.55998669587927,6.822686824260188],[-72.55694252042207,6.826923410940651],[-72.55896464101704,6.8366639926385915],[-72.55741538595083,6.844659974841534],[-72.55440973492193,6.848809638588762],[-72.55540164921928,6.854353830282093],[-72.5518920973517,6.855894046366984],[-72.55073971002594,6.859200989916189],[-72.55104466483004,6.861414319572702],[-72.55445579886236,6.864523402094164],[-72.55405791502073,6.875834754904247],[-72.54723719784738,6.886021619977271],[-72.53868495165494,6.889293390792318],[-72.53097150420922,6.884245181958704],[-72.53036844402823,6.886445129521121],[-72.52503589037855,6.886374990769809],[-72.52069362300176,6.890354684850422],[-72.51278150514406,6.889057083497903],[-72.51216411464497,6.892504011443634],[-72.5143463729961,6.899321014911038],[-72.51171416178704,6.904167468005085],[-72.50398495551661,6.90731691895229],[-72.49711063386235,6.898849433906946]]]}}]}