{"type":"FeatureCollection","features":[{"type":"Feature","properties":{"code":"681548"},"geometry":{"type":"Polygon","coordinates":[[[-72.63726958693326,6.508392984594025],[-72.63144820324158,6.502362649150484],[-72.62580980724198,6.501888819971043],[-72.62595459857886,6.493178391091703],[-72.62196462521524,6.488375890545569],[-72.62451368684668,6.486667936514323],[-72.62717623711,6.480832576288833],[-72.62597110713813,6.468115950365188],[-72.63111279728298,6.465964505180352],[-72.63662153136357,6.460243355553416],[-72.64256555476874,6.459951722165272],[-72.64091681331547,6.447752438824011],[-72.64773837586858,6.439837020694256],[-72.64884630979486,6.436405009278815],[-72.65526093306994,6.442136100859557],[-72.66013479518557,6.44312301795469],[-72.66601731464277,6.455446274899373],[-72.66638363661195,6.459399042297946],[-72.67022596573912,6.462473427225689],[-72.67324406709315,6.470651733775242],[-72.67722563910979,6.4755913668468],[-72.67955786700588,6.484349555568315],[-72.67901221860001,6.490482237497474],[-72.68260462693917,6.496269414162555],[-72.68297707534043,6.501446595858681],[-72.68565359288164,6.507689206980274],[-72.69189361849874,6.513570237252679],[-72.68976460878741,6.515366471761297],[-72.6919127608993,6.521567298291757],[-72.68954367979399,6.522500413445016],[-72.69323476205057,6.5270257405048255],[-72.6942626409828,6.531737790559873],[-72.69244195833863,6.532016528307281],[-72.69277206164764,6.533409478622616],[-72.6853569530353,6.539932570701637],[-72.66768579705013,6.545751298954713],[-72.66403841948687,6.545685342879096],[-72.657724461194,6.550585042556179],[-72.65699947503856,6.535015761854879],[-72.65223094086349,6.532434964544223],[-72.64583049364012,6.524869696125052],[-72.64713493619229,6.518694741094521],[-72.65223935043798,6.5135238082151545],[-72.6423360290243,6.508605173882927],[-72.63726958693326,6.508392984594025]]]}}]}