{"type":"FeatureCollection","features":[{"type":"Feature","properties":{"code":"682038"},"geometry":{"type":"Polygon","coordinates":[[[-72.77259489101942,6.7009501799927875],[-72.76871987901751,6.671888227098293],[-72.76502744127367,6.659616582541389],[-72.76730105205996,6.653780445841846],[-72.76849847796893,6.637382532548145],[-72.771367978635,6.632637262771254],[-72.76855954277192,6.624126444300373],[-72.7692697491799,6.614088076042663],[-72.76450914223972,6.606681789410231],[-72.76503490365258,6.6005867279083645],[-72.76981143396824,6.594210182717575],[-72.77058937462891,6.579824781280422],[-72.77461080702074,6.57861827422397],[-72.77886742673297,6.5803854490607705],[-72.78172900942013,6.579795106599988],[-72.78356042900418,6.573818633776511],[-72.79157855563142,6.568669465826133],[-72.79584364456781,6.568467993936736],[-72.8043126043998,6.560598589353674],[-72.80879158881123,6.559355649721056],[-72.80566318905397,6.553386742120722],[-72.80618222136741,6.545669917269777],[-72.80803655259393,6.542954592478566],[-72.81452911947059,6.541176498667539],[-72.81999215162256,6.545300208639389],[-72.8259508663291,6.546453079333105],[-72.83037534431548,6.552967557177624],[-72.83386937801396,6.574679998608929],[-72.83559437539463,6.579429379070575],[-72.83834859588188,6.582022928039976],[-72.84003484463375,6.592831542151487],[-72.84471189781834,6.597492198876978],[-72.850304428367,6.598953634208044],[-72.8619090683008,6.60763572126848],[-72.84039539806884,6.614008357349292],[-72.83495915684449,6.622240033894855],[-72.827808938001,6.62392761756513],[-72.8123332321992,6.636306455657291],[-72.80677372082607,6.638835086249628],[-72.80494288025517,6.642923872370375],[-72.80417826615263,6.659918323462648],[-72.8022927165535,6.663024831792484],[-72.80299577631439,6.6791272087586435],[-72.80007635504847,6.692225918561519],[-72.79478162545774,6.698368603122674],[-72.79362536810282,6.704417906131596],[-72.78962252995177,6.709307719390665],[-72.7864919776643,6.71110855000893],[-72.78306698536903,6.710764311785908],[-72.77921196834654,6.7143404614772635],[-72.77539471881863,6.724643968386943],[-72.77290787693119,6.72172526703082],[-72.77106149042311,6.71433793665085],[-72.77259489101942,6.7009501799927875]]]}}]}