{"type":"FeatureCollection","features":[{"type":"Feature","properties":{"code":"682057"},"geometry":{"type":"Polygon","coordinates":[[[-73.00373737795525,6.823823033156657],[-73.01023064314438,6.8101012774492915],[-73.01158885061449,6.803352136789954],[-73.01577397608821,6.798967119114479],[-73.01577397608821,6.793411461315486],[-73.01160722991074,6.798504154401826],[-73.00419968652159,6.803596838232181],[-73.00049591534122,6.803596838232181],[-72.99725510784504,6.800819004704692],[-73.00234780093137,6.791559574696862],[-73.00327373961272,6.7846150052763505],[-73.00142185402251,6.773503689678364],[-73.00419968652159,6.766096146289158],[-73.00419968652159,6.7517440231950445],[-73.00836643269906,6.74063270656859],[-73.01577397608821,6.728595453317723],[-73.01855180035972,6.71794710243239],[-73.01793549281064,6.706955640497085],[-73.01561604331283,6.704816967539898],[-73.01524183216111,6.6980501458967865],[-73.01656883668522,6.69510223471616],[-73.01934816865344,6.69654627702738],[-73.01942756030212,6.694914510017895],[-73.02219126508629,6.69543803251139],[-73.02318494007721,6.693296393525998],[-73.02036487047235,6.690605095208923],[-73.0188344369327,6.691854472891748],[-73.01737882567164,6.69044002298557],[-73.0205901045262,6.689939509836563],[-73.0260756667684,6.693660331565411],[-73.03378154076347,6.688785569562583],[-73.0386411034143,6.682287461437625],[-73.03928979456145,6.675370192023763],[-73.04332589871416,6.673355746695279],[-73.0454997855432,6.664576942843553],[-73.04706424716045,6.663437645534145],[-73.04966605555177,6.664593542934256],[-73.0501413255792,6.662227666455806],[-73.05335285845905,6.668569875036212],[-73.06542907219784,6.669149791146822],[-73.07106629680146,6.672855773478602],[-73.0781014267564,6.674541617024147],[-73.08192886814965,6.677831310506974],[-73.08186849137473,6.688637581826356],[-73.08349098697488,6.6906570480111895],[-73.09846643776672,6.699020877363523],[-73.09006261948394,6.705402859929961],[-73.0824700870536,6.70463592257579],[-73.07521584742,6.70870540894424],[-73.06634772950616,6.7098150161465355],[-73.0597130421578,6.7056186343695],[-73.06035926195756,6.709056695083802],[-73.05671054536214,6.707863585548125],[-73.05240303625709,6.709257054198417],[-73.0476197243915,6.7052372940542],[-73.04388309344421,6.7050169697849356],[-73.03932771426554,6.701775166756477],[-73.03668399992694,6.70272110350254],[-73.03556309631199,6.700924089434523],[-73.03680715489008,6.705398628917408],[-73.03565863553666,6.710187894436785],[-73.03757868526856,6.715731853702152],[-73.04305380676232,6.720286578791331],[-73.04831173250903,6.722286734939473],[-73.05482153299698,6.728396333476326],[-73.06415636429654,6.732414241395588],[-73.0680085078506,6.737003802918252],[-73.0625092076732,6.745983668310885],[-73.05741845114414,6.749276386443171],[-73.05656067866141,6.754526281082235],[-73.05112840619671,6.758877105100794],[-73.04443228277762,6.759963645365872],[-73.03689947200434,6.767407465007977],[-73.0344762968794,6.772326185729412],[-73.02624215515715,6.777704681963257],[-73.02519341529688,6.781670227760117],[-73.02652013185707,6.784525537976322],[-73.02374543816461,6.793459821768067],[-73.01712404549272,6.8019776799279725],[-73.01473352753152,6.81138170175484],[-73.00955209014029,6.814839683400805],[-73.01010927664271,6.81799278840424],[-73.00796401753968,6.822753688450518],[-73.00373737795525,6.823823033156657]]]}}]}