{"type":"FeatureCollection","features":[{"type":"Feature","properties":{"code":"682041"},"geometry":{"type":"Polygon","coordinates":[[[-73.07476546775843,6.604633489810965],[-73.0751808443789,6.607545148392717],[-73.07347091368109,6.606425129238403],[-73.06792535004541,6.608648485180993],[-73.06638044426268,6.606131820517362],[-73.06270733506756,6.60480215952623],[-73.06293035694148,6.602407885692969],[-73.06663784285627,6.602910539030859],[-73.06815440784851,6.601681417551902],[-73.06734450627971,6.6004931499235795],[-73.07022135619604,6.600767917882877],[-73.07123848070484,6.6046417173511145],[-73.07476546775843,6.604633489810965]]]}}]}