{"type":"FeatureCollection","features":[{"type":"Feature","properties":{"code":"682047"},"geometry":{"type":"Polygon","coordinates":[[[-73.08193616597777,6.688705531023572],[-73.08148905573495,6.677326384311073],[-73.06542907219784,6.669149791146822],[-73.05335285845905,6.668569875036212],[-73.04877420665463,6.658724800493019],[-73.04924467591235,6.6558902997827545],[-73.04159759283391,6.6492528634075825],[-73.03785822108733,6.647859454406898],[-73.03064328235615,6.649688548682434],[-73.02769226836449,6.646990317634334],[-73.02552921720587,6.6479304889316495],[-73.02080376448788,6.646462634062402],[-73.03248381702628,6.64077850425241],[-73.03515381527035,6.633725172921743],[-73.04006945889176,6.629975256554019],[-73.04698758705513,6.63019530520063],[-73.04921837452338,6.628673355283354],[-73.05388052557589,6.619016885785186],[-73.05857540681154,6.616968151154708],[-73.06046400574274,6.610002101683733],[-73.06488358011529,6.6102868599336375],[-73.07240237835924,6.606716244291476],[-73.07704761358917,6.606444124571681],[-73.08234213029226,6.6015267099722905],[-73.08503546903933,6.596011570751614],[-73.09124114261942,6.592315287661222],[-73.10153246454217,6.582692327905704],[-73.10811795942794,6.571697052505499],[-73.11064891018657,6.575448417948792],[-73.1120906909527,6.585492637015989],[-73.11060898913331,6.591928240518428],[-73.10811943318606,6.595309320375009],[-73.10946552868865,6.595866850377263],[-73.10893483795081,6.599664254049912],[-73.10510381346381,6.603569355194622],[-73.10779996808645,6.609583637678838],[-73.1050427743719,6.612218278069122],[-73.10531743331626,6.615089399560588],[-73.10043430801886,6.6251449057844525],[-73.09999634885759,6.629423894121544],[-73.10212514979503,6.631428462288056],[-73.1008591617371,6.631492638129657],[-73.10198033171866,6.637228090306678],[-73.10757296613997,6.641772139134105],[-73.1165659112645,6.661212539182372],[-73.11954052595513,6.663721620110891],[-73.1165138936704,6.668744893327187],[-73.12042653432718,6.674836146506436],[-73.11788806153999,6.6804616005853745],[-73.11889374565419,6.684679023267961],[-73.11558868826859,6.6903651204884795],[-73.10819527567958,6.689578658153096],[-73.10192836657507,6.693028989215179],[-73.08193616597777,6.688705531023572]]]}}]}