{"type":"FeatureCollection","features":[{"type":"Feature","properties":{"code":"682048"},"geometry":{"type":"Polygon","coordinates":[[[-72.91350715869493,6.6756053412918845],[-72.89747699690548,6.672094384571835],[-72.89198448753405,6.662954717723778],[-72.88510265310714,6.658674351273703],[-72.88237089483295,6.647960345646425],[-72.87745794778783,6.64329820796371],[-72.8769154536152,6.637257809210098],[-72.87307843125143,6.634509214303421],[-72.87262846913751,6.6304003334443],[-72.87719828970603,6.631090609664682],[-72.88313398992585,6.627302288167925],[-72.8973175399783,6.630592076267476],[-72.89769936366156,6.6335040567518035],[-72.89561579054077,6.638035189369646],[-72.89702777629867,6.642599546851443],[-72.90186476874999,6.644604545935408],[-72.90685435121782,6.642807144144513],[-72.91179880871329,6.648617284902571],[-72.91636846575943,6.648537659797455],[-72.91709317320687,6.637861230374483],[-72.91586478809279,6.63203729614537],[-72.92048847950883,6.621348511013991],[-72.92288414996705,6.61903968532738],[-72.92308257149597,6.61196017087866],[-72.92951467623692,6.611747955878684],[-72.93454262783825,6.603922407169989],[-72.93877016628147,6.601572490062551],[-72.94613968609383,6.6025533064366755],[-72.94911540327479,6.6069832721923945],[-72.94948917836689,6.613079842419438],[-72.95185721560307,6.615397396497656],[-72.95483029585739,6.615062852373853],[-72.9597891083535,6.608682239692882],[-72.96609944550033,6.60936204636846],[-72.97627705664752,6.607552823659262],[-72.97690975757035,6.604071240285975],[-72.97929800987265,6.603435773881188],[-72.98321576805944,6.597988258869918],[-72.98187704031909,6.573652964028042],[-72.99467336848107,6.559866409242886],[-72.99749061089744,6.552000122897596],[-72.99469618550677,6.550372354472643],[-72.9946739978879,6.54496811118031],[-72.99262544220642,6.541234298165534],[-72.99963151763177,6.535424804297861],[-73.00842562059444,6.533077152849273],[-73.01153194586152,6.533617182873684],[-73.01418307938445,6.538860917142074],[-73.01898310755479,6.53629665615864],[-73.02343377894374,6.540254705638006],[-73.0234603179029,6.537844196811193],[-73.02762449091722,6.535634495499892],[-73.03271495536859,6.539528247781391],[-73.03984259269964,6.539220974867874],[-73.04538670725981,6.542936995827063],[-73.05528605682855,6.546100199107627],[-73.06202446980399,6.55389153976131],[-73.0657166134132,6.555445050522621],[-73.07028492628501,6.55290128845553],[-73.07272145676444,6.553961746389859],[-73.07804950377897,6.559705643108373],[-73.08185655835615,6.569989633264356],[-73.08574269399242,6.568989301165004],[-73.0871133723565,6.571340458574127],[-73.10420555222754,6.561825465742629],[-73.10669920960362,6.561479969734421],[-73.1075216550858,6.562776718508076],[-73.10811795942794,6.571697052505499],[-73.10153246454217,6.582692327905704],[-73.09124114261942,6.592315287661222],[-73.08503546903933,6.596011570751614],[-73.08234213029226,6.6015267099722905],[-73.07704761358917,6.606444124571681],[-73.0752989784857,6.606452260580454],[-73.07476546775843,6.604633489810965],[-73.07123848070484,6.6046417173511145],[-73.07022135619604,6.600767917882877],[-73.06734450627971,6.6004931499235795],[-73.06815440784851,6.601681417551902],[-73.06663784285627,6.602910539030859],[-73.06293035694148,6.602407885692969],[-73.06270733506756,6.60480215952623],[-73.06638044426268,6.606131820517362],[-73.06828938167314,6.609058874883658],[-73.06046400574274,6.610002101683733],[-73.05857540681154,6.616968151154708],[-73.05388052557589,6.619016885785186],[-73.04921837452338,6.628673355283354],[-73.04698758705513,6.63019530520063],[-73.04006945889176,6.629975256554019],[-73.03515381527035,6.633725172921743],[-73.03248381702628,6.64077850425241],[-73.0179819043646,6.647159416210172],[-72.99235954559225,6.6423798519890624],[-72.97771873456935,6.644838191620579],[-72.96750643302755,6.653666259925842],[-72.96762403131578,6.660166866137672],[-72.96161254928052,6.664987832369263],[-72.95199937104178,6.678896593893569],[-72.93817332714923,6.690191566699696],[-72.92804972466087,6.685576406214295],[-72.92476130644678,6.680918403898943],[-72.92067130367849,6.68021377267786],[-72.91350715869493,6.6756053412918845]]]}}]}