{"type":"FeatureCollection","features":[{"type":"Feature","properties":{"code":"682007"},"geometry":{"type":"Polygon","coordinates":[[[-72.74310527470175,6.954716067775905],[-72.73634533848127,6.953800822839867],[-72.73735990525353,6.948960564055085],[-72.73543777909617,6.940102760391255],[-72.73727614375258,6.931053341431095],[-72.73482715369204,6.925356896021924],[-72.73914607953742,6.9095887536183795],[-72.73919885509372,6.8904467787926365],[-72.73742177121323,6.879059359288533],[-72.7387261109211,6.8747950272857565],[-72.74508935320796,6.867569532620621],[-72.74406662677274,6.862523504085118],[-72.73923727667778,6.853776266219597],[-72.73930614838793,6.850580837721111],[-72.74892747806211,6.843717985257797],[-72.75728124307597,6.830252180096977],[-72.75953218287538,6.823264750334488],[-72.75819765118047,6.818083399332352],[-72.79009344966732,6.799218287403335],[-72.80074911792116,6.7982778250567435],[-72.80740450576053,6.795423694464091],[-72.81096311330782,6.791432931256679],[-72.82354575271171,6.79054226609685],[-72.84455357526326,6.7810558495692135],[-72.84610206619664,6.789701056680883],[-72.84847851300725,6.792414626949153],[-72.8528421771307,6.804977551109971],[-72.85185526929155,6.804541044109499],[-72.84351491619657,6.816116347720481],[-72.84631999008104,6.819130522480975],[-72.84437641369811,6.824055689480133],[-72.84683880333625,6.830232284876445],[-72.84606769564766,6.83464764571994],[-72.83885832284744,6.835735419087541],[-72.83614938982646,6.83878178204202],[-72.83360099976801,6.8483443475391255],[-72.82924401537878,6.855508742434267],[-72.82950331967635,6.867918354611902],[-72.82623863997247,6.869781138607436],[-72.82704646305893,6.873038890722512],[-72.82342242394174,6.878253518010752],[-72.82272848543755,6.881996637401869],[-72.81772366865067,6.886363436218119],[-72.81404590575318,6.885320840273437],[-72.81212278920566,6.889479894729277],[-72.80102915870526,6.897487027305999],[-72.78576235837534,6.898539670105606],[-72.77791903509461,6.901198705152467],[-72.76682624791704,6.901260933123922],[-72.76091334723941,6.904206345189209],[-72.75519869531234,6.911864319473921],[-72.75319136989145,6.918826304540062],[-72.74817095780219,6.922363860897406],[-72.74234200785895,6.9331005097436105],[-72.74434093296134,6.940837575371802],[-72.74327298590862,6.943399647829494],[-72.74663746258915,6.951728166636428],[-72.74310527470175,6.954716067775905]]]}}]}