{"type":"FeatureCollection","features":[{"type":"Feature","properties":{"code":"682539"},"geometry":{"type":"Polygon","coordinates":[[[-72.97849287102116,6.265873676254273],[-72.97897271864622,6.259501423782524],[-72.99118745330787,6.24472459712274],[-72.99253570853978,6.2319806022867965],[-72.9907334350167,6.228629689734589],[-72.98417004650281,6.223284301122305],[-72.97257375957918,6.217116850636899],[-72.96744523966925,6.212625549597817],[-72.9665656765464,6.193852061612745],[-72.9675138018182,6.189051702283905],[-72.98426443901411,6.172044249621365],[-72.99211894866414,6.166459557861572],[-72.99387813661633,6.157203509372778],[-72.989233283967,6.1581337603136035],[-72.97159113006086,6.154544770517418],[-72.96299590834093,6.161451021198161],[-72.95460135118299,6.163618452493495],[-72.93954743022692,6.159025071335293],[-72.9358276791067,6.152911412507365],[-72.934221018436,6.13523364157993],[-72.92963625151242,6.128222628602032],[-72.92535536878421,6.115287068863438],[-72.92870611884246,6.102208573098267],[-72.93325701092641,6.115019401271297],[-72.941199476066,6.113086875503257],[-72.94457881579785,6.114120183583509],[-72.95545935197998,6.122841606513418],[-72.95941865101696,6.131133659833893],[-72.96735308607737,6.130464235285615],[-72.96988689693467,6.126589783784823],[-72.97479979152922,6.12539184056925],[-72.98206328508854,6.13033074036133],[-73.00465333457345,6.1286474895193805],[-73.02280700596356,6.140190738633976],[-73.02322977502882,6.143963998589982],[-73.02657456217736,6.140962165139683],[-73.03058281096452,6.141066131422349],[-73.03536097856067,6.137208119575234],[-73.04022391553144,6.1385059626117595],[-73.05189891944548,6.145738911428282],[-73.07002610432693,6.147159074332649],[-73.07474123353893,6.151513447506318],[-73.07658893851027,6.158536333853135],[-73.09021579468424,6.168446230099846],[-73.09569022712157,6.175189925156076],[-73.09768492121145,6.180445490627164],[-73.10696155603415,6.1830065634387665],[-73.11289270642425,6.178504649901356],[-73.11506469371994,6.1788894714945855],[-73.11700676651992,6.1865058360234],[-73.12004552105662,6.189066659951891],[-73.12961346325119,6.186147700456672],[-73.1333047542816,6.188220261014976],[-73.13340056090135,6.195289685414139],[-73.13621801003467,6.199807522327092],[-73.13734042134632,6.205591502592824],[-73.13028470608589,6.204189899990581],[-73.12194952605677,6.209032338045063],[-73.11723587060294,6.209599045868401],[-73.116509749047,6.211441020357995],[-73.11394528957425,6.211308627924154],[-73.1056025453504,6.221360843131947],[-73.10227727392709,6.2313882944723105],[-73.09926970176753,6.232649620600284],[-73.10110331090573,6.238983083305527],[-73.09851796376535,6.241517739542587],[-73.09764758566268,6.245555302026844],[-73.10054313472085,6.246883008977193],[-73.10497643571563,6.253346753752282],[-73.10287289846866,6.255485636511764],[-73.10832594444383,6.257796779279317],[-73.10590544018413,6.260921733754174],[-73.10831341595707,6.262123055403379],[-73.10945700701393,6.266679718078308],[-73.1066819945043,6.268497541652266],[-73.1029638971196,6.267882573135353],[-73.1018975451812,6.269172368609134],[-73.09803011485752,6.266885592730148],[-73.08785634700001,6.266790699367391],[-73.07896020814127,6.27368694021709],[-73.07478568590989,6.2731477627715435],[-73.07406622043396,6.2757792808103545],[-73.0648434533735,6.284996104501488],[-73.04509429842602,6.290432744761574],[-73.0396340173578,6.2891259840999965],[-73.03151934054688,6.282594073126347],[-73.02049311314067,6.2783687108675394],[-73.00895700244564,6.268429694270878],[-73.00216889204239,6.2646539454839285],[-72.99456276977259,6.263445593401684],[-72.97849287102116,6.265873676254273]]]}}]}