{"type":"FeatureCollection","features":[{"type":"Feature","properties":{"code":"682547"},"geometry":{"type":"Polygon","coordinates":[[[-72.92870611884246,6.102208573098267],[-72.92329255374722,6.098470217452871],[-72.92367355981867,6.088220985568682],[-72.92532222311024,6.086479633895067],[-72.93177698135463,6.085262735455444],[-72.93569107725762,6.0773195966860385],[-72.94440427059044,6.0763627090839805],[-72.94759305740712,6.070161672751226],[-72.95498561741726,6.065765121092966],[-72.95263575995949,6.060579763278781],[-72.9546966281548,6.05432544333911],[-72.95363623912613,6.047397880244091],[-72.95539087724865,6.044528749817346],[-72.96087595920824,6.042487794326064],[-72.96082636256773,6.0397030722905924],[-72.95873220060275,6.038080412139607],[-72.96098309720759,6.0342980185855595],[-72.97233313488306,6.03019084288411],[-72.99217127273414,6.033123610248595],[-73.00206445781839,6.036423878177402],[-73.01299512851642,6.030123697928957],[-73.02844689937547,6.026764776894879],[-73.04371516317906,6.04007592075601],[-73.0462791495683,6.053344020183943],[-73.05305770265528,6.063693353463805],[-73.0560975175162,6.07592286890133],[-73.07176269636858,6.09482764991526],[-73.07365284619112,6.110403568184552],[-73.07731219071155,6.117355576329771],[-73.08694080792941,6.125283532202275],[-73.09463733029662,6.12520971676895],[-73.10622223956068,6.127934557738797],[-73.11265188838098,6.134417719508633],[-73.11673734029108,6.14552773309839],[-73.11555786687472,6.1607188040634355],[-73.11905624985656,6.167625594676451],[-73.12255464826507,6.170023887663092],[-73.12695017970833,6.170577355317391],[-73.13568286819759,6.164324432002672],[-73.1433517007784,6.163017285675153],[-73.15573632488815,6.16902551783204],[-73.16416248402777,6.16959776587521],[-73.16700956567541,6.170535256022902],[-73.15798217595398,6.171075882543903],[-73.15195974306278,6.177650987074912],[-73.15103403783792,6.1800679668621115],[-73.15222224478816,6.18253836909588],[-73.14867802000947,6.1860809308830085],[-73.14633763245047,6.193434294891858],[-73.13734042134632,6.205591502592824],[-73.13621801003467,6.199807522327092],[-73.13340056090135,6.195289685414139],[-73.13243783071732,6.186750613570382],[-73.12961346325119,6.186147700456672],[-73.12004552105662,6.189066659951891],[-73.11700676651992,6.1865058360234],[-73.11571651441767,6.179380016978712],[-73.11376201700364,6.178614725132547],[-73.10696155603415,6.1830065634387665],[-73.09768492121145,6.180445490627164],[-73.09569022712157,6.175189925156076],[-73.09021579468424,6.168446230099846],[-73.07658893851027,6.158536333853135],[-73.07474123353893,6.151513447506318],[-73.07102676449949,6.147637892486728],[-73.05189891944548,6.145738911428282],[-73.04022391553144,6.1385059626117595],[-73.03536097856067,6.137208119575234],[-73.03058281096452,6.141066131422349],[-73.02657456217736,6.140962165139683],[-73.02322977502882,6.143963998589982],[-73.02280700596356,6.140190738633976],[-73.00465333457345,6.1286474895193805],[-72.98206328508854,6.13033074036133],[-72.97479979152922,6.12539184056925],[-72.96988689693467,6.126589783784823],[-72.96735308607737,6.130464235285615],[-72.95941865101696,6.131133659833893],[-72.95545935197998,6.122841606513418],[-72.94457881579785,6.114120183583509],[-72.941199476066,6.113086875503257],[-72.93325701092641,6.115019401271297],[-72.92870611884246,6.102208573098267]],[[-73.09866546093451,6.139792375538093],[-73.10134217902203,6.139634514753709],[-73.09937050970325,6.135939589207396],[-73.09755894831574,6.137006212654626],[-73.09866546093451,6.139792375538093]]]}}]}