{"type":"FeatureCollection","features":[{"type":"Feature","properties":{"code":"682527"},"geometry":{"type":"Polygon","coordinates":[[[-72.73892012865917,6.353385596467604],[-72.74879387926512,6.3455540776500925],[-72.75067046701616,6.335213528297743],[-72.74948733542976,6.324426679115334],[-72.73885156753869,6.315234874345322],[-72.73080338673572,6.314403829026787],[-72.72344819621293,6.294662575603127],[-72.7280338198292,6.297534558929442],[-72.73287856673716,6.29629843581381],[-72.73541854722112,6.2914481733686785],[-72.73954679879512,6.288615655495562],[-72.74432243333735,6.276364889350248],[-72.74726800069743,6.2660326714107555],[-72.74726775901343,6.263901448491197],[-72.7443533061533,6.260698316958269],[-72.74942728672801,6.2521851639228885],[-72.74673815842465,6.234541169104659],[-72.75790524131821,6.241553836846549],[-72.77607037572858,6.244891207896103],[-72.78145935796238,6.24934332527522],[-72.78483219073843,6.2567666799396875],[-72.78615849386472,6.265822385768956],[-72.78986638395736,6.272224655392506],[-72.79071566767556,6.280013471219775],[-72.79548161223238,6.288482550351034],[-72.79673773032744,6.304540415296572],[-72.80406622453933,6.316006954940519],[-72.80628974297588,6.3254673045641425],[-72.81312372500082,6.332644132300857],[-72.81514652025407,6.341904694623906],[-72.81234706680794,6.342539290966272],[-72.80763005348928,6.34026373848053],[-72.80679652242515,6.341304124302212],[-72.81307818248075,6.34654983832246],[-72.80972650168201,6.3510987917922535],[-72.78422401405584,6.370202473589245],[-72.7832966550954,6.374097397266837],[-72.7851513709594,6.376323073375772],[-72.78478042922643,6.380403472547812],[-72.77986540575586,6.394406663607299],[-72.77856709683493,6.406926070251359],[-72.77550679848434,6.41091372653392],[-72.76886357609152,6.410987604702257],[-72.76772769938196,6.414622395157551],[-72.75534164882242,6.395295866321874],[-72.75082509129197,6.379621374922465],[-72.74403724416999,6.37048466278975],[-72.73892012865917,6.353385596467604]]]}}]}