{"type":"FeatureCollection","features":[{"type":"Feature","properties":{"code":"682519"},"geometry":{"type":"Polygon","coordinates":[[[-72.81112634256215,6.542287759605415],[-72.79717147390284,6.529982390361454],[-72.79113675318041,6.529961323744942],[-72.78806226540843,6.531737760735041],[-72.77867000587867,6.52889524640068],[-72.77391663608853,6.52059194089054],[-72.77252061690075,6.508195312799671],[-72.7653566868616,6.498936506028031],[-72.76096172928925,6.498060595933055],[-72.755437243583,6.493636815230673],[-72.75008918924772,6.494767480821963],[-72.74395531021139,6.492707121705678],[-72.73569931614247,6.4933689203527365],[-72.73825552956316,6.4833197297944025],[-72.736798711939,6.472859867740112],[-72.72867355118512,6.4648107212296395],[-72.72443066632263,6.45704756504324],[-72.7358602725389,6.44020681571385],[-72.73441088952569,6.43506933909805],[-72.73492233193338,6.408525557535484],[-72.73236592825083,6.39652941833117],[-72.73349611973009,6.386371306454123],[-72.7289174072476,6.383180581023282],[-72.72810200145443,6.377532897159313],[-72.72544662046386,6.374470359889358],[-72.72681216381449,6.36975388650302],[-72.7311613155855,6.366954955505662],[-72.73126771207785,6.35735464102595],[-72.73336630251629,6.3547508981342276],[-72.73892012865917,6.353385596467604],[-72.74403724416999,6.37048466278975],[-72.75082509129197,6.379621374922465],[-72.75534164882242,6.395295866321874],[-72.76772769938196,6.414622395157551],[-72.76886357609152,6.410987604702257],[-72.77550679848434,6.41091372653392],[-72.77856709683493,6.406926070251359],[-72.77986540575586,6.394406663607299],[-72.78478042922643,6.380403472547812],[-72.7851513709594,6.376323073375772],[-72.7832966550954,6.374097397266837],[-72.78422401405584,6.370202473589245],[-72.79711436140445,6.3612997928076425],[-72.79924729462397,6.358054016905726],[-72.80703715226349,6.354159093228191],[-72.81307818248075,6.34654983832246],[-72.81335227578171,6.349776232196689],[-72.8176813091602,6.354172173988559],[-72.81814312304573,6.3585308655923996],[-72.81557411991383,6.364393548450266],[-72.81798186428722,6.368896676578345],[-72.8195481688735,6.391412986734622],[-72.81618424549498,6.400984803072163],[-72.81923768310548,6.406476450608807],[-72.81483472013656,6.411831071549557],[-72.816307581464,6.4137410991091315],[-72.81517875987015,6.417974867857083],[-72.81745938360598,6.421248604025777],[-72.81488865166227,6.429769589679438],[-72.81777983189664,6.433757908279006],[-72.81662838251043,6.435704375613852],[-72.81874161385662,6.436789951199785],[-72.81401812649227,6.445073923019038],[-72.81794726748086,6.467406631503138],[-72.81772571113754,6.476996803482734],[-72.81586466829515,6.481191410168037],[-72.81766476666229,6.486051719468151],[-72.81572684671323,6.493407994997767],[-72.81121756541359,6.498877430232881],[-72.81409448526398,6.502343702153951],[-72.81350629739023,6.511171254181136],[-72.8172755165956,6.516137097110288],[-72.81784032797088,6.523862366502783],[-72.81986269744897,6.5257207045413566],[-72.81973973994678,6.531507363899777],[-72.82272362604664,6.536563871236069],[-72.81917579863381,6.544165846825649],[-72.81420053722809,6.541079614240061],[-72.81112634256215,6.542287759605415]]]}}]}