{"type":"FeatureCollection","features":[{"type":"Feature","properties":{"code":"682517"},"geometry":{"type":"Polygon","coordinates":[[[-72.83279373718273,6.567831484691226],[-72.83037534431548,6.552967557177624],[-72.8259508663291,6.546453079333105],[-72.81917579863381,6.544165846825649],[-72.82272362604664,6.536563871236069],[-72.81973973994678,6.531507363899777],[-72.81986269744897,6.5257207045413566],[-72.81784032797088,6.523862366502783],[-72.8172755165956,6.516137097110288],[-72.81350629739023,6.511171254181136],[-72.81409448526398,6.502343702153951],[-72.81121756541359,6.498877430232881],[-72.81572684671323,6.493407994997767],[-72.81766476666229,6.486051719468151],[-72.81586466829515,6.481191410168037],[-72.81772571113754,6.476996803482734],[-72.81794726748086,6.467406631503138],[-72.81401842782594,6.444959788525182],[-72.81874161385662,6.436789951199785],[-72.81676566107473,6.435920571714803],[-72.81777983189664,6.433757908279006],[-72.81493398232317,6.431082821301345],[-72.81745938360598,6.421248604025777],[-72.81517875987015,6.417974867857083],[-72.816307581464,6.4137410991091315],[-72.81483472013656,6.411831071549557],[-72.81923768310548,6.406476450608807],[-72.81618424549498,6.400984803072163],[-72.81698153013099,6.3997007720187185],[-72.82476040194751,6.400960641872075],[-72.8284226816429,6.399089190162954],[-72.83937981828069,6.3860658590260755],[-72.8473601187921,6.381961449834989],[-72.85254828528275,6.381974977967843],[-72.8649467049205,6.386777824070691],[-72.88696622900346,6.381914671126992],[-72.89390125344897,6.376366188771442],[-72.89648799515737,6.3709714585724555],[-72.90465106018877,6.374152126863862],[-72.9097403182771,6.373467581125226],[-72.91374564628745,6.383554813772321],[-72.91226611551025,6.390900430523686],[-72.91414157403142,6.403228315459728],[-72.91169317841064,6.406881969607696],[-72.91235675214944,6.411147300228151],[-72.90880933097145,6.417667732754865],[-72.89770076748562,6.4280637984628015],[-72.89593059371043,6.431438648014591],[-72.89140617373693,6.433337974629751],[-72.88891045639053,6.441151157345587],[-72.87722244165013,6.452062833738751],[-72.87594001393853,6.454516580345967],[-72.87681039204125,6.461009776629453],[-72.87289636504391,6.474529701520964],[-72.8732465219536,6.4802622411487505],[-72.88084575777225,6.4840603863283945],[-72.88105173526839,6.489638905376182],[-72.8789463622515,6.492697547934313],[-72.87870165361016,6.49773369313715],[-72.88536314731272,6.499241175953557],[-72.88848297397317,6.503445656715485],[-72.8928624133764,6.504393919798588],[-72.8902994441168,6.508878808498537],[-72.88178387012766,6.516327306525682],[-72.87903817954265,6.514441474104842],[-72.87668819352962,6.516726518086614],[-72.87336165506508,6.514876555683941],[-72.86917995636185,6.516272333187771],[-72.86935518959729,6.519526216302097],[-72.86647125679735,6.525796796946395],[-72.86786760302988,6.526831904801099],[-72.86555595118324,6.531912770798442],[-72.8659376195717,6.5348224763679355],[-72.86280920130241,6.538390422173279],[-72.86109253533459,6.545031037464298],[-72.85534705378615,6.551831317427855],[-72.85410407198736,6.561536606063953],[-72.851883565859,6.561566203611164],[-72.84869449622062,6.565794957673461],[-72.84310131055412,6.5656658994502095],[-72.83565532809735,6.56856973775507],[-72.83279373718273,6.567831484691226]],[[-72.86492454506953,6.428610841436694],[-72.86702809877158,6.430321999066393],[-72.8710181379555,6.425751603598542],[-72.86595796525006,6.426587201832092],[-72.86492454506953,6.428610841436694]]]}}]}