{"type":"FeatureCollection","features":[{"type":"Feature","properties":{"code":"682568"},"geometry":{"type":"Polygon","coordinates":[[[-73.10423391770064,6.393198399971084],[-73.0953941991985,6.397772227351595],[-73.09088561518291,6.396529426558686],[-73.08879253205413,6.393507294738413],[-73.09219185339566,6.380872483474036],[-73.09550652466197,6.3761336969988065],[-73.09691846722524,6.369534100109206],[-73.10172140485946,6.363399621490942],[-73.10318355392963,6.3563512133146105],[-73.118400364754,6.350134202184165],[-73.13074263245863,6.334497491649188],[-73.13822268927294,6.333557528097231],[-73.14552830166724,6.335892887600778],[-73.15641723919629,6.345639863125882],[-73.15957960635308,6.352966800275794],[-73.15922608026568,6.35800676305729],[-73.1618895602411,6.3594151821765195],[-73.16349801143019,6.363328468695272],[-73.16419170002285,6.383007234979914],[-73.16197603580184,6.385079425298898],[-73.15979577674295,6.395762479948587],[-73.16162829058987,6.402667759779547],[-73.15947051225601,6.4032719234793944],[-73.15881933844867,6.400994582532064],[-73.15207382510607,6.399632994571391],[-73.14941280927894,6.399898296745732],[-73.14324190425509,6.4043783507374314],[-73.13714445573811,6.403250580211818],[-73.12828955536753,6.3959243064073235],[-73.12433150588816,6.38835727112388],[-73.11817027850839,6.384025161673833],[-73.10782698938522,6.389309557474121],[-73.10423391770064,6.393198399971084]]]}}]}