{"type":"FeatureCollection","features":[{"type":"Feature","properties":{"code":"683029"},"geometry":{"type":"Polygon","coordinates":[[[-73.3594364594639,6.276246178287238],[-73.33430553269318,6.267662374336112],[-73.32423584321856,6.261564642997428],[-73.31562212907363,6.259827415378368],[-73.30932240751054,6.250906253484686],[-73.30734252299294,6.2425541164953415],[-73.30873867587826,6.229184952021114],[-73.31734022457658,6.21653785703927],[-73.31378642705494,6.200568032943977],[-73.31489882956402,6.191287024155258],[-73.31725282341756,6.1870501844779255],[-73.32957624799838,6.179981168370375],[-73.32634942423516,6.171051090908577],[-73.32797012314626,6.171561637542766],[-73.33248996860743,6.166462737805887],[-73.3347966057683,6.166820856917525],[-73.33332854315364,6.161970095677759],[-73.33748728804835,6.159818296708693],[-73.33788783452763,6.156830508697908],[-73.34098609577694,6.153074516291724],[-73.34595903907325,6.153322119998791],[-73.35175167882494,6.147057235897535],[-73.37053912071815,6.147049765291115],[-73.37188073529666,6.148700583169784],[-73.35884558324142,6.183000643723631],[-73.35389462804613,6.188755854338297],[-73.34852593801173,6.188616223726001],[-73.35191278228865,6.205919197289404],[-73.35538091466225,6.210183838853368],[-73.35221802094287,6.218009766028899],[-73.34827592157853,6.219995799604362],[-73.34723039560112,6.222215255692959],[-73.346498096191,6.232285772035368],[-73.34472441542681,6.235043335989246],[-73.35127124087393,6.2411512016004735],[-73.36597878650343,6.249638014166123],[-73.36704472500793,6.25650679457209],[-73.36076049693139,6.267035424463813],[-73.3594364594639,6.276246178287238]]]}}]}