{"type":"FeatureCollection","features":[{"type":"Feature","properties":{"code":"683017"},"geometry":{"type":"Polygon","coordinates":[[[-73.3051072155198,6.346244509165274],[-73.29883461912812,6.3399589533694325],[-73.29128321411412,6.33677273560221],[-73.28964221888992,6.3343086233228405],[-73.28290111756576,6.331722536732286],[-73.27736727508943,6.332307355428327],[-73.27944031798728,6.324886197517117],[-73.27969266075746,6.314313407332065],[-73.29118214289713,6.308097818537647],[-73.29191830205201,6.303836881423706],[-73.30201570188188,6.306774814654943],[-73.30913315454671,6.294576738705189],[-73.31269390536818,6.291246694280176],[-73.32656270470159,6.298192945204221],[-73.32587310828171,6.288413218927076],[-73.32799170809784,6.283999339040804],[-73.32238215991083,6.277943387151026],[-73.33504116734241,6.276866385690369],[-73.34399023808066,6.269760849588977],[-73.3489910480555,6.273480669614855],[-73.35868196420734,6.275403105333396],[-73.36407016276792,6.279286097020872],[-73.36688501816917,6.288362372728955],[-73.37908723051476,6.292046537681131],[-73.38308848280741,6.295198495971192],[-73.37943061513045,6.303824112281347],[-73.37730518337065,6.3051503979241375],[-73.37854187521503,6.308675028815969],[-73.37716619964868,6.311034244072175],[-73.36623842710168,6.310994495797274],[-73.3608922599584,6.314076074680486],[-73.35993271794626,6.320963535716373],[-73.36312600111359,6.329281964473751],[-73.35991542468531,6.333434539741745],[-73.3602669782199,6.33652393478809],[-73.35717826400253,6.338300871601234],[-73.35693491701909,6.342696019435493],[-73.35122501341112,6.350288826459973],[-73.34659471322345,6.350876773678181],[-73.33410513963997,6.367130791408442],[-73.33081871249055,6.367962386943759],[-73.32503024307329,6.361619032678334],[-73.31970874415225,6.358954061461304],[-73.31530829778217,6.3606553285592895],[-73.31327367543992,6.3599131375890465],[-73.30841727833513,6.3560077957887415],[-73.3051072155198,6.346244509165274]],[[-73.32032590325178,6.31241162068244],[-73.32158920193251,6.310612852091481],[-73.32260035530408,6.311434870770029],[-73.32193909247559,6.309625223314072],[-73.32317288719736,6.308972974784297],[-73.32328015889425,6.306641580955102],[-73.32158473643511,6.305462427384327],[-73.31957354818411,6.305615415408113],[-73.31866888180781,6.307717181677049],[-73.32098093063325,6.310610099979272],[-73.31927612569302,6.310802220240873],[-73.32032590325178,6.31241162068244]]]}}]}