{"type":"FeatureCollection","features":[{"type":"Feature","properties":{"code":"683011"},"geometry":{"type":"Polygon","coordinates":[[[-73.32032590325178,6.31241162068244],[-73.31927612569302,6.310802220240873],[-73.32098093063325,6.310610099979272],[-73.31866888180781,6.307717181677049],[-73.31957354818411,6.305615415408113],[-73.32158473643511,6.305462427384327],[-73.32328015889425,6.306641580955102],[-73.32317288719736,6.308972974784297],[-73.32193909247559,6.309625223314072],[-73.32260035530408,6.311434870770029],[-73.32158920193251,6.310612852091481],[-73.32032590325178,6.31241162068244]]]}}]}