{"type":"FeatureCollection","features":[{"type":"Feature","properties":{"code":"683528"},"geometry":{"type":"Polygon","coordinates":[[[-73.16162829058987,6.402667759779547],[-73.15979577674295,6.395762479948587],[-73.16197603580184,6.385079425298898],[-73.16419170002285,6.383007234979914],[-73.16386051582077,6.365943213865023],[-73.1618895602411,6.3594151821765195],[-73.15922608026568,6.35800676305729],[-73.15975256570209,6.355427500182884],[-73.1629630300302,6.354784494266028],[-73.16423164575872,6.350303311044456],[-73.16820697101554,6.348308789732869],[-73.16960985814245,6.345804525000688],[-73.1833030786837,6.34460557288304],[-73.18516014042507,6.341362891564643],[-73.19518926298451,6.3345684716665005],[-73.20017986258205,6.338582364546141],[-73.20297553753034,6.332646819621175],[-73.20604426910955,6.331561365391394],[-73.20729169686535,6.336057109302203],[-73.20361494184152,6.341310839003427],[-73.20629344119146,6.347921348696559],[-73.20457478518733,6.352200724756472],[-73.2024956158574,6.352564504415739],[-73.20442968326086,6.365168297853813],[-73.20148778641209,6.369934962320372],[-73.19879582886335,6.370541796885448],[-73.19854742399963,6.373110306364879],[-73.1954850163134,6.3762854004978635],[-73.19840124426531,6.386567210355736],[-73.19790495184441,6.390725455427344],[-73.20107008448315,6.399539565710768],[-73.20819069960868,6.406332865635022],[-73.20633578216996,6.406894816911631],[-73.20477621388221,6.414455373007229],[-73.2030816584001,6.41569455471091],[-73.20396917549732,6.4197464968784175],[-73.18797187347485,6.42105012181878],[-73.17284091600351,6.416847082933259],[-73.17375207905116,6.4158897952671055],[-73.1710877578098,6.4145860109181285],[-73.16861341869799,6.415413876292462],[-73.16398787094317,6.422377164395243],[-73.15714318386006,6.4243198244359405],[-73.15683372036398,6.426243228947271],[-73.15580847424462,6.424224440506066],[-73.15843706739287,6.4200712625707865],[-73.16162829058987,6.402667759779547]]]}}]}