{"type":"FeatureCollection","features":[{"type":"Feature","properties":{"code":"683551"},"geometry":{"type":"Polygon","coordinates":[[[-73.25418417422611,6.473285402287331],[-73.25392273385347,6.464460316465306],[-73.25932183390472,6.456531648910584],[-73.26112226137349,6.45697203622467],[-73.26180231796053,6.452099617013857],[-73.26052653912984,6.45080234784831],[-73.2617702058713,6.450307102381828],[-73.25950579656023,6.444090774137237],[-73.26331230606291,6.443361039662761],[-73.26737377675039,6.4478906162470935],[-73.26473967320709,6.450258740900836],[-73.26757213143054,6.451776650067529],[-73.26494400930892,6.45741444545672],[-73.2702632950216,6.459696873080702],[-73.26855944550448,6.466095674796065],[-73.2654000690585,6.468916060132756],[-73.26670061484197,6.469639199205403],[-73.26592056895947,6.471301715617699],[-73.26432615498226,6.469910060111545],[-73.2586778139435,6.474709946356825],[-73.2617996470953,6.476962995491817],[-73.25785924980335,6.4806376298672035],[-73.25418417422611,6.473285402287331]]]}}]}