{"type":"FeatureCollection","features":[{"type":"Feature","properties":{"code":"683587"},"geometry":{"type":"Polygon","coordinates":[[[-73.28229939333158,6.565293089037141],[-73.28226903782218,6.554549322340279],[-73.27419609212336,6.537240886718621],[-73.27322416869174,6.526013010530903],[-73.27500332899763,6.52078075265257],[-73.27415506960818,6.514163177559283],[-73.27114106145535,6.510069263624132],[-73.27593638450116,6.507549790283974],[-73.2840327828032,6.4933140837976],[-73.2924757374376,6.4847987340090185],[-73.29776013323783,6.485114355818894],[-73.30606763685034,6.491066392848154],[-73.3093128080281,6.500065602216068],[-73.31289754829976,6.5050462670588445],[-73.31371650324809,6.513437100226383],[-73.31252248045541,6.514638963864854],[-73.31136089885354,6.507895449814498],[-73.30843594148155,6.503011859661115],[-73.29479841830181,6.506254885507758],[-73.28768399851396,6.511181671275381],[-73.2877600220134,6.521771822598566],[-73.29416375305374,6.529183606256254],[-73.29814338645622,6.5425658576616],[-73.29909378664286,6.567243201172289],[-73.28229939333158,6.565293089037141]],[[-73.28935575856764,6.538274296614702],[-73.29311335637254,6.541831229857564],[-73.29300736714345,6.538734326152451],[-73.29097782633573,6.535097524063531],[-73.28951115623221,6.535689645729917],[-73.28935575856764,6.538274296614702]]]}}]}