{"type":"FeatureCollection","features":[{"type":"Feature","properties":{"code":"683578"},"geometry":{"type":"Polygon","coordinates":[[[-73.29922647218285,6.572016285177085],[-73.29814338645622,6.5425658576616],[-73.29416375305374,6.529183606256254],[-73.2877600220134,6.521771822598566],[-73.28858263101796,6.517483977314555],[-73.2873431304971,6.51236782648283],[-73.28845402119566,6.510156634958321],[-73.29075703001138,6.51014780269395],[-73.29479841830181,6.506254885507758],[-73.30843594148155,6.503011859661115],[-73.31307290289146,6.514588945562934],[-73.31368716383992,6.507462729539441],[-73.30606763685034,6.491066392848154],[-73.3103577056271,6.4913995753140625],[-73.31755655848883,6.488609776886278],[-73.32664788751009,6.487455890091326],[-73.33152532552037,6.489473779673801],[-73.33380640588467,6.492793224970228],[-73.33967192415855,6.492228827028839],[-73.34215009010495,6.493733379812511],[-73.34283269722948,6.4967622438175],[-73.34964543574574,6.499965030822182],[-73.35694184460789,6.507949269239987],[-73.36306713306385,6.511592824082413],[-73.36710088722543,6.511167936425579],[-73.37257360524904,6.514465738149227],[-73.37509536173161,6.517267728763045],[-73.3744756973461,6.52078073619748],[-73.37727632733049,6.5246037038657505],[-73.38344017415335,6.522696536404851],[-73.40067223454821,6.533972708253316],[-73.41474422738378,6.531511793401705],[-73.42408317656714,6.521293124772285],[-73.42706099588463,6.5134090278594385],[-73.43436901072062,6.508226099226476],[-73.43607541386052,6.509977894733879],[-73.43474550090099,6.519566326588745],[-73.43735693757117,6.524134725849706],[-73.43928534442693,6.524645795961192],[-73.44143639366138,6.541188527331258],[-73.43900409316603,6.54845402841039],[-73.4325095969312,6.555096039297894],[-73.43147806394268,6.559224592205567],[-73.43270853370979,6.560314623004501],[-73.42884209583315,6.568226938323164],[-73.43050822516403,6.581083341926444],[-73.42764084308953,6.583685938104736],[-73.42811119201951,6.585289227540841],[-73.4263178577188,6.585887040608156],[-73.42568239028554,6.588686937312957],[-73.41888016450872,6.592439388791547],[-73.41859537129176,6.604324600185748],[-73.41376770167187,6.612130339034707],[-73.40991645389119,6.6157385144260275],[-73.40613177719473,6.616912246047832],[-73.40759540207995,6.621995739715828],[-73.40596875362888,6.627914826475205],[-73.39998361206341,6.634563713529417],[-73.40009361016143,6.633489003438626],[-73.38215742762458,6.628743104254966],[-73.36753591738238,6.618335528218324],[-73.36092565760077,6.618562210319226],[-73.3556257354038,6.614685759526196],[-73.34663459005367,6.613002104506336],[-73.34530735618688,6.610904710146542],[-73.3422811033974,6.611261890290166],[-73.3382216032058,6.607196108371625],[-73.31694073739305,6.602311888811414],[-73.31146924218757,6.600116516789683],[-73.31000002566043,6.597131615617059],[-73.3015965868729,6.593644276051009],[-73.29760269308645,6.589859746421837],[-73.29670417268267,6.585549997369014],[-73.29656775595322,6.578854408740085],[-73.29922647218285,6.572016285177085]],[[-73.30995009991835,6.54878916594555],[-73.31066292679782,6.5416473474205645],[-73.30901251001171,6.539309692433278],[-73.30767572088547,6.538941306379968],[-73.30733570133373,6.540313193164081],[-73.30666631072398,6.5391651767189956],[-73.30575272980798,6.546744747688308],[-73.30732729278765,6.545762747576873],[-73.30995009991835,6.54878916594555]]]}}]}