{"type":"FeatureCollection","features":[{"type":"Feature","properties":{"code":"683577"},"geometry":{"type":"Polygon","coordinates":[[[-73.8824029347719,6.960615147214526],[-73.87850794938777,6.96149963966235],[-73.87745778821994,6.958559301932439],[-73.87919641657777,6.959818060039481],[-73.88020022995505,6.958716466461283],[-73.87766867652908,6.95742119967332],[-73.87817424961531,6.954917831742989],[-73.87284123110965,6.955323538946857],[-73.87215762433902,6.952359627257579],[-73.8702788480623,6.952238996092376],[-73.86778271728195,6.949015417065311],[-73.86375795890706,6.95060729798854],[-73.86086016064513,6.946515452251276],[-73.85394789357565,6.946375424660118],[-73.84992977791097,6.94007100825695],[-73.85240394527284,6.923957680434796],[-73.84644150040532,6.9227442622446915],[-73.8478135918495,6.920215353972878],[-73.84563206677785,6.9184792926075716],[-73.84546303710772,6.9149233147878135],[-73.84130573100413,6.911798248212733],[-73.84138916443192,6.9044231624694135],[-73.83820541904043,6.898701169519654],[-73.84176035401953,6.892742954636219],[-73.846466850485,6.893093413907991],[-73.84424112192545,6.889495740971654],[-73.84160276782927,6.890122875963584],[-73.84129577053835,6.8843514581232625],[-73.83918248777002,6.88553719989676],[-73.83272837641601,6.884695230461773],[-73.83292069619546,6.886778449798328],[-73.82945901729869,6.8883985851229],[-73.82698154143725,6.885263005808383],[-73.82481126032769,6.885125073154654],[-73.82358666605268,6.888835156915206],[-73.81893784978587,6.887570099597781],[-73.81687089732463,6.884634750842565],[-73.81587596763381,6.888088338982072],[-73.81188737341165,6.889358806935604],[-73.80884075128967,6.892856459723248],[-73.80709430779717,6.893174192925642],[-73.80520241682143,6.890727158962704],[-73.80138952171922,6.893170893682054],[-73.80058341304641,6.890745959920423],[-73.80594930366027,6.8860685622075835],[-73.80514411750039,6.880048188258286],[-73.80278200820692,6.879217196418722],[-73.80401424483824,6.883025844053407],[-73.80045811172369,6.884576787822198],[-73.80109964491089,6.880258336088787],[-73.79625040782292,6.8739371858973755],[-73.7914811496243,6.875849032771725],[-73.78992924117642,6.872508105367956],[-73.78709640345767,6.874037904358545],[-73.78158459227706,6.873290759380666],[-73.77928799374354,6.8709066774127905],[-73.7814173027316,6.8686316370914255],[-73.7738503363538,6.859560832697525],[-73.76795705321723,6.855290259077094],[-73.78607121081734,6.830003310377208],[-73.79267821043618,6.81706460463289],[-73.79460525049183,6.809907027283259],[-73.800350048126,6.800657622533095],[-73.83342135538334,6.76558509366123],[-73.8421906996208,6.759452322257516],[-73.85983186930747,6.7366895252827135],[-73.8696957396661,6.729671005702869],[-73.8741897660779,6.723632158869123],[-73.87556788830898,6.730428043269342],[-73.87791249762455,6.7284430864732485],[-73.87714982522152,6.724547747304882],[-73.87931394596035,6.724242344099878],[-73.88114697711387,6.726229033821653],[-73.87979165339652,6.739290199301934],[-73.88345914523865,6.740080650965865],[-73.88781569048291,6.735423295540841],[-73.89143085516963,6.738504788034845],[-73.89581283585431,6.733567051411228],[-73.89746583403115,6.739576353148379],[-73.90085262688592,6.741258362660176],[-73.89922192842823,6.74663006911652],[-73.90807071162277,6.74925557693723],[-73.90823323536551,6.754894714443935],[-73.9156574528933,6.7594930732638545],[-73.91732270393425,6.765311295523247],[-73.92561629991854,6.765804564323162],[-73.92593085317668,6.7686959677295135],[-73.93191650279277,6.769915177079497],[-73.93276811490483,6.773065576250701],[-73.93915102821171,6.773225722234372],[-73.93949492087796,6.776561341846332],[-73.95113083986257,6.782645616014634],[-73.95239021914887,6.7922772249717696],[-73.94611314286158,6.813065116119162],[-73.94725938627175,6.816580673062617],[-73.95314654091936,6.822774023844431],[-73.95314592076852,6.825143147115909],[-73.93993181251591,6.825529407500198],[-73.93986942822119,6.828098563869958],[-73.94343287664742,6.829650351990097],[-73.93995034607855,6.833710515527116],[-73.94234155412465,6.833739467212467],[-73.94379361520214,6.835574350590946],[-73.9434869027898,6.838478016117449],[-73.94016041677588,6.8384770339548595],[-73.94264384629105,6.844287484274105],[-73.94023226994085,6.844157935483793],[-73.93919096572,6.847109956320708],[-73.93516133047069,6.845968279195347],[-73.93341491268927,6.846974849827006],[-73.93576411502914,6.851564557388485],[-73.93423604793571,6.854072226265373],[-73.93915485401783,6.8564224621899825],[-73.93537076250522,6.860154690374884],[-73.93880723838964,6.861668066166885],[-73.9386243185748,6.866373433402487],[-73.93708627353209,6.868089891624891],[-73.93858683698721,6.870691152884831],[-73.94183082854141,6.869336880235721],[-73.94280307079026,6.8706358689572085],[-73.9377967380791,6.880560654994724],[-73.94356027187911,6.8803826295378485],[-73.94735668413313,6.889545880629726],[-73.94941042727862,6.888044282561452],[-73.95659494982232,6.893048900858901],[-73.95583968837605,6.894197066428092],[-73.94755448448274,6.894012863117041],[-73.95060433797107,6.897873640446051],[-73.95041293042016,6.900923140150212],[-73.9438583505165,6.8998475260584655],[-73.94374444947908,6.902613326808535],[-73.94126428526891,6.903881916825981],[-73.93978663242774,6.907558336577608],[-73.93832113886253,6.908295977718183],[-73.93639713476915,6.906746894401863],[-73.93665094204147,6.908996257598915],[-73.94047458231114,6.912384894451122],[-73.93710812485028,6.91566173137403],[-73.93358750077056,6.912599815283386],[-73.93052523089563,6.914159807289479],[-73.9323541523928,6.910555870109704],[-73.92981166456599,6.910192236489252],[-73.92760640098419,6.918077591187284],[-73.92644381150865,6.9176171944956195],[-73.92105643981586,6.92292552729549],[-73.92063216305388,6.9249700843924415],[-73.91823648333968,6.925077781864559],[-73.91782363257408,6.928355481650783],[-73.91553601234375,6.928330958438892],[-73.91654163475147,6.92482288032943],[-73.91544072200219,6.924230219759181],[-73.91325993740918,6.929200483962745],[-73.90823656134864,6.9281463756325365],[-73.90905898934733,6.93095319169862],[-73.9069521518283,6.932923656711239],[-73.90916666110837,6.933444403438386],[-73.90922622747064,6.936093821519194],[-73.90606759973082,6.934531736632607],[-73.9051594973281,6.935596140700852],[-73.90791338254314,6.939704625609636],[-73.90543769822852,6.940303894951512],[-73.90394362321723,6.938399933146002],[-73.90268209859983,6.940801325858331],[-73.90558240420467,6.942032157637186],[-73.90606566008825,6.944403685407281],[-73.90156812360215,6.943304496327698],[-73.89975952927136,6.940126567807113],[-73.8995674840861,6.945382338966795],[-73.89523094616254,6.943359710321204],[-73.8911493879358,6.944500819746281],[-73.89282154908204,6.94076813493291],[-73.88949492525683,6.943548420267405],[-73.89006682054418,6.940474286279596],[-73.8878687169792,6.941292853505104],[-73.8871570707517,6.944469799863043],[-73.89057069567184,6.946212960567038],[-73.88568377953527,6.9471920707550225],[-73.88551080270275,6.949740797114146],[-73.88875777571178,6.948288580741803],[-73.89214128577805,6.956088934665672],[-73.88672728050938,6.956753610894907],[-73.88537847094699,6.96337089288204],[-73.8824029347719,6.960615147214526]]]}}]}