{"type":"FeatureCollection","features":[{"type":"Feature","properties":{"code":"684067"},"geometry":{"type":"Polygon","coordinates":[[[-73.20128756510877,6.905423598441473],[-73.19265626253991,6.901879227623965],[-73.18594643101056,6.901985348493724],[-73.18265187813682,6.8949088669219805],[-73.17673229052593,6.888642250923567],[-73.17510739968316,6.882591683958822],[-73.17195084014122,6.881585501049926],[-73.16738211383557,6.849641897469496],[-73.1696271514034,6.846421807947877],[-73.1713552680502,6.837896893643801],[-73.17572162669302,6.832801311662479],[-73.17649103745146,6.827110121594558],[-73.18155833212131,6.824404946502568],[-73.18469841704251,6.8103718740457],[-73.1987895039419,6.797722939180176],[-73.19827021348937,6.7904595134980354],[-73.20089891770942,6.786396236865471],[-73.21302013506437,6.782352804031348],[-73.21894870097844,6.776193792945207],[-73.22580723089789,6.77281314503449],[-73.23590081829133,6.772380966748585],[-73.23956996078363,6.774791199952858],[-73.2426216716392,6.783182335482536],[-73.2551957225196,6.79492491424071],[-73.26276395799545,6.810536420734934],[-73.2654131446767,6.8127917427279385],[-73.26451000965136,6.8158264667983985],[-73.26343635782797,6.814564323058619],[-73.2625489518025,6.8158049569231025],[-73.26437538344032,6.8161903513587845],[-73.26199537821856,6.823694055151918],[-73.26287186938362,6.836915225719281],[-73.25670699206137,6.84872715235656],[-73.25979359900003,6.859011966295043],[-73.25546325435732,6.869455228258573],[-73.25701773082619,6.872326314783038],[-73.25517965927588,6.873892965954383],[-73.25538794562544,6.880319565442619],[-73.24820299113594,6.887115312031597],[-73.24721874593445,6.890567418185412],[-73.2422449490308,6.8964266290213345],[-73.24003012093357,6.903137107441069],[-73.23121726020776,6.905451912492481],[-73.22743816692577,6.908987133256858],[-73.22504921631099,6.917391330006524],[-73.21720243746341,6.926242224593523],[-73.20128756510877,6.905423598441473]]]}}]}