{"type":"FeatureCollection","features":[{"type":"Feature","properties":{"code":"684017"},"geometry":{"type":"Polygon","coordinates":[[[-73.08193616597777,6.688705531023572],[-73.0991307694677,6.692978194439149],[-73.10348353210037,6.692587936498796],[-73.10917228270262,6.68940314929506],[-73.11303281937614,6.690964726131085],[-73.12071446326541,6.690623796407692],[-73.12602972365409,6.6969381393380445],[-73.12834601069113,6.69339170032265],[-73.13501132917145,6.690784873131861],[-73.1316688519048,6.705355166936613],[-73.12608977132743,6.7125411467832805],[-73.12423353645386,6.717773524989411],[-73.1271453009652,6.728933804735732],[-73.12151379861575,6.730389717330468],[-73.11278849845763,6.7293983285672425],[-73.10805284461827,6.724899999152001],[-73.1051719261834,6.725148524343524],[-73.09879982694957,6.733436683980699],[-73.08499110305752,6.732307974487014],[-73.08066837711698,6.733315139558499],[-73.07584181924346,6.731950199903622],[-73.0680085078506,6.737003802918252],[-73.06415636429654,6.732414241395588],[-73.05164467199978,6.726383657068993],[-73.04831173250903,6.722286734939473],[-73.04305380676232,6.720286578791331],[-73.03684699778171,6.714813766150996],[-73.03556309631199,6.700924089434523],[-73.03668399992694,6.70272110350254],[-73.03932771426554,6.701775166756477],[-73.04388309344421,6.7050169697849356],[-73.0476197243915,6.7052372940542],[-73.05240303625709,6.709257054198417],[-73.05671054536214,6.707863585548125],[-73.06035926195756,6.709056695083802],[-73.0597130421578,6.7056186343695],[-73.06634772950616,6.7098150161465355],[-73.07521584742,6.70870540894424],[-73.0824700870536,6.70463592257579],[-73.09006261948394,6.705402859929961],[-73.09846643776672,6.699020877363523],[-73.08193616597777,6.688705531023572]],[[-73.09431759265976,6.732278286436838],[-73.09731418208162,6.732989560368139],[-73.09731556225148,6.731729301763494],[-73.09431759265976,6.732278286436838]]]}}]}