{"type":"FeatureCollection","features":[{"type":"Feature","properties":{"code":"684028"},"geometry":{"type":"Polygon","coordinates":[[[-73.11558868826859,6.6903651204884795],[-73.11889374565419,6.684679023267961],[-73.11788806153999,6.6804616005853745],[-73.12045128071111,6.676634263064841],[-73.1165138936704,6.668744893327187],[-73.11954052595513,6.663721620110891],[-73.1165659112645,6.661212539182372],[-73.11238822760089,6.650273539128364],[-73.11775739277573,6.650125783820158],[-73.1205651138713,6.6465972674725435],[-73.12004851073903,6.6378963434589195],[-73.11772242675858,6.633825529371165],[-73.11979327290317,6.631962538658684],[-73.12060330199887,6.626897622776312],[-73.12747706212355,6.6229779424304525],[-73.13401154831729,6.622657046767358],[-73.14229651978263,6.613506032084501],[-73.1462296418722,6.613513432756861],[-73.14916943555596,6.61045169767209],[-73.14937722311089,6.606319078302761],[-73.15305476180794,6.600325889174542],[-73.15784912840223,6.5996679934668805],[-73.15819878651729,6.601880383126911],[-73.15367406418164,6.6082427203843395],[-73.15277177864982,6.617532133605323],[-73.15356543596909,6.619215298058123],[-73.16320314564723,6.623392206276094],[-73.16664367050987,6.628884397858826],[-73.16371308755726,6.63489600947787],[-73.16556192998604,6.639942236502748],[-73.16645433218525,6.64083898078627],[-73.16757315834633,6.6378607830019405],[-73.1754162502275,6.63597197735379],[-73.18467056784755,6.641193248380716],[-73.187899704578,6.645640671948172],[-73.19321269930782,6.646590529117134],[-73.19172433626625,6.655872247531249],[-73.18061732778557,6.664817161304825],[-73.17182033592786,6.662296619412928],[-73.17248769639201,6.667792180173308],[-73.1709091276287,6.669358686334306],[-73.16690025766229,6.668737898889617],[-73.16669536208775,6.669959532278597],[-73.1706581074356,6.671204074224704],[-73.16947817841924,6.674440350403074],[-73.17152855855772,6.675471887505353],[-73.16544244759109,6.679481547315618],[-73.15829325924705,6.680460540261151],[-73.15180038897984,6.685861866890434],[-73.14554470943915,6.684736853619256],[-73.13925862296696,6.6859375756864665],[-73.1355430555509,6.690659059644759],[-73.12834601069113,6.69339170032265],[-73.12602972365409,6.6969381393380445],[-73.12071446326541,6.690623796407692],[-73.11558868826859,6.6903651204884795]]]}}]}