{"type":"FeatureCollection","features":[{"type":"Feature","properties":{"code":"684057"},"geometry":{"type":"Polygon","coordinates":[[[-73.25742312435506,6.6729588439878285],[-73.26386873563166,6.67264460029088],[-73.26569608772559,6.670199607786401],[-73.26652477174014,6.6578015943835],[-73.26108757097887,6.653156543244734],[-73.26066323353876,6.641851608944364],[-73.26357174200109,6.631437139257571],[-73.26694130124463,6.625842557994588],[-73.26601401118984,6.619928960032894],[-73.26844033951949,6.617379820239876],[-73.26909971721284,6.61227578548943],[-73.27356271962759,6.606916856402961],[-73.27100077572516,6.596988399854126],[-73.27847446030961,6.581815089062957],[-73.28229939333158,6.565293089037141],[-73.29960201413923,6.567454220093623],[-73.29656775595322,6.578854408740085],[-73.29760269308645,6.589859746421837],[-73.3015965868729,6.593644276051009],[-73.31000002566043,6.597131615617059],[-73.31146924218757,6.600116516789683],[-73.3382216032058,6.607196108371625],[-73.3422811033974,6.611261890290166],[-73.34530735618688,6.610904710146542],[-73.34663459005367,6.613002104506336],[-73.3556257354038,6.614685759526196],[-73.35868323947608,6.617732761143429],[-73.36753591738238,6.618335528218324],[-73.38215742762458,6.628743104254966],[-73.40009361016143,6.633489003438626],[-73.38424321498212,6.6566016261646155],[-73.38104333127069,6.665212809312436],[-73.38009031164097,6.67164358736261],[-73.38314432723621,6.6822709014562065],[-73.34298793240009,6.674090391982816],[-73.33082684849933,6.677113264281672],[-73.31886482067648,6.667717476165649],[-73.30806003442808,6.667967715770885],[-73.30165744495895,6.671130418199937],[-73.2915444230872,6.671134311883293],[-73.27316290334244,6.678133700375383],[-73.26249155339707,6.676263725509784],[-73.25742312435506,6.6729588439878285]],[[-73.2855714274279,6.6408400627078095],[-73.28246830781615,6.643920826036094],[-73.28831989377926,6.640488205782674],[-73.29092697499539,6.640916728983825],[-73.28967509819722,6.6354715413379495],[-73.28641649041799,6.635539644801554],[-73.2855714274279,6.6408400627078095]]]}}]}