{"type":"FeatureCollection","features":[{"type":"Feature","properties":{"code":"684061"},"geometry":{"type":"Polygon","coordinates":[[[-73.2635106113778,6.819369136571993],[-73.26437538344032,6.8161903513587845],[-73.2625489518025,6.8158049569231025],[-73.26343635782797,6.814564323058619],[-73.26451000965136,6.8158264667983985],[-73.2655323236811,6.811482433585809],[-73.27187504956811,6.809086951332574],[-73.2746018075548,6.8033181663050755],[-73.27822828716614,6.804468448409011],[-73.27948084067941,6.802620939870167],[-73.28162027674097,6.80446960232149],[-73.27889365450869,6.808939377030242],[-73.27650831372716,6.809966119533499],[-73.27027550263432,6.825322235982355],[-73.26722553498882,6.82467970417747],[-73.26623490932997,6.820577405350434],[-73.2635106113778,6.819369136571993]]]}}]}