{"type":"FeatureCollection","features":[{"type":"Feature","properties":{"code":"684007"},"geometry":{"type":"Polygon","coordinates":[[[-73.00414738199197,6.824069669099288],[-73.00796401753968,6.822753688450518],[-73.01010927664271,6.81799278840424],[-73.00955209014029,6.814839683400805],[-73.01473352753152,6.81138170175484],[-73.01712404549272,6.8019776799279725],[-73.02374543816461,6.793459821768067],[-73.02652013185707,6.784525537976322],[-73.02519341529688,6.781670227760117],[-73.02624215515715,6.777704681963257],[-73.0344762968794,6.772326185729412],[-73.03689947200434,6.767407465007977],[-73.04443228277762,6.759963645365872],[-73.05112840619671,6.758877105100794],[-73.05656067866141,6.754526281082235],[-73.05741845114414,6.749276386443171],[-73.0625092076732,6.745983668310885],[-73.06846060706806,6.73650860373175],[-73.07584181924346,6.731950199903622],[-73.08931029526951,6.73358703302091],[-73.10007347484736,6.7325079973009565],[-73.0987487740345,6.7367400434076785],[-73.08941652515415,6.738841863155642],[-73.08780902013217,6.741039543002387],[-73.0879738187898,6.744600774106516],[-73.0904638395931,6.74814376681104],[-73.08979699437862,6.7552996102066345],[-73.0934063113412,6.758321837672099],[-73.09522903750064,6.757607883619585],[-73.09557993694585,6.755152796951791],[-73.10240766604028,6.758109101251762],[-73.10643613297884,6.757105974874094],[-73.11485306081846,6.7678629272325],[-73.11830837468449,6.77788774576004],[-73.12413085469586,6.783370390310836],[-73.12717949153676,6.789888227048664],[-73.13344538042628,6.794010971312957],[-73.11754636871223,6.805904061605304],[-73.09815995264017,6.812167987198109],[-73.0956725811048,6.814349752925295],[-73.08715059683351,6.8160784259595175],[-73.09017185550607,6.82209807177145],[-73.08034553461215,6.834448317104716],[-73.07609602657988,6.843829764618306],[-73.06855791315701,6.848457714814799],[-73.0584718899583,6.862225096346094],[-73.05528993097147,6.868045246935196],[-73.05669447389084,6.871706447794338],[-73.0557030182789,6.875103118839547],[-73.04664463849906,6.867587549905068],[-73.04524098518249,6.862003997659656],[-73.04101506550779,6.8558730229450475],[-73.03620391370316,6.854245357364334],[-73.03065747280607,6.8569037280373095],[-73.03088713739021,6.849617245702291],[-73.02279809656602,6.844923097746175],[-73.01696527865045,6.843669353296434],[-73.01366308239193,6.838818393567237],[-73.01424819419407,6.83653687405797],[-73.01096366246423,6.833434219302262],[-73.00558470034593,6.83205481254646],[-73.00386780297856,6.8287521935980635],[-73.00414738199197,6.824069669099288]]]}}]}