{"type":"FeatureCollection","features":[{"type":"Feature","properties":{"code":"684021"},"geometry":{"type":"Polygon","coordinates":[[[-73.17418143220544,6.677306282373593],[-73.16947817841924,6.674440350403074],[-73.1706581074356,6.671204074224704],[-73.16669536208775,6.669959532278597],[-73.16690025766229,6.668737898889617],[-73.1709091276287,6.669358686334306],[-73.17248769639201,6.667792180173308],[-73.17182033592786,6.662296619412928],[-73.18016870984599,6.664811325922017],[-73.17746873044564,6.6679808438396435],[-73.17996777480357,6.673585913159457],[-73.17741119422891,6.672918137204476],[-73.17418143220544,6.677306282373593]]]}}]}