{"type":"FeatureCollection","features":[{"type":"Feature","properties":{"code":"684037"},"geometry":{"type":"Polygon","coordinates":[[[-73.03010443195535,6.537997130327483],[-73.02967860430203,6.5297960324633095],[-73.03890068024913,6.527496176852367],[-73.04378991449511,6.522674960709253],[-73.04632068424786,6.514595166611741],[-73.05145574710912,6.510464856095837],[-73.05299020802966,6.5071408517137],[-73.0607824526843,6.5048387294154395],[-73.06680424896956,6.500734872498015],[-73.06695978547384,6.496988762396029],[-73.07254597361748,6.488569055704772],[-73.07210909123552,6.484969796910036],[-73.07566053670911,6.4814722737061174],[-73.0779958746154,6.492616679442165],[-73.08583100737991,6.507415399586307],[-73.08905862715767,6.518688061360365],[-73.09566231313471,6.523669373093469],[-73.10583221199147,6.537209121214573],[-73.10907488816764,6.536893283431709],[-73.11200442005202,6.543119290348841],[-73.10996059931989,6.544066958992175],[-73.11370657469587,6.550034601608161],[-73.11343204019306,6.551171016193166],[-73.11025722373955,6.549658414818339],[-73.11021938631086,6.553456796539763],[-73.11394180212562,6.555611776481555],[-73.10966139556632,6.556633081609164],[-73.1060959519616,6.561948939522949],[-73.0871133723565,6.571340458574127],[-73.08574269399242,6.568989301165004],[-73.08185655835615,6.569989633264356],[-73.07804950377897,6.559705643108373],[-73.07272145676444,6.553961746389859],[-73.07028492628501,6.55290128845553],[-73.06548276203955,6.555410670717663],[-73.0618303399657,6.553777000061075],[-73.05528605682855,6.546100199107627],[-73.04538670725981,6.542936995827063],[-73.0380335324844,6.538627289968872],[-73.03305263624208,6.539620487762477],[-73.03010443195535,6.537997130327483]]]}}]}