{"type":"FeatureCollection","features":[{"type":"Feature","properties":{"code":"684511"},"geometry":{"type":"Polygon","coordinates":[[[-73.61150188336268,5.945025591956721],[-73.60965545777378,5.943752449024203],[-73.60784699919742,5.947644349080747],[-73.60474951853604,5.948221212773888],[-73.60493352747147,5.946686691175273],[-73.60617469406918,5.947486840023657],[-73.60483178776684,5.9457050613031015],[-73.60636545164448,5.9466357040805065],[-73.60901571407658,5.93819013925895],[-73.60506821744593,5.937539108405133],[-73.60567001161422,5.933604324352416],[-73.60840700054706,5.930095553072704],[-73.6147692246758,5.926427308410723],[-73.62265687485757,5.924286212442951],[-73.6262549056919,5.918260551270691],[-73.63000790121657,5.919346203989846],[-73.62885946002473,5.923387734205335],[-73.63187643214889,5.9237468827879525],[-73.63158679496769,5.924586765513027],[-73.62869870417467,5.923978367715392],[-73.62654885513263,5.92845165146997],[-73.62851691461816,5.929068666587511],[-73.62885241416507,5.931225192278362],[-73.62778251512839,5.929600046381836],[-73.62424726351071,5.930521901117913],[-73.62272784664731,5.929074755995657],[-73.61569282056507,5.937157422533176],[-73.61088295534205,5.949327634889755],[-73.61150188336268,5.945025591956721]]]}}]}