{"type":"FeatureCollection","features":[{"type":"Feature","properties":{"code":"684517"},"geometry":{"type":"Polygon","coordinates":[[[-73.58825928709962,5.9976056978889005],[-73.58872641289071,5.989102901269689],[-73.59160205747241,5.9863859906201355],[-73.59023460224716,5.984161468423679],[-73.59198944708658,5.979871295774217],[-73.59076720485962,5.96544649161882],[-73.59337082639513,5.9612418380785925],[-73.59397504974464,5.9558384062274285],[-73.59622501663739,5.954488562051836],[-73.60335454116051,5.936898264274419],[-73.60788460522656,5.930395021135951],[-73.61437021880334,5.925966346075597],[-73.61628010032405,5.926128457412972],[-73.61846365039901,5.924331959623032],[-73.62266809722229,5.923580411882767],[-73.6260263343421,5.916770835827208],[-73.6310023454825,5.915232023566375],[-73.63405595587136,5.910850033625707],[-73.64874005609681,5.922719726850801],[-73.65291582685734,5.924705519770669],[-73.66005907800275,5.9248658467602695],[-73.66612249947053,5.928948577411461],[-73.66470168144832,5.933642819984357],[-73.65949929776826,5.938064040893323],[-73.65178501522723,5.950570597148101],[-73.6526003078917,5.952471293648671],[-73.64870777842833,5.964067456130806],[-73.6440119499971,5.972666506742257],[-73.63354588437755,5.983265990152859],[-73.62026721256058,5.99243304956741],[-73.61537606541151,5.9888820350112155],[-73.60754807929402,5.992408647711784],[-73.60628056605583,5.995945401884001],[-73.60392250574057,5.99679444597507],[-73.58825928709962,5.9976056978889005]],[[-73.61150188336268,5.945025591956721],[-73.61088295534205,5.949327634889755],[-73.61569282056507,5.937157422533176],[-73.62272784664731,5.929074755995657],[-73.62424726351071,5.930521901117913],[-73.62778251512839,5.929600046381836],[-73.62885241416507,5.931225192278362],[-73.62851691461816,5.929068666587511],[-73.62654885513263,5.92845165146997],[-73.62869870417467,5.923978367715392],[-73.63158679496769,5.924586765513027],[-73.62885946002473,5.923387734205335],[-73.63000790121657,5.919346203989846],[-73.6262549056919,5.918260551270691],[-73.62265687485757,5.924286212442951],[-73.6186594905372,5.924522434376627],[-73.61666878371892,5.926904074821948],[-73.6147692246758,5.926427308410723],[-73.60840700054706,5.930095553072704],[-73.60567001161422,5.933604324352416],[-73.60506821744593,5.937539108405133],[-73.60901571407658,5.93819013925895],[-73.60636545164448,5.9466357040805065],[-73.60483178776684,5.9457050613031015],[-73.60617469406918,5.947486840023657],[-73.60493352747147,5.946686691175273],[-73.60474951853604,5.948221212773888],[-73.60784699919742,5.947644349080747],[-73.60965545777378,5.943752449024203],[-73.61150188336268,5.945025591956721]]]}}]}