{"type":"FeatureCollection","features":[{"type":"Feature","properties":{"code":"685027"},"geometry":{"type":"Polygon","coordinates":[[[-73.82986950778871,6.015376883278748],[-73.84600309284315,6.022176205762378],[-73.85314837721938,6.019655216497938],[-73.85988202439222,6.021294704025422],[-73.86645241557113,6.026245916331334],[-73.8770409306423,6.027821115916936],[-73.8820606526466,6.03459703619103],[-73.88815829142538,6.037980038206683],[-73.8905532903106,6.044014586150752],[-73.89440670913348,6.0464540374069315],[-73.89542079356619,6.052677977154644],[-73.89869667506599,6.057010507237635],[-73.90825268321356,6.065829064506545],[-73.92116916020126,6.07381767894725],[-73.92386497852317,6.079987808525459],[-73.92773678589822,6.110617438976931],[-73.93080427717581,6.115179186271689],[-73.93350016440343,6.12640408100458],[-73.93136976012408,6.1283759231016575],[-73.93283685703119,6.131983195520547],[-73.92981146607661,6.1358672886698855],[-73.92892939561091,6.14017924373195],[-73.9265036185264,6.140123159676023],[-73.91846965388442,6.134349329109568],[-73.9092953316088,6.137238975936157],[-73.9019732713333,6.144409626847107],[-73.89200391259703,6.143315425713752],[-73.87885514335454,6.1462584949869665],[-73.87299467370497,6.141369863408329],[-73.8602659841506,6.134691352067364],[-73.82280091951333,6.136493268720869],[-73.80833323033335,6.134466229085376],[-73.80158870018181,6.129671327700976],[-73.79980695437138,6.124821333679336],[-73.79897314459936,6.102965056334199],[-73.77629323392091,6.072503077439933],[-73.76650703668344,6.062181070906206],[-73.76997278204198,6.058568318945618],[-73.77148558910528,6.052037081601782],[-73.77848470300324,6.043541023337923],[-73.78124992679699,6.028068469712423],[-73.79006344264064,6.018690453083082],[-73.79189975658267,6.017824477742806],[-73.79884892931193,6.02474680915077],[-73.80571790820733,6.025387825031373],[-73.82986950778871,6.015376883278748]],[[-73.81517625648178,6.058689507526651],[-73.81668557609652,6.054716097229857],[-73.81588593427028,6.054071464316905],[-73.81179252324347,6.057047842786403],[-73.81517625648178,6.058689507526651]]]}}]}