{"type":"FeatureCollection","features":[{"type":"Feature","properties":{"code":"685049"},"geometry":{"type":"Polygon","coordinates":[[[-73.92597607276576,6.144549360303699],[-73.93285269401753,6.131899554347342],[-73.93133302004355,6.128523980772002],[-73.93350016440343,6.12640408100458],[-73.93093669943454,6.119772680558526],[-73.93703729601401,6.113367435650787],[-73.94088627916426,6.103036807683452],[-73.94973068119367,6.094300225510835],[-73.9500445412815,6.08094432280285],[-73.94733134742319,6.07461301674158],[-73.94764737135415,6.071769248735734],[-73.9508848076157,6.070112969827278],[-73.96076417248935,6.0722789921563844],[-73.96541323866768,6.071062638791318],[-73.98286779745928,6.050583110706498],[-73.98385930552183,6.043771153806574],[-73.97999232976974,6.036906037741289],[-73.98322584149463,6.024809665500641],[-73.98207531976362,6.010459065529858],[-73.99226291297396,5.995738416514257],[-73.99962500743135,5.971850730709775],[-74.00729124525168,5.9724294240022004],[-74.01075058855548,5.975690889823227],[-74.0199430145048,5.97878233455549],[-74.02496315097142,5.983673826232746],[-74.02964438374642,5.985609419844877],[-74.03639881471406,5.969705033490186],[-74.03898306656316,5.954525940795179],[-74.05076311353918,5.942649113264395],[-74.0538722135442,5.941361816905896],[-74.05996828394814,5.92878366562519],[-74.06631144898012,5.93148198306244],[-74.07751293224749,5.930305477731167],[-74.08342043051658,5.931371398752162],[-74.09175165515575,5.929329908470777],[-74.10636237703591,5.942463969956805],[-74.11340194574876,5.945728012026336],[-74.10412045873426,5.958661817241989],[-74.10500984554005,5.966450943658913],[-74.09802739652463,5.973228716157962],[-74.09490084796391,5.979914732043994],[-74.09836309456097,5.98542955861808],[-74.09922931981276,5.993884447299479],[-74.104621129235,5.997631306107621],[-74.10546751068841,6.001560317512485],[-74.11067440100356,6.007419726837838],[-74.1113563190716,6.017001549921076],[-74.10997624074287,6.021067434683857],[-74.11096259733682,6.022813757848553],[-74.11569066024191,6.023366205287914],[-74.11469864207186,6.030443297754516],[-74.11789052141518,6.029203116404744],[-74.123353708862,6.029892213001517],[-74.12620271986776,6.033409588231336],[-74.12074228967532,6.040153602104738],[-74.11532127968468,6.038538723149884],[-74.11245803400601,6.041799905120797],[-74.1135686058874,6.043052261173102],[-74.11262135993394,6.0446257370890635],[-74.10209344480978,6.046886914005313],[-74.10896912709353,6.054491499781989],[-74.11126282233374,6.061470071569033],[-74.10868934033476,6.070152297469235],[-74.1107972546331,6.075533698024742],[-74.11303937142412,6.077265235271398],[-74.1182420050157,6.07520655560171],[-74.12239975952025,6.076142178097825],[-74.11703822024663,6.082603545113784],[-74.11780305546432,6.088007614599292],[-74.11567531382263,6.092310945142344],[-74.10550993805606,6.103279119025274],[-74.1064029696621,6.110837607951339],[-74.1128936843138,6.115063552308641],[-74.11130068238822,6.122354300623215],[-74.10403622414975,6.12851609673163],[-74.1008227526558,6.127652654445285],[-74.09922236651289,6.1229516560335355],[-74.09663851987017,6.122350405911391],[-74.09302385500649,6.13052166454429],[-74.0890724410383,6.133181406131143],[-74.10137400093112,6.146229620434781],[-74.10004691413161,6.1587017279790075],[-74.10345835875358,6.163234222254687],[-74.10234379754365,6.1668705481747],[-74.09573983594402,6.171211238949127],[-74.0958159201216,6.165052062283735],[-74.08673443946589,6.154506259458856],[-74.08237002766475,6.153536472102303],[-74.07751152842349,6.154664535734014],[-74.074718567535,6.15919486719514],[-74.07095332120304,6.156090919687188],[-74.06710211558851,6.1589392673475345],[-74.0583437715722,6.161115984450362],[-74.05346177550473,6.1665051662020005],[-74.0459713828431,6.1712645410680125],[-74.03793725570716,6.17363652546652],[-74.02987426327508,6.181648714895061],[-74.00774401604212,6.189194451133972],[-73.99330374513966,6.192179723574327],[-73.98648657814994,6.191561377652192],[-73.97973401689075,6.195708446638946],[-73.9745763786878,6.190146229433537],[-73.9669277529456,6.190703036440709],[-73.96265761435643,6.187012710089391],[-73.96471386381637,6.178662296769744],[-73.95400442550232,6.170841393535852],[-73.95124603468065,6.163284490468129],[-73.95155739153944,6.155437841204275],[-73.94506969330962,6.153563270229029],[-73.94083490743202,6.156747428025881],[-73.93695583719591,6.149443351096295],[-73.9343432538123,6.150944853519491],[-73.93144350870864,6.149404551045393],[-73.9314031238278,6.152516331171569],[-73.9292516354484,6.152757609957121],[-73.92885861099768,6.150797502389139],[-73.92680117162973,6.150005680839797],[-73.92597607276576,6.144549360303699]]]}}]}