{"type":"FeatureCollection","features":[{"type":"Feature","properties":{"code":"685047"},"geometry":{"type":"Polygon","coordinates":[[[-73.84600309284315,6.022176205762378],[-73.81476968641465,6.00918007795849],[-73.80777662181555,5.999659311450728],[-73.79701066749976,6.003241456961916],[-73.79423537936754,6.000251454714373],[-73.78864350393678,6.000976420300901],[-73.77721503620643,5.995726637762061],[-73.78250916004447,5.979823655231428],[-73.77634694124612,5.97514412967098],[-73.77035404522405,5.973730136393328],[-73.76406468933311,5.969583919985439],[-73.75749312675816,5.968466730076443],[-73.7558507266815,5.961382045647156],[-73.75407835615306,5.962224214599985],[-73.75244547739726,5.95819590604151],[-73.7544710443031,5.954881887836223],[-73.75638126212453,5.954780153273873],[-73.76196521032034,5.942525087210356],[-73.76395550164779,5.943459865355123],[-73.76613201203367,5.941511312338832],[-73.76577171262386,5.93984274457074],[-73.7669652016549,5.940398414120523],[-73.76805355095036,5.935233451349916],[-73.7674428658965,5.933157848658652],[-73.76570780417734,5.935078406441164],[-73.76579978499086,5.9281755732749275],[-73.76235613263458,5.922309495528282],[-73.76340888753441,5.920170397824336],[-73.76206054385648,5.920049809853708],[-73.76213100862407,5.918232296869348],[-73.76281446112836,5.917355542423024],[-73.76330626542614,5.9190072396201],[-73.7636354585635,5.916799907840357],[-73.75890235526163,5.916512331657941],[-73.75659745822549,5.9142187053233215],[-73.7584953892441,5.903858140422699],[-73.7603893905839,5.90317652368833],[-73.76267006574182,5.905343522009389],[-73.76486326672136,5.904535474722422],[-73.76938789341182,5.9070416873247495],[-73.76964406198817,5.909203006586154],[-73.77343703718725,5.909015236636435],[-73.77631059608751,5.910889746933606],[-73.77848027350132,5.90977757273879],[-73.77964323424459,5.914045786083591],[-73.78746296196863,5.917395984896643],[-73.79211860298,5.9291222330160736],[-73.80083868482086,5.935930139909431],[-73.81322416150948,5.933657347763358],[-73.83038122993275,5.950805579808559],[-73.84570627404781,5.954533352780402],[-73.84597991894788,5.957269819264468],[-73.85172650504359,5.966026524971824],[-73.85473662465523,5.966300178099459],[-73.84971378544168,5.976141087450458],[-73.86513520799048,5.97505687455083],[-73.8774493231096,5.978340639062537],[-73.88456415118907,5.9766987604062365],[-73.88702697174466,5.977793350290881],[-73.88702697174466,5.979536465743365],[-73.90612677219957,5.976276996129286],[-73.90974617098419,5.974648497510145],[-73.91640535480485,5.967275819350789],[-73.92715716906446,5.96504614568579],[-73.9353318092164,5.965740146924986],[-73.94836898216118,5.959219893347267],[-73.95426572189302,5.960151732203315],[-73.97078031816113,5.966911669452202],[-73.98782098026106,5.961796775377252],[-73.99569007631135,5.971001256729721],[-73.998063025389,5.972089003357837],[-73.99996390289544,5.970424304590495],[-73.99226291297396,5.995738416514257],[-73.98207531976362,6.010459065529858],[-73.98322584149463,6.024809665500641],[-73.97999232976974,6.036906037741289],[-73.98385930552183,6.043771153806574],[-73.98286779745928,6.050583110706498],[-73.96541323866768,6.071062638791318],[-73.96076417248935,6.0722789921563844],[-73.9508848076157,6.070112969827278],[-73.94784426256058,6.0714612497417875],[-73.94733134742319,6.07461301674158],[-73.95007920699351,6.081347099973982],[-73.9495649559093,6.094871636401763],[-73.94088627916426,6.103036807683452],[-73.93703729601401,6.113367435650787],[-73.93093669943454,6.119772680558526],[-73.93080427717581,6.115179186271689],[-73.92773678589822,6.110617438976931],[-73.92387906715726,6.080068062008934],[-73.9213875458563,6.074162494126483],[-73.90825268321356,6.065829064506545],[-73.89836256185959,6.056653216022255],[-73.8953604435307,6.052526498884504],[-73.89440670913348,6.0464540374069315],[-73.8905532903106,6.044014586150752],[-73.8879280581125,6.037704163643241],[-73.8820606526466,6.03459703619103],[-73.87701159123412,6.0278041589566556],[-73.86645241557113,6.026245916331334],[-73.85988202439222,6.021294704025422],[-73.85314837721938,6.019655216497938],[-73.84600309284315,6.022176205762378]]]}}]}