{"type":"FeatureCollection","features":[{"type":"Feature","properties":{"code":"685067"},"geometry":{"type":"Polygon","coordinates":[[[-73.99962500743135,5.971850730709775],[-73.99962526659885,5.970119064907806],[-73.998063025389,5.972089003357837],[-73.99569007631135,5.971001256729721],[-73.98544744497121,5.9579577454936725],[-73.98509733125616,5.948986203286381],[-73.98816121167204,5.942460153406614],[-73.98664724966773,5.929679187090528],[-73.97597920513664,5.926790376387771],[-73.97484520430623,5.924098806561858],[-73.96887720996284,5.922107119637872],[-73.96208990791541,5.927089369310579],[-73.9514230347803,5.929672061012354],[-73.9464506674118,5.928046584985793],[-73.9441710700616,5.92959118737798],[-73.93541972151132,5.930320281132822],[-73.93009063268454,5.928855070389261],[-73.92404801969423,5.921717584692601],[-73.92567613264742,5.9166643179787],[-73.93242039643235,5.910808751943023],[-73.93487409881652,5.905939920968194],[-73.92986008055442,5.90072094233966],[-73.9346820289486,5.895799619658646],[-73.9375762934821,5.887137461757391],[-73.93559079366833,5.88254890810839],[-73.9375404666585,5.87942176510785],[-73.9316952231004,5.876620394644874],[-73.92871667975942,5.873355171923379],[-73.92646786780756,5.874432898435998],[-73.92627279900131,5.86960290247913],[-73.93372651123201,5.863513527235966],[-73.93905174031403,5.855539232828846],[-73.936375783274,5.854412737571977],[-73.9305175114061,5.856975921776041],[-73.92987740878243,5.855303984830243],[-73.9226021704095,5.853104597769004],[-73.92152211858831,5.848593110460115],[-73.91844239193011,5.850564668707136],[-73.91405882538709,5.841555723073839],[-73.91760514407474,5.83604523035649],[-73.92961056394432,5.838122762405931],[-73.93809550680146,5.842989964327842],[-73.95340193405002,5.845721153873342],[-73.96137263507893,5.844672827446971],[-73.96283773372227,5.847182503843669],[-73.96536634888793,5.845886521259672],[-73.96673009966327,5.847438749553191],[-73.96820459724273,5.845486948715461],[-73.97041674624722,5.846274109363264],[-73.9738874805804,5.837777999677314],[-73.97973885057058,5.840037512573531],[-73.98349535102733,5.839159913775916],[-73.98442131541975,5.836760365061025],[-73.98864557107441,5.8361845843177775],[-73.99070658633701,5.8325915558278325],[-74.00003848760377,5.833679233550299],[-73.99485329331196,5.826010230248016],[-73.99657271653422,5.81927929713504],[-74.00030416001744,5.822783911450074],[-74.00567671082507,5.822384510655752],[-74.00531343098885,5.829878625250842],[-74.00764150603402,5.828520260429002],[-74.01519167897396,5.830094632118346],[-74.01698076580703,5.8291758894493455],[-74.01951498187071,5.831458313988037],[-74.02326390887674,5.831949299645544],[-74.02396238795461,5.833729640603508],[-74.02516746547593,5.831738100746804],[-74.0280561897896,5.839494784944463],[-74.02971812307499,5.8404930241632655],[-74.03429909401729,5.839419605796309],[-74.03452915455182,5.8419685481284205],[-74.04009086370661,5.842473121568503],[-74.04432333970232,5.845568280006717],[-74.05275274049279,5.8437376183847505],[-74.05539969442538,5.841333503385044],[-74.06287462856744,5.840760704096738],[-74.06478445866605,5.839203151556319],[-74.0674876961723,5.839906291535669],[-74.0679048293726,5.836728914260334],[-74.07035412899432,5.836612539818702],[-74.07134742243312,5.834157466520594],[-74.07267475914415,5.835186078732363],[-74.0743904162099,5.8322483439905],[-74.07672343703513,5.832076556037521],[-74.08223262054514,5.837593778882706],[-74.08520901752661,5.837684191321387],[-74.08426207290688,5.844345305528691],[-74.08710246762121,5.841681066562728],[-74.08926678582105,5.84231289845161],[-74.0890868556886,5.849131116509625],[-74.09143196585569,5.858298166668192],[-74.10056897006609,5.867787138875542],[-74.09995956028098,5.871782911626497],[-74.10558059411397,5.878736564251312],[-74.11259301091593,5.875390397961326],[-74.12409747643466,5.874214073635983],[-74.12656063226245,5.876154672677842],[-74.13392647333598,5.875742571646811],[-74.13881789610758,5.879567169396466],[-74.14017513169955,5.883597812519497],[-74.14828293954287,5.890092955644661],[-74.15894450488611,5.893688318699105],[-74.1725493626746,5.9025356723585105],[-74.17434046628347,5.907113248412088],[-74.1820836141207,5.912467436378506],[-74.18539145447176,5.916964430875396],[-74.18389785254402,5.919488755378893],[-74.17365904803853,5.923076001965001],[-74.17706906209696,5.92779005439769],[-74.18324971984117,5.927766341598499],[-74.1844584257077,5.928999311509358],[-74.18319381576276,5.933783131425628],[-74.17410598550299,5.9393686048017],[-74.16870960156842,5.959495152902036],[-74.16935028937587,5.963056731619815],[-74.17478841265006,5.9659743644241985],[-74.17497012507334,5.968984426443058],[-74.16808315563298,5.971029207740514],[-74.1643168325217,5.974338280165682],[-74.16222226432194,5.983735089525169],[-74.15606905879383,5.986929165621689],[-74.15408988287311,5.9951311602877695],[-74.14947424004816,5.9981644352827175],[-74.1463486129719,6.003701207791721],[-74.14338674274103,6.005355239553296],[-74.14008193629542,6.004528193847648],[-74.13883885987991,6.0097889107873925],[-74.13388059040142,6.009605164104755],[-74.12747352515044,6.013511066406238],[-74.12753891558265,6.019093782527875],[-74.13118170423547,6.029411162098711],[-74.1258318922919,6.0345343001689],[-74.123353708862,6.029892213001517],[-74.11789052141518,6.029203116404744],[-74.11469864207186,6.030443297754516],[-74.11569066024191,6.023366205287914],[-74.11096259733682,6.022813757848553],[-74.10997624074287,6.021067434683857],[-74.1113563190716,6.017001549921076],[-74.11067440100356,6.007419726837838],[-74.10546751068841,6.001560317512485],[-74.104621129235,5.997631306107621],[-74.09922931981276,5.993884447299479],[-74.09836309456097,5.98542955861808],[-74.09490084796391,5.979914732043994],[-74.09802739652463,5.973228716157962],[-74.10500984554005,5.966450943658913],[-74.10412045873426,5.958661817241989],[-74.11340194574876,5.945728012026336],[-74.10636237703591,5.942463969956805],[-74.09175165515575,5.929329908470777],[-74.08342043051658,5.931371398752162],[-74.07751293224749,5.930305477731167],[-74.06631144898012,5.93148198306244],[-74.06158485057716,5.928743030832834],[-74.05897313828444,5.929199584234823],[-74.0538722135442,5.941361816905896],[-74.05076311353918,5.942649113264395],[-74.03898306656316,5.954525940795179],[-74.03639881471406,5.969705033490186],[-74.02964438374642,5.985609419844877],[-74.02496315097142,5.983673826232746],[-74.0199430145048,5.97878233455549],[-74.01075058855548,5.975690889823227],[-74.00729124525168,5.9724294240022004],[-73.99962500743135,5.971850730709775]],[[-73.9636723683052,5.863618939508797],[-73.96506091997185,5.862885695988439],[-73.96554157595273,5.860580422542284],[-73.96740801297614,5.860406312366081],[-73.96639324360069,5.858241278370258],[-73.9679153128173,5.855710763671254],[-73.96669714527962,5.856292762377905],[-73.96518122923459,5.854406979322334],[-73.96552260118824,5.857271260642619],[-73.9620155906021,5.860164396974653],[-73.9636723683052,5.863618939508797]]]}}]}