{"type":"FeatureCollection","features":[{"type":"Feature","properties":{"code":"685547"},"geometry":{"type":"Polygon","coordinates":[[[-73.53713523465882,6.0420363070318786],[-73.54002805217362,6.037349646137272],[-73.54810175480611,6.0318192067773],[-73.55952234775214,6.029247552320612],[-73.5593023423001,6.025539984130489],[-73.56587717943603,6.017917914831003],[-73.581973843404,6.011631472517706],[-73.58172821327815,6.009844256421502],[-73.58593937994493,6.006174625419021],[-73.58825928709962,5.9976056978889005],[-73.60392250574057,5.99679444597507],[-73.60628056605583,5.995945401884001],[-73.60754807929402,5.992408647711784],[-73.61522136503095,5.98891016805635],[-73.61881111895991,5.992041869114132],[-73.61634088024846,5.99876506525402],[-73.61828507266847,6.004047469989587],[-73.61350073647412,6.004902443051776],[-73.60541831264908,6.0112307964545835],[-73.59973356063136,6.012659024405195],[-73.59621740821967,6.016905829690529],[-73.59586844018952,6.019567362824205],[-73.60597842815582,6.033173745792965],[-73.59819750562485,6.037585212953104],[-73.59508474333609,6.034955646898197],[-73.5950620990887,6.037545128377474],[-73.59379604212512,6.036691759685596],[-73.59144562519464,6.038859817302409],[-73.59447514328912,6.041161550849381],[-73.59188401527337,6.041033759667357],[-73.5933221522676,6.041392223307241],[-73.59242865580552,6.043075568765914],[-73.59384321781192,6.044551876404228],[-73.59149359278217,6.047053358170956],[-73.59497562352794,6.047150302248099],[-73.59510774959523,6.049672101925239],[-73.5923379410047,6.052317901945287],[-73.5928799188992,6.054819720012745],[-73.5902004116756,6.058719082448192],[-73.58423794006859,6.064465701454083],[-73.58666381279824,6.066383768348771],[-73.5868692647602,6.068920345716435],[-73.58434443220608,6.070233689438567],[-73.58340515565374,6.076205293615203],[-73.57823282614942,6.080722795255895],[-73.57320589167773,6.073398339737764],[-73.56987126348434,6.060497449824936],[-73.56074489131277,6.055487248113025],[-73.5592146871158,6.052247505054879],[-73.55349527864206,6.050470808897273],[-73.55123772081504,6.047490309458567],[-73.53713523465882,6.0420363070318786]],[[-73.56899985282536,6.0265427628945645],[-73.57110566087346,6.028815418257807],[-73.5742947767917,6.02689017180586],[-73.57424539612418,6.02813206037024],[-73.57846630625534,6.0235155413122925],[-73.57561472928546,6.021939507659795],[-73.57205547793313,6.023653127380896],[-73.56899985282536,6.0265427628945645]]]}}]}