{"type":"FeatureCollection","features":[{"type":"Feature","properties":{"code":"686058"},"geometry":{"type":"Polygon","coordinates":[[[-74.11108138450464,6.777710178988514],[-74.1043548366705,6.771246339596701],[-74.10348892097988,6.763563705317324],[-74.09897216907382,6.7599401403120964],[-74.10545377583855,6.757501791546247],[-74.10769071442155,6.75475050829084],[-74.10907108585639,6.741222957498053],[-74.10103790591603,6.745350088069699],[-74.09393543765873,6.738542511306434],[-74.09696321562842,6.735270179990209],[-74.1067280099486,6.734776946157297],[-74.11058430738206,6.729549074586316],[-74.11129459915071,6.724297619799927],[-74.09558803062919,6.724430606673593],[-74.09580107352537,6.721854617331701],[-74.10422122039006,6.719751924436025],[-74.10576434079661,6.716554221022761],[-74.10539153861112,6.711235014500119],[-74.10405967778144,6.710490195859222],[-74.10184625453661,6.716519358878259],[-74.09942055458532,6.716884535162478],[-74.09335288462154,6.704889936565053],[-74.09563298282325,6.696571929469144],[-74.0869824051847,6.692084448065543],[-74.082009763222,6.684903983756044],[-74.08282939077174,6.682800488675241],[-74.08460091694883,6.682763179865958],[-74.08743296173839,6.689108696945993],[-74.09108857198402,6.689162886610745],[-74.0901829008194,6.683943140764086],[-74.09171400901738,6.675324512720863],[-74.09021372221326,6.669845943887708],[-74.09433026291231,6.664065453127478],[-74.0937298221744,6.65819691020414],[-74.0956674140503,6.657089156255267],[-74.10291150398467,6.658687128643578],[-74.10451827367024,6.654732121297172],[-74.10206839606377,6.650788582113307],[-74.09443890860842,6.647769791702785],[-74.09230143070147,6.6559114620444575],[-74.08521904689809,6.651450242949068],[-74.07895858304278,6.656814702999384],[-74.0751195017371,6.658139386328742],[-74.07094244645185,6.657140131008703],[-74.06708256489622,6.654089339580764],[-74.06898131455512,6.648237779328724],[-74.06569125906054,6.64453592413679],[-74.06461523050649,6.640392163649608],[-74.06989945352836,6.638051449045861],[-74.07046923742325,6.635425760219221],[-74.06436224187439,6.633463377736405],[-74.06357157423759,6.6319136917528],[-74.06622991097191,6.625554654767427],[-74.06695695401231,6.618658655601735],[-74.07271460203577,6.6137871537616775],[-74.07695524695043,6.60451864363489],[-74.07502463408542,6.60322102479887],[-74.07303125845885,6.60410605100833],[-74.06993170548577,6.6107815891219275],[-74.06692555566224,6.609705457723635],[-74.06635595277322,6.606281726298903],[-74.07207638249037,6.6013137236404305],[-74.07303773970358,6.595568246205744],[-74.0668119847549,6.588386951943164],[-74.06513355627993,6.578333150876972],[-74.07423575388168,6.578333214640395],[-74.07638728237038,6.580966859498346],[-74.07614310954756,6.5876684130939225],[-74.07997313130312,6.588865333009153],[-74.0833302525628,6.582163779413577],[-74.08811410127538,6.579290321300732],[-74.08787763662929,6.569955173240885],[-74.08918998996131,6.568997715881721],[-74.09613292312974,6.572109627648558],[-74.09876520221604,6.571152129151642],[-74.0999630446442,6.567800424698703],[-74.09517933168598,6.5591833208072785],[-74.10068035861843,6.551762735738521],[-74.10044403795422,6.52902158953566],[-74.0970869516616,6.52926140279061],[-74.09206661876243,6.5347674834895315],[-74.08799236144915,6.535006809262768],[-74.08368924070834,6.533330678328355],[-74.08224725631067,6.530458651807464],[-74.08401715754854,6.5243364641057155],[-74.09550767738676,6.523890232152837],[-74.10593746778176,6.521389727406472],[-74.22666971245962,6.475695222057652],[-74.24416456460068,6.473058909419876],[-74.29430663647048,6.489380201689016],[-74.32812133489045,6.493879001102528],[-74.34675298728246,6.491953650777873],[-74.35596960322823,6.496618215584988],[-74.36482005661338,6.490267692046757],[-74.38049904436343,6.4875054538216546],[-74.39641461400208,6.480551290060873],[-74.40180876313104,6.48378052655022],[-74.3985247651629,6.489795131965423],[-74.39990268993301,6.498464768700728],[-74.39552599030065,6.503229468842051],[-74.39226567942057,6.5133634812256105],[-74.4013413092668,6.523425363793081],[-74.40537934483461,6.5313755504790265],[-74.41498629276856,6.5382052881217305],[-74.41882297163255,6.546186002066975],[-74.41814420676928,6.554520121771873],[-74.40951805669744,6.572035233202087],[-74.40932952775711,6.582712109997544],[-74.40532019293471,6.591905157126064],[-74.3904928779748,6.601836300995274],[-74.37320956720384,6.608418315631525],[-74.36641978969527,6.628392317938449],[-74.36097816148896,6.6344617197995035],[-74.34921872552945,6.634697675366567],[-74.34328109492299,6.630065504441916],[-74.33739485353237,6.630588526083898],[-74.33301533699597,6.627629380197277],[-74.33073891753315,6.6280125809650485],[-74.32113210741045,6.64157413206749],[-74.31520315377355,6.646559329256434],[-74.31158559487267,6.654653988462144],[-74.29973217777888,6.665980470690158],[-74.27901633005837,6.666346395680534],[-74.26974764715322,6.662242503796051],[-74.26342642805616,6.663265531564889],[-74.2529757088559,6.67604059564934],[-74.24351026844181,6.702498547513073],[-74.23801294184562,6.707926917038378],[-74.23237104811295,6.708731215652392],[-74.22350815057331,6.7213616076992935],[-74.21314590519762,6.726960652402852],[-74.20443374544948,6.721856211417617],[-74.19265295696641,6.7201341954918234],[-74.18612147896704,6.720360585514982],[-74.17894294401572,6.724460556976624],[-74.17131997791432,6.725740400212146],[-74.16605987289796,6.729648801628912],[-74.16151351418864,6.735932935088783],[-74.14966340662289,6.757236463660831],[-74.13917233545192,6.7627582260512895],[-74.11792254917208,6.765152027829458],[-74.11570542867645,6.76792031123972],[-74.11375261070907,6.775414355900693],[-74.11108138450464,6.777710178988514]]]}}]}