{"type":"FeatureCollection","features":[{"type":"Feature","properties":{"code":"686537"},"geometry":{"type":"Polygon","coordinates":[[[-73.38385367180928,6.959439020350089],[-73.38171447948866,6.952002456369939],[-73.376354999157,6.946232684037625],[-73.35815603001618,6.945676333658923],[-73.36279417104959,6.938419544516364],[-73.35748681218479,6.935810873328137],[-73.35497239775339,6.936638858001743],[-73.35748034122446,6.927445062167067],[-73.36114779912793,6.923247370154172],[-73.36004609344951,6.918845813066184],[-73.3563553711478,6.916828440790312],[-73.34978467863522,6.918817705732124],[-73.34198238712565,6.917856285783898],[-73.33977460694496,6.915025084317222],[-73.3405616729761,6.912903779697331],[-73.33854808331182,6.9103023034929265],[-73.3380577003216,6.904939842734848],[-73.33260993642722,6.892688963460898],[-73.33792511042674,6.875351997815301],[-73.3402755705518,6.856749053367821],[-73.3424570267178,6.853024984845888],[-73.34097365367933,6.845514723703275],[-73.34657044917907,6.841547239292254],[-73.35079412787752,6.833268092925323],[-73.35428646361731,6.821715814085451],[-73.355890951189,6.802190421490536],[-73.36159142912123,6.788888373175041],[-73.36114079440597,6.78625769537382],[-73.35848577542714,6.784115374530984],[-73.36725310597416,6.768671514451796],[-73.37056328088977,6.756516330725731],[-73.37066305112694,6.751682517190204],[-73.3672563980187,6.742525039774591],[-73.37008377265073,6.734894535189596],[-73.36613042006837,6.730122622580836],[-73.36572913208198,6.72467777123569],[-73.3692779488565,6.719962012616861],[-73.3753642737392,6.717911561515848],[-73.3891121148626,6.7198129984950015],[-73.40670396455977,6.719247566968875],[-73.41095363919976,6.720079601649161],[-73.41944690524218,6.725402099187818],[-73.43242168257933,6.729228359929095],[-73.44005572809198,6.734870400728994],[-73.4475750549554,6.7358533449506695],[-73.45862780075197,6.733031776905079],[-73.45724646360958,6.73197211189995],[-73.46048220911166,6.728369630994791],[-73.46350538582954,6.731020487866715],[-73.46379235831614,6.744575835403907],[-73.4677461932381,6.759752041260754],[-73.46694549725822,6.7634921195473225],[-73.46268306993107,6.766076113257327],[-73.46121904909546,6.769488694308279],[-73.46131929344466,6.775111770628143],[-73.46571236279658,6.78465967362024],[-73.46571236279658,6.794981374706538],[-73.4606488877622,6.804718827882425],[-73.45207993143572,6.814845767666725],[-73.44997377577408,6.828021794749702],[-73.45312795241466,6.837232159821838],[-73.4505304717095,6.841051894066879],[-73.44848009877006,6.8562273316771325],[-73.43587349974081,6.871693521300358],[-73.43419239217309,6.875873495305484],[-73.43583967735174,6.891894144001583],[-73.43416492247343,6.900442565416313],[-73.42345183215997,6.906105165810629],[-73.41897258960944,6.910389656315147],[-73.4142986268946,6.920321853309474],[-73.40397692683672,6.93083828792976],[-73.39392210658406,6.956612071493282],[-73.39030429365783,6.9571157111075195],[-73.39144966700559,6.964374499542373],[-73.39031556333094,6.96487691942383],[-73.38992264275294,6.962081330864692],[-73.3872334157191,6.96017636015705],[-73.38385367180928,6.959439020350089]],[[-73.4190322793848,6.888183332103722],[-73.42194350499227,6.8872060967664765],[-73.41574975311784,6.876350557908211],[-73.41175175584573,6.8753120222546045],[-73.40767979093084,6.869629556464588],[-73.40319152893937,6.868836889535544],[-73.40570996252416,6.871809937908154],[-73.40505914867168,6.8773953732318205],[-73.4066521907065,6.878690893016653],[-73.40470211251,6.881129656244866],[-73.41171095547418,6.881896338545232],[-73.41550854015264,6.887951305187073],[-73.41722360483544,6.886322678012618],[-73.41391414571586,6.883999134285148],[-73.41535756376243,6.8840642686352],[-73.41582785304274,6.880449102920068],[-73.4190322793848,6.888183332103722]]]}}]}