{"type":"FeatureCollection","features":[{"type":"Feature","properties":{"code":"686539"},"geometry":{"type":"Polygon","coordinates":[[[-73.73930236047482,6.902439471686023],[-73.73068002798163,6.902475041398986],[-73.73085530441165,6.897902074824856],[-73.72673229275233,6.901621034044297],[-73.72270940408595,6.9014575271104945],[-73.72447696664557,6.899462790854443],[-73.72125187992174,6.89422605205209],[-73.71911774548141,6.900869339236749],[-73.71770814673863,6.899855538654151],[-73.71799810890764,6.897071875914492],[-73.71563300890335,6.895827902697079],[-73.71351950193457,6.897598550584291],[-73.7108499726603,6.895881868161382],[-73.70985842963074,6.898343963664956],[-73.70765973162594,6.898353553891468],[-73.70500700401709,6.889010881746174],[-73.7044977511635,6.892973231143685],[-73.70105569289308,6.892131838664966],[-73.70057551205264,6.896479620550565],[-73.69943570463579,6.88839724917608],[-73.69705203610181,6.889972078522362],[-73.69784825218602,6.886451911071106],[-73.69435277146897,6.88947483684899],[-73.69208446024697,6.886156787149048],[-73.68825435724449,6.884188097228218],[-73.68587970198075,6.889879338718231],[-73.68378503093669,6.88931470834882],[-73.68333169141755,6.890458178049528],[-73.68486669432735,6.89082678316106],[-73.68189171042587,6.89210150783822],[-73.68212071989217,6.894137328315992],[-73.67509703136022,6.891775924534045],[-73.67506923050206,6.893240949129506],[-73.66023718984877,6.898753513130089],[-73.65476443068746,6.894946386561912],[-73.65309880632185,6.887570044061874],[-73.65048139954285,6.885428533631796],[-73.64286712069543,6.884476756360641],[-73.63406312308729,6.886618268847599],[-73.62613292829542,6.87719990538983],[-73.62101439970456,6.873618935388436],[-73.61610047769597,6.875511599752883],[-73.61183753923285,6.879858332627123],[-73.60398148897588,6.881286716900945],[-73.60171091826567,6.885319541350555],[-73.59404964473737,6.8882989259575425],[-73.57907207329703,6.889476046297375],[-73.57696906466953,6.890987937018451],[-73.57120498888031,6.888247684837438],[-73.56582027879682,6.888281900091613],[-73.56197696853548,6.891989806639344],[-73.55439464236872,6.892446398093739],[-73.5530828649645,6.887831177958674],[-73.55554213739339,6.884091121269364],[-73.55202563839657,6.8801447867787715],[-73.5542443694332,6.876471505833763],[-73.5544637310802,6.871089747380211],[-73.55240855222894,6.869585545295479],[-73.5491657546965,6.870448994780929],[-73.54750190953644,6.868431237867526],[-73.54844856927764,6.844283462035435],[-73.54288050023433,6.840071008787106],[-73.5427122922897,6.833721587739262],[-73.53853902270134,6.82905210080628],[-73.54219573029519,6.816424680958278],[-73.54500382163002,6.811350061720759],[-73.56800337841389,6.802174739799],[-73.56990171361048,6.804497170751688],[-73.57327860667755,6.805156271793976],[-73.57549269326773,6.808341395298385],[-73.57902507861616,6.808496535852328],[-73.5809202698639,6.806308056452394],[-73.58770273000397,6.808410526176033],[-73.58892068876787,6.810492590571698],[-73.5899063912724,6.809740844341945],[-73.59024699292263,6.813941232931086],[-73.5930642775051,6.813460329095562],[-73.59390972821802,6.817197830105215],[-73.59713261818865,6.817074476652635],[-73.59748805717908,6.815585157159546],[-73.59979448762306,6.817103135231889],[-73.5996614914934,6.818922723613184],[-73.60277071285458,6.818295133021252],[-73.60287797118178,6.821865732208323],[-73.60900776524437,6.823342247591995],[-73.61190241030158,6.827071545744161],[-73.61146682889944,6.829609699714183],[-73.614476753107,6.832319597414255],[-73.6155824224029,6.831426634713807],[-73.61629068094066,6.833400752754244],[-73.6212035673077,6.830476958550719],[-73.6227323419696,6.83177822218704],[-73.6254573526324,6.830905974375867],[-73.62345999590485,6.828844726685247],[-73.62442173569866,6.827089218500362],[-73.63384344673688,6.83107771810586],[-73.6348799255054,6.829199053929358],[-73.63747812714882,6.833352921949597],[-73.63957324659378,6.832480019020522],[-73.64023243505369,6.830107060686885],[-73.64327145698542,6.829592164769281],[-73.64608744058819,6.8331007951523475],[-73.63413992306084,6.775834996089941],[-73.63047627347999,6.7662604883183235],[-73.63616810940977,6.752683255524346],[-73.6403220977578,6.750221917982913],[-73.64292377245158,6.746380207978177],[-73.64612852480991,6.74579307117267],[-73.66190221566086,6.755477499909091],[-73.67041312874846,6.75663064622546],[-73.6719694409872,6.75503622299226],[-73.67252492027512,6.749263236777097],[-73.67636949963446,6.747476080330614],[-73.67523259551086,6.746826353541849],[-73.67719903519941,6.746513772836522],[-73.67770162683081,6.744441246216809],[-73.67882913921733,6.745489960366001],[-73.68291394629404,6.742963740442917],[-73.68313803569129,6.7413103206046685],[-73.68414516579571,6.743020118633353],[-73.68659198481413,6.741486062919137],[-73.68961047389098,6.742547554438204],[-73.68629403473204,6.7449908068179525],[-73.68926555586751,6.748282309331216],[-73.69114857961182,6.745540642013339],[-73.69335182744629,6.747439012176926],[-73.69392619408109,6.744586631993457],[-73.69776661133358,6.746505491817345],[-73.70113451684148,6.7454332294198025],[-73.70405996478058,6.747014494759355],[-73.70444132257938,6.750267748466854],[-73.70872729815494,6.746240448810511],[-73.70940944967941,6.749471308182194],[-73.70799554176244,6.751707057885596],[-73.70965976744628,6.751848488272287],[-73.70960201114286,6.754197174334024],[-73.71495864680253,6.753292467848496],[-73.71698547149356,6.755418924965454],[-73.71697396939243,6.76173832577615],[-73.71848615630495,6.759586268668045],[-73.72182057778133,6.760287256117238],[-73.72288156124978,6.762811949831587],[-73.73456290654042,6.764113446924398],[-73.73451834206918,6.767151624504834],[-73.7315915849228,6.767869525719675],[-73.73531365415243,6.774453814242406],[-73.73215570621318,6.775851988017223],[-73.7320785113177,6.77865049838158],[-73.7375519183978,6.778463390748811],[-73.73980315130336,6.780134406210095],[-73.73922059826617,6.782057745929592],[-73.73620795177123,6.780979581300471],[-73.73524492848117,6.782867602246995],[-73.74065168734381,6.786671433685285],[-73.74058794241961,6.788877705140806],[-73.74244881351211,6.788583995327201],[-73.75046038278981,6.793264390950014],[-73.75204582771983,6.791411792649171],[-73.75075835858297,6.79652998391083],[-73.74826469195096,6.794536720384485],[-73.74909806257807,6.79699565445577],[-73.74767410883459,6.79829111047718],[-73.75057709353217,6.801160628626803],[-73.74803587171806,6.801688993027653],[-73.75071389695603,6.80365412350892],[-73.75043586060639,6.806780301830372],[-73.75220453491238,6.807460815045886],[-73.75231298211912,6.8092693322435025],[-73.75545482464855,6.806886560511373],[-73.7569854165684,6.809312052717303],[-73.76052889983998,6.80913582806329],[-73.76137655656208,6.806388672976141],[-73.76304234136478,6.806188572000565],[-73.7658062394961,6.8101576936920765],[-73.76396511758531,6.813870603612656],[-73.76735844927765,6.815968367183359],[-73.7618357561467,6.822479710335074],[-73.76090931044325,6.819518882944919],[-73.7593118111385,6.822374036837857],[-73.76056083298022,6.82490331534899],[-73.75930994142999,6.826019204278168],[-73.762823198776,6.828123870755007],[-73.76110009681486,6.830225054925506],[-73.76150695073216,6.834008379220052],[-73.75943902536432,6.833385345656893],[-73.75818574679903,6.838873168415773],[-73.76081588981015,6.846066903747555],[-73.75323607612842,6.850277751597105],[-73.75481183518679,6.855479256987223],[-73.74838208352224,6.855440939275866],[-73.74893226427429,6.860346743787716],[-73.74513870389137,6.8634331481231925],[-73.74751384149471,6.865585738992991],[-73.74724221542732,6.868294826280305],[-73.74452657901799,6.866262943708932],[-73.74263149987047,6.868142400814577],[-73.74199957439328,6.866169618721017],[-73.73993325236728,6.877430245660776],[-73.73516146008632,6.879377686930695],[-73.741686821938,6.8797892624275505],[-73.73949546495595,6.886282295188721],[-73.74311082710364,6.885220130039784],[-73.74449054444904,6.887717898100561],[-73.743103314331,6.889437199966608],[-73.74032355350226,6.88835354653969],[-73.73950623583443,6.8894120319212675],[-73.74292207499127,6.89382028417009],[-73.73961309718277,6.892598361788771],[-73.73921535115244,6.894450615561368],[-73.74131499368758,6.896901423908275],[-73.73681899883684,6.896473218495885],[-73.73717497261742,6.898446931329943],[-73.73987504766296,6.898730310438452],[-73.73858972488568,6.900219112624939],[-73.73930236047482,6.902439471686023]]]}}]}