{"type":"FeatureCollection","features":[{"type":"Feature","properties":{"code":"686568"},"geometry":{"type":"Polygon","coordinates":[[[-73.4411010134138,6.541857210372484],[-73.43929207352636,6.524691015550275],[-73.46334109419405,6.5242576483848325],[-73.47093880483249,6.527023587974611],[-73.48162209293861,6.534305073107419],[-73.48723127808535,6.5234511098231],[-73.49717474475278,6.520789653822533],[-73.49960058251537,6.517284142705591],[-73.51079253623436,6.517713977171013],[-73.52031211386264,6.520064308740757],[-73.52808143041972,6.519153966390206],[-73.5307613428497,6.512526767131874],[-73.53746670271101,6.513060731402277],[-73.54696641082978,6.508625517504356],[-73.55142180379835,6.509123025544341],[-73.55349589056533,6.512003987173841],[-73.5512969251655,6.522584375492215],[-73.55427045382078,6.524557545308653],[-73.55419978130777,6.531637464963751],[-73.55636412521869,6.536907919197233],[-73.56379095293352,6.535200982295635],[-73.56836254036631,6.536152812017349],[-73.57347283113256,6.540870095816388],[-73.59373675241392,6.548859701675667],[-73.60711257502504,6.548713135246999],[-73.61514001625613,6.55263253894185],[-73.61995628661919,6.550825168457607],[-73.62748192811966,6.544882213604296],[-73.63137192041535,6.546919090292533],[-73.62656368115995,6.555489553287316],[-73.62362253713115,6.566122884798062],[-73.61796651054141,6.573588839608533],[-73.61698667530146,6.57867109503178],[-73.61956155392545,6.586426555382786],[-73.62480741089917,6.5925766591282695],[-73.62690101750519,6.60118180737544],[-73.63383297410667,6.6107046132847245],[-73.63459124374731,6.615197126857538],[-73.62254367830326,6.620986161918211],[-73.61634142223767,6.6275448041698155],[-73.60834994358459,6.632985996316506],[-73.60909696617779,6.6504549409620495],[-73.6028746349142,6.657027231674306],[-73.59715361178576,6.658326484705526],[-73.5901462569779,6.666324176179899],[-73.58720818593537,6.667701319333673],[-73.5846102465448,6.673264986643005],[-73.57447082661048,6.68093376368796],[-73.57106581592495,6.68910578233988],[-73.57149144714572,6.695490180717798],[-73.56893768861732,6.705279589781185],[-73.56170204733826,6.7142177466874955],[-73.5561688918616,6.715494612581949],[-73.54808199739693,6.720602135809372],[-73.54566181606816,6.720947878643756],[-73.5443350429436,6.719366014750619],[-73.54548840009068,6.7098348815422355],[-73.54842764972835,6.705440349745061],[-73.54800858819834,6.700276345482962],[-73.54151345638604,6.693149159638153],[-73.5307631014864,6.692561508611391],[-73.52930241897525,6.689784826939501],[-73.52160997849643,6.685839509578557],[-73.51814389375187,6.670077396933436],[-73.51067778158972,6.665485523472],[-73.50144958126742,6.653395453527139],[-73.49809157760404,6.652201570602642],[-73.49819793810087,6.645988452127199],[-73.49579835853268,6.6401160504875065],[-73.48244204753303,6.623305735857571],[-73.48289533460161,6.619012172433145],[-73.47878366049258,6.611067704915968],[-73.4781897565353,6.602968726251731],[-73.47848143311802,6.59664747835825],[-73.48356312289786,6.583464319026405],[-73.48264377550464,6.580038237610495],[-73.47260339767024,6.568459475347311],[-73.46663067660506,6.564453547754965],[-73.46206591083154,6.558942638518374],[-73.45483992457082,6.555917069643215],[-73.4411010134138,6.541857210372484]]]}}]}