{"type":"FeatureCollection","features":[{"type":"Feature","properties":{"code":"686531"},"geometry":{"type":"Polygon","coordinates":[[[-73.4190322793848,6.888183332103722],[-73.41582785304274,6.880449102920068],[-73.41535756376243,6.8840642686352],[-73.41391414571586,6.883999134285148],[-73.41722360483544,6.886322678012618],[-73.41550854015264,6.887951305187073],[-73.41171095547418,6.881896338545232],[-73.40713443460265,6.88232106267975],[-73.40470211251,6.881129656244866],[-73.4066521907065,6.878690893016653],[-73.40505914867168,6.8773953732318205],[-73.40570996252416,6.871809937908154],[-73.40319152893937,6.868836889535544],[-73.40767979093084,6.869629556464588],[-73.41175175584573,6.8753120222546045],[-73.41574975311784,6.876350557908211],[-73.42194350499227,6.8872060967664765],[-73.4190322793848,6.888183332103722]]]}}]}