{"type":"FeatureCollection","features":[{"type":"Feature","properties":{"code":"687038"},"geometry":{"type":"Polygon","coordinates":[[[-73.5707891957407,7.183966945529221],[-73.56809336096364,7.1810999079829685],[-73.56929144199052,7.176361014549741],[-73.56591613478179,7.169940861339228],[-73.55375438547867,7.165042191133182],[-73.54399575152917,7.154944661719583],[-73.53869050405683,7.15520517340866],[-73.55542135916085,7.13477027458697],[-73.55109421297442,7.131407728293027],[-73.55395210766665,7.1327356429887345],[-73.55728300569899,7.132071457326617],[-73.57359159156084,7.112885692446866],[-73.61587232389383,7.060065904900341],[-73.63152417824494,7.037415091946116],[-73.68291948651387,6.970857065843973],[-73.6963949549206,6.978298714443952],[-73.70005764496455,6.982271829577769],[-73.70015861128041,6.984928288376125],[-73.70441897760878,6.988888721785202],[-73.71324176383331,6.992828317920441],[-73.72129499326059,6.9935663231296985],[-73.72763871776527,6.999979677306669],[-73.73199098366024,7.0007156976218425],[-73.73548456998617,7.00353931741023],[-73.73774951717269,7.002641373962717],[-73.74140564163963,7.00531131872782],[-73.74227398342612,7.011148191792245],[-73.75307437616812,7.010667084325064],[-73.76217110965479,7.015252974307941],[-73.766255092949,7.019918451343528],[-73.77071749783863,7.020318580275216],[-73.77600565259627,7.015431510900726],[-73.78492892074024,7.014065566457532],[-73.80817939384451,7.0065024464547605],[-73.81540430846809,7.006540516311475],[-73.82445238839608,7.008778927624121],[-73.82849056588896,7.01224921767016],[-73.83278138440033,7.012628475389363],[-73.84990644357867,7.0315079094089015],[-73.85212937168922,7.036722952187915],[-73.84764109015737,7.036151599918185],[-73.8415932629635,7.032048264421121],[-73.83914784365538,7.0339062075377115],[-73.83729859087799,7.0331206564024455],[-73.83794884217247,7.034544916621769],[-73.83354840711525,7.03675575333358],[-73.83203376839577,7.036226307011191],[-73.83307952371587,7.039965379481032],[-73.82899387537321,7.039602414348224],[-73.82810194111534,7.041367772955539],[-73.82616147268567,7.03975893301515],[-73.82300287374227,7.041231957864966],[-73.82307759317655,7.042766143162908],[-73.80572398630261,7.046530728206278],[-73.7827782232331,7.04582520224028],[-73.79043138749216,7.053239090091324],[-73.79132372901324,7.0571042979507865],[-73.79578330054375,7.0610405094817],[-73.80171107147174,7.05747092228205],[-73.8051965906946,7.058248209881697],[-73.8076481364348,7.060533763970966],[-73.81110391927064,7.060789529397823],[-73.81225912864267,7.067509466403465],[-73.81864420990638,7.070651917770874],[-73.81692799645327,7.073487382131759],[-73.81055630242582,7.07547598578509],[-73.81124799481154,7.080663644225126],[-73.81313735170488,7.078777198852549],[-73.8116296148632,7.086194818921513],[-73.79582713276392,7.102692989934155],[-73.77666325828318,7.105205725947371],[-73.77259247299179,7.108605306456411],[-73.75828978815798,7.108162707990971],[-73.7470838424785,7.115494850088453],[-73.7398694539641,7.116010807358748],[-73.72948810938237,7.1231274012740755],[-73.71679948692002,7.126758645659606],[-73.70961730613999,7.132264529926033],[-73.70774028130086,7.12866445866166],[-73.70053432910044,7.125683213602201],[-73.69807001421788,7.130300973990245],[-73.67890104997514,7.14639355504147],[-73.67627369198635,7.146879279187033],[-73.65925982904156,7.1693196902854766],[-73.65948187903729,7.1826111199319485],[-73.65196143528533,7.184310116228858],[-73.6499541386608,7.18616794930216],[-73.65347138327843,7.189741132965253],[-73.65405028637309,7.193212604691723],[-73.6508249497378,7.199529343893175],[-73.65197607516455,7.2053956880063765],[-73.6478748130076,7.216814480149537],[-73.64074958840268,7.21697720238177],[-73.63376970637984,7.212643836174948],[-73.62729465696458,7.214046860084693],[-73.62656955356675,7.208018533189431],[-73.62784128856146,7.202672580990679],[-73.6200770288562,7.203248042916698],[-73.61477386706531,7.200909826399823],[-73.61103485733048,7.191912632779179],[-73.61121027260026,7.187513892595234],[-73.6030132411978,7.183349503608042],[-73.59999425229785,7.184123964019193],[-73.60045978503149,7.181572360077894],[-73.5990248269531,7.180501639315651],[-73.58310818773424,7.181262251748308],[-73.57590010768621,7.1857742039131836],[-73.5707891957407,7.183966945529221]]]}}]}