{"type":"FeatureCollection","features":[{"type":"Feature","properties":{"code":"687031"},"geometry":{"type":"Polygon","coordinates":[[[-73.84595082225212,7.083212360299854],[-73.84761538012287,7.072852862922559],[-73.84602832156656,7.063837964664003],[-73.84722334400539,7.062166977999084],[-73.8703909308133,7.061578367435459],[-73.87645555658725,7.05999677710804],[-73.88422710486464,7.067170863016997],[-73.88945191579069,7.078966213217711],[-73.89558993945036,7.083643998653429],[-73.89739163910252,7.096455031486528],[-73.88929190761831,7.0968680241771835],[-73.88723632561755,7.099679139133059],[-73.87883780381372,7.091799719576784],[-73.87221357881111,7.089072652028904],[-73.86552265622583,7.0877272774645235],[-73.86195698225004,7.0894087809825805],[-73.86064802689208,7.087773885450986],[-73.86239479023021,7.084985854915942],[-73.86101760593874,7.083425313721534],[-73.85920093319197,7.084712573056095],[-73.85731779734738,7.083756014555661],[-73.85911833383108,7.0818742485965345],[-73.85665945221035,7.080524189476478],[-73.85445158872585,7.085428148962421],[-73.85242258579353,7.085349119325542],[-73.85138309883058,7.0830320126197535],[-73.84865428498733,7.08506616907755],[-73.84595082225212,7.083212360299854]]]}}]}