{"type":"FeatureCollection","features":[{"type":"Feature","properties":{"code":"687037"},"geometry":{"type":"Polygon","coordinates":[[[-73.6478748130076,7.216814480149537],[-73.65197607516455,7.2053956880063765],[-73.6508249497378,7.199529343893175],[-73.65405028637309,7.193212604691723],[-73.65347138327843,7.189741132965253],[-73.6499541386608,7.18616794930216],[-73.65196143528533,7.184310116228858],[-73.65948187903729,7.1826111199319485],[-73.65925982904156,7.1693196902854766],[-73.67627369198635,7.146879279187033],[-73.67890104997514,7.14639355504147],[-73.69807001421788,7.130300973990245],[-73.70053432910044,7.125683213602201],[-73.70774028130086,7.12866445866166],[-73.70961730613999,7.132264529926033],[-73.71679948692002,7.126758645659606],[-73.72948810938237,7.1231274012740755],[-73.7398694539641,7.116010807358748],[-73.7470838424785,7.115494850088453],[-73.75828978815798,7.108162707990971],[-73.77259247299179,7.108605306456411],[-73.77666325828318,7.105205725947371],[-73.79582713276392,7.102692989934155],[-73.81031849566222,7.088503123187763],[-73.81235698494834,7.0883854282259335],[-73.81254954846867,7.08706457275963],[-73.81331686531809,7.088931915840874],[-73.81640871319985,7.088280965205513],[-73.81622480505172,7.085854536088448],[-73.81754799199723,7.087846628218813],[-73.82115020242202,7.088413254795114],[-73.82079893890818,7.091433113757432],[-73.82270800898772,7.0927540658973385],[-73.82414352859576,7.09245600474344],[-73.82262591973432,7.09017124358337],[-73.82371178945482,7.088650815760957],[-73.82395445252399,7.090564349281067],[-73.8268693352731,7.090403682905446],[-73.82724501092702,7.092418307182925],[-73.82863364178371,7.092437846562348],[-73.8284908209427,7.090742646246781],[-73.82915314718076,7.090034771318017],[-73.83062808699054,7.095284924096177],[-73.8326733547413,7.094761226767446],[-73.8315131440533,7.087915667565085],[-73.83556627921416,7.093249844096988],[-73.83649479105867,7.0927123903211395],[-73.83465813875904,7.090032492289367],[-73.83580602562034,7.088412029920107],[-73.83846286185707,7.094191429502814],[-73.8401973425062,7.095320505122004],[-73.84171552626702,7.0938029065449655],[-73.84005418844981,7.096429397556733],[-73.84046187437713,7.102229777366858],[-73.84492592477477,7.10327873011471],[-73.84273197097531,7.101149004607407],[-73.8442196634723,7.100724455308182],[-73.84306200949243,7.098917237033447],[-73.84522095613698,7.099758017588897],[-73.84476068182994,7.0976842300986505],[-73.84613108971371,7.099585101434457],[-73.84474683693679,7.10114058372011],[-73.84687693782558,7.101397737544346],[-73.84640860155758,7.103015683314823],[-73.84818584690356,7.103301213925079],[-73.84797107622393,7.100882532065498],[-73.84871731720085,7.103568540074264],[-73.84967197102571,7.102662577860428],[-73.85411829210284,7.107743651603187],[-73.85512282436139,7.106439057869977],[-73.84812631036613,7.098907392781655],[-73.84515856978538,7.086212191372567],[-73.84610881673404,7.083179688737914],[-73.84864252166176,7.0850665547434915],[-73.85138309883058,7.0830320126197535],[-73.85243215236585,7.0853559749233455],[-73.85479502270675,7.085310027196954],[-73.856588321012,7.080512187552301],[-73.85911833383108,7.0818742485965345],[-73.85731779734738,7.083756014555661],[-73.85920093319197,7.084712573056095],[-73.86101760593874,7.083425313721534],[-73.86239479023021,7.084985854915942],[-73.86064802689208,7.087773885450986],[-73.86195698225004,7.0894087809825805],[-73.86552265622583,7.0877272774645235],[-73.87221357881111,7.089072652028904],[-73.87883780381372,7.091799719576784],[-73.88722506211508,7.099675722647021],[-73.88929190761831,7.0968680241771835],[-73.89722424465594,7.09658823227619],[-73.90612054806547,7.09885969464608],[-73.90325510460514,7.108921500080385],[-73.91193451360124,7.118168192827568],[-73.92479237245067,7.128137286225694],[-73.92479094188712,7.1323057406461885],[-73.92101398468026,7.137960387066016],[-73.92214364342635,7.1485187780273804],[-73.92528780406519,7.1537982630146075],[-73.92603964594008,7.160962245504265],[-73.92219253249834,7.18716534622655],[-73.92753511654786,7.203128971898764],[-73.93381663982058,7.212943009075218],[-73.9338155105907,7.216427651036554],[-73.92335794916238,7.236985007537385],[-73.92089936064775,7.219907949885112],[-73.9159574279787,7.211833721718506],[-73.91651411362966,7.2028538810085365],[-73.91406885475851,7.198443775506291],[-73.90848398404978,7.1945908390230215],[-73.9033043916844,7.195047763692742],[-73.89867596120519,7.192661044798228],[-73.88330326420606,7.190821370934543],[-73.87781481306877,7.192408133299352],[-73.8657465697595,7.206809112555391],[-73.8544746371511,7.214967645240563],[-73.82285582394559,7.233087213476722],[-73.8132902420266,7.234858472258793],[-73.80646734455513,7.232406250831843],[-73.80694920587064,7.22914231263502],[-73.81492978097617,7.226027499631812],[-73.81805697642727,7.220174509844696],[-73.81711199613272,7.214171092855622],[-73.81244603264383,7.2125837360510445],[-73.79843110602673,7.22464881689956],[-73.79176018664845,7.242492691578207],[-73.77686561977538,7.244153513117226],[-73.76854396787917,7.240427049352718],[-73.75902977620439,7.241115524770237],[-73.75178014605018,7.235124463489626],[-73.74279074185318,7.232651657785652],[-73.72951442208421,7.240785141724871],[-73.72127924574875,7.252799007164413],[-73.71864003804524,7.253824318075658],[-73.70872435989469,7.253038683636532],[-73.69424499583522,7.255634094086929],[-73.68862810662557,7.251042706050384],[-73.68075520225261,7.248113001387708],[-73.67564152585356,7.237948616011238],[-73.66654299362096,7.24141594722812],[-73.6654865332427,7.238848187483313],[-73.66798574832211,7.233716846555581],[-73.6675357522696,7.2300928506329],[-73.66353415442023,7.225258494079753],[-73.65416278975715,7.2223812471846145],[-73.6478748130076,7.216814480149537]]]}}]}