{"type":"FeatureCollection","features":[{"type":"Feature","properties":{"code":"687068"},"geometry":{"type":"Polygon","coordinates":[[[-73.7222956914855,7.992362737719191],[-73.7196677709386,7.989489677613562],[-73.72513813691421,7.988461410958507],[-73.72775063288015,7.985572539577618],[-73.72000377133702,7.983872781204752],[-73.72245269249191,7.978753863862664],[-73.72146354367652,7.973465832518116],[-73.72382784149568,7.9703914136517255],[-73.72304303495275,7.9674159823778155],[-73.71546156650703,7.966273493811286],[-73.71032148896012,7.9697183700142205],[-73.7069451131996,7.969158134179679],[-73.70304482002365,7.9644461067503585],[-73.70292549909419,7.959179167733396],[-73.69799786897522,7.956036024224147],[-73.696719146742,7.9504379884227205],[-73.69102264888227,7.950102659597292],[-73.68816208332481,7.952164871967],[-73.68636146765107,7.950697267009218],[-73.68327417576972,7.951540856241195],[-73.68300732270404,7.9490620279778454],[-73.68617920295412,7.945699266739382],[-73.68390643651918,7.940100255974471],[-73.67527859877316,7.941336292700896],[-73.6767272042838,7.9351915831364295],[-73.67294401882901,7.92733173278441],[-73.67733111807212,7.919815535471571],[-73.67803355973905,7.913812471238316],[-73.67129107207433,7.903350248908453],[-73.67416860384805,7.9022205819348414],[-73.67098509191305,7.8929236806238805],[-73.67645319942886,7.888342555415193],[-73.68334336629704,7.887689105664549],[-73.68989217355283,7.884200622470416],[-73.69357019458943,7.8753091949068335],[-73.69308688728376,7.871522475723566],[-73.69769430154008,7.872324654717488],[-73.69715508089996,7.869523465260443],[-73.69970372909751,7.868862347442359],[-73.70164458730687,7.865354759899958],[-73.71021952094122,7.8624950304662775],[-73.71023050676422,7.85843753779443],[-73.71888552213221,7.853164645123741],[-73.71877137941084,7.847545050081806],[-73.72064508032372,7.849335809162483],[-73.72538799805255,7.848527218857839],[-73.7227099213925,7.8463029126343145],[-73.7242263732561,7.843735178600582],[-73.72116724835843,7.841151133468429],[-73.72554956534384,7.834453726553079],[-73.73098876539734,7.837737069403374],[-73.73177038582531,7.83347788269856],[-73.73621710285278,7.833601348251364],[-73.744276648974,7.830017108831157],[-73.7483373976948,7.821574101746194],[-73.7513887413964,7.818952092686914],[-73.75277201715295,7.8094659816067065],[-73.75064889424664,7.802791425655698],[-73.74687423046657,7.801632222841363],[-73.74572546120157,7.7975805542395165],[-73.74188252015114,7.796134180449144],[-73.74240698881175,7.789372416686319],[-73.74121306989178,7.787308773753068],[-73.73791494009498,7.786346552648126],[-73.73771540784816,7.783658695499753],[-73.74089637027413,7.776693358739408],[-73.74450772560976,7.778440189954779],[-73.75039329439903,7.773228776549388],[-73.75493954100807,7.774995451563143],[-73.75979362000345,7.773621395793782],[-73.76131307080544,7.770138020873617],[-73.75861284972103,7.7683558616292885],[-73.76272053244469,7.7671134310757],[-73.75663344959986,7.765006593556734],[-73.75715368004887,7.762661742557157],[-73.76150356407095,7.761000188767014],[-73.7570889611896,7.757643441860409],[-73.7577573943193,7.751143938138966],[-73.75262505374542,7.750739927865197],[-73.75715931488543,7.748630970726197],[-73.75460719363753,7.747487483541988],[-73.75645537272084,7.7445186260725905],[-73.75380893506644,7.740804897511794],[-73.75546358800727,7.737502486308756],[-73.75417575685867,7.732396210582067],[-73.75907735606904,7.726726123126241],[-73.75668470923188,7.721684574486403],[-73.76003498517815,7.716768310714144],[-73.75558341698735,7.709746147362466],[-73.76121427347488,7.702741769895681],[-73.76009139730718,7.695254203394143],[-73.76237368403457,7.693976471551082],[-73.76210331575237,7.689609009389471],[-73.76360913557721,7.6887545454063115],[-73.7597479612694,7.684887366022565],[-73.76148474562973,7.685010736958645],[-73.76142748914941,7.682787499286917],[-73.76379016820005,7.6829813874412025],[-73.76407110887129,7.67616623619881],[-73.766869308646,7.673383365359882],[-73.76611943212481,7.670099462008409],[-73.7616753602515,7.664914027061059],[-73.75801609594959,7.66475419989456],[-73.76416707901342,7.647479591804256],[-73.7647822110527,7.63828211620222],[-73.75484405320555,7.633220284618972],[-73.75243547373685,7.634147515024097],[-73.74946228241072,7.626824636108381],[-73.74531423846048,7.623393416593672],[-73.74658948044419,7.623096027012764],[-73.74544178898697,7.619637725521159],[-73.74321823249807,7.617997144759329],[-73.74450712294242,7.615412143175661],[-73.74172677692985,7.61094891656046],[-73.7442811113861,7.606741876005117],[-73.74354603826646,7.604436721858349],[-73.74011547386965,7.6029387521352305],[-73.73859938401779,7.600649933769375],[-73.73921020688294,7.598155956547714],[-73.73711851729382,7.598952250793559],[-73.73105367349001,7.590634467898155],[-73.72457707318347,7.5860505936626055],[-73.72765537750564,7.576855186258456],[-73.73517647946085,7.576875917602763],[-73.73564046850225,7.572425382996698],[-73.73977644882177,7.5724557570180195],[-73.75143886357097,7.557196228805196],[-73.76365908497348,7.555559637371914],[-73.76468846337491,7.553511245212746],[-73.76171825247519,7.548653521417123],[-73.77455137419673,7.552081733765931],[-73.7740735114657,7.544706509182902],[-73.77178488336176,7.542542734000733],[-73.77332462636309,7.5370021963636304],[-73.77667566849902,7.535032248657615],[-73.78060887903467,7.541985546469789],[-73.78820342721235,7.549803463106571],[-73.79389312809548,7.560562621474219],[-73.79806193835708,7.556393812241026],[-73.80913866229099,7.556046409500425],[-73.81221217715637,7.554593580176345],[-73.82033772254778,7.536150596592904],[-73.8341969306262,7.533596000912269],[-73.84867780341085,7.53534039986107],[-73.86079601154302,7.540649172834321],[-73.85589623884658,7.5462685776143985],[-73.85559764290258,7.557488491600168],[-73.85310420767007,7.565898565898806],[-73.8491066094337,7.570792729469758],[-73.838501715387,7.573947151908101],[-73.83136017042773,7.578626885213907],[-73.82611968500925,7.5949740993767705],[-73.81774580880193,7.607011942953648],[-73.81604114578676,7.620568273681897],[-73.81720336502298,7.62619197838012],[-73.81110400360296,7.6318869418036],[-73.80674338366936,7.650988789887606],[-73.80642261656158,7.665363084145554],[-73.80952227340731,7.682434051361213],[-73.81478266330231,7.69163529106288],[-73.82074387609572,7.696458333719875],[-73.82206639661047,7.705306694224532],[-73.82541130511521,7.711685558553199],[-73.82521938128616,7.71525024830953],[-73.82330746550616,7.720627942358192],[-73.81431610623991,7.733763787163582],[-73.8014370583893,7.740625157641205],[-73.79791913088582,7.74503304787828],[-73.79609637078778,7.756117252703007],[-73.80541350362,7.787196018400664],[-73.81561377649808,7.800172053522999],[-73.81823254596344,7.806990160509258],[-73.81869870707544,7.815469518923464],[-73.81335204833664,7.828110165570763],[-73.81397751210949,7.83903545545752],[-73.82168814985027,7.85537223504258],[-73.82327829887629,7.865598494606218],[-73.83216650227257,7.884537621486459],[-73.83739667446946,7.903778480031974],[-73.84263342972696,7.910370782178745],[-73.8551644557146,7.9162855103987795],[-73.8594930067535,7.91977122811096],[-73.86085847194249,7.922953568649916],[-73.86184098627524,7.931133633836168],[-73.85853786750374,7.942029636765312],[-73.84606861285914,7.948694568551218],[-73.84370371134418,7.952617410329424],[-73.86061788221343,7.976563989894657],[-73.86900028832298,8.006655253313397],[-73.8710913670173,8.023922907075416],[-73.86740590931288,8.039549877231309],[-73.85300758343857,8.061665294323177],[-73.85079879538421,8.090204622554495],[-73.84833097865493,8.093207378517718],[-73.81748813252887,8.111077851805192],[-73.81049123286766,8.122543904995837],[-73.80939008769042,8.129916750791324],[-73.80692209818272,8.133192752618868],[-73.7859539159196,8.134680132469384],[-73.78074335406467,8.137680440739416],[-73.77705884355578,8.142177098935576],[-73.77282124180255,8.128194209331355],[-73.77305038908014,8.121450369264778],[-73.77030184559561,8.116115893456026],[-73.77504792578515,8.111359009477837],[-73.77735476143545,8.10385492413252],[-73.7806673223377,8.103406418293218],[-73.78959249104338,8.10636616890406],[-73.79140709867761,8.103205102727088],[-73.78635680621943,8.096216699029526],[-73.78095015020102,8.098993109192577],[-73.77948929182617,8.094578513510271],[-73.77408549693484,8.092768403255207],[-73.77565822414459,8.087870060093849],[-73.77102334841618,8.084738109124544],[-73.77005112262236,8.079976872777593],[-73.76552084361185,8.07667316882231],[-73.76932384715394,8.073026588301957],[-73.7650714409707,8.06903929505961],[-73.76483334110094,8.063884164199521],[-73.7587335919581,8.062281279969739],[-73.75566698925485,8.059742635432599],[-73.75172721519908,8.060051441753956],[-73.74862748944764,8.056470656872193],[-73.74876984234731,8.051571263671008],[-73.74531673654735,8.053096504604355],[-73.7424259368367,8.050696938405906],[-73.74292722748828,8.047878577044116],[-73.74866639337125,8.047703558753142],[-73.75008986477519,8.045179794750823],[-73.74487078227395,8.041774718244938],[-73.74073869563779,8.036282965807175],[-73.73345110978403,8.034678728147014],[-73.73309863579334,8.029791363609547],[-73.73739047966188,8.02646985834275],[-73.73778630456161,8.024343099892178],[-73.72919265635869,8.019483824176746],[-73.72658581168434,8.014938095902721],[-73.72120298982128,8.010761791380446],[-73.72572319729426,8.006779417178677],[-73.72129286849832,8.002666097561587],[-73.72061229460468,7.998453172258166],[-73.72726935880536,7.991478676188763],[-73.7222956914855,7.992362737719191]]]}}]}