{"type":"FeatureCollection","features":[{"type":"Feature","properties":{"code":"687032"},"geometry":{"type":"Polygon","coordinates":[[[-73.80843467693182,7.0902019672751635],[-73.80771571744958,7.089138603990705],[-73.8116296148632,7.086194818921513],[-73.81302518153626,7.081063819436679],[-73.81310263148544,7.078752816537303],[-73.811059416506,7.080388661321365],[-73.81055948648384,7.075469175438684],[-73.81692799645327,7.073487382131759],[-73.81864420990638,7.070651917770874],[-73.81216621091801,7.067353576114897],[-73.8118791530706,7.062968716819626],[-73.81506636739863,7.060943950042031],[-73.81547211574025,7.058720913945024],[-73.81844323681156,7.0565886379002905],[-73.81852448171367,7.058996179670487],[-73.82253031366088,7.064421912269211],[-73.83352956193448,7.0607926414649],[-73.8355245820407,7.062200271768745],[-73.83828687991547,7.06096310786927],[-73.84722334400539,7.062166977999084],[-73.84602832156656,7.063837964664003],[-73.84761538012287,7.072852862922559],[-73.84534773018942,7.090019395073909],[-73.84825721772904,7.0991642956659575],[-73.85514359170122,7.106596801411968],[-73.8540622173029,7.107726641163936],[-73.84967197102571,7.102662577860428],[-73.84874305294642,7.103592642653155],[-73.84782761877699,7.100808213723781],[-73.84819270250136,7.103291646324294],[-73.84642523764381,7.103032320429463],[-73.84687693782558,7.101397737544346],[-73.84474683693679,7.10114058372011],[-73.84613108971371,7.099585101434457],[-73.84468597679381,7.097658978749507],[-73.84522095613698,7.099758017588897],[-73.84306200949243,7.098917237033447],[-73.8442196634723,7.100724455308182],[-73.84273197097531,7.101149004607407],[-73.84492592477477,7.10327873011471],[-73.84046187437713,7.102229777366858],[-73.84005418844981,7.096429397556733],[-73.84171552626702,7.0938029065449655],[-73.8401973425062,7.095320505122004],[-73.83846286185707,7.094191429502814],[-73.83580602562034,7.088412029920107],[-73.83465813875904,7.090032492289367],[-73.83649479105867,7.0927123903211395],[-73.83556627921416,7.093249844096988],[-73.8315131440533,7.087915667565085],[-73.8326733547413,7.094761226767446],[-73.83077838152332,7.0952878356169435],[-73.82915314718076,7.090034771318017],[-73.82863364178371,7.092437846562348],[-73.82724501092702,7.092418307182925],[-73.8268693352731,7.090403682905446],[-73.82395445252399,7.090564349281067],[-73.82371178945482,7.088650815760957],[-73.82262591973432,7.09017124358337],[-73.82414352859576,7.09245600474344],[-73.82270800898772,7.0927540658973385],[-73.82079893890818,7.091433113757432],[-73.82115020242202,7.088413254795114],[-73.8174851901548,7.087812310120398],[-73.816576499483,7.085827113697178],[-73.81638005256372,7.088301502174147],[-73.81331686531809,7.088931915840874],[-73.81254954846867,7.08706457275963],[-73.80843467693182,7.0902019672751635]]]}}]}