{"type":"FeatureCollection","features":[{"type":"Feature","properties":{"code":"687509"},"geometry":{"type":"Polygon","coordinates":[[[-73.20950134675456,7.626041068838674],[-73.22525819994456,7.623243554006706],[-73.22956378997583,7.617454263892284],[-73.23103529992983,7.609675522687951],[-73.23997504680824,7.597610340023607],[-73.2396037482057,7.594902352141332],[-73.23677816100673,7.592881103665604],[-73.23799770254362,7.589673512805916],[-73.23304350672595,7.571169482931452],[-73.2344539230806,7.566959589476539],[-73.23184878664927,7.564596093842567],[-73.23242055029601,7.561122992034711],[-73.22918948317897,7.55678644794051],[-73.22253356260637,7.5264625333405775],[-73.21866297187881,7.519625443362315],[-73.2178799795085,7.511599700089846],[-73.21302602906849,7.501466619475195],[-73.21245825680717,7.486487606158448],[-73.20721351466511,7.480660944499789],[-73.20563014410368,7.474885292561623],[-73.20698747122702,7.473682333631928],[-73.20177608661805,7.464054501115697],[-73.20233128308422,7.46098009047688],[-73.20738456008257,7.452466892189989],[-73.20967843632872,7.453515027326034],[-73.21212088755175,7.452492886074651],[-73.21017968070038,7.448756256155832],[-73.2115624648614,7.446885192169532],[-73.22194052973992,7.45686430465463],[-73.23145017261345,7.458255808979743],[-73.23762900487225,7.45534619802703],[-73.23710238985205,7.448894292682212],[-73.24379012015174,7.4438348563416525],[-73.24841581086008,7.432797439480794],[-73.25100175141176,7.432240589279047],[-73.25210754103546,7.43486237516629],[-73.25958774800233,7.436338708515677],[-73.26179506332699,7.432977179351383],[-73.26115036767908,7.4356623820896175],[-73.26281167155764,7.436711975557216],[-73.26262711549077,7.438551529093161],[-73.26428503270819,7.437162230777233],[-73.27231599841178,7.437204081188611],[-73.2733848659206,7.433466312783935],[-73.27528603653315,7.433386144661142],[-73.27547779683988,7.435646812498362],[-73.2788363795164,7.433588107117657],[-73.28185274897322,7.434793769822761],[-73.28157778766672,7.43219842005044],[-73.28390202764979,7.430444066806558],[-73.28708099901104,7.434412119946273],[-73.28803444955821,7.433102842685855],[-73.28970893704144,7.4344168332983145],[-73.29477022560701,7.433700258774309],[-73.29583519017649,7.432056618395961],[-73.29871357452902,7.432563501717937],[-73.29797907836564,7.436859110714579],[-73.3004337207463,7.440100250397677],[-73.30333969615475,7.441054699562471],[-73.30401273053627,7.439492847103907],[-73.30672220657488,7.440809732782043],[-73.30831315675766,7.442681804642007],[-73.30646569347033,7.443738687710152],[-73.30780133691161,7.447228722824036],[-73.30630857933517,7.453895256923431],[-73.30286611585842,7.455982285611071],[-73.3016941768119,7.454696349882056],[-73.30074083939348,7.455950283565244],[-73.29621501456745,7.454686665038878],[-73.2936075929369,7.4583381142061285],[-73.2939620754758,7.4633612053880825],[-73.29505032192696,7.4645905212426555],[-73.2969814263875,7.463672855352968],[-73.29784124958462,7.467273958145142],[-73.2996587707965,7.467193549366812],[-73.29820109133749,7.469312303449328],[-73.29892334389268,7.471963815439096],[-73.29990629634187,7.469370688131107],[-73.3020030273563,7.469569910816745],[-73.30325798536819,7.471302420970005],[-73.30076841193738,7.472329861785681],[-73.30285943818114,7.475765880013228],[-73.30484479195604,7.475573853339881],[-73.30902851566265,7.48091109360206],[-73.31171247809925,7.480776762554058],[-73.31053282779072,7.483843124601719],[-73.31374237886189,7.487504826312431],[-73.31987005433291,7.491232591056757],[-73.32295927557243,7.488591065243838],[-73.3221972932543,7.492456065357828],[-73.32542212081063,7.497860437205475],[-73.32283993715942,7.499971686742867],[-73.32237045006434,7.504277972001262],[-73.31918476605875,7.5043673940498365],[-73.31741596319745,7.506281083893214],[-73.31775556520154,7.508304694701394],[-73.32009812380272,7.509221929673686],[-73.31845012385656,7.510686027642407],[-73.32026372464554,7.511021451084559],[-73.3178770314621,7.512679790991854],[-73.31684194006249,7.517226924118347],[-73.31330935622469,7.521328921611712],[-73.3087494097328,7.522952881714048],[-73.30734252504982,7.526342017360889],[-73.29378997796164,7.52891274210549],[-73.29486482586367,7.531361482254567],[-73.29343969969574,7.53536308730304],[-73.28885991866144,7.537192465428689],[-73.28988282610248,7.540174549697269],[-73.28228091119104,7.547831128385496],[-73.27916329773893,7.545232841381335],[-73.27706851356618,7.538886538571262],[-73.27211786176144,7.540350008161624],[-73.26808441818952,7.538824732261219],[-73.26243269974549,7.53004420062598],[-73.25448278251145,7.534163368995678],[-73.25011934464538,7.550164829011237],[-73.25147141128525,7.550850005185168],[-73.25096711346777,7.553989736322137],[-73.2483141534309,7.560177899639882],[-73.24982844967894,7.565474410493039],[-73.2541503662352,7.56903355900107],[-73.25850065649212,7.578572376731984],[-73.25892357982377,7.587280986296548],[-73.25455583278352,7.589219949086328],[-73.2522972681113,7.5951794556935965],[-73.24312098870956,7.603122585207018],[-73.23704399591429,7.620030198726738],[-73.22873068468692,7.626497536879981],[-73.22506090044646,7.632066406051592],[-73.22117569452229,7.633723384300936],[-73.20950134675456,7.626041068838674]]]}}]}