{"type":"FeatureCollection","features":[{"type":"Feature","properties":{"code":"687508"},"geometry":{"type":"Polygon","coordinates":[[[-73.04857787080715,7.606276594211465],[-73.0493263856705,7.598754269438075],[-73.051778417864,7.596391426865068],[-73.05490351015015,7.586732055102175],[-73.05986299524767,7.580504506549687],[-73.06080703554579,7.576873469909572],[-73.07066724053533,7.571903714785037],[-73.07278944092872,7.565634349759762],[-73.0720982864184,7.562857225857613],[-73.07636061810047,7.56255403688931],[-73.0809611222515,7.558513218356097],[-73.08281175725557,7.5594520372515035],[-73.08521443346422,7.557201847186661],[-73.08949805699172,7.543067246884334],[-73.09609546946939,7.533702292503449],[-73.09431726561502,7.530819917793963],[-73.08604162623709,7.5252682122995225],[-73.08153359449511,7.518295396705241],[-73.0800556835149,7.510931692735312],[-73.06864056291158,7.514680033529089],[-73.06726731652645,7.5130687479523885],[-73.07322072344112,7.49909522437423],[-73.08507698315003,7.494366765518805],[-73.09117499216813,7.488682538006742],[-73.0834886606379,7.490228114334059],[-73.06623925658835,7.4885783135850374],[-73.05322437822048,7.484735182272686],[-73.04784184020758,7.474447814711482],[-73.04344721070834,7.456316501661718],[-73.05376500371307,7.458351030415713],[-73.0680420175932,7.458065280747178],[-73.0716581808976,7.46062532100251],[-73.07710951348753,7.468270438727302],[-73.07826953494208,7.4724838381426935],[-73.08598966006508,7.472381525595608],[-73.08893468440749,7.474404274568997],[-73.09287337242802,7.472131423801727],[-73.09507260522292,7.474500521362074],[-73.09717946845296,7.474143600385958],[-73.09889658179333,7.471356059389564],[-73.10195793738279,7.471002352296296],[-73.10568887384386,7.465361189786279],[-73.11131850648479,7.4638298481319225],[-73.1104030548318,7.461003679862927],[-73.1139955413326,7.4585151482443734],[-73.11551906682382,7.454085027193855],[-73.11805710869362,7.452219089993548],[-73.11766641983587,7.4501817700465836],[-73.11987244137981,7.449464420076879],[-73.12118530276246,7.450747693168239],[-73.12234780687726,7.445677115709827],[-73.12448029580958,7.445967646607585],[-73.1270389394399,7.442910538485705],[-73.12928423514677,7.444438770129921],[-73.12853973532305,7.441059257619713],[-73.1302430449079,7.440844775932476],[-73.13106742900425,7.438688032211758],[-73.13815821312613,7.439854766310646],[-73.13741628029493,7.43842245441482],[-73.13953861952803,7.4386868854983845],[-73.14116868857889,7.436708124039967],[-73.14204370290048,7.438923891105219],[-73.14637429539778,7.437910280784536],[-73.14746197312024,7.436487480953531],[-73.14646031330159,7.434715584537173],[-73.15063141493317,7.4330755025699204],[-73.15215279509329,7.433755645546171],[-73.15201739549349,7.436228072783308],[-73.15484010099652,7.433475342509212],[-73.15706410588638,7.433311585663887],[-73.1569186419481,7.435192946416635],[-73.15949406153283,7.434280640769373],[-73.16215331975167,7.431701549644856],[-73.16196017310443,7.4298420834048216],[-73.16742597176682,7.431157546746988],[-73.16814782734315,7.4270069193491395],[-73.17190389791091,7.427827200988304],[-73.16960131075666,7.423281610525521],[-73.17241761317655,7.4230127581676015],[-73.1702679256,7.420652017731129],[-73.17148335233838,7.417596365883867],[-73.17282466558328,7.418298662540394],[-73.17243413921938,7.416607183129827],[-73.17386976064324,7.417698436746946],[-73.17392077036374,7.415456346695407],[-73.17547661671802,7.41478369900824],[-73.17905612633109,7.418305694001901],[-73.1826767448485,7.417779604515886],[-73.1821297779793,7.415618810788544],[-73.188677343905,7.415491872185328],[-73.19201691787845,7.4314335334106545],[-73.19663993772156,7.4443376896569475],[-73.19625825184954,7.447222166503025],[-73.2000184670407,7.4455175034877925],[-73.20037407880949,7.4483096539636335],[-73.21033749726178,7.449252988750118],[-73.21225922541186,7.451604336421099],[-73.21057477232057,7.453366778365421],[-73.20670791278246,7.453078577918404],[-73.20138410706488,7.464935572963668],[-73.19766535353392,7.466691691015001],[-73.19972077921142,7.468092342307841],[-73.200911699193,7.467155717080345],[-73.20294881859371,7.476210205233656],[-73.20549279971908,7.4763832355452],[-73.1937993136645,7.486343879259607],[-73.18347723102602,7.492240437985572],[-73.17770217764138,7.493347493622025],[-73.17136183259879,7.490173521519807],[-73.16370150318073,7.4939526631386],[-73.16666918616875,7.501694559361283],[-73.17185736191539,7.505180427226151],[-73.16730353259959,7.519009460801044],[-73.16274124948632,7.5215856938838215],[-73.17351317185404,7.540073220341242],[-73.16992022563949,7.544756946060886],[-73.16797486079503,7.554383849893497],[-73.16443663080781,7.5571138083932965],[-73.14433331522389,7.561006065319418],[-73.13585655362704,7.569050801868343],[-73.12518829517984,7.571748304779135],[-73.12401312579544,7.579042715377511],[-73.11450149288567,7.590857879551777],[-73.11036875935918,7.602262922446926],[-73.09609955444307,7.6151578443078165],[-73.09242504656612,7.610786151133652],[-73.08839248334095,7.6089744375367445],[-73.07721222198495,7.610435898578828],[-73.06203368053514,7.609998171845575],[-73.04857787080715,7.606276594211465]]]}}]}