{"type":"FeatureCollection","features":[{"type":"Feature","properties":{"code":"687507"},"geometry":{"type":"Polygon","coordinates":[[[-73.20346294317949,7.628737762365233],[-73.19527638440718,7.627276796003969],[-73.18976699520869,7.621735757515353],[-73.180788740357,7.619234283976198],[-73.16369588891303,7.6258717800010345],[-73.15858700299924,7.61970289278139],[-73.12922238564215,7.613441790263323],[-73.12361449221919,7.606844283168925],[-73.11791117989935,7.610599431223761],[-73.10821690279732,7.613579344450159],[-73.10060977368232,7.6206468127517155],[-73.09609955444307,7.6151578443078165],[-73.11036875935918,7.602262922446926],[-73.11450149288567,7.590857879551777],[-73.12401312579544,7.579042715377511],[-73.12518829517984,7.571748304779135],[-73.13585655362704,7.569050801868343],[-73.14433331522389,7.561006065319418],[-73.16443663080781,7.5571138083932965],[-73.16797486079503,7.554383849893497],[-73.16992022563949,7.544756946060886],[-73.17351317185404,7.540073220341242],[-73.16274124948632,7.5215856938838215],[-73.16730353259959,7.519009460801044],[-73.17185736191539,7.505180427226151],[-73.16666918616875,7.501694559361283],[-73.16370150318073,7.4939526631386],[-73.17136183259879,7.490173521519807],[-73.17770217764138,7.493347493622025],[-73.18347723102602,7.492240437985572],[-73.19449450172635,7.485820879214884],[-73.20564866121123,7.476387483012843],[-73.20563014410368,7.474885292561623],[-73.2079904011722,7.4822952538191885],[-73.21245825680717,7.486487606158448],[-73.21302602906849,7.501466619475195],[-73.2178799795085,7.511599700089846],[-73.21866297187881,7.519625443362315],[-73.22253356260637,7.5264625333405775],[-73.22918948317897,7.55678644794051],[-73.23242055029601,7.561122992034711],[-73.23184878664927,7.564596093842567],[-73.2344539230806,7.566959589476539],[-73.23304350672595,7.571169482931452],[-73.23799770254362,7.589673512805916],[-73.23677816100673,7.592881103665604],[-73.2396037482057,7.594902352141332],[-73.23997504680824,7.597610340023607],[-73.23103529992983,7.609675522687951],[-73.22956378997583,7.617454263892284],[-73.22525819994456,7.623243554006706],[-73.20803201812714,7.625575881661746],[-73.20346294317949,7.628737762365233]]]}}]}