{"type":"FeatureCollection","features":[{"type":"Feature","properties":{"code":"687587"},"geometry":{"type":"Polygon","coordinates":[[[-73.2944425915885,7.352064087781059],[-73.29252820343271,7.348916583675532],[-73.28669786612045,7.3510581373001855],[-73.28454553338975,7.349338723333972],[-73.2833438682407,7.343318435773881],[-73.28941183953822,7.339899107111535],[-73.28971884608512,7.337848388615441],[-73.28030211476562,7.330048216725913],[-73.2764571055173,7.314724185626744],[-73.27677087510222,7.308907746686714],[-73.27253933807447,7.302209591065207],[-73.27211083955592,7.296895899051378],[-73.26767984741463,7.2891711469654865],[-73.26232951816445,7.2866728698256225],[-73.26308029045913,7.279280041392042],[-73.26656666020392,7.274076217892457],[-73.26401939731846,7.267511023433542],[-73.25696128064476,7.265079751380711],[-73.25643530017362,7.248682326597191],[-73.25925835431866,7.242168606714813],[-73.25853274904091,7.236609131337161],[-73.26111967175518,7.225386656529565],[-73.26053922496828,7.219020503750414],[-73.26969473805866,7.204283506612455],[-73.2697786857077,7.195851434956808],[-73.2732189730001,7.188076228509374],[-73.28225202738292,7.178054865548745],[-73.28327448950841,7.173122279365259],[-73.28616647192791,7.169396561221561],[-73.28596003883177,7.164431311703709],[-73.29001178250991,7.162689874669354],[-73.29278110876089,7.155832143849807],[-73.2979684926068,7.150280448639819],[-73.30603304621468,7.147520544979216],[-73.30729915048659,7.148919572361365],[-73.30663574438393,7.152604218624617],[-73.30168406002286,7.169263647367302],[-73.30466753577417,7.178283027578402],[-73.31018355945542,7.181315525070772],[-73.31123682549122,7.183504197817911],[-73.31067247691504,7.189380213404604],[-73.30823877979475,7.1944913588066015],[-73.31095435963965,7.200107275109644],[-73.30874938093643,7.205109165977547],[-73.30946642545865,7.21477118495153],[-73.31167941675756,7.2144629648424825],[-73.31399918918635,7.216609677134841],[-73.31722623509313,7.214241663552855],[-73.31869869018578,7.218244979929636],[-73.32766288005752,7.221041183497391],[-73.33134029431301,7.2290376439261195],[-73.34070173656272,7.2341104757305175],[-73.34995623518864,7.234022503785866],[-73.35470958955216,7.239009697181757],[-73.36024119927976,7.248623971740244],[-73.36824789888215,7.25606907179332],[-73.35551890799405,7.284663115223509],[-73.3578351600641,7.2900431448651375],[-73.36072338558307,7.2924064697776885],[-73.36037159036448,7.302163983753303],[-73.36352320515476,7.30267194282618],[-73.36740988380865,7.310035655023626],[-73.37091887517505,7.312935624327736],[-73.36957150440372,7.313867033294855],[-73.37075512758565,7.315555161011218],[-73.36901954958836,7.316440738465872],[-73.37056909776067,7.317947480803696],[-73.36905303259141,7.323868429044012],[-73.37196997633936,7.326857871818845],[-73.3674464603668,7.329744010627962],[-73.3683076709329,7.33345918723586],[-73.36629854470914,7.33404821123338],[-73.36547410096307,7.336393182560698],[-73.36700310702452,7.3358949340421304],[-73.36665535358503,7.33958559566571],[-73.36725002167509,7.3386518685891815],[-73.36888964701382,7.340500073383623],[-73.3676257014427,7.346558162376937],[-73.3696328366018,7.347245112614189],[-73.36801010034605,7.348291353359116],[-73.37038138643214,7.349935002993448],[-73.36889851321678,7.349863718557174],[-73.3689415010856,7.351299132235624],[-73.37177000494756,7.352329838356297],[-73.37135671400853,7.353809730116836],[-73.3744141933982,7.353951307570867],[-73.36891152404309,7.355902359702441],[-73.37196165315402,7.360668687868326],[-73.36928724700533,7.363079653323666],[-73.37147739659588,7.364063020235221],[-73.37294137423686,7.361809477447821],[-73.374400518198,7.362585953606299],[-73.37110916275208,7.365679733931529],[-73.37206500751341,7.367594655849018],[-73.37000254523218,7.3724218256458585],[-73.37333325300267,7.3738172421663535],[-73.37475615567786,7.368920123880002],[-73.38204614500182,7.37661009918213],[-73.375403057335,7.392183871091902],[-73.37349083199382,7.389355367229939],[-73.37200676887045,7.389945218095249],[-73.37160887577284,7.395936847076143],[-73.38114172339488,7.400257943963709],[-73.38794495807383,7.407533475442733],[-73.38010021245708,7.411655427806295],[-73.37437437621765,7.411108400259025],[-73.37026221256997,7.413220950776235],[-73.36931419939839,7.416261894867034],[-73.37112519719938,7.420838668735428],[-73.36896505858994,7.4235589578186705],[-73.35744672863763,7.4222281994793775],[-73.35559139776501,7.4233689294091505],[-73.3556539455821,7.42664768849113],[-73.35427108325945,7.42758686939834],[-73.34804891963205,7.421725694237182],[-73.34707905514227,7.417352536560884],[-73.34925311886343,7.406259982839742],[-73.34801906291727,7.398692499155402],[-73.33981056335227,7.3927601506297265],[-73.34224149396226,7.389233512218141],[-73.34191818557298,7.381449392259412],[-73.34866743730413,7.373473503766434],[-73.34578209039569,7.366374603176212],[-73.34542667711634,7.3574127715231725],[-73.34007742567394,7.353469783584501],[-73.34625498163558,7.345240897203439],[-73.34576244508673,7.337725491791332],[-73.3274447926508,7.335374876371475],[-73.32413174838058,7.342548215631211],[-73.31968311845003,7.3444235620521],[-73.31741862480669,7.348656762071357],[-73.30767987887856,7.351850907073526],[-73.3053427216575,7.359379486834314],[-73.30264952277867,7.358769042435995],[-73.30228100405623,7.357154509037855],[-73.30373944147738,7.3517435027075635],[-73.2944425915885,7.352064087781059]]]}}]}