{"type":"FeatureCollection","features":[{"type":"Feature","properties":{"code":"687558"},"geometry":{"type":"Polygon","coordinates":[[[-73.16182190414997,7.214423203197782],[-73.15629784833271,7.215523470085145],[-73.15680860888301,7.212782302590313],[-73.15489194581232,7.211500228662999],[-73.15637811107223,7.209116369867104],[-73.15388803781832,7.208236608254879],[-73.1546782652818,7.200824497552446],[-73.15225540074653,7.19974369496822],[-73.15203022531392,7.194733338989977],[-73.15368268047308,7.1934584929566086],[-73.15019690208277,7.1859032281977875],[-73.1523622199287,7.180594834719841],[-73.15189697207364,7.177332309603003],[-73.14750872611717,7.166815380301841],[-73.14410669071583,7.167683183184465],[-73.143530169494,7.159106517652845],[-73.1446521324047,7.154363341784972],[-73.14927432435161,7.151560945964775],[-73.15567364337352,7.143332843256985],[-73.15684350599457,7.139993346416702],[-73.1550204610179,7.136740531854173],[-73.16223063600336,7.123431676277676],[-73.1615339752118,7.116462936401092],[-73.16502575045047,7.114634497243401],[-73.16616347321434,7.1057311983678915],[-73.17200881241757,7.101970259153234],[-73.17145738107945,7.0889475347973985],[-73.17580944437128,7.082665621744923],[-73.17713923288926,7.083021890688485],[-73.17191345831259,7.080241700999181],[-73.17472755472329,7.079384963129655],[-73.1727154922961,7.079080439242944],[-73.17383254336539,7.077747809138259],[-73.17277713508383,7.077107299251395],[-73.17831955991295,7.078216599977793],[-73.17781017541876,7.0766061978332],[-73.18009776376732,7.074233940897443],[-73.1772836940961,7.072159152732638],[-73.17983817253429,7.069158512275635],[-73.17736460989659,7.0665978436420005],[-73.1790680614065,7.063845821964833],[-73.17395115466951,7.062762281666608],[-73.17419880979867,7.0598808747215],[-73.17153139294533,7.054053163023013],[-73.1657180578448,7.045336108916956],[-73.1675633254074,7.040451853361219],[-73.16631827438226,7.035290444888005],[-73.16745475273069,7.03180234118912],[-73.16134799578049,7.0232084009085725],[-73.16274587747768,7.019983144491732],[-73.16191911973596,7.014030514051171],[-73.16616313177144,7.008629048582122],[-73.17299763110293,7.008188105909085],[-73.17658315813316,7.005294308288512],[-73.1721973588414,7.000767628826793],[-73.17328540680319,6.998666784042371],[-73.1713605676145,6.9931160113453075],[-73.17144428592087,6.986292053549619],[-73.17542113121567,6.982634937664102],[-73.18475905298499,6.9801205952236955],[-73.18641961947026,6.9750158549616685],[-73.18538301728864,6.970998041659129],[-73.19192636454306,6.963531789628746],[-73.20221527682503,6.960533224568792],[-73.2059491001242,6.96989986251009],[-73.21276209472268,6.976999670186615],[-73.2152113768609,6.982302380491262],[-73.21780545753512,6.982832075696763],[-73.22038315717691,6.991497580149996],[-73.23063328689148,7.000273354210094],[-73.23189978197155,7.00350997183142],[-73.24423352491618,7.005695502686649],[-73.2476276145706,7.0101544478956725],[-73.24050762679502,7.022366862390982],[-73.24100421952113,7.031354652961625],[-73.23815251708129,7.039721749675891],[-73.23315004822871,7.046404264743558],[-73.22952482434567,7.041023242654887],[-73.22226713840126,7.039582572606719],[-73.2184162269213,7.042733161011313],[-73.20667959770304,7.0426989365012105],[-73.2039670116543,7.041424676680094],[-73.1979510065288,7.044452360033063],[-73.19787281198722,7.046316978770108],[-73.20056839788117,7.048811808570633],[-73.19800133542037,7.051919426589905],[-73.19922326705768,7.05901235707131],[-73.19792371783501,7.06243315023579],[-73.19982320797254,7.066587819412746],[-73.19645620749401,7.070879430853267],[-73.19721652784898,7.079758268223543],[-73.1887492402646,7.0987761748291405],[-73.18095398741559,7.111607564653468],[-73.17957508973888,7.125945359486423],[-73.18364162859109,7.136916876835983],[-73.1766828234692,7.140515248084796],[-73.17358115910366,7.146401755842078],[-73.16486447626534,7.1513639292883795],[-73.15901347651447,7.1626446417105285],[-73.16138874370154,7.168751034592049],[-73.16143933073215,7.178500870215828],[-73.15643844362415,7.186030010477737],[-73.16393311872037,7.195514519244568],[-73.16286111343345,7.20470043103893],[-73.1642490511199,7.210613866506662],[-73.16182190414997,7.214423203197782]]]}}]}