{"type":"FeatureCollection","features":[{"type":"Feature","properties":{"code":"180009"},"geometry":{"type":"Polygon","coordinates":[[[-75.61209783771574,1.6062559975203499],[-75.60603449440958,1.60314633495733],[-75.60707416649217,1.5986273050510817],[-75.60379318288904,1.5956265288396594],[-75.59989479747395,1.5951116421780398],[-75.60036218654636,1.594005003060829],[-75.59737475849045,1.5923078384200267],[-75.58867896846192,1.5914459490819013],[-75.58030538433223,1.5848978329394754],[-75.56878716750862,1.5826157066491078],[-75.56280781093233,1.5788145584173208],[-75.56012121876819,1.5798388357438284],[-75.5587041093097,1.5850143883869805],[-75.55390569476566,1.5836986082845215],[-75.55445556287117,1.576382908926064],[-75.55316936283242,1.573931172923949],[-75.5439076609951,1.5664746612726503],[-75.53676203003369,1.5641644564447006],[-75.53429613649189,1.5567165950234312],[-75.5286301134409,1.5540808747684878],[-75.52999123963087,1.5575093894793781],[-75.52458746119464,1.5620334176163055],[-75.51141318246391,1.567374540249034],[-75.50406281636498,1.57317117138615],[-75.4985495561088,1.5753371227526713],[-75.48458639203216,1.5872632723298352],[-75.47991368093187,1.583609715883881],[-75.48207325081256,1.5762032225345024],[-75.47894577151135,1.5753555051342687],[-75.47884587271886,1.570362743750593],[-75.48471235464342,1.5654687961525724],[-75.48486590213986,1.5599424829039776],[-75.48149324831286,1.5576641947610597],[-75.47960175534439,1.5527765977956278],[-75.47783863771332,1.5441081314278904],[-75.48074588839046,1.539682395656257],[-75.47776226968563,1.538075659909282],[-75.47728876035183,1.5360598467522664],[-75.47998266371383,1.5342594984736024],[-75.47949388509392,1.530347943852064],[-75.48221116701126,1.5273643693702752],[-75.47548124999946,1.5150036730041165],[-75.47537420661678,1.5118106140372447],[-75.47111688962042,1.5096729304417522],[-75.47553443076208,1.5033233705541988],[-75.47224653808212,1.5007827349523382],[-75.46411338118759,1.498578548149851],[-75.46489974067873,1.4936863417049722],[-75.46329655511533,1.4898003181689887],[-75.46610470609983,1.488401714505187],[-75.46699679873785,1.4855820747893063],[-75.46380772807106,1.480301350528805],[-75.4597945684709,1.4787833117783862],[-75.45847493376584,1.4729956538022861],[-75.46212128082976,1.4705981033511648],[-75.46037444858598,1.4676659437961916],[-75.46339655778053,1.4635973346892115],[-75.46334283400023,1.458382449261876],[-75.46089348192788,1.4524293529368606],[-75.4573765026484,1.4552240539500758],[-75.4559419929709,1.4543349695064194],[-75.46041219036954,1.4476012266884482],[-75.45874203674305,1.4451159788869177],[-75.46105445580781,1.438245699011702],[-75.46006165396454,1.4305117619056773],[-75.4647243521485,1.4245995585121136],[-75.46275589465569,1.4217596214546688],[-75.45750615531142,1.4195889958168664],[-75.45746051303246,1.4174372564974647],[-75.4668592095839,1.404185519589987],[-75.4709264302935,1.3852621463922787],[-75.47763378944711,1.37056106143865],[-75.47934957609658,1.3619005747564756],[-75.47686242259101,1.3550659766944477],[-75.47666427771316,1.3492443070957734],[-75.47963912483175,1.34304563206706],[-75.54211135552396,1.3383991678482516],[-75.54475963717579,1.3366815474857958],[-75.54946007611483,1.3365280771224661],[-75.55043682499877,1.3304124220876474],[-75.55771698344074,1.3291666573234124],[-75.56004636666478,1.3258835643846396],[-75.5667931470486,1.322332005782357],[-75.57525600513105,1.3223009097943645],[-75.57540364113993,1.3268808286399576],[-75.58301882501678,1.3277079267961653],[-75.5783258762246,1.3318263032650748],[-75.58268343551322,1.3321260891170823],[-75.59040017500342,1.3393047875907769],[-75.58546230056857,1.341502984744011],[-75.58460103858033,1.3459452136483492],[-75.58914901708664,1.3451309977631354],[-75.58869777147646,1.3498735617077386],[-75.59813546553983,1.35703442390286],[-75.59706701043649,1.3613863678953066],[-75.60098950768639,1.3613070276687722],[-75.60272127016196,1.362834879817683],[-75.59999702568877,1.3676732586095568],[-75.60236237560463,1.372357481066956],[-75.59982960758805,1.3736823885967624],[-75.59757897734983,1.3693291775630883],[-75.59549582691892,1.3696909939255875],[-75.59866967149418,1.375369181394717],[-75.59494586111134,1.3744912452679614],[-75.5944812251796,1.3775082091646027],[-75.59199349574624,1.3790568533358964],[-75.59259652096017,1.3827251813017938],[-75.58930813771315,1.385065940128527],[-75.59267222564245,1.387009735569734],[-75.59180264869644,1.3932753087274818],[-75.59703694803318,1.395412812345512],[-75.60184407554226,1.4080487024461377],[-75.60072938474855,1.423103958320553],[-75.60582657007183,1.4223835507912668],[-75.60940495045497,1.4247960671378905],[-75.61210564565135,1.424395356107766],[-75.61333429918898,1.4273524265974515],[-75.61869012546435,1.4280697765670993],[-75.6184308119108,1.4298514616993998],[-75.61390644335944,1.431671059336736],[-75.61518107341982,1.4370248955758598],[-75.61846877583793,1.4370995152512478],[-75.61886542040634,1.4400294348583884],[-75.6204372754969,1.4407018655441561],[-75.62668626193363,1.4388432189728633],[-75.63045480853759,1.448441404576613],[-75.63275099363722,1.4484307787084845],[-75.63112645657867,1.442945585677137],[-75.63294259967756,1.4420391812329854],[-75.63495641251387,1.4486846394598274],[-75.63433048491345,1.4545194217005815],[-75.6403961041629,1.4562673060410702],[-75.63980863105667,1.4624359783162504],[-75.64370754509122,1.4671177695354913],[-75.64771318369122,1.4637830806640295],[-75.64931536240942,1.4644379188121093],[-75.64901806744524,1.475246222333908],[-75.65207003026916,1.4753966145687514],[-75.65167238708307,1.479141207718044],[-75.65689957782513,1.4813088076779763],[-75.65393921631943,1.4868497176112214],[-75.65755505257908,1.4864663090980343],[-75.65843254750405,1.482515135785377],[-75.6607836894865,1.4831976750326703],[-75.66124145850756,1.4874592045295572],[-75.66445294819283,1.4908486096283013],[-75.66414051352626,1.4967413044957993],[-75.6710829221891,1.4927009755011795],[-75.67215142048701,1.4967620183565487],[-75.67376143902254,1.4973540927146018],[-75.67595761220093,1.4933567855273964],[-75.6797731174903,1.494323521495005],[-75.68175718879746,1.4912806583304246],[-75.68686024961278,1.4933436800843651],[-75.69483369144103,1.489119519046426],[-75.6972228138057,1.4957078843152658],[-75.69276622270161,1.4986294200590464],[-75.69259847549927,1.5010703286183116],[-75.69593227785327,1.502783185235046],[-75.69753551586729,1.4987518612830968],[-75.69970952713783,1.4983231025685768],[-75.70510338727445,1.507966948963258],[-75.70890272853279,1.5022943706196656],[-75.71649835863201,1.4998477891714401],[-75.71022856166087,1.5147967215729636],[-75.70368891679948,1.5194023124007003],[-75.70108405393387,1.5239334049093145],[-75.69937173930634,1.5447255424958257],[-75.69183290597368,1.5486991584811562],[-75.6781567493507,1.5510064363617175],[-75.67394248192977,1.5494721132524774],[-75.66638940981039,1.5596560709184928],[-75.65759290954821,1.5635393351432185],[-75.65125276196659,1.5700483128771339],[-75.64468412942438,1.580532164381566],[-75.64492140036941,1.592699143314917],[-75.63880807681375,1.6068238222322293],[-75.63306079240556,1.6137141279401703],[-75.63322005392865,1.6107756918004839],[-75.6298879382204,1.6101184265281177],[-75.62832001589408,1.607261156100492],[-75.62057137000312,1.6068940154910365],[-75.62198366943596,1.6049371259196619],[-75.62085638639212,1.6042503659442673],[-75.61209783771574,1.6062559975203499]]]}}]}