{"type":"FeatureCollection","features":[{"type":"Feature","properties":{"code":"181017"},"geometry":{"type":"Polygon","coordinates":[[[-75.18206053262594,2.066098422466837],[-75.18219053187408,2.062386033966618],[-75.18544992229812,2.0621514842804913],[-75.18598249817109,2.0590232038225054],[-75.18805078452232,2.058331755177676],[-75.18768306798506,2.0496880022836876],[-75.19464226082977,2.045313682467338],[-75.19148220149799,2.0429028537948852],[-75.19136736252102,2.0392477690833744],[-75.1868096384934,2.0349300568001354],[-75.18550255901465,2.0307700119541323],[-75.19085833386794,2.0143508417820044],[-75.1937192789207,2.0123031736463872],[-75.20296716054747,1.9947082303941102],[-75.2159488809001,1.991086517613894],[-75.22320633647342,1.985541153496058],[-75.22853908758401,1.9745472150711407],[-75.23595328396783,1.952034412932278],[-75.25244711598151,1.8824569988944972],[-75.25294426200969,1.847031467412478],[-75.25669736037861,1.8390745855656974],[-75.25864201765461,1.8293258277496989],[-75.2717139797245,1.8241656822038976],[-75.26651370743696,1.8098483595476864],[-75.26600713367617,1.798585103908863],[-75.26188660981921,1.7941898727708008],[-75.27810530466274,1.7918174368859923],[-75.28139999329085,1.7960981242101184],[-75.28675041304393,1.7987349315287702],[-75.2909377383562,1.799461642382255],[-75.295646608467,1.7968945171864448],[-75.30035564004328,1.7965210876510014],[-75.31052443846659,1.8001417411354623],[-75.31036026304508,1.8195566039275946],[-75.30266956371946,1.828412934861717],[-75.29919052162762,1.8351755254923319],[-75.30249110734513,1.8533325485765886],[-75.29976794890729,1.8591741051682789],[-75.30327306304542,1.8674463332023379],[-75.30439734406553,1.879491052945923],[-75.30053031072066,1.8879311896478157],[-75.30410108165762,1.887928105348692],[-75.3056141489169,1.8919951265404507],[-75.30863720530704,1.893394395606606],[-75.30962174258616,1.8957846040065647],[-75.30717275355403,1.8985451319318258],[-75.30401605517238,1.9146853000467559],[-75.30340343150442,1.9360875045932175],[-75.29702200018318,1.95935760346606],[-75.29235232195992,1.9669248012434082],[-75.28654150140136,1.9840101913369494],[-75.28226034202214,1.9875779653924042],[-75.27731730583423,1.9962716594550898],[-75.27640479346996,2.011996177383935],[-75.27968680962942,2.0389810877675814],[-75.28506117049591,2.0633264562039244],[-75.28604427823996,2.0931395701443307],[-75.29043766846593,2.1320835886025407],[-75.295786307985,2.1549577062524463],[-75.29081116690702,2.1768234864064198],[-75.29551188969617,2.191788424458821],[-75.29751794807589,2.21063938707573],[-75.30203423512597,2.2283631211561783],[-75.30747460657551,2.2370739285024115],[-75.3168212855328,2.2423111918104723],[-75.318148450494,2.2520357915116733],[-75.32335172994743,2.2544928527891557],[-75.32564874294326,2.263112955618965],[-75.34006805932938,2.284969111607836],[-75.34579841660212,2.297678938497995],[-75.3459432871291,2.30968056752846],[-75.34122803656089,2.3149479631738927],[-75.33640699319614,2.3270665189196507],[-75.33164623096116,2.3254139516602663],[-75.32805134099027,2.329760968384619],[-75.32648746249993,2.3273245664604474],[-75.3204216900125,2.3276040241176474],[-75.31817930582639,2.3252829373393524],[-75.31377601581278,2.3251477969070606],[-75.30566571913857,2.31802517426172],[-75.29387845043914,2.287361619605292],[-75.286638462962,2.279985379949494],[-75.2818625096026,2.267273648383764],[-75.27430178175712,2.2222840858740938],[-75.26371057936569,2.203046527600634],[-75.25494517714839,2.1712304046125723],[-75.25445680270639,2.16072386772305],[-75.24788723016769,2.154565389370134],[-75.24284401133718,2.155210092217203],[-75.24048693318451,2.153601934134201],[-75.24131033408986,2.1497851443201057],[-75.23638218666429,2.144338466461022],[-75.2257916393907,2.124109992507954],[-75.22510534324289,2.1196727104121464],[-75.22828693404728,2.1174421306893123],[-75.22457143965062,2.1031657554719914],[-75.22154230002303,2.098753356542943],[-75.21607231251431,2.0986398175173235],[-75.20835031871121,2.0944585229919994],[-75.2100677858358,2.0925726556041013],[-75.21409551640954,2.0937666269746273],[-75.21558291374356,2.0914214653854515],[-75.21833093066556,2.0908447456741897],[-75.21288333029355,2.0851224513908164],[-75.2096323247614,2.0853067760580757],[-75.20500152372216,2.0804122761864505],[-75.2016516108161,2.068595358517655],[-75.1975930588485,2.0690011695942303],[-75.1966922645583,2.0668436339728373],[-75.1902530676777,2.067077062656608],[-75.18816256696812,2.0656634745852784],[-75.1842333313628,2.0679108744855625],[-75.18206053262594,2.066098422466837]]]}}]}