{"type":"FeatureCollection","features":[{"type":"Feature","properties":{"code":"181067"},"geometry":{"type":"Polygon","coordinates":[[[-75.3693190070486,1.7200007404447888],[-75.37141079022604,1.6922917859590711],[-75.3676458627113,1.6832778924888316],[-75.36141024808416,1.6768909559148142],[-75.3614303849887,1.6733021070152745],[-75.36451701352462,1.6669948983906124],[-75.36934676779754,1.6626411700503922],[-75.37346169795558,1.6539628141794083],[-75.38444913868062,1.644425554538941],[-75.38524875068208,1.6418251119192746],[-75.38400754397509,1.6371341007128422],[-75.37648796822856,1.6289996160990654],[-75.37524756987739,1.6255042731933145],[-75.37932439006943,1.6120095533710241],[-75.37475391541147,1.6014262679300941],[-75.37626363200508,1.5991651270093143],[-75.38282737018932,1.5947648462184816],[-75.38713058040463,1.593804098871658],[-75.39687133488093,1.5976515918086989],[-75.41194416786647,1.5959127320513176],[-75.42174437351946,1.5983483173920945],[-75.43540448541069,1.5927463076887989],[-75.4534995222075,1.5953627652153273],[-75.46347050485446,1.5905873846984377],[-75.47815895024956,1.5864450815142845],[-75.479842997106,1.5832479128911245],[-75.48371311783535,1.5858588713355175],[-75.48602513066527,1.594704327518457],[-75.47970108643659,1.5964106113590901],[-75.48079959468726,1.6016948168974636],[-75.47978414036908,1.6046027216640937],[-75.47518281654936,1.6114051983809077],[-75.47129993799058,1.6128854974046476],[-75.47500033690795,1.6163512499622357],[-75.4713150776929,1.6177958239782129],[-75.47126956499767,1.6218574777284402],[-75.47339818492924,1.6234647215260907],[-75.46986580780839,1.6300675888628575],[-75.47369534208218,1.6309837038612613],[-75.47383338786454,1.6341202293428978],[-75.46187804594655,1.6328215769221401],[-75.4603598015076,1.6370453070426834],[-75.45466744107216,1.639842913406028],[-75.45353040736478,1.6464323030036212],[-75.45121032023258,1.6490151068056207],[-75.45525485350021,1.6546804120037564],[-75.45459888817919,1.6618096866152996],[-75.45580384640112,1.6633480504752356],[-75.45251514228005,1.668349446662262],[-75.45270662696413,1.6707903716766168],[-75.44834252369577,1.6700362641428796],[-75.44736596507369,1.6723582127560235],[-75.44930357443315,1.6752917853909821],[-75.44471025703842,1.6760256439199566],[-75.43904258950784,1.682206320176192],[-75.4396447199768,1.6840728703282366],[-75.4417657150355,1.683439633586886],[-75.44314631067084,1.685574604150986],[-75.44054543713378,1.6921893695392782],[-75.43329663487583,1.6937817420580359],[-75.42786444057276,1.6930509770841695],[-75.42231051055717,1.6974239630105785],[-75.41978309455544,1.7023706347427492],[-75.4236887983675,1.7067911583677073],[-75.42443701189717,1.7119277371531894],[-75.43162239730407,1.712653841225574],[-75.43300151095377,1.7110356537711482],[-75.4349048526085,1.7138488801194853],[-75.43260895238745,1.714162434759885],[-75.43121693898331,1.7174091578573893],[-75.43303540122008,1.722476494693467],[-75.4290593406269,1.7219837689111728],[-75.42504096888001,1.72580344659184],[-75.42483838627271,1.7291443133175335],[-75.42007267825767,1.7325159407589013],[-75.41810491907734,1.7405427608107402],[-75.41941038801508,1.745115477473405],[-75.42601103083075,1.7529852450966246],[-75.42423012114409,1.755590917346467],[-75.42766915579352,1.75585249655893],[-75.42770094186642,1.7614048746547155],[-75.43079253366597,1.761747889031085],[-75.43461654520343,1.768524730789693],[-75.43365705358491,1.7718819178696776],[-75.43779814423533,1.777536280439449],[-75.4334065640682,1.7818566193648735],[-75.43096013277261,1.789906082635639],[-75.43187896080235,1.8022718461380123],[-75.42668595343275,1.818689198023776],[-75.42374003228844,1.8429203373495397],[-75.41424701933045,1.8712261412518956],[-75.40976239802552,1.8782183614996484],[-75.40228177762475,1.899489396430397],[-75.40018009260274,1.9169149932521918],[-75.40481158167,1.9385869181620592],[-75.40099158620058,1.9516939326382499],[-75.39904995254557,1.9659013682681916],[-75.40132454446604,1.9872078083610631],[-75.40944189934123,2.022828847794358],[-75.40779473449038,2.025749917653627],[-75.4098104345187,2.0291499640471216],[-75.40820884406963,2.0314731529619507],[-75.40777819919157,2.0446458417205235],[-75.41031398363003,2.062225819077298],[-75.42316385559485,2.106384963618382],[-75.43479100299322,2.132977403881796],[-75.42771902805657,2.1394881001431827],[-75.42207230887163,2.1489624489263406],[-75.4178683618714,2.1665747461177034],[-75.41753297442472,2.209588423722721],[-75.4151366375358,2.230142602336173],[-75.40356305965133,2.2086997270018855],[-75.39241624838826,2.180106889934791],[-75.38301550934995,2.1338089994171128],[-75.37418426007196,2.0357384578713322],[-75.36925668343201,2.018479877029165],[-75.36911046050312,1.9945737954734],[-75.37386819911711,1.976661049084612],[-75.37395408743714,1.958410123027761],[-75.37747382499947,1.9371656085442623],[-75.37368758918416,1.9061361556370002],[-75.37834739950148,1.8700197103002552],[-75.37635110309816,1.8510572161775372],[-75.37369218117999,1.8412669257388643],[-75.3761802376581,1.8086460217973013],[-75.37138944695846,1.7847438092422294],[-75.3689373900823,1.7803554337019705],[-75.37044438953069,1.7597114741135442],[-75.3686575426454,1.7548632027330768],[-75.3715169110958,1.7424006597043444],[-75.3693190070486,1.7200007404447888]]]}}]}