{"type":"FeatureCollection","features":[{"type":"Feature","properties":{"code":"181037"},"geometry":{"type":"Polygon","coordinates":[[[-75.3459432871291,2.30968056752846],[-75.34579841660212,2.297678938497995],[-75.34405885030475,2.2927834934876614],[-75.32564874294326,2.263112955618965],[-75.32335172994743,2.2544928527891557],[-75.318148450494,2.2520357915116733],[-75.3168212855328,2.2423111918104723],[-75.30880244310958,2.238291732999869],[-75.30263850064159,2.229512020004904],[-75.29777016948981,2.2120185696310273],[-75.29641186637451,2.196064292501319],[-75.2906742071599,2.174824294937366],[-75.295786307985,2.1549577062524463],[-75.29043766846593,2.1320835886025407],[-75.28604427823996,2.0931395701443307],[-75.28506117049591,2.0633264562039244],[-75.27968680962942,2.0389810877675814],[-75.2761279963936,2.005192035618677],[-75.27731730583423,1.9962716594550898],[-75.28226034202214,1.9875779653924042],[-75.28594644661689,1.9852069364170006],[-75.29235232195992,1.9669248012434082],[-75.29702200018318,1.95935760346606],[-75.30340343150442,1.9360875045932175],[-75.30401605517238,1.9146853000467559],[-75.30607427924201,1.9025919833088665],[-75.30717275355403,1.8985451319318258],[-75.30955362986657,1.8963813906882478],[-75.30410108165762,1.887928105348692],[-75.30050663288858,1.8877927571710416],[-75.30439734406553,1.879491052945923],[-75.30327306304542,1.8674463332023379],[-75.29976794890729,1.8591741051682789],[-75.30249110734513,1.8533325485765886],[-75.30065854207612,1.8483457243916064],[-75.2993056609098,1.833783639615035],[-75.31137594670594,1.835044988368793],[-75.32243696632253,1.8387127280655022],[-75.33251856104778,1.8279611596036602],[-75.33412759639225,1.8221351191243116],[-75.33114975444903,1.8156278218654052],[-75.34120827092414,1.7929025116204684],[-75.33836833695204,1.7838150917092435],[-75.34187945616605,1.7727434811915828],[-75.34742623027853,1.7688232691409098],[-75.3506055471965,1.7577529256644198],[-75.35934062989992,1.7502483188987412],[-75.35832049411141,1.742366086552181],[-75.36185854412122,1.7392171703950794],[-75.36540980036136,1.7236475420802435],[-75.3693190070486,1.7200007404447888],[-75.3715169110958,1.7424006597043444],[-75.3686575426454,1.7548632027330768],[-75.37044438953069,1.7597114741135442],[-75.3689373900823,1.7803554337019705],[-75.37138944695846,1.7847438092422294],[-75.3761802376581,1.8086460217973013],[-75.37369218117999,1.8412669257388643],[-75.37635110309816,1.8510572161775372],[-75.37834739950148,1.8700197103002552],[-75.37368758918416,1.9061361556370002],[-75.37747382499947,1.9371656085442623],[-75.37395408743714,1.958410123027761],[-75.37386819911711,1.976661049084612],[-75.36911046050312,1.9945737954734],[-75.36925668343201,2.018479877029165],[-75.37418426007196,2.0357384578713322],[-75.38322204631879,2.1349587415887186],[-75.39367465271107,2.1841974686308845],[-75.40521038802456,2.2123079044501424],[-75.4151366375358,2.230142602336173],[-75.4158691014967,2.2548556533711803],[-75.41167321028672,2.2796410810483962],[-75.39787096558251,2.292730138918273],[-75.38042974877567,2.300005119152104],[-75.37477549830618,2.3072042640915242],[-75.37122804318955,2.309091466397774],[-75.36671834845606,2.3098064550634376],[-75.35808164347867,2.3057423371649293],[-75.34944556687964,2.3074481798036572],[-75.3459432871291,2.30968056752846]]]}}]}