{"type":"FeatureCollection","features":[{"type":"Feature","properties":{"code":"181059"},"geometry":{"type":"Polygon","coordinates":[[[-75.11438694463936,1.4280604023135766],[-75.116040553711,1.424260835826317],[-75.12000448793844,1.42330507642572],[-75.12293751138515,1.4124470045135809],[-75.12034181605617,1.4103329452711932],[-75.12075591637944,1.4071374643221475],[-75.11817007044448,1.4031324304463055],[-75.11923552455255,1.3998846634796678],[-75.11708034097916,1.3985638398950755],[-75.11673551757241,1.3958971285533153],[-75.11889658692229,1.3915745846471168],[-75.11665930483952,1.3872071481965236],[-75.11079663946515,1.3861867912929142],[-75.11125028751707,1.3821402412494876],[-75.10919785563573,1.380687619670823],[-75.11134888738667,1.3776174235894132],[-75.10874185450734,1.375365440949281],[-75.10739956629897,1.3758830509267455],[-75.11016510068237,1.369611764770866],[-75.10740359779362,1.3604571649374293],[-75.10965162607226,1.3570829355364253],[-75.11296055245867,1.3582999378487557],[-75.11344007715275,1.3516266489389182],[-75.11587870051272,1.350281122165029],[-75.11387174635956,1.3488103814860892],[-75.1151624036682,1.3481718204977824],[-75.11328835822707,1.3435491904343735],[-75.11148914740579,1.3430058159149212],[-75.11228178553853,1.339952042003688],[-75.10748390372771,1.3362688592141012],[-75.10774887062979,1.33345040220712],[-75.10088818098109,1.3289435068941202],[-75.09994061621046,1.3253960075544455],[-75.10141674181449,1.3237463034790267],[-75.09661898958745,1.3175837895176983],[-75.0980976513307,1.3140217469724007],[-75.09687807894056,1.311358783275125],[-75.0931658498489,1.309495895406883],[-75.09091221347319,1.305920616806361],[-75.08644080868311,1.3042077601896267],[-75.08765016246838,1.3037704468902689],[-75.08542538110441,1.3006715840020888],[-75.07925559708292,1.2963077388728266],[-75.07997577321265,1.2929364230494684],[-75.08400283221346,1.2915367240943851],[-75.08343263488467,1.2878849735934637],[-75.08585687856134,1.2872166165685144],[-75.08148833859195,1.2854059211296658],[-75.08128138818927,1.2804333223615458],[-75.08539434476609,1.2788442501148438],[-75.08171909743902,1.2709631511119142],[-75.08337712778507,1.269445665663568],[-75.08059688358833,1.2685527543853254],[-75.08177140813928,1.2640034234771065],[-75.07952173538104,1.2630238556321842],[-75.08099804301935,1.262040465066434],[-75.08091859069259,1.2582099650851433],[-75.07844735336346,1.2581380347869526],[-75.0775775861556,1.2565707192417221],[-75.07522124950998,1.2571706694125169],[-75.07599894025913,1.254223687943977],[-75.07038074904125,1.248662590712513],[-75.07083818176159,1.2466703258038478],[-75.06921754044328,1.247521448377256],[-75.0684053752725,1.2455047990964658],[-75.06448899417023,1.2454379174225778],[-75.0632197572624,1.2432608300804304],[-75.05851718224824,1.244561343982184],[-75.05680821211575,1.2422352939402685],[-75.05221469520319,1.2438058490794788],[-75.05046426341062,1.240106474490858],[-75.04776930589503,1.23924565164765],[-75.04793230374986,1.2366023425153685],[-75.04586630054104,1.237338967554706],[-75.04684391125983,1.2390848608304736],[-75.04439616150091,1.2400861072152338],[-75.04299012116923,1.238207528399471],[-75.03813349163647,1.239169431715709],[-75.03606367084899,1.2356081286205267],[-75.03689506789493,1.233435400846247],[-75.03462803297009,1.2328274987578425],[-75.03295073578187,1.2277887155998997],[-75.0295182327709,1.225951539823086],[-75.03073822579404,1.2238482185490511],[-75.02853524535459,1.2247854258750408],[-75.02731230584362,1.2230909578105411],[-75.02567642917785,1.225648825995222],[-75.02462962793174,1.223603993275674],[-75.02322795539544,1.2261386135172074],[-75.02166203750357,1.2248341617091114],[-75.0215088777299,1.2205046285075696],[-75.01960453642909,1.2196801847615006],[-75.0205098383828,1.2183647471304084],[-75.01885222969815,1.2165981842169344],[-75.0215971705486,1.2111621106286634],[-75.02425841983217,1.2104858983597637],[-75.02397902182463,1.2047683174283748],[-75.02737821358244,1.2013248954431788],[-75.02491215343298,1.2013431893786901],[-75.02487618879809,1.1993952050911503],[-75.0232902697561,1.2005050786600577],[-75.0208786512398,1.1970466486131386],[-75.02180473390302,1.1926625051139013],[-75.02308990344238,1.1940698721364242],[-75.02338426734542,1.191075560714694],[-75.02682601605466,1.1907064382965586],[-75.02617430745715,1.1895803400184377],[-75.02797107161365,1.1880227175439586],[-75.0260384244894,1.1846851264077145],[-75.02787138673722,1.1854830219385235],[-75.02801311228694,1.1842989688676653],[-75.02344933896046,1.1810950104669473],[-75.02059357314425,1.1741096561014501],[-75.01277958824323,1.176579696323472],[-75.01150147587646,1.1725105123171033],[-75.00841371193997,1.172197310432466],[-75.00834149676314,1.1694818200620034],[-75.01350189222052,1.1671459741051535],[-75.01289284444715,1.1643045879721967],[-75.01076000995812,1.164834822081616],[-75.00535773201949,1.1590946832920395],[-75.00182376081273,1.1609783950644328],[-75.00108283688365,1.1580940909967126],[-75.00257510286457,1.1594030412124425],[-75.00160465216254,1.1551879613219285],[-75.00285599314213,1.1529054236545448],[-75.00020973649362,1.1511498054263143],[-75.00682000347433,1.1456848757978833],[-75.00838553570026,1.1495273859309236],[-75.01165762636094,1.1505588592697222],[-75.01697590111462,1.146859322187197],[-75.01924364360792,1.1431726663472546],[-75.0207364001559,1.144298515742264],[-75.02353896669752,1.1432367989942804],[-75.0242161909539,1.1451750459880827],[-75.02603833912866,1.1439378800317286],[-75.02665855475931,1.146676946418495],[-75.03043987976156,1.1476517032093057],[-75.0323491668425,1.155199171345373],[-75.03506370898896,1.1545596374504044],[-75.0361853438265,1.1573380798158723],[-75.03986739841463,1.1569841649772457],[-75.04188635552043,1.1549331276639805],[-75.04245718225604,1.1560315772933905],[-75.04297594717445,1.1542754993513427],[-75.0475027798741,1.1565136185863025],[-75.04761735351292,1.154969041905133],[-75.04978817661168,1.1554492309731472],[-75.0502004524779,1.1574836116313918],[-75.05387463022481,1.1571104834296193],[-75.0551116398579,1.1606371043577042],[-75.06051294488992,1.1619390045999012],[-75.05907073217793,1.1641978222690454],[-75.06098969587453,1.1653630394151833],[-75.06116519650504,1.1695292024657533],[-75.06273538140493,1.1703560157433799],[-75.06425964017569,1.176353892512509],[-75.0699193095088,1.1794545140373884],[-75.07021850914856,1.1824078193989749],[-75.07219292852267,1.181602357616498],[-75.07183071723819,1.1845790826711209],[-75.07560319249262,1.1905817663806602],[-75.07627043674273,1.1895642695756692],[-75.07825330065833,1.1919133947823184],[-75.08176358477704,1.1916877462662114],[-75.08244016934214,1.1947901079157646],[-75.08473038330447,1.1961625521157089],[-75.0836535710772,1.1980075605108027],[-75.08750559430354,1.2033438710609516],[-75.0923940695589,1.2054906882544287],[-75.0943612949776,1.203466767885061],[-75.09810083950254,1.2037354896307306],[-75.10143251092364,1.201820689069507],[-75.10576759154412,1.1956025836762478],[-75.1083390074021,1.1951981003189758],[-75.10936755790732,1.190491836281467],[-75.11238444364227,1.1877322812628677],[-75.10973867036176,1.178281411822411],[-75.11536965643302,1.169148465846206],[-75.12238981123647,1.1679500310351614],[-75.13246596241544,1.1697094421593874],[-75.13631678750625,1.1675186806455145],[-75.14228158750711,1.1669874571744003],[-75.14268980102543,1.1640966626060276],[-75.14446477351339,1.163117192463119],[-75.14249723133446,1.159597748006945],[-75.1435076452558,1.1575120552661247],[-75.14205324858534,1.156968372213953],[-75.14816230410457,1.1504286718165986],[-75.15443850210193,1.1539865975065027],[-75.15719627277275,1.1581652119106707],[-75.16236635307331,1.1571522217407733],[-75.16098488840407,1.1534760426447406],[-75.16328679370093,1.1503274288497778],[-75.16242895231255,1.1490296629464183],[-75.16815891569183,1.1438673196190052],[-75.17477427654836,1.141776095914281],[-75.16965471437277,1.1381567444380494],[-75.1713489674928,1.1361126336851157],[-75.17031820172241,1.1347855376296252],[-75.16799924382013,1.1358081704765937],[-75.16960199126703,1.1277782805238417],[-75.17443149459996,1.1290739802861367],[-75.1736604475895,1.1255857788851813],[-75.17706293139179,1.1243180507025272],[-75.179748045684,1.1205940171476527],[-75.17903841828922,1.1191944734873687],[-75.1813510008763,1.1206335319661207],[-75.1821823290166,1.1186824212132933],[-75.18027529113942,1.1162056426358618],[-75.18611956899002,1.1137315945733235],[-75.18528790352059,1.1117862050462008],[-75.18739383806707,1.1116723811420002],[-75.18634790585492,1.1102322973060836],[-75.1891783318759,1.1092309563046001],[-75.19026133121338,1.1061653357639898],[-75.19036148917337,1.1082562396230742],[-75.1935068314927,1.1086455524247754],[-75.19619496323526,1.1129925413811748],[-75.19865860243107,1.1115895514100202],[-75.20624613560238,1.1136713751500906],[-75.20785801561885,1.11951854806631],[-75.2145719125815,1.1214452405084216],[-75.21909905689927,1.1264289042895825],[-75.22550227988899,1.1264489712600039],[-75.22932125000119,1.130916358953641],[-75.2346181125817,1.1315285187940844],[-75.23573957669777,1.1378352533067186],[-75.24095197432263,1.1392340564883625],[-75.23981361289594,1.1454439322845928],[-75.2406577801126,1.1448349801564177],[-75.24552764467217,1.1502201612665885],[-75.24476710937267,1.153511655552279],[-75.24734800130005,1.1532756979283363],[-75.22932620092348,1.166057972423289],[-75.22698334098862,1.1733537025133955],[-75.22740169597864,1.1857985409042158],[-75.22896635402839,1.18981220546965],[-75.23729720534294,1.2045004678018927],[-75.24632801257883,1.2100398566686863],[-75.26959276149375,1.2189525637364227],[-75.2746839725944,1.2234034922360024],[-75.2765810880581,1.2282517265924753],[-75.27772138295671,1.239487879685612],[-75.27296166047716,1.242426521513778],[-75.27065536990136,1.2460795750513398],[-75.25529444754062,1.2512786564024623],[-75.25267335276675,1.2556630354150684],[-75.25576018801962,1.2809366513861846],[-75.24678686249302,1.2874359082814522],[-75.24402531743812,1.2924120716313041],[-75.23402547566559,1.295943493329105],[-75.23321663442101,1.2993423950661054],[-75.24023358151226,1.3069774011440245],[-75.24341830700939,1.3141763373095614],[-75.24976709556506,1.318381011418694],[-75.24984169261472,1.3366581874424242],[-75.2455988499184,1.340048734112429],[-75.24588242957321,1.345547320550736],[-75.2569887068313,1.3568042636093764],[-75.2606937944181,1.374155339486265],[-75.25635173478668,1.3729359419313596],[-75.256749480817,1.371959545803179],[-75.25428485328791,1.3725484659279914],[-75.25497189711348,1.3709381368028062],[-75.25332575659138,1.370106557722579],[-75.25252465643365,1.3646005562137589],[-75.24988092461149,1.3617520265190706],[-75.2484968744377,1.3629089215083923],[-75.24761957594535,1.3612315297034456],[-75.2438799378321,1.3632417501900704],[-75.24148996186017,1.3614566012633418],[-75.23687856650287,1.3616690589757354],[-75.23596140043622,1.357560020764879],[-75.23440755234571,1.357142025729786],[-75.2357279789515,1.355536480919227],[-75.22891531756841,1.3540382438010852],[-75.23047626602602,1.3504953889078593],[-75.22872032692374,1.3513478535987247],[-75.22723500601518,1.3485213140619976],[-75.22312120508701,1.348979866756281],[-75.22215657948345,1.346601196452923],[-75.21645056133138,1.3473837465929819],[-75.21715300402673,1.3450025864302688],[-75.2152517038304,1.3447751792774056],[-75.2128833991992,1.3497385488023497],[-75.2164938248228,1.3534942933538332],[-75.21801405004203,1.35887910628162],[-75.2154933199451,1.3596465845965326],[-75.21550182413631,1.3610203822267977],[-75.21298742615994,1.3597466654233585],[-75.20953136461623,1.363165563168252],[-75.20736712354955,1.3626331065946147],[-75.207371347363,1.3668816448055736],[-75.20456119708626,1.370759085988766],[-75.20159731830711,1.3701241790566883],[-75.19923308836513,1.3718285571933393],[-75.19849771391188,1.377037584612026],[-75.19616919972174,1.3794777259531656],[-75.19322211540896,1.3787450213367265],[-75.1909026309441,1.3825420198029406],[-75.1866861215185,1.3833170911090065],[-75.18431851417131,1.3862511563679618],[-75.17553967123871,1.3819671358616006],[-75.17249807305848,1.3870122511401632],[-75.15986730151627,1.3901714650921804],[-75.16058779543471,1.3952612230035584],[-75.15219697152315,1.4059747884574563],[-75.1561946818598,1.4127369152604956],[-75.1563693124279,1.4188373524314102],[-75.15482085851846,1.4216913956063877],[-75.15253767601763,1.4215556936445068],[-75.14942116608427,1.4250366218999488],[-75.14665931146823,1.4243592012110184],[-75.14464595423192,1.4261312436663047],[-75.13915945816387,1.4251589592512914],[-75.12441686012801,1.4292386302860223],[-75.11438694463936,1.4280604023135766]]]}}]}