{"type":"FeatureCollection","features":[{"type":"Feature","properties":{"code":"182059"},"geometry":{"type":"Polygon","coordinates":[[[-74.79416706285707,1.4396449495658885],[-74.80339740233978,1.4368681455093792],[-74.80500348296891,1.4351036405093396],[-74.79890755860373,1.420593472539565],[-74.8013691913082,1.4158830895898404],[-74.81084960584536,1.4122860985108332],[-74.81133940056645,1.4054698879726288],[-74.80949162771788,1.4028673092778945],[-74.81158301597338,1.39803377856407],[-74.81700095914846,1.39964341040519],[-74.81995920103418,1.4065822349458017],[-74.82328356845647,1.4079443741516684],[-74.82599225876504,1.4053414241892028],[-74.82352692263908,1.3944365715121307],[-74.82857403823829,1.3920804765505181],[-74.83633229081079,1.3929455458329016],[-74.83731566594986,1.3877710288313665],[-74.84174952847428,1.3908368221503338],[-74.85492544654238,1.394550173272762],[-74.86625049203616,1.388102350844747],[-74.87031436002314,1.3878539367250369],[-74.87511947075643,1.395906564513382],[-74.87130560171909,1.4064415614927839],[-74.87611044711417,1.4118932211274],[-74.89679516387963,1.4079823637898699],[-74.91024003920683,1.400360872475062],[-74.91170505248937,1.404809321399739],[-74.90716826549459,1.4145335056102226],[-74.90763510846398,1.4180102378201696],[-74.92364353823456,1.4202096423649664],[-74.92922387556865,1.423683925853254],[-74.92856207795006,1.4274944699359366],[-74.91826754934357,1.4319105033808341],[-74.91654179400075,1.4347855627786998],[-74.91621129988357,1.4416705164717314],[-74.91893619021869,1.443742534012415],[-74.92717249475555,1.4419348776211791],[-74.93248685114327,1.4443393392060102],[-74.93129304226665,1.44748153449126],[-74.92073286798603,1.4520316758121794],[-74.92000297307447,1.4539043338843385],[-74.92212971404155,1.4557081037912667],[-74.92883735807374,1.4565742169428404],[-74.93348960419632,1.4617538617587797],[-74.93229430716337,1.46395959019668],[-74.92492234788534,1.4661687834573627],[-74.92386103737215,1.4677736752068995],[-74.93369353097808,1.4737860704991022],[-74.93349579953406,1.4765938605003157],[-74.93024245840894,1.4805388209917396],[-74.93104068304143,1.4826115275888583],[-74.93894656236682,1.4858507728808377],[-74.93317353295708,1.5030333651905607],[-74.93291069595944,1.5101861448558793],[-74.93463845059449,1.51252523143512],[-74.9438046481742,1.5115189796206323],[-74.94652890087491,1.5144928959987851],[-74.93995574421405,1.5189744237486025],[-74.94248234260397,1.5261260762409279],[-74.93962903065159,1.5348177010772588],[-74.94281846333013,1.5367554657315168],[-74.95071954394274,1.528930435357836],[-74.95676684457408,1.5322714306388434],[-74.96028947720202,1.5387534683209765],[-74.96222182093578,1.5522231764211938],[-74.97504536991437,1.5611754445872634],[-74.97923532289724,1.5730390545748492],[-74.97890575129304,1.5783872549489502],[-74.97014072754257,1.5881507143507747],[-74.97333072894986,1.5885505882287134],[-74.97731492863716,1.5852737852443965],[-74.98269421060104,1.5835991342387956],[-74.9863488119446,1.5844006241762827],[-74.98601761848653,1.5886122824385325],[-74.97984264905784,1.593093835899424],[-74.97984375154823,1.5956342041062044],[-74.9833003026306,1.6006795003906404],[-74.97911846611606,1.6104421318962068],[-74.98011630012854,1.6127136045504926],[-74.98210918518805,1.613515232299278],[-74.99100957151438,1.6102356206384343],[-74.99321563728137,1.6117594052972208],[-74.99327086875843,1.617253777178064],[-74.99068245480242,1.623471623403816],[-74.99314298295963,1.6288513270291674],[-74.99839118066859,1.6289839858296773],[-75.00742282299979,1.6241658724975991],[-75.01267127884779,1.6249659575826172],[-75.01333792865819,1.629912395858355],[-75.00789196556667,1.6319873269766845],[-75.00629916213046,1.6341932713874598],[-75.01035580119498,1.6444200143191097],[-75.01268260097146,1.6470259539640324],[-75.02304495021991,1.6476223529228378],[-75.03301444676748,1.658213488465492],[-75.03228555972959,1.6618901036212037],[-75.0290321239878,1.664098573886804],[-75.02418285296119,1.664434358312235],[-75.02292107946073,1.6671098073016992],[-75.03122837532783,1.6730545115357813],[-75.02837968313924,1.6888658413260487],[-75.03453249271695,1.711364605224503],[-75.03147502052644,1.7166888326035519],[-75.03114282330847,1.72133961113866],[-75.04254830329165,1.7406071217720296],[-75.0394477835826,1.7493550137269835],[-75.04509515788538,1.7566633792619086],[-75.04542735716029,1.7665186014474443],[-75.04786347831958,1.7718337754469644],[-75.04852787584088,1.7792528754447403],[-75.05727576779583,1.784678781850232],[-75.05760796604227,1.7953091329345625],[-75.06069821983812,1.796505275347272],[-75.06558134513551,1.804197910201765],[-75.06599574782086,1.8087130042584931],[-75.06254693576841,1.8167872684206259],[-75.06336716907077,1.8229044805174794],[-75.06572294727215,1.8267328310539028],[-75.06441947351283,1.8348286194894854],[-75.06037175515871,1.845746689709756],[-75.05766891257434,1.8487098002423181],[-75.05635406629773,1.8606777858326495],[-75.05349914894657,1.8659217895529991],[-75.0413416820781,1.8776396486668432],[-75.03440252843586,1.8883815230294658],[-75.01848221562034,1.9009049190020733],[-75.01347070470109,1.902059352928461],[-75.01085229519066,1.9011126808459267],[-75.00324340332514,1.9038222340176958],[-74.9938675968188,1.9131672551256997],[-74.975407774546,1.9143634057659824],[-74.97530162076612,1.9210265624600993],[-74.97059975846264,1.9275372103846848],[-74.96705592963434,1.9405113521443695],[-74.96432879832298,1.943227506888718],[-74.9544203902326,1.94463288593181],[-74.94646284401193,1.9433647967658203],[-74.9393542770905,1.9441298829234483],[-74.92899919893068,1.94073087422845],[-74.91833412248468,1.9450513931312798],[-74.91383564600216,1.9443973653959574],[-74.91100298003335,1.94572452727175],[-74.90520420150824,1.950279929076146],[-74.90304741562142,1.9546677513143322],[-74.89677166705343,1.9421351836913345],[-74.89713711793178,1.9334716055109311],[-74.89552763418641,1.9306827357667657],[-74.88742533262433,1.9253644599846211],[-74.88013866002751,1.9175838819819546],[-74.88021526871074,1.9132224516357041],[-74.88338145550301,1.9069125711174024],[-74.87618613431289,1.903333347411376],[-74.87586614367922,1.8926636902824043],[-74.88476258387158,1.88362483651224],[-74.8856084243642,1.871203195670887],[-74.88754677317382,1.8674637293075875],[-74.89025567122775,1.8672284905649121],[-74.89358158851297,1.8639552213091406],[-74.89001847741588,1.8582718628310317],[-74.89008023950288,1.830896339694334],[-74.88814247484862,1.825912452741136],[-74.87528630470183,1.8091344229787865],[-74.8748203585343,1.803215628297039],[-74.87845342840524,1.792077390130828],[-74.85974399182027,1.7777527963859825],[-74.88769849312797,1.7455742451121523],[-74.89093946003271,1.7224767446049896],[-74.88633688048463,1.722615487671419],[-74.87733091424934,1.7021392989394712],[-74.87798698241465,1.7009702549586905],[-74.87454913767323,1.6966577579074738],[-74.87448256556058,1.6945508339993012],[-74.88200033227668,1.684219591023293],[-74.88199880709647,1.6819574669115127],[-74.87644077050987,1.6663147626134673],[-74.87009208068469,1.6334312541022769],[-74.86343700652031,1.622037778100207],[-74.86444493058235,1.5951448649851159],[-74.85886325627297,1.586555834489161],[-74.85610003999898,1.5786919516140188],[-74.8463317212063,1.570137180595168],[-74.83914110616911,1.5705670932221665],[-74.8362730165262,1.5643721226433627],[-74.83192008317201,1.5629715022037658],[-74.82032471361907,1.5647650103112483],[-74.81029266925441,1.5612966444812173],[-74.80397688650447,1.5614056768717433],[-74.7873292930783,1.5685597842563652],[-74.79164127385138,1.5566804833212586],[-74.80099521669825,1.5528628830944626],[-74.80229733394185,1.5504785255039906],[-74.80229639394537,1.5477374012037899],[-74.79116258425262,1.542616131813645],[-74.79056919348818,1.539874646530052],[-74.79636768302089,1.5262258536772038],[-74.79720355173487,1.520043635785612],[-74.79584017222732,1.5120857995441952],[-74.80193199516373,1.5042029079659756],[-74.79870051358432,1.493632299107503],[-74.80283404621065,1.4857172954401108],[-74.79923240245773,1.4816847898077299],[-74.79320547013049,1.4834766770898113],[-74.79120844250451,1.4799195103904594],[-74.79467554026496,1.475966648375163],[-74.80506640102533,1.4772360570329397],[-74.80807666976114,1.4760781356579855],[-74.8091568851047,1.4734994343131689],[-74.80774682973339,1.4703032468241304],[-74.79766878210643,1.4618751819805311],[-74.79616412647852,1.4559751635738962],[-74.79726600390683,1.4472653990683852],[-74.79416706285707,1.4396449495658885]]]}}]}