{"type":"FeatureCollection","features":[{"type":"Feature","properties":{"code":"183017"},"geometry":{"type":"Polygon","coordinates":[[[-74.11999682105875,0.6808327037110757],[-74.10641725781403,0.6744173039619454],[-74.09661389895626,0.675686640628669],[-74.09244454670545,0.6729032298574111],[-74.08457682259751,0.6792643710361972],[-74.06322509195303,0.6769895477161754],[-74.05690827356148,0.6728898714175671],[-74.05477426150577,0.6635198139048839],[-74.04940793380382,0.6597384385089526],[-74.04046905904465,0.6637476005530516],[-74.03261446917611,0.6578921743855517],[-74.0246415785931,0.6611433660658008],[-74.01744478878709,0.6527384771743527],[-73.9992782670077,0.653347283263713],[-73.99725321843687,0.6592340471031548],[-73.99592749535213,0.6582205231716216],[-73.99236654604124,0.6604276739454917],[-73.9916782516296,0.6568435548530829],[-73.98847841111274,0.6537664311828735],[-73.99267887683504,0.6523404256965932],[-73.9959197923177,0.6488468064604831],[-73.99600523326524,0.6427813671884905],[-73.97567534356693,0.6378731334954182],[-73.9743480407945,0.6356681547921426],[-73.97749797510966,0.6330478251795171],[-73.97539419617868,0.6295106061513138],[-73.97274239108276,0.6273061694372473],[-73.96780815219222,0.6266193138167182],[-73.96652584480836,0.6218408623703908],[-73.96354950747661,0.6198602558861239],[-73.94784769550171,0.6258925381713425],[-73.94519646736205,0.6240096861769189],[-73.94113139301197,0.6238275747178932],[-73.93984909385568,0.6196465660996182],[-73.9350990243376,0.6199245170884637],[-73.92788887506322,0.6279228245999207],[-73.92730514240247,0.6398694041876638],[-73.91776270352551,0.6442846457318296],[-73.91437883350432,0.6400589152906377],[-73.90679504694918,0.6380860221252078],[-73.90556473247688,0.6422222873233068],[-73.89944195136383,0.6382728633913644],[-73.90007388506854,0.630415139858485],[-73.89860968322711,0.6272916416582461],[-73.88892542726899,0.6254577137028718],[-73.88659313869476,0.6232069127431714],[-73.88722995030236,0.620679254029028],[-73.88987958332768,0.6197133788678002],[-73.8911739368587,0.6151305896391932],[-73.89583189597948,0.6157711488912696],[-73.89729177219169,0.6146204070735735],[-73.8956474766955,0.6069282339897768],[-73.8923135200751,0.6048576891788002],[-73.87838465661332,0.6017851842439654],[-73.87709532599553,0.5913115441452987],[-73.86992812242391,0.5929685151955368],[-73.8739411185017,0.5882349274972398],[-73.87411978982044,0.5846514121005839],[-73.87051127812839,0.5833665294967432],[-73.8643485769905,0.5840123266066257],[-73.85522498778437,0.5909529077270577],[-73.84846823047968,0.5919202905849943],[-73.84425868258148,0.5839742238397321],[-73.83814092541013,0.5837473000548812],[-73.841559349043,0.578875798214824],[-73.841193336635,0.5773140660839999],[-73.83608058172047,0.5783730769996964],[-73.83270436331168,0.5810390818014639],[-73.83010086107555,0.5803505210232061],[-73.83160354415071,0.5761238690975006],[-73.83689931349676,0.575708089327577],[-73.83950011709976,0.573777415784491],[-73.83141512628214,0.57042698454336],[-73.82032057326876,0.5703400184155498],[-73.81050656180338,0.5738348789817564],[-73.80371620013943,0.5851389504188091],[-73.79992901610018,0.5868864274960401],[-73.80436266059473,0.592075920677587],[-73.80313292307875,0.5944650625826853],[-73.79893044983663,0.5926290150072759],[-73.79481358106443,0.5856019932931531],[-73.78828807317387,0.588498954402894],[-73.79038263211766,0.5827552993683298],[-73.78818637255006,0.5789433524901142],[-73.78448694756781,0.5777505432595831],[-73.78074414699387,0.5792221725129139],[-73.77919546065635,0.5823924072549858],[-73.78112250585428,0.5908905758828951],[-73.77706448867679,0.5965888910005219],[-73.78021704140662,0.5981496409687566],[-73.7745145302435,0.6026077747366116],[-73.76898650258119,0.5997157933455242],[-73.76734573052903,0.6024270609310065],[-73.76880502155745,0.611535071289893],[-73.76721255545039,0.6141626812470804],[-73.76453781300097,0.612645471421331],[-73.76609798498453,0.6054605076758435],[-73.76469786539639,0.6023822455197774],[-73.76140728333922,0.5995350445728604],[-73.75958197167529,0.5996276373097089],[-73.75825899556054,0.6020167349917642],[-73.7579427350878,0.6047732910719787],[-73.76009351692721,0.6079951546569191],[-73.75942885715313,0.615322599857393],[-73.75523020971718,0.6245919203969379],[-73.75477737002109,0.6293244631976336],[-73.75089326658724,0.6271662014957542],[-73.75193594994954,0.6175626659340878],[-73.75071435461297,0.6151191471877269],[-73.7427483905903,0.6130736850612948],[-73.73709131498919,0.617844329600473],[-73.73855953187024,0.6268952295178565],[-73.74385921341161,0.6268933268991645],[-73.74742322131061,0.6299705976366567],[-73.74400450354312,0.6375533238675644],[-73.7375126874295,0.6309392825028226],[-73.73029455949808,0.6295178515288171],[-73.72850892823186,0.623590872501552],[-73.72133375423067,0.618263790166111],[-73.71252131516633,0.6219427254881111],[-73.70886624793832,0.6207035180733556],[-73.70893727423555,0.616789412914386],[-73.71411142099782,0.6132029150344351],[-73.72228185276293,0.6130672583240084],[-73.7240652183703,0.6108613375674281],[-73.72374086816876,0.6081669343823819],[-73.7204991340459,0.6058888951225754],[-73.70918067161267,0.604608473902374],[-73.70182740427742,0.601487414139342],[-73.70072617168256,0.5963885401134803],[-73.70405367379772,0.5922067375375377],[-73.70400560336594,0.5892665036803351],[-73.68975078533225,0.5794409541183541],[-73.6891525588311,0.5753063611678044],[-73.69361520026251,0.5646467354671358],[-73.69960221770714,0.5701110696273304],[-73.70325558800499,0.5708449620949523],[-73.7046689025106,0.5690069769338493],[-73.70265528507838,0.5638164748502277],[-73.6922791238469,0.5532084008592619],[-73.68369667846838,0.5534870501605837],[-73.68364480588463,0.548204006762262],[-73.68021738749343,0.5442546167689102],[-73.67080767940791,0.5401234115079774],[-73.66482076172224,0.533924322016901],[-73.65765000796699,0.5321349235657067],[-73.65206298369958,0.5157366318051686],[-73.65287700109536,0.5087535019608822],[-73.65159541670664,0.5055842761208851],[-73.6484451388917,0.5054478511639218],[-73.63681034913697,0.5119294486726744],[-73.62252450299252,0.5167129240606982],[-73.62251925587879,0.5116136108898672],[-73.61553166156551,0.5090894406527013],[-73.6080378657876,0.5036713781782964],[-73.61296323024766,0.4986622974687407],[-73.61254804388909,0.4945735442581167],[-73.60195167048869,0.48975437882938877],[-73.60036321942118,0.4991265384786061],[-73.59739755937966,0.5008270291024814],[-73.59346870121271,0.4990830672417701],[-73.5879388727476,0.4935724634526082],[-73.59997512429544,0.4777187237781959],[-73.60088391369777,0.4721656216588599],[-73.59129244073836,0.46931518111802006],[-73.57572367631525,0.46927506260379914],[-73.57527192985356,0.474099044228808],[-73.5833188189327,0.4852590648076216],[-73.57885153408336,0.49100291833156007],[-73.57574672474055,0.49164755330139087],[-73.57085063181142,0.48099139139515046],[-73.56345114421248,0.47704344842043156],[-73.56143916508915,0.4740121038120719],[-73.56877376207893,0.4594009849531062],[-73.56247121641269,0.456968462314137],[-73.55005643322608,0.46064813708630936],[-73.54612874028453,0.45913365777545323],[-73.54822433178464,0.45495244963927917],[-73.55562073611287,0.45453644566890716],[-73.56026995038695,0.4472761742199509],[-73.56099561428596,0.4433248970345858],[-73.55848167293811,0.4407993836515516],[-73.54633464887496,0.43790975636534313],[-73.54633363174531,0.43653180485574694],[-73.55400185857349,0.43446143179465935],[-73.55445352790201,0.4304649185651215],[-73.54833085888913,0.42536806234346614],[-73.54658398447924,0.42103678798878263],[-73.53998534815491,0.4143732003772129],[-73.53352220707563,0.41325815682773737],[-73.53131008481063,0.4143725977098711],[-73.5297536183055,0.4169373245777592],[-73.53063877307028,0.4271946564752511],[-73.5260992483615,0.4249640932074499],[-73.52543385633635,0.41771699713564203],[-73.53163840788562,0.4079060884812975],[-73.53762011959532,0.40411577489146566],[-73.54555419058704,0.405539427301278],[-73.54649314112311,0.40194028163517714],[-73.54532556164446,0.3988004887916645],[-73.5401213946451,0.3947561786960705],[-73.53729178726434,0.39475030320397764],[-73.52842605636556,0.38884114297178485],[-73.52101065361865,0.38939788930082386],[-73.51480759228252,0.3950828398079693],[-73.5117018264882,0.39407991397661135],[-73.51125807719558,0.3808124346994646],[-73.5048427401814,0.37088883754154267],[-73.50517074443923,0.36865908674332104],[-73.51237306109533,0.3636423019708559],[-73.50860416893471,0.3545005761808966],[-73.51026737748884,0.35082064224121723],[-73.51436477270192,0.3483690142255682],[-73.50838302705364,0.33487739412908013],[-73.50661352587986,0.33298156730381834],[-73.49432195936299,0.3294139382587673],[-73.48480027137066,0.32852089945362195],[-73.47660535855982,0.33532137584973043],[-73.47361471147883,0.3425681705879242],[-73.4699598499393,0.34334898985918016],[-73.46818395493841,0.3364359535146946],[-73.46375673718109,0.3333141800125645],[-73.46065250582296,0.32751616356335944],[-73.45356541689512,0.32305575488067007],[-73.45423544513915,0.30967718324274074],[-73.45943923367167,0.29986626430400065],[-73.4601030922891,0.29440310153978544],[-73.4591031294006,0.28648724529352876],[-73.45163429597949,0.28141285128492655],[-73.45788283504379,0.2812597357342952],[-73.46819021095422,0.2861689773010312],[-73.46991395877723,0.2835612111422279],[-73.46849484694116,0.2804424520051043],[-73.45960676387267,0.2750214327584217],[-73.45554759998174,0.2781917271501584],[-73.44706345828138,0.27875358381010074],[-73.44584273300711,0.2815656295064173],[-73.44746812264452,0.290258376373572],[-73.44538531777027,0.2901557110706676],[-73.44163088551142,0.2827927136407311],[-73.43680186348962,0.27880390447410264],[-73.43593992787157,0.2714410962776128],[-73.43268955174625,0.2684242372820904],[-73.43370357550083,0.2654587119665166],[-73.43827485337238,0.26157270591403403],[-73.43741268738319,0.25824907999873403],[-73.43268888840078,0.25876028894998626],[-73.42390033491398,0.26346419991097036],[-73.41720120432893,0.2701107349170684],[-73.40592581718221,0.26995664543142084],[-73.40059159951255,0.2636669460406438],[-73.40109489871236,0.25860517410711736],[-73.40455114948952,0.25482174696833226],[-73.40333076874356,0.2530831618050797],[-73.3955109155495,0.26315546146685165],[-73.39393845676324,0.2723080362969199],[-73.3926639819976,0.2728702724521668],[-73.38479782420762,0.2677566382192822],[-73.3780918359679,0.25814358750739075],[-73.37626046780599,0.2584503102041822],[-73.3698588635848,0.2670399433674788],[-73.36584589424649,0.2677046206251248],[-73.36234392508555,0.26555671739635045],[-73.36097806291775,0.25599492631647536],[-73.35691138522583,0.25348952412684866],[-73.34990174213334,0.2521598261117788],[-73.34416293003466,0.2555852976612414],[-73.3421789554011,0.25456252803149937],[-73.34716129043454,0.24719991935279495],[-73.34710755019915,0.2445415661633774],[-73.34192735310955,0.2368200115053014],[-73.35858888913094,0.23129884972524906],[-73.35853733639283,0.22950946155850716],[-73.34127155131085,0.21544749809436325],[-73.32638532510663,0.21866826947336904],[-73.32542393086942,0.22403650287930077],[-73.32699554530444,0.22991697059364924],[-73.31902354432418,0.23257459050358875],[-73.31958011684645,0.23835299763925377],[-73.3182159444097,0.23896585373529433],[-73.30454995188416,0.22669424414544892],[-73.30104686172092,0.226489516206982],[-73.29606593051153,0.2307842901083177],[-73.29231202378679,0.23737987607205469],[-73.28875611590115,0.2386066671002709],[-73.28748306347154,0.23533430184545523],[-73.29175483008527,0.2230628640054988],[-73.29114426535915,0.21871752055716343],[-73.28525293112114,0.21912583897659488],[-73.28082877195192,0.2262837546838341],[-73.27874707779557,0.2271017192420004],[-73.2747333659218,0.22362484099323865],[-73.27377148831664,0.21626200708567467],[-73.27636533964824,0.21212092569123797],[-73.29489802501661,0.21258137483351902],[-73.29733928633163,0.2062416046903195],[-73.29454833296296,0.2001571145490857],[-73.29032672349086,0.19872505256478235],[-73.28139387643336,0.19800853769044124],[-73.2774797548193,0.20010508769894386],[-73.27610650123512,0.20296822230585576],[-73.27290988180022,0.20307005971250192],[-73.27291007103366,0.19913339772375593],[-73.27824254755006,0.19212887318968797],[-73.27712901066894,0.18660688454190222],[-73.27290967508327,0.1849195764941669],[-73.26351876795542,0.18461195905240402],[-73.2574745341397,0.19038968535915046],[-73.25589486288601,0.18977587898228876],[-73.25671183705407,0.17346543061103148],[-73.25411720204931,0.17198258310673964],[-73.25183671612479,0.17402758140553942],[-73.24929529684971,0.18757647546590306],[-73.24741124774823,0.1883435496029051],[-73.23883563328485,0.18573604981071412],[-73.23679803771529,0.17980486651043748],[-73.23969741155122,0.17198193827323394],[-73.23933940556822,0.16911847662163382],[-73.23380772487809,0.16308515972326632],[-73.21989224145352,0.16160183810700346],[-73.2094762291029,0.16564061723875056],[-73.20643250307506,0.16303277188984566],[-73.20937791514035,0.15408553692145688],[-73.21511547048226,0.14825674227301988],[-73.21181129961411,0.1442173697299154],[-73.20389134193908,0.1443705109916209],[-73.20048928082667,0.14708060718106708],[-73.19693355291844,0.14723328152985005],[-73.19185163688127,0.1547494212499032],[-73.18576401924634,0.15602696283104933],[-73.18190270712716,0.15878792270217446],[-73.18062912813502,0.16712189533973287],[-73.17829487523557,0.16926911773958864],[-73.1732134837041,0.16528085981815366],[-73.17321242440829,0.16251983206984733],[-73.18134616751502,0.1508118614308387],[-73.1867781561296,0.14789776955404932],[-73.18743405254503,0.1428356983437311],[-73.18123984918435,0.14344926097970756],[-73.17534969456989,0.14825509573654472],[-73.16463736221857,0.15147577147035918],[-73.15284999993094,0.14508413799939035],[-73.14487666094692,0.13577860291343313],[-73.14483069162327,0.13317131086660083],[-73.14934795260837,0.12120717165129236],[-73.15300255498039,0.11773048366438843],[-73.15163544325492,0.1056130221814442],[-73.1571225419903,0.09835290705575517],[-73.15701484451819,0.09533671037729619],[-73.14950057656347,0.08439433291806608],[-73.14462453414973,0.0857751784649281],[-73.13695630629309,0.08352541006155434],[-73.13863491268864,0.07692982512622848],[-73.14284748420783,0.07370882954677427],[-73.14589180570391,0.04311159811993548],[-73.14904215448144,0.04687806932690819],[-73.15370378308512,0.04531751579116872],[-73.15790056904012,0.04669591467330747],[-73.15923536813011,0.052942007072829256],[-73.16381376179544,0.06176074534755571],[-73.1711150403329,0.06015475830673722],[-73.17093205058399,0.056801983245122756],[-73.16709449548705,0.05730658342474726],[-73.165903332793,0.05597449942303001],[-73.16745278634858,0.05133600254845305],[-73.17178660095635,0.050050860777048456],[-73.17466975933905,0.0538632313736116],[-73.17937735829491,0.05565506826201272],[-73.18024741655199,0.06286593950301267],[-73.18559618565479,0.06272904969000592],[-73.18609137661377,0.05730969343488823],[-73.18728260924195,0.0601572831330941],[-73.19011299103988,0.06171943692538662],[-73.19398880419857,0.057770176515759886],[-73.19769601757605,0.06424669968913577],[-73.2007106818752,0.06314491482066842],[-73.19932981061726,0.05616376781352983],[-73.20198397598875,0.05717457665679149],[-73.20585977166394,0.054097909615109074],[-73.21745668490911,0.05515643921967239],[-73.21973823115786,0.04822160400760822],[-73.2142075655405,0.0439494414435444],[-73.21379559409326,0.04101005090922172],[-73.21808343217822,0.03706074730501996],[-73.22205016685461,0.03756663098090485],[-73.22562048219157,0.04284891538867441],[-73.23238053051227,0.04702958873474472],[-73.23722529593215,0.047994593833550425],[-73.24120098320071,0.046617625515011696],[-73.24413018804034,0.057227251425729264],[-73.25012005118538,0.06067296272397016],[-73.26180814305894,0.05851646891483142],[-73.26042719261096,0.053647758267743484],[-73.26284566363978,0.05167304681600626],[-73.2630287572614,0.04873389796568972],[-73.26613434102143,0.04923951527496229],[-73.26649252801025,0.043957763600417366],[-73.26808806298982,0.041937272058362396],[-73.27201659205508,0.04235127776490799],[-73.27494699503023,0.04607186500891203],[-73.2777775753176,0.045245577265461634],[-73.28262224509234,0.04960966202185091],[-73.2859108957345,0.04979391778351783],[-73.29015282414537,0.046166086798734796],[-73.28758843357826,0.04318032276279382],[-73.28794777550803,0.037347376291904766],[-73.28620751912575,0.03174402241421603],[-73.29031244459497,0.02508487150367955],[-73.29534025015744,0.02623387422511314],[-73.29355500455716,0.02807072295723856],[-73.29630236944655,0.033950269187073445],[-73.30461886678887,0.0357885639093638],[-73.30334439202329,0.040932459034934254],[-73.30809712417908,0.046077319868061295],[-73.30992834630217,0.04635315946444507],[-73.31403329748247,0.042266104212387745],[-73.32138080965336,0.04263469184047608],[-73.32257882280305,0.0464010499187566],[-73.31800789048816,0.0482833414120023],[-73.31829079651311,0.05168228428669863],[-73.31993120552505,0.05292261167534207],[-73.32473001807631,0.05260194021269626],[-73.3234478310203,0.04915685626440336],[-73.3264996231228,0.04548297059517381],[-73.32526459427004,0.04111949673364279],[-73.3226091783124,0.03859309683309675],[-73.32443261923942,0.03409231149709058],[-73.32589790711614,0.034230226667318675],[-73.3264008782428,0.03822634394651914],[-73.33019250823912,0.037767464207490775],[-73.33416047498969,0.03501249295720754],[-73.33855501912814,0.0406165955410529],[-73.34777880948894,0.041260988826877565],[-73.3508001679204,0.046451378810274946],[-73.35097653141418,0.042134288734757774],[-73.35723273648898,0.04351303214514246],[-73.35641636807361,0.047922077323107715],[-73.35961298648004,0.05072424894279948],[-73.36381680286809,0.04686694466414565],[-73.3662352738969,0.048520649380975556],[-73.36947792950428,0.047878366459201516],[-73.37135523202289,0.05035868596422688],[-73.37244546028279,0.046776332707622714],[-73.3749560334814,0.048338530722901396],[-73.3818456233933,0.041450128662063435],[-73.38427201240108,0.045216824069484574],[-73.39422114578679,0.0436567292191512],[-73.39573132620791,0.0465047498348099],[-73.38824671647859,0.047973259821958436],[-73.38711034714504,0.05325487162832587],[-73.38816236979386,0.05435732704131624],[-73.39171826945199,0.05252082386590473],[-73.3961129935679,0.05674701916314007],[-73.39730312267722,0.05996236859317605],[-73.39341927943934,0.06069649348881967],[-73.39638792916332,0.06336088877804968],[-73.3943814912883,0.06547347323385111],[-73.39483841595808,0.06726454187565878],[-73.40580272186867,0.0642811566273167],[-73.41699485556512,0.06717642080690212],[-73.42287726292204,0.06492677375973699],[-73.42183300398585,0.06805005701551181],[-73.42306803283861,0.0715867073150207],[-73.41868903155193,0.07397427056082506],[-73.42065721342215,0.07801654639712297],[-73.41792634269382,0.08903940873943839],[-73.42117568626287,0.09335724237888599],[-73.42040540647054,0.09914414239290181],[-73.42181673608206,0.09937422041093669],[-73.42373234705605,0.09501098926187979],[-73.42875257813938,0.09083238308528507],[-73.43327748250937,0.09312967993122356],[-73.43669529421896,0.09046629354406832],[-73.44191411652423,0.09657580466335958],[-73.45779869507601,0.0920314030801137],[-73.45611990767458,0.09960949412061382],[-73.46557298312422,0.0998869360304866],[-73.46538987407598,0.1022290997097457],[-73.46133083976883,0.10576514734196962],[-73.46531325613677,0.11508975900812857],[-73.46759480135711,0.11600859629390925],[-73.46918925030133,0.1145391216276721],[-73.47283641703393,0.1078800324236795],[-73.4806184430837,0.11881279291691271],[-73.48010769076092,0.1155055223229624],[-73.48508962161645,0.11619545401509868],[-73.48329653722726,0.11017837108187223],[-73.48439590731272,0.1065039855895975],[-73.49466529255653,0.10645987774688592],[-73.49563425201688,0.11155825194964564],[-73.49133816890821,0.11334870146913545],[-73.4910709024087,0.11495639263921476],[-73.49367356852105,0.11752896035284266],[-73.49696124625655,0.11628920992046687],[-73.50064657437724,0.10613922376774099],[-73.50388940173451,0.10641539143728096],[-73.50604066591342,0.11045772692324363],[-73.50663575463648,0.10614015450818215],[-73.50927564419737,0.10315514843443907],[-73.508680605868,0.09994001394886709],[-73.51014584232263,0.10035349412129335],[-73.51123620839383,0.0976438977549492],[-73.51324265449637,0.09805766074907751],[-73.51457104433257,0.09594500841603804],[-73.52173473268772,0.09599198458499814],[-73.52036151201366,0.09236337095541103],[-73.52230746204197,0.09017721892092823],[-73.52506961902014,0.09222644720381368],[-73.52721307732037,0.09139984784223998],[-73.52716714193525,0.08717412665697566],[-73.52903553505632,0.08790946820010959],[-73.53182018098704,0.0862563137000052],[-73.53383452964192,0.08823174197618755],[-73.53607006337239,0.08768095752844829],[-73.53816090655334,0.07950564066129573],[-73.54261071816438,0.08258636696564281],[-73.54475764025898,0.07891647062496077],[-73.54662935010714,0.07961228706517431],[-73.54733344756653,0.07741080609491746],[-73.5496498292203,0.07691345334978905],[-73.55251759901762,0.07342903456043359],[-73.55873135307058,0.07733100923991287],[-73.56493736912205,0.07521523455540091],[-73.5727927560335,0.07755446923039244],[-73.57616583152202,0.07295935000433929],[-73.57794772337127,0.07438258898025651],[-73.58018336920196,0.07295739390667677],[-73.58333513825858,0.0744261538053479],[-73.58657577811863,0.0732302273655705],[-73.58876863354146,0.07483714411847586],[-73.59501845713044,0.07088385118578344],[-73.59776147479334,0.07359289527852297],[-73.59990059923678,0.06844672626652937],[-73.60419436629286,0.07019068812724072],[-73.60743491050772,0.06945432225541026],[-73.6081591520707,0.06380333709091701],[-73.61300087638608,0.06582257084772891],[-73.61792912459896,0.06329366154744775],[-73.61934614355454,0.06522270706608424],[-73.62377583368766,0.06650690061343312],[-73.62491994102271,0.06926288076584797],[-73.63126853520271,0.07151103759980515],[-73.63761597444181,0.072840477475836],[-73.64249878914956,0.07058709923921924],[-73.64898437701532,0.07260580746191181],[-73.65291878157274,0.08114896222247125],[-73.65205745170732,0.08611068726781923],[-73.6603826877257,0.09947548188978317],[-73.66559044810322,0.10379151164107725],[-73.66891422005733,0.09570448656421604],[-73.67324964726299,0.09414093717543892],[-73.67976684739483,0.08348018224489806],[-73.69017461369333,0.08269470207210361],[-73.69377742164318,0.07901767142567451],[-73.7096564064961,0.07023608872225395],[-73.71444824929245,0.06963672476365446],[-73.72691706479213,0.07422557974626898],[-73.73682362579973,0.07311864340920238],[-73.74038811706669,0.07642488041835804],[-73.74577617781597,0.07669793704928907],[-73.74947766276858,0.08000427793120934],[-73.7620313587147,0.079585215372731],[-73.77998768741207,0.0919809435764023],[-73.7863796139892,0.09252947882038143],[-73.79039727199694,0.09069006412420322],[-73.79532893361056,0.09234189913252067],[-73.80218513410767,0.09982692229573331],[-73.81616043277762,0.10423125515012543],[-73.82133175543669,0.11520871792583876],[-73.82654079005454,0.11993826281661768],[-73.82896775601859,0.12590929003692963],[-73.84166746817658,0.13261123855443202],[-73.84098695496101,0.13665433200253574],[-73.84300198444481,0.14234981273261837],[-73.85187813243789,0.1592980795566632],[-73.85872939641092,0.16232721815583773],[-73.86201603027723,0.16149886221444376],[-73.86617354309777,0.16439122310083576],[-74.2629679699786,0.1637517642822104],[-74.27149404642267,0.16943581490210136],[-74.28709505046191,0.17255601591563163],[-74.3011359545086,0.17099591489466093],[-74.30657326634162,0.1748826891936801],[-74.29957585348757,0.19387738693700385],[-74.2840450365365,0.20339489431046331],[-74.27617434742876,0.2021979229730846],[-74.2673337794331,0.19543748795797455],[-74.25922995680457,0.18863750418586278],[-74.25329287538642,0.17983648391879115],[-74.24653244037137,0.1735960818917306],[-74.22989136932762,0.17203598189917102],[-74.2205307673155,0.17203598189917102],[-74.21741056733038,0.17723631692172148],[-74.21949070031098,0.19803765495504422],[-74.21793060031843,0.2021979229730846],[-74.20804996428978,0.2099984249927047],[-74.20076949628668,0.2110384919972148],[-74.19483553927694,0.20682449917040913],[-74.18360839225494,0.19439742095346446],[-74.17788802424434,0.1928373209609049],[-74.17216765623374,0.19439742095346446],[-74.16434513834514,0.19303977089919044],[-74.16072691918413,0.19959775597601492],[-74.15552658416158,0.20323798997759468],[-74.14148568114337,0.20271795596113407],[-74.11548400808749,0.19335735394895437],[-74.11184377408597,0.19855768897150483],[-74.11321942702654,0.20782514185941636],[-74.13160504511478,0.2099984249927047],[-74.13680538013733,0.2151987589867872],[-74.13680538013733,0.22039909400933766],[-74.13116664269478,0.2271018292853455],[-74.12484461009967,0.22663949500793024],[-74.11340387407847,0.2307997630259706],[-74.10612340607537,0.23600009804852107],[-74.08896230204363,0.2568014360818438],[-74.08272190001657,0.2609617040998842],[-74.07700153200597,0.27032230611206387],[-74.06608082897287,0.28020294214064734],[-74.06296062898775,0.28748341014380685],[-74.0617922874332,0.2920610365910079],[-74.0707611299789,0.29476388020378863],[-74.07544143201346,0.2978840791604398],[-74.07673210577713,0.3095581523340343],[-74.0931225690332,0.3186854182222305],[-74.10354558713425,0.32069896057817004],[-74.10664343906342,0.31608525122516085],[-74.10924360606049,0.30100428120243805],[-74.11340387407847,0.2968440131843977],[-74.1222444431026,0.2952839131918381],[-74.12744477915362,0.2978840791604398],[-74.13056497811027,0.30464451417554983],[-74.1285049892333,0.31550999498762167],[-74.11849618355575,0.33033372376849],[-74.11548400808749,0.3379266562629937],[-74.11340387407847,0.35508776029473665],[-74.10976364007695,0.36236823035471843],[-74.11376604319679,0.371191016579246],[-74.12459843078551,0.3712085607801896],[-74.14252574814788,0.3743289993639678],[-74.14668601616592,0.3758890983280594],[-74.15344645118103,0.38212950035511994],[-74.14720604915397,0.3914901033957108],[-74.1576067181706,0.40969127340349587],[-74.1576067181706,0.4159316754305564],[-74.1527505545223,0.4296315191416511],[-74.16390623815897,0.4507841937082162],[-74.16852742120375,0.4564942855211598],[-74.17299849997761,0.46069834256473996],[-74.18048819124141,0.4564942855211598],[-74.19424296509584,0.4532192915672226],[-74.20961006428234,0.46429478754072306],[-74.22172514286393,0.4708887146267102],[-74.22417100131707,0.47781565654247515],[-74.2205307673155,0.4856161595905064],[-74.21533043229294,0.48821632555916494],[-74.20301681082623,0.48630675154277014],[-74.20180956226272,0.49861699560426587],[-74.18776865924451,0.5157780986075409],[-74.18797141257335,0.519961620739366],[-74.19088886025804,0.5235786016555721],[-74.20388969627174,0.5246186686600822],[-74.20752993027332,0.5220185006346014],[-74.22001073329903,0.5199383676540492],[-74.22058367245552,0.5341074722028338],[-74.22521106832158,0.5370994716857922],[-74.24029203937272,0.5376195057022528],[-74.25537301042391,0.5344993046887225],[-74.25693311041647,0.5381395386903023],[-74.24029203937272,0.5459400407098656],[-74.2382119053637,0.552180441708515],[-74.23885296135359,0.5596199861150808],[-74.24549237439527,0.556860743743016],[-74.25589304341196,0.556860743743016],[-74.26152541068154,0.5623899541142237],[-74.25845197192086,0.5625033614991821],[-74.25560940719282,0.5676633754043792],[-74.245465693511,0.5758152180709999],[-74.2448991882909,0.5799382338440751],[-74.23913763629963,0.5863022495196901],[-74.23917471062401,0.5909807476660376],[-74.24163521409855,0.5930721606041516],[-74.23964135818932,0.5965834947626263],[-74.22292860675896,0.6034384847828846],[-74.20892798577728,0.619711537955709],[-74.20323711349818,0.6227990118713933],[-74.19591107315011,0.6236996272126021],[-74.19265572244831,0.626138973567663],[-74.1903804517558,0.632134386188568],[-74.18681292761187,0.6329604127076323],[-74.1829034874682,0.6401043189709412],[-74.18232555625167,0.6598792569723742],[-74.17622119762945,0.6681004403189377],[-74.16997231917912,0.6712483619721183],[-74.16302923071584,0.6708091573669321],[-74.15811988424798,0.6683571519129146],[-74.15403360032781,0.6690790023470186],[-74.15046778237001,0.6721991673650791],[-74.11999682105875,0.6808327037110757]]]}}]}