{"type":"FeatureCollection","features":[{"type":"Feature","properties":{"code":"183019"},"geometry":{"type":"Polygon","coordinates":[[[-74.92952898669603,1.4257636052906832],[-74.92643369044652,1.4211445151264002],[-74.91533909423856,1.4182069346509252],[-74.90763510846398,1.4180102378201696],[-74.90716826549459,1.4145335056102226],[-74.91170505248937,1.404809321399739],[-74.91024003920683,1.400360872475062],[-74.89679516387963,1.4079823637898699],[-74.87611044711417,1.4118932211274],[-74.87130560171909,1.4064415614927839],[-74.87511947075643,1.395906564513382],[-74.87031436002314,1.3878539367250369],[-74.86625049203616,1.388102350844747],[-74.85492544654238,1.394550173272762],[-74.84174952847428,1.3908368221503338],[-74.83731566080769,1.3877967882311282],[-74.8343085689308,1.3804898861699257],[-74.83377631598876,1.3635061977286682],[-74.82095387464278,1.3633126530741606],[-74.81901841164284,1.3621997610264884],[-74.8180022939793,1.3585707689300648],[-74.81945389122922,1.3550869353245503],[-74.82390545530626,1.3521353546610726],[-74.83624403193068,1.3485547476998363],[-74.83963109115211,1.3450709151227898],[-74.84051051234985,1.3390078443538869],[-74.85041059828342,1.3366524230220875],[-74.85070387100893,1.3296860063971394],[-74.84687285680639,1.3312036358274213],[-74.84483241656477,1.3300201226888362],[-74.84143092623799,1.3308994986351195],[-74.83706417781542,1.3333568777013625],[-74.81966006412938,1.3188442805503655],[-74.82168944758541,1.2937481573029004],[-74.82064938160937,1.2745069192621372],[-74.80816857858372,1.275026954307009],[-74.79672784256252,1.258905917279776],[-74.78320697150389,1.254225615245275],[-74.77984301110149,1.2459390157554253],[-74.77280630248725,1.2459050792091944],[-74.76916606951414,1.248505246206264],[-74.76396573449159,1.2479852132182145],[-74.76396573449159,1.2433049122121247],[-74.77956673853078,1.230304075170011],[-74.78736723952193,1.217823272144301],[-74.78788727250998,1.212102904133701],[-74.77280630248725,1.1866212650943453],[-74.77488643649627,1.1798608300792353],[-74.78060680450682,1.1736204280521747],[-74.78216690449938,1.1637397920235344],[-74.7712462024947,1.1512589889978813],[-74.77748660349329,1.1382581529841787],[-74.77956673853078,1.128897550971999],[-74.7722862694992,1.124217249965966],[-74.76864603549762,1.129937617976509],[-74.76760596849311,1.1418983869857584],[-74.76136556646605,1.1444985539827712],[-74.75564519845551,1.1439785209947786],[-74.75252499949886,1.1330578179616282],[-74.75304503248685,1.120577014935975],[-74.75044486446137,1.1112164129237954],[-74.74420446243431,1.1049760108967348],[-74.74680463148826,1.096655474860654],[-74.7535650654749,1.0935352748755918],[-74.76760596849311,1.0935352748755918],[-74.77785305401784,1.0845482309541694],[-74.79360764052058,1.0644134018345994],[-74.79048744053546,1.0571329317746176],[-74.78164687151133,1.054532765806016],[-74.76240563347056,1.0644134018345994],[-74.74368442944626,1.0633733348300893],[-74.73172365940866,1.055572832810526],[-74.72496322542202,1.0368516277577555],[-74.71999258378003,1.0285516667427146],[-74.72444319243397,1.0233307566991243],[-74.73692399443121,1.0228107237111317],[-74.7431643954298,1.0170903557005317],[-74.7348438614506,1.006689686683842],[-74.71196238940826,1.0014893516612915],[-74.70589318500822,0.994286705903562],[-74.71196238940826,0.9921287506776366],[-74.72184302338002,0.979127912606998],[-74.7182027904069,0.9702873446113358],[-74.7124824223963,0.9650870106172533],[-74.71569480168438,0.9596316691583979],[-74.72184302338002,0.9583265756021433],[-74.72652332541452,0.9510461055421615],[-74.72444319243397,0.9432456045509525],[-74.72028292338746,0.9375252365404094],[-74.72132299039197,0.93128483554176],[-74.72652332541452,0.926604534535727],[-74.73224369342512,0.926604534535727],[-74.73960074851419,0.9290706512495603],[-74.74212432945376,0.9224442654892187],[-74.73900412844023,0.9167238985070867],[-74.73159462278272,0.910355006985526],[-74.72080295740398,0.9156838315025766],[-74.71456255537692,0.9214041995131765],[-74.70443948459331,0.9217208507940313],[-74.70312181935572,0.9136036974935564],[-74.70520195336474,0.907363296494907],[-74.70208175337967,0.8995627944753437],[-74.69272115033908,0.8980026944827841],[-74.68652252467558,0.8946866276199898],[-74.68804084933299,0.8886420914421933],[-74.69272115033908,0.8824016904436007],[-74.68960094932555,0.8792814894300705],[-74.68076038030142,0.8839617904361035],[-74.66359927626968,0.8714809874104503],[-74.6532233248405,0.8708231431248805],[-74.65267857323653,0.8590001854132083],[-74.649038339235,0.8485995153681074],[-74.65319860725305,0.8439192143620176],[-74.65787890825908,0.8428791473575075],[-74.66671947728321,0.8449592803381165],[-74.67536457846535,0.8350455706265052],[-74.67608007929533,0.830918378348315],[-74.67847049338383,0.8144019452818725],[-74.66812354506214,0.8071880884722873],[-74.66619944326675,0.8023165382954289],[-74.66619944326675,0.7903557672293005],[-74.64591813924989,0.8038766372595205],[-74.62771696718517,0.8028365712834216],[-74.62199659917462,0.8049167042640306],[-74.61835636517304,0.8127172073120619],[-74.61835636517304,0.8179175423346123],[-74.61140090043244,0.8232681101833919],[-74.60327539515032,0.8163574402851737],[-74.60327539515032,0.8116771392791406],[-74.61367606416695,0.7924359012383206],[-74.61211596314598,0.7856754672516786],[-74.60743566213989,0.7835953322142473],[-74.59963516012033,0.7841153662307079],[-74.58712112708838,0.7948489986550271],[-74.58244786577137,0.7941771315557276],[-74.58559425710206,0.7711145291885373],[-74.57727372209445,0.7586337261628842],[-74.57051328707934,0.7555135251493539],[-74.5663530190613,0.7513532591881926],[-74.56063265105075,0.7362722871085907],[-74.56167271805526,0.7315919861025009],[-74.56687305204935,0.7315919861025009],[-74.5721219737818,0.7336821361132024],[-74.57415352108092,0.7237914851113487],[-74.56687305204935,0.7196312170933084],[-74.55959258404624,0.7201512500813578],[-74.55179208202662,0.7232714510948881],[-74.54701611941124,0.720362960116006],[-74.55075201502211,0.7123507480617377],[-74.55855251704173,0.7061103470630883],[-74.55751245003722,0.7003899790525452],[-74.54503164701151,0.6977898110270075],[-74.55016130849265,0.6869766676547329],[-74.54451161402352,0.6806287069952646],[-74.53307087697391,0.6749083389847215],[-74.52111010796466,0.6759484059892316],[-74.51559191941197,0.6730554126106654],[-74.51798990695113,0.667627870981562],[-74.52215017496917,0.6650277029560812],[-74.52215017496917,0.6582672679409711],[-74.51018940493157,0.6593073349454812],[-74.50446903692097,0.6634676029635216],[-74.5018688699239,0.6723081719876518],[-74.49666853490135,0.6712681049831417],[-74.49458840089233,0.6671078369651013],[-74.49776481657392,0.6506473429441257],[-74.52422154150577,0.6312565878731107],[-74.5205900739482,0.6265452268745548],[-74.50914933792706,0.6270652608910154],[-74.5075892379345,0.6327856289016154],[-74.50498907093743,0.6359058299151457],[-74.50030876890293,0.6379859628956979],[-74.49498812358922,0.6353362506803251],[-74.48886803288178,0.6270652608910154],[-74.48626786588471,0.6177046568219566],[-74.48210759786667,0.6119842888114135],[-74.47267311871462,0.611415750360436],[-74.46494649383493,0.6192647588713953],[-74.4603351447575,0.6213575838610836],[-74.45662595882726,0.6145844578653623],[-74.45662595882726,0.6104241898473219],[-74.46130625880488,0.5989834538261221],[-74.45558589079434,0.5911829518065019],[-74.44934548979569,0.5896228518139992],[-74.44206502179259,0.5943031528200322],[-74.43322445174005,0.5963832868290524],[-74.42386385075633,0.5953432198245423],[-74.41294314772318,0.5896228518139992],[-74.40781757635796,0.5897932194878877],[-74.4093029137216,0.580782282789869],[-74.40892342871666,0.5589457268584965],[-74.4117889379973,0.5571220493897613],[-74.41923697939598,0.5555298218813505],[-74.42779386180729,0.5583456347626452],[-74.43510798970561,0.5585332401615801],[-74.43977425349976,0.5576922014670345],[-74.4421732221731,0.5531560778176754],[-74.4461725574489,0.5536270726095154],[-74.44985774261608,0.5510202248498786],[-74.45218794550885,0.5549496363188382],[-74.45595035231099,0.5553739645029623],[-74.45813692189319,0.5596600418943467],[-74.46281674981566,0.5594780157960599],[-74.4694567459843,0.5542919977218048],[-74.48185969488287,0.5528468868588448],[-74.48447064818504,0.5512277182702405],[-74.47888049642398,0.5445325657008766],[-74.48054380679395,0.5420478609169663],[-74.48727244750853,0.5431777274084766],[-74.49497402055692,0.5477515609596821],[-74.49880600869454,0.5468709251712767],[-74.50289358639537,0.5498657189325513],[-74.5093963646778,0.5485668628801363],[-74.50928638406333,0.542838036958301],[-74.5238911039529,0.542909219578803],[-74.52706697147465,0.5491344356236141],[-74.5307356552816,0.5523729445507115],[-74.53143641441659,0.5571441218230575],[-74.53584969266399,0.5636358494906517],[-74.54142495154895,0.5669635521520604],[-74.5460463875906,0.5677289159891643],[-74.55004658470125,0.5720483128612841],[-74.54567546436954,0.579599766212084],[-74.54626687023995,0.5838220102331775],[-74.55343302788555,0.5879988351473457],[-74.55403977708988,0.6011505303088143],[-74.55510236698558,0.6036002711323931],[-74.55982532264511,0.6044691579934351],[-74.56855033586783,0.6022899078366777],[-74.58027435638076,0.5841274103528917],[-74.58504646850736,0.5805183474156479],[-74.59170984837351,0.5807519190529433],[-74.59512467554293,0.578054315354791],[-74.59512882633692,0.568306300074255],[-74.60391308299091,0.566699069646404],[-74.61002320809035,0.5690886239569295],[-74.62384950189443,0.566425299276375],[-74.64267190157727,0.5747176025084286],[-74.65276965827667,0.5763195765665614],[-74.65490618384587,0.5801527340433381],[-74.65459729833447,0.5864532032841794],[-74.65708511004323,0.5911653243017554],[-74.6625547900477,0.595569018493336],[-74.66856805848761,0.5971387611629098],[-74.67895305815404,0.5936041389520597],[-74.68318953993338,0.5961683978785572],[-74.6887582723221,0.5955885763846709],[-74.68883608736837,0.5966176709359843],[-74.69319207211151,0.5950747922133814],[-74.69977007067979,0.5964022060576326],[-74.70677294250669,0.6061815024457928],[-74.70728455460738,0.6119220988923075],[-74.71344277584967,0.620174387482848],[-74.71535233032563,0.6253060564837369],[-74.72327451252181,0.6225231671328402],[-74.72814606578402,0.6170504326540822],[-74.734320994075,0.6146148318866835],[-74.73679166267544,0.6174150648922136],[-74.73561322695758,0.6170495101411575],[-74.7357499625042,0.6201507178782322],[-74.73748057929481,0.6218833061931832],[-74.73989345662477,0.6206514480286387],[-74.74166956657018,0.6226124688536174],[-74.74298975149196,0.6201950149544473],[-74.74813531886502,0.6245265032251837],[-74.74854474080331,0.6207871746731826],[-74.75013805948919,0.6208327233638897],[-74.75428234653896,0.6276269180331155],[-74.75551271449024,0.6336007549584224],[-74.76061244109496,0.6354697250357049],[-74.76243417583578,0.6387526205135146],[-74.76507520182571,0.6388896224267455],[-74.76653287202868,0.6442700058526043],[-74.76981116625467,0.6444978860890274],[-74.77349959615793,0.6471424540349062],[-74.77409071406447,0.6381587278690972],[-74.7760486145948,0.6392985023758229],[-74.77664001840827,0.6370178776115267],[-74.77841610058573,0.6387504494713312],[-74.77828021967485,0.6429463993025593],[-74.78041987787998,0.642900352845686],[-74.78205959680696,0.6452716296757899],[-74.7838806702593,0.6436295412171944],[-74.78447264691528,0.6455448518859157],[-74.78779621318091,0.6445863701979988],[-74.79253271137156,0.6500583981367072],[-74.79581094491937,0.649920569355686],[-74.79899908381725,0.6562591845579391],[-74.79594847236677,0.657536399094397],[-74.80136760442139,0.6628709345527568],[-74.80514666273638,0.6629619846258379],[-74.80410114601494,0.6734501874706211],[-74.80637775368274,0.6731763019149639],[-74.80933597911331,0.6661535019574103],[-74.81270563400199,0.665286595876637],[-74.81571068133513,0.6670641620966649],[-74.81471025359065,0.6747258932819022],[-74.81707867135049,0.6804711855969003],[-74.81334634854892,0.6882695412569433],[-74.81730788753379,0.6884515118193235],[-74.8205411771151,0.6921902284480552],[-74.82299959387979,0.6912781284892731],[-74.82281730347177,0.6887241807274336],[-74.82436521539205,0.6891342135605782],[-74.82559533960244,0.6925996915240376],[-74.82386562886973,0.6969778916540008],[-74.82778158728212,0.6998047932024747],[-74.83160620868597,0.6971591392212986],[-74.83210725971043,0.6985726419318894],[-74.82669003953043,0.7064170080533358],[-74.82395823909008,0.7071471189377689],[-74.82373164234997,0.7125739704819694],[-74.82145501719862,0.7121183035974354],[-74.82086307242434,0.7146266203931191],[-74.82719369971358,0.7240652359409978],[-74.82728526812167,0.7275308959387417],[-74.83024600089516,0.7324095742507097],[-74.82605767490833,0.7363320643015072],[-74.82341682992433,0.7374272383415246],[-74.81790725149239,0.7364701779611664],[-74.81781656240264,0.7377927056749627],[-74.8263320592585,0.7451787453595102],[-74.8278344307156,0.7448591846147679],[-74.83015798267064,0.7501029960163805],[-74.83434717049226,0.7516983407340376],[-74.8373987373659,0.7584924078763606],[-74.83676248831637,0.7643296717489534],[-74.84040517206802,0.7645116022021057],[-74.84118007162414,0.7681138578782907],[-74.84295520763447,0.7675664261531665],[-74.84454944163423,0.7690712638153627],[-74.84618930762849,0.7745887777098233],[-74.84304858507295,0.777826687054926],[-74.84327656918208,0.7812470924965851],[-74.84773940704599,0.7838906505119212],[-74.84883349607912,0.7918707453347906],[-74.84409928103088,0.7976635414097473],[-74.8324441641098,0.8036849047207397],[-74.83044141422965,0.8093398535027063],[-74.8254784231716,0.8107090581087277],[-74.82033428636203,0.8162278740113607],[-74.8222477520049,0.8227485924450662],[-74.82165646954763,0.8251195679414991],[-74.81960771846207,0.8254850877255535],[-74.82256804500076,0.8301359207681003],[-74.8205652251865,0.8325988534239173],[-74.82006520980366,0.8368400485553025],[-74.81259778946259,0.8395774848606834],[-74.81132502088315,0.8491083763850611],[-74.80945750708042,0.8482880937174855],[-74.80909420873223,0.8511151587883319],[-74.80636205553611,0.8508878822476618],[-74.80800149061298,0.8536236884716004],[-74.80659043559558,0.8558128754399945],[-74.80941390728827,0.8581380543910768],[-74.80736628234729,0.8645685043680373],[-74.81009876361662,0.8664375958015853],[-74.81073701401527,0.8714992371229187],[-74.82143831837743,0.873868602078403],[-74.8252183927936,0.8781999268267668],[-74.82567454304615,0.8820758695692348],[-74.8274049078683,0.8819844574844069],[-74.82849797154427,0.8840816358712686],[-74.8306380339273,0.882941258697258],[-74.83186764288803,0.8858595815865442],[-74.8344179551055,0.8864061525053444],[-74.83032027501383,0.8886416594963293],[-74.83050242658209,0.8898274094973999],[-74.83564818421706,0.8923797816852925],[-74.83464711883818,0.8952075872347223],[-74.83751630994306,0.895981874867573],[-74.83883714998274,0.8999033992108707],[-74.84261726759348,0.901590164240929],[-74.84316418406894,0.9046454201378538],[-74.84885608890437,0.9059660812284847],[-74.85199914602447,0.9112554557190151],[-74.8539111574496,0.909886776647113],[-74.85727488336715,0.9122671017145194],[-74.85782898351363,0.9173191013872497],[-74.85555268643543,0.9194627314373633],[-74.8582864943956,0.9271688553438935],[-74.85546379814855,0.9287655267524428],[-74.85719558530673,0.9375665747874109],[-74.85974566406782,0.9372924660597732],[-74.860474240516,0.9385690439903556],[-74.86152103353459,0.9346922651241698],[-74.86612157162426,0.9416683563079005],[-74.87076601186811,0.941622084622054],[-74.87286083717851,0.9443118207349812],[-74.87573004576694,0.9446304579383309],[-74.87595813169185,0.9477767299696893],[-74.87950975919978,0.9465901520724174],[-74.88074086660123,0.9533391631480299],[-74.88470258762038,0.9557096912719771],[-74.88443026324052,0.9582631566942155],[-74.88611492613404,0.9594485292568606],[-74.88497735763656,0.9614093495355291],[-74.88748159048703,0.9617738028246663],[-74.88821157898678,0.9670178641378016],[-74.89176361067263,0.9676550634682144],[-74.89458747934412,0.9710747788249137],[-74.89741047692485,0.9708005590254629],[-74.89540817544565,0.977595540453251],[-74.89759465452488,0.980148392923752],[-74.89732239905067,0.982884510765814],[-74.89290617534385,0.9864884736566069],[-74.8929078301079,0.9931913950807143],[-74.902926949007,0.9986614329831696],[-74.90288211714073,1.00107809395314],[-74.90597759542453,0.9993903015090382],[-74.90871120489527,1.0051350528632952],[-74.91176243649659,1.0060917080373315],[-74.91276486250496,1.0091014862060774],[-74.91763779490856,1.0108330573913236],[-74.91659097823577,1.0123836134372937],[-74.91873090177904,1.0129301308770664],[-74.91900543216815,1.0170800033981209],[-74.91723043294064,1.0207738439375476],[-74.91777741729334,1.0234186875060232],[-74.91968977118984,1.023190375323793],[-74.92278712740972,1.026290101075233],[-74.92893422398924,1.026698730084263],[-74.93144143623766,1.0361374577323659],[-74.92930209684977,1.0398319461905885],[-74.93435653598817,1.0401950799879387],[-74.9338564599272,1.0430227569821113],[-74.94273917452574,1.0558794104969138],[-74.94219366393116,1.0587070874910296],[-74.94579096559977,1.0587060703613815],[-74.94679337515305,1.061350740123146],[-74.94993534726626,1.061213049153423],[-74.94950560844603,1.0721779073376183],[-74.9502149283365,1.0730508606603735],[-74.95095267952041,1.0708724795375701],[-74.9527906492549,1.0737554497152928],[-74.95265100115904,1.0783920573409773],[-74.95099149808328,1.0791984056408523],[-74.95308374817364,1.0837355443630372],[-74.95098462191663,1.0843063700701805],[-74.95503515203256,1.086462925585863],[-74.95334898864144,1.0882402850889434],[-74.95434123923945,1.0907504777637769],[-74.95165418530468,1.091218043728304],[-74.95106796895521,1.0951546285838276],[-74.95288092388233,1.0968880098279215],[-74.95361176701783,1.0941698578482146],[-74.9552564852039,1.0947430551438515],[-74.95768375250162,1.0983379255743557],[-74.95609141392146,1.0984197741721573],[-74.95660855081536,1.1003841106958134],[-74.9596750352477,1.1012031798012458],[-74.95876406349032,1.1023931700707976],[-74.96017392859972,1.102242923874769],[-74.96249780759945,1.105849119514346],[-74.9625889965123,1.108583917864621],[-74.96572832347135,1.108770593551526],[-74.96396443039458,1.1116743115286454],[-74.96582155281408,1.1126091328679877],[-74.96700595247012,1.1113609121829882],[-74.97096008872569,1.1196143474869586],[-74.97173337568398,1.1180045171564075],[-74.97347298723281,1.1204279339653453],[-74.97511496461959,1.1193005604185373],[-74.97269879524515,1.1243187315315026],[-74.97557985869042,1.1266491575962618],[-74.97514915519116,1.128327230230127],[-74.97707350381273,1.1287103888317915],[-74.97663548397338,1.13233087879388],[-74.9780309436884,1.1308926811215656],[-74.97846764506448,1.132357425980615],[-74.97945824912608,1.1310928859697924],[-74.98270858308524,1.132629638260255],[-74.98342451071892,1.13086503967196],[-74.98759548173825,1.1390431826991403],[-74.9908727938016,1.1368742210813139],[-74.99483182544355,1.138830105864315],[-74.99697400744662,1.1426085255164935],[-74.99474050694698,1.144650577327468],[-74.99805429272425,1.1462331179357648],[-74.99704962573969,1.149273967409897],[-74.99941158899435,1.1486283852444785],[-75.00006146285034,1.1510752371730746],[-75.00281551055929,1.1527104772329153],[-75.00160465216254,1.1551879613219285],[-75.00257510286457,1.1594030412124425],[-75.00108283688365,1.1580940909967126],[-75.00182376081273,1.1609783950644328],[-75.00535773201949,1.1590946832920395],[-75.01076000995812,1.164834822081616],[-75.01289284444715,1.1643045879721967],[-75.01350189222052,1.1671459741051535],[-75.00834149676314,1.1694818200620034],[-75.00841371193997,1.172197310432466],[-75.01150147587646,1.1725105123171033],[-75.01277958824323,1.176579696323472],[-75.02059357314425,1.1741096561014501],[-75.02344933896046,1.1810950104669473],[-75.02776139789518,1.1837881651227917],[-75.02803145455925,1.1854083693530129],[-75.0260384244894,1.1846851264077145],[-75.02797107161365,1.1880227175439586],[-75.02617430745715,1.1895803400184377],[-75.02682601605466,1.1907064382965586],[-75.02338426734542,1.191075560714694],[-75.02308990344238,1.1940698721364242],[-75.02180473390302,1.1926625051139013],[-75.0208786512398,1.1970466486131386],[-75.0232902697561,1.2005050786600577],[-75.02487618879809,1.1993952050911503],[-75.02491215343298,1.2013431893786901],[-75.02737821358244,1.2013248954431788],[-75.02397902182463,1.2047683174283748],[-75.02425841983217,1.2104858983597637],[-75.0215971705486,1.2111621106286634],[-75.01885222969815,1.2165981842169344],[-75.0205098383828,1.2183647471304084],[-75.01960453642909,1.2196801847615006],[-75.0215088777299,1.2205046285075696],[-75.02166203750357,1.2248341617091114],[-75.02322795539544,1.2261386135172074],[-75.02462962793174,1.223603993275674],[-75.02567642917785,1.225648825995222],[-75.02731230584362,1.2230909578105411],[-75.02853524535459,1.2247854258750408],[-75.03073822579404,1.2238482185490511],[-75.0295182327709,1.225951539823086],[-75.03295073578187,1.2277887155998997],[-75.03462803297009,1.2328274987578425],[-75.03689506789493,1.233435400846247],[-75.03606367084899,1.2356081286205267],[-75.03813349163647,1.239169431715709],[-75.04299012116923,1.238207528399471],[-75.04439616150091,1.2400861072152338],[-75.04684391125983,1.2390848608304736],[-75.04586630054104,1.237338967554706],[-75.04793230374986,1.2366023425153685],[-75.04776930589503,1.23924565164765],[-75.05046426341062,1.240106474490858],[-75.05221469520319,1.2438058490794788],[-75.05680821211575,1.2422352939402685],[-75.05851718224824,1.244561343982184],[-75.0632197572624,1.2432608300804304],[-75.06448899417023,1.2454379174225778],[-75.0684053752725,1.2455047990964658],[-75.06921754044328,1.247521448377256],[-75.07083818176159,1.2466703258038478],[-75.07038074904125,1.248662590712513],[-75.07599894025913,1.254223687943977],[-75.07522124950998,1.2571706694125169],[-75.0775775861556,1.2565707192417221],[-75.07844735336346,1.2581380347869526],[-75.08091859069259,1.2582099650851433],[-75.08099804301935,1.262040465066434],[-75.07952173538104,1.2630238556321842],[-75.08177140813928,1.2640034234771065],[-75.08059688358833,1.2685527543853254],[-75.08337712778507,1.269445665663568],[-75.08171909743902,1.2709631511119142],[-75.08539434476609,1.2788442501148438],[-75.08128138818927,1.2804333223615458],[-75.08148833859195,1.2854059211296658],[-75.08585687856134,1.2872166165685144],[-75.08343263488467,1.2878849735934637],[-75.08400283221346,1.2915367240943851],[-75.07997577321265,1.2929364230494684],[-75.07925559708292,1.2963077388728266],[-75.08542538110441,1.3006715840020888],[-75.08765016246838,1.3037704468902689],[-75.08644080868311,1.3042077601896267],[-75.09091221347319,1.305920616806361],[-75.0931658498489,1.309495895406883],[-75.09687807894056,1.311358783275125],[-75.0980976513307,1.3140217469724007],[-75.09661898958745,1.3175837895176983],[-75.10141674181449,1.3237463034790267],[-75.09994061621046,1.3253960075544455],[-75.10088818098109,1.3289435068941202],[-75.10774887062979,1.33345040220712],[-75.10748390372771,1.3362688592141012],[-75.11228178553853,1.339952042003688],[-75.11148914740579,1.3430058159149212],[-75.11328835822707,1.3435491904343735],[-75.1151624036682,1.3481718204977824],[-75.11387174635956,1.3488103814860892],[-75.11587870051272,1.350281122165029],[-75.11344007715275,1.3516266489389182],[-75.11296055245867,1.3582999378487557],[-75.10982285352412,1.3570597215319253],[-75.10763657190586,1.358991687827256],[-75.11016510068237,1.369611764770866],[-75.1073596030796,1.3757169770003657],[-75.11134888738667,1.3776174235894132],[-75.10919785563573,1.380687619670823],[-75.11125028751707,1.3821402412494876],[-75.11079663946515,1.3861867912929142],[-75.11665930483952,1.3872071481965236],[-75.11889658692229,1.3915745846471168],[-75.11681077385367,1.3970409170711378],[-75.11923552455255,1.3998846634796678],[-75.11817007044448,1.4031324304463055],[-75.12075591637944,1.4071374643221475],[-75.12034181605617,1.4103329452711932],[-75.12286267573683,1.4120503517175962],[-75.12225108565355,1.4180280051930936],[-75.12000448793844,1.42330507642572],[-75.11595469932956,1.4243354472741885],[-75.1111837349448,1.4312299634257784],[-75.10158429052746,1.4309913297943808],[-75.09843011800064,1.4346400823853287],[-75.09425975787616,1.4337569845055782],[-75.08896130943731,1.435338836057383],[-75.08729223259013,1.438769461132324],[-75.08307298236525,1.4401784829188387],[-75.08334934029665,1.4469114574902733],[-75.07647266556586,1.4465980334620099],[-75.07296223643681,1.4485007025153323],[-75.06794612323733,1.4474681194870413],[-75.06545178400387,1.4488306207047117],[-75.06577295631803,1.4500195249389662],[-75.06196348078714,1.4500556448686552],[-75.0580490742945,1.4530384963553615],[-75.04546814004834,1.449951490381011],[-75.0433507219127,1.446378958750472],[-75.04003901358931,1.447103770070612],[-75.03588929019242,1.4446178075014586],[-75.03513878529282,1.4424400115624394],[-75.03114153878374,1.4433895067196545],[-75.02985974767807,1.4411667092213065],[-75.0273622552399,1.4404839899966078],[-75.02649472078076,1.4420593345925568],[-75.02510607655427,1.4408188611650985],[-75.0218729762064,1.442699938067733],[-75.02241255885826,1.4467230159675637],[-75.01687164995343,1.4519195488381342],[-75.01468134506803,1.4525811839627636],[-75.01408595295442,1.4509164605128149],[-75.00568417715846,1.4539519476876421],[-75.00568183333797,1.4563521792883876],[-75.00289786926464,1.4569908071254645],[-75.00150089156841,1.4600160777523001],[-74.99893891372739,1.4597249606422906],[-74.99628306788082,1.456122643259505],[-74.99298125934513,1.4579878307252443],[-74.99270498883135,1.460659437453387],[-74.9911000446312,1.4607223030592422],[-74.98711768894134,1.4582858054899361],[-74.98773355426016,1.4566081833139037],[-74.98584994327518,1.4534090915032039],[-74.98294748411172,1.4509252053595674],[-74.98007764611651,1.4516407277868666],[-74.97735958052596,1.4469510257877118],[-74.97010589213761,1.4468764925015307],[-74.96880909194181,1.4449820612727535],[-74.96683325948771,1.4455112772240568],[-74.96343722093468,1.4433689142151138],[-74.96294409920205,1.4416607102723447],[-74.9587151209393,1.4419110198116414],[-74.94581124237249,1.4363084434364737],[-74.94510105241966,1.433637810643404],[-74.9412099103252,1.4303466176913844],[-74.93960598428316,1.4331430937963887],[-74.93744467324927,1.4302548075992831],[-74.93472896587747,1.431871006045867],[-74.93482098165805,1.428485168614202],[-74.92952898669603,1.4257636052906832]]]}}]}