{"type":"FeatureCollection","features":[{"type":"Feature","properties":{"code":"185017"},"geometry":{"type":"Polygon","coordinates":[[[-75.75915209472521,1.5486375321485184],[-75.75611587221402,1.5441709548675817],[-75.74934769816895,1.5436294078905348],[-75.74441224365933,1.5384145564018468],[-75.73743797281884,1.5341894039452768],[-75.74027599800161,1.5314221376646628],[-75.74017686642725,1.524439559065513],[-75.7345459400056,1.5140944773669958],[-75.73185339624467,1.5006255447124772],[-75.73349432050628,1.4915867505919778],[-75.73114496390008,1.4862494321681083],[-75.72810862620327,1.4871968375301208],[-75.72459279775097,1.4858002506421144],[-75.72047178641236,1.4817162138688786],[-75.72203871732006,1.4848447421814512],[-75.72149956764252,1.4882786418173737],[-75.72812566646735,1.4893054285436733],[-75.7306166776608,1.4924420589264287],[-75.72983173227817,1.4983066546873829],[-75.7118562838059,1.500772878359271],[-75.70823228788328,1.5028915121139335],[-75.70544703002923,1.5080367596414135],[-75.69970952713783,1.4983231025685768],[-75.69753551586729,1.4987518612830968],[-75.69593227785327,1.502783185235046],[-75.69259847549927,1.5010703286183116],[-75.69276622270161,1.4986294200590464],[-75.6972228138057,1.4957078843152658],[-75.69526155232518,1.4891999885028895],[-75.68686024961278,1.4933436800843651],[-75.68175718879746,1.4912806583304246],[-75.6797731174903,1.494323521495005],[-75.67595761220093,1.4933567855273964],[-75.67324270804272,1.497388377902837],[-75.6710829221891,1.4927009755011795],[-75.66375121203748,1.496379420256062],[-75.66445294819283,1.4908486096283013],[-75.66124145850756,1.4874592045295572],[-75.66017312476043,1.4827777485825209],[-75.65814301625238,1.4827498325387864],[-75.65723521724021,1.4867128874478794],[-75.65393921631943,1.4868497176112214],[-75.65689957782513,1.4813088076779763],[-75.65167238708307,1.479141207718044],[-75.65207003026916,1.4753966145687514],[-75.64901806744524,1.475246222333908],[-75.64949862572405,1.4647875316757109],[-75.64771318369122,1.4637830806640295],[-75.64414333321031,1.4672897991725335],[-75.6406714346802,1.4639292696543293],[-75.6403961041629,1.4562673060410702],[-75.63433048491345,1.4545194217005815],[-75.63495641251387,1.4486846394598274],[-75.63294259967756,1.4420391812329854],[-75.63112645657867,1.442945585677137],[-75.63275099363722,1.4484307787084845],[-75.63045480853759,1.448441404576613],[-75.62668626193363,1.4388432189728633],[-75.6204372754969,1.4407018655441561],[-75.61886542040634,1.4400294348583884],[-75.61846877583793,1.4370995152512478],[-75.61518107341982,1.4370248955758598],[-75.61390644335944,1.431671059336736],[-75.6184308119108,1.4298514616993998],[-75.61869012546435,1.4280697765670993],[-75.61333429918898,1.4273524265974515],[-75.61210564565135,1.424395356107766],[-75.60940495045497,1.4247960671378905],[-75.60582657007183,1.4223835507912668],[-75.60054672410126,1.422811385964394],[-75.60228653311111,1.41505189206174],[-75.60184407554226,1.4080487024461377],[-75.59703694803318,1.395412812345512],[-75.59180264869644,1.3932753087274818],[-75.59267222564245,1.387009735569734],[-75.58930813771315,1.385065940128527],[-75.59259652096017,1.3827251813017938],[-75.59199349574624,1.3790568533358964],[-75.5944812251796,1.3775082091646027],[-75.59494586111134,1.3744912452679614],[-75.59866967149418,1.375369181394717],[-75.59549582691892,1.3696909939255875],[-75.59757897734983,1.3693291775630883],[-75.59982960758805,1.3736823885967624],[-75.60236237560463,1.372357481066956],[-75.59999702568877,1.3676732586095568],[-75.60291265920091,1.3636727036008551],[-75.60098950768639,1.3613070276687722],[-75.59706701043649,1.3613863678953066],[-75.59813546553983,1.35703442390286],[-75.58869777147646,1.3498735617077386],[-75.58914901708664,1.3451309977631354],[-75.58460103858033,1.3459452136483492],[-75.58583707530681,1.3410897123170002],[-75.5903436970541,1.3395403050412824],[-75.61674518433819,1.341461029431457],[-75.62661473169959,1.3407370861168033],[-75.63652995013632,1.3441893393379019],[-75.64657175030675,1.3429958564775575],[-75.65784297328975,1.3499877126566844],[-75.66244060500088,1.3576606816333197],[-75.67377413823078,1.3670382663167402],[-75.68287085526237,1.3662203418678587],[-75.69812009802155,1.3735074659509792],[-75.71025492784173,1.3720346066804154],[-75.71700611715858,1.3743796582262462],[-75.72817090868222,1.374383287599926],[-75.73672994979438,1.37969675027108],[-75.74531384219154,1.381805563428145],[-75.73702955978268,1.4209805772751452],[-75.73839177612177,1.423138847204541],[-75.74245822241414,1.4244500527947253],[-75.74827975214464,1.4237316795247352],[-75.74841720245882,1.4267084734850073],[-75.75095791622232,1.425819586502314],[-75.76080725468819,1.4277981330162106],[-75.75991550657841,1.4319396185885012],[-75.7627535842118,1.4390855231156365],[-75.76445464562124,1.4394136908957762],[-75.76476769221108,1.4418312651227438],[-75.7679491441757,1.4435159208171626],[-75.76750687686871,1.4451752943091947],[-75.76922310163474,1.4465025292043947],[-75.76801024394575,1.4505280013183892],[-75.7715042519331,1.451598041251657],[-75.77135950276238,1.4533553420118892],[-75.77427440402346,1.4538673089252256],[-75.77404559304654,1.4553493727563023],[-75.77647953904994,1.4564363100001856],[-75.77588450072057,1.4581701900389135],[-75.77761545175497,1.4592968241355493],[-75.77650993775393,1.4621328932206552],[-75.77879794467862,1.4631508034595413],[-75.77773819431269,1.466470033811504],[-75.77869896942747,1.4692496547720566],[-75.77702042268163,1.470684527489766],[-75.77489922090592,1.468616221598154],[-75.77612028248086,1.471792685616549],[-75.77460202981439,1.4717917816155932],[-75.77352685281073,1.4745538182659743],[-75.7722212296066,1.4739099926804329],[-75.76937563097312,1.4758436898445098],[-75.76851360279522,1.4789386775612456],[-75.77235954175563,1.4869582758897195],[-75.77186339537354,1.4904038257225238],[-75.7733887576631,1.4936030800271283],[-75.77052765011643,1.4969788274092366],[-75.77110730603107,1.5022858232338763],[-75.77532682365103,1.505274239623077],[-75.77535761933382,1.510103978469317],[-75.77711267089023,1.5104096315858442],[-75.77855391789461,1.513413894217365],[-75.77769247490056,1.5173671017893753],[-75.77950054266876,1.519291673582984],[-75.77895913350301,1.5233000426978833],[-75.78195674622515,1.5315660239721183],[-75.77290881850666,1.539126597551217],[-75.77024581984239,1.5452096992950146],[-75.764317367057,1.5454342874869553],[-75.76482847213549,1.5470072049586179],[-75.76275330756073,1.5486011191127318],[-75.75915209472521,1.5486375321485184]]]}}]}