{"type":"FeatureCollection","features":[{"type":"Feature","properties":{"code":"185077"},"geometry":{"type":"Polygon","coordinates":[[[-75.70715135057304,0.9587293116355795],[-75.70395759432216,0.9551405419260846],[-75.69245698443444,0.9501053058664297],[-75.68625295841923,0.9429238768778418],[-75.67463078045517,0.9378887374917326],[-75.67072773516702,0.9332939730783778],[-75.66521491714116,0.9302025828536102],[-75.65594007283687,0.9268883198789695],[-75.64829639801695,0.9159137552542802],[-75.64330728040511,0.9130888046612426],[-75.63470983724932,0.9040936154750625],[-75.62056863023224,0.90023884527875],[-75.61789295292857,0.8947278784494301],[-75.61626992150991,0.8828413527056682],[-75.61721362962106,0.8736472771345802],[-75.6219018342079,0.8771965495091649],[-75.62060066621672,0.8743884077806001],[-75.62284812165291,0.8744751610208255],[-75.62274636446477,0.8734744031463038],[-75.62275774212435,0.873100900591453],[-75.62285650243098,0.8726767924940191],[-75.63100534307387,0.8774473105347056],[-75.63801701116967,0.8758606253030621],[-75.64653069796674,0.876905702879526],[-75.65363432116499,0.8724967698017849],[-75.66639957905005,0.8718952779955771],[-75.67070226990182,0.8635008175112375],[-75.6798812376523,0.8585825019961817],[-75.687945230759,0.858613530106993],[-75.69420207552503,0.861840443344704],[-75.71048304564835,0.8629035556891722],[-75.72529306837578,0.8581268783062228],[-75.73064108877242,0.8598522798648105],[-75.73274629723852,0.8622017074335986],[-75.73682855377774,0.8625129182535147],[-75.76246407044368,0.8396571274492999],[-75.76893426046803,0.8395836627148583],[-75.7721309992022,0.8456592084914973],[-75.7700942726666,0.8535646743829943],[-75.77106245668125,0.8574857935199702],[-75.78068368351114,0.8703363977358549],[-75.78276661077007,0.8754428287573432],[-75.79638561684226,0.8879433264572754],[-75.80271779605124,0.89766913149316],[-75.81146922482009,0.8994616173287682],[-75.81451305163529,0.9046052502014845],[-75.81412409364623,0.9098220834989093],[-75.8155738366143,0.9122784752603366],[-75.82125834900495,0.9122855581439353],[-75.82427239212478,0.9139349876252254],[-75.82192996207891,0.9149400608445717],[-75.82325001947379,0.9158395798660308],[-75.82015987366447,0.9230603272405347],[-75.8211516943735,0.9345444583938161],[-75.82479862045057,0.9371745756938594],[-75.82831607075667,0.9345639988016501],[-75.83131378838004,0.9348029790181727],[-75.83142092432252,0.942922840207757],[-75.83409167847185,0.940673606594487],[-75.83598342135184,0.9410512074928192],[-75.84020245560384,0.9452462893185611],[-75.83932505529566,0.9466570162628045],[-75.84370472712686,0.9474689397495695],[-75.8492058713017,0.9520012962140072],[-75.84925920735918,0.9535609858580187],[-75.85122743036709,0.9536345966312751],[-75.84927441493869,0.9550291081223463],[-75.8505488125711,0.9580618832941923],[-75.85447784968699,0.9600496323117795],[-75.85406496395433,0.9654625350900687],[-75.85874296639139,0.9673409318714903],[-75.85801113183726,0.9698417934874328],[-75.86334758842628,0.9734982295723853],[-75.86408549696188,0.9791014620938654],[-75.86187867323275,0.9866933394063722],[-75.86443951258792,0.9905171781654758],[-75.86545369266577,1.0019687313450163],[-75.86832681344947,1.008428908453027],[-75.86748639490582,1.012947719301053],[-75.8711104422506,1.017013275990621],[-75.87441004477705,1.0179497675206335],[-75.87528088876422,1.0221878022481974],[-75.87431314389454,1.027842965974628],[-75.86863344050113,1.0320914795029807],[-75.86929000848949,1.041663392514124],[-75.86436672971087,1.0437936137307133],[-75.85699104130026,1.0521451305692153],[-75.8522808835794,1.051938128744382],[-75.85159772520973,1.0560263286529334],[-75.85346049994928,1.0588621663384288],[-75.85089756462827,1.0605163194562124],[-75.8513624515,1.0660623633745558],[-75.84838273573456,1.0682271721414622],[-75.83887832249121,1.0675548093328757],[-75.83455147146776,1.0635352301945318],[-75.82164923635213,1.0634909485449953],[-75.80474056250813,1.067000467502453],[-75.80044121512299,1.0645987477453218],[-75.79246355050975,1.0541809078524125],[-75.7939811912529,1.046872168992877],[-75.79730141302349,1.043841290268972],[-75.79759711390176,1.0400745712073558],[-75.79998920126621,1.038737418012488],[-75.7968590325878,1.032730416901245],[-75.79762759076738,1.0285106761092493],[-75.79440268504948,1.0263507349607721],[-75.79377516336314,1.0288769898509145],[-75.79214181769441,1.028129835617051],[-75.79015438852247,1.0227494347076345],[-75.7839201448092,1.0157709575372564],[-75.78489546312966,1.0139054419984177],[-75.7827547888233,1.0127619815536946],[-75.78275398663817,1.0091217259548557],[-75.78154323108566,1.0101491143199723],[-75.77938472050079,1.0086959929182626],[-75.7797268730423,1.0037697511966712],[-75.77387983793733,1.000053118314156],[-75.77181298009282,0.9967968574407564],[-75.7712075421527,0.9946837978444591],[-75.77334684657359,0.9935646703497696],[-75.77031524382613,0.9882065095098937],[-75.77214387221721,0.9862582670832012],[-75.77178134108715,0.9830693856498556],[-75.76864034290901,0.9818385281599262],[-75.76049065071572,0.9978043670404304],[-75.75947361773831,0.9945253755304861],[-75.75106073579155,0.989039603485935],[-75.7505878538077,0.9867723351046607],[-75.74632991460368,0.9879131946182156],[-75.74445423291047,0.9868642295290329],[-75.7440443461162,0.984251716079541],[-75.74088887158115,0.9828451162751435],[-75.73874440746414,0.9772472090290307],[-75.73695150305241,0.9769441671280106],[-75.73590620024703,0.9713828714071155],[-75.73331995013416,0.9700708708309094],[-75.73209861293662,0.9666895667738231],[-75.72562984421984,0.9655845176287698],[-75.72220426879767,0.9658651065727213],[-75.72118968454186,0.9678000604935733],[-75.71775693161936,0.966380907519806],[-75.7122100690608,0.967820137748447],[-75.71095797114754,0.9656599559444317],[-75.71251444690864,0.9619328370619655],[-75.71022641324447,0.9617138055450027],[-75.71235466190825,0.9599917731641199],[-75.70885308972618,0.9594789701270088],[-75.71019541084473,0.9578481852801133],[-75.70881503015386,0.9563948407063663],[-75.71077568896703,0.9554248466328659],[-75.70955412036994,0.9527476503196226],[-75.70637251105364,0.955095895179511],[-75.70715135057304,0.9587293116355795]]]}}]}