{"type":"FeatureCollection","features":[{"type":"Feature","properties":{"code":"186018"},"geometry":{"type":"Polygon","coordinates":[[[-75.86915852211348,1.4234998778370027],[-75.8722161670824,1.421959725515535],[-75.87854339228375,1.423522751427015],[-75.87153077802083,1.4160003114681103],[-75.86718000439595,1.4167055576977532],[-75.86708059308523,1.4215449381926533],[-75.85391778354546,1.4140183587525712],[-75.85301340410467,1.4088446470215104],[-75.85046575555327,1.407234812577201],[-75.84891273844437,1.4034084109393348],[-75.84865656575425,1.3976699012027325],[-75.84550364998421,1.3935641858896588],[-75.84109585950608,1.3921632558888746],[-75.84213032252734,1.3861980743357663],[-75.83793098706332,1.385050700667307],[-75.83154981388117,1.387538773600454],[-75.8249187466505,1.3871778303856672],[-75.8185910319105,1.3799705658925632],[-75.81087679359246,1.379064281776209],[-75.80879555914998,1.3730739404053907],[-75.8026275831304,1.372965323505639],[-75.79983941889782,1.3709614701066926],[-75.79671092760913,1.3636748386475688],[-75.782938426491,1.3637875333218403],[-75.77994295704303,1.3672560626743007],[-75.77591584559167,1.3682909144467885],[-75.76990457130182,1.3659280924426298],[-75.76607474803569,1.3682898890895672],[-75.76390597256596,1.3678731785792024],[-75.76106099922555,1.3615481408750725],[-75.7548621287927,1.3571899552649143],[-75.75192626170247,1.35238157305605],[-75.75468145818166,1.3393627166724968],[-75.75054679632547,1.3381305047237788],[-75.74605181037685,1.331183720038041],[-75.74488479139939,1.3262154551267713],[-75.7412603810144,1.3232517408983995],[-75.74891346094114,1.3175695990678378],[-75.7507213322769,1.309617362695917],[-75.75411708595135,1.3047664111942368],[-75.75288029126273,1.2968874061003248],[-75.7484476525849,1.2990909727519693],[-75.74631873234813,1.2977923552982702],[-75.7500662030796,1.2933666102706525],[-75.74694497053821,1.2862577646412774],[-75.74920394967279,1.2804002260528478],[-75.74829521066414,1.2779312800936395],[-75.7438389291213,1.2774245777775377],[-75.74081822580763,1.271112820351675],[-75.74341207611076,1.2691958312647103],[-75.74509082134603,1.2626736822674616],[-75.74042184040678,1.256033575027061],[-75.73704848106814,1.2591448563586027],[-75.73357834940231,1.258443110947269],[-75.73743033869005,1.2522721030791786],[-75.734974352135,1.2494012664662364],[-75.7355844437775,1.2456900462767067],[-75.73212860643423,1.2453300646556613],[-75.73082388723105,1.243254556581121],[-75.73293639352522,1.2417509170543894],[-75.7363623319876,1.243662927451112],[-75.73652304670003,1.2331133677257071],[-75.73148002533043,1.2359058904976905],[-75.72718420036091,1.230638346756507],[-75.72522349938157,1.235278141525555],[-75.72280496870309,1.2357418138066691],[-75.7234529029165,1.2286886141166633],[-75.71801347146345,1.225854027017192],[-75.71944806650168,1.2172110063743276],[-75.72371246638158,1.2198587696911432],[-75.72500214975514,1.218490134842284],[-75.71951578327088,1.2141018117526414],[-75.72339214047565,1.2109241835372586],[-75.71834130294292,1.207290976883428],[-75.72159928748601,1.2035329162794142],[-75.72164521361515,1.1995999844517087],[-75.72498640738553,1.1998335612312303],[-75.72835872388345,1.1967257714620132],[-75.72893142032751,1.1997656284891036],[-75.73145655524371,1.1992646401996012],[-75.73514900841417,1.19087965578467],[-75.73995634264014,1.187322403724579],[-75.741900976262,1.187639877759466],[-75.74253490000302,1.1907604716380433],[-75.74886809531324,1.193139720954548],[-75.75633742032983,1.1900051330586052],[-75.75963351586734,1.1909624351229695],[-75.7589918530964,1.196357276393769],[-75.7616019044545,1.1980382266098104],[-75.76192236817178,1.201583838757415],[-75.76411911007887,1.2020513604988992],[-75.76565358951137,1.199076360142385],[-75.76730062272162,1.199199093444122],[-75.76627010686275,1.205748425205627],[-75.7682927529919,1.202394539426109],[-75.77621942433967,1.2055975681147402],[-75.7808062111244,1.2114172733882356],[-75.7864291146659,1.2071306684058527],[-75.79022807745741,1.2106684119397642],[-75.79129659221041,1.2147496348942468],[-75.79728530041456,1.2183412760152805],[-75.79717122659878,1.2198407266955655],[-75.79384527640343,1.2197338571197065],[-75.79685830856431,1.225626862576803],[-75.79375288009908,1.2252734300777206],[-75.79300564050448,1.228638888920898],[-75.79692671644688,1.230774832391603],[-75.79794191056908,1.2277876902427352],[-75.79926899119789,1.2279732984063116],[-75.79817012916305,1.2318508177510807],[-75.80106183493155,1.233198077450595],[-75.80155818803058,1.2403926561052572],[-75.8041745961919,1.244849116597095],[-75.80946163817475,1.2457444323740106],[-75.8080280067872,1.2500430917311292],[-75.81370519461018,1.2507969236422696],[-75.81465731846646,1.255339239544071],[-75.81858754549035,1.2558918937003227],[-75.82030445931281,1.2692318298381906],[-75.8233026232802,1.2644032994119243],[-75.82521802650876,1.2654946815843005],[-75.82456858459864,1.2746711944425329],[-75.82149414824875,1.2770478644251853],[-75.820769767846,1.2800324478091056],[-75.82416481498046,1.2810967593175064],[-75.82336320471524,1.2851328562711615],[-75.82494982104123,1.2872520412710742],[-75.83617400923407,1.2905227517618982],[-75.83685267228151,1.293847669400975],[-75.83344250189987,1.2969363568788594],[-75.83994258257758,1.3041514169662491],[-75.84024818324355,1.308486722815644],[-75.84679349070944,1.312864421065683],[-75.84841150744245,1.3157417378948821],[-75.84941911988642,1.3245220371020423],[-75.85385177501928,1.32830175876245],[-75.85727747076925,1.3445083262117237],[-75.86099302481557,1.347030971268623],[-75.86573858872697,1.3472596012396139],[-75.86716547250319,1.3509911825341305],[-75.87031699164828,1.349802450049765],[-75.8736889121958,1.3521506712555151],[-75.87835773681184,1.3526093525050555],[-75.88347764351562,1.3570071187539838],[-75.88337112669552,1.3611193513072521],[-75.89142782917321,1.3668636542606123],[-75.90088110311228,1.3643949325018525],[-75.90622938061955,1.360536168863291],[-75.90617548508936,1.358279086176708],[-75.90888455592165,1.359599943699891],[-75.91882559237939,1.3585728998629634],[-75.9174293829297,1.3639718435909458],[-75.92297598837769,1.3657599482614842],[-75.93714418378329,1.3762147781465046],[-75.95389147854104,1.385721628798592],[-75.97920677214523,1.398362688879729],[-75.99751746202531,1.4135340610567368],[-76.01845323806464,1.4203286794442533],[-76.03202701632023,1.427100411900426],[-76.04566890832382,1.438036842905035],[-76.05368788855833,1.448280317567992],[-76.07229687304874,1.4612442993440595],[-76.08585365114948,1.4783264405876366],[-76.08654004088555,1.485737551643922],[-76.08278694457351,1.492801392628678],[-76.08189477480232,1.4992909605669524],[-76.08374828841698,1.5055977989522944],[-76.09341530150783,1.5140240732774828],[-76.09406360698904,1.5164800588040634],[-76.08622097276475,1.513722942222671],[-76.07926283921586,1.5145948290505657],[-76.07397553909391,1.5214511683873866],[-76.06729105764418,1.5421840512298104],[-76.06376681550364,1.54482986667648],[-76.04679845394122,1.5498179589311007],[-76.03848983858234,1.554048865523555],[-76.01224038492734,1.5761948520408282],[-76.00514749352675,1.5575357967979357],[-75.99825060372984,1.55039258884716],[-75.98199364773933,1.5479294134789257],[-75.95426382204113,1.554106647538049],[-75.94945014746702,1.5455961437705241],[-75.94259071766044,1.5397180980382927],[-75.9345913385119,1.5251448824283784],[-75.91858805712457,1.516947135229941],[-75.909338293448,1.5072125164417116],[-75.90550842493042,1.5008115786512235],[-75.8927871566172,1.4942597786276792],[-75.88502332474405,1.4963884263272007],[-75.87785616950924,1.4955580957761754],[-75.8601507633029,1.477107615875184],[-75.85702888284271,1.465620904359696],[-75.86040161688828,1.459287997013405],[-75.86738314441914,1.4517399652908125],[-75.86970048252448,1.4364274805158175],[-75.87652428296849,1.4296539050906745],[-75.87527611884781,1.4268750472344323],[-75.87141555440638,1.4259822213168718],[-75.86915852211348,1.4234998778370027]]]}}]}