{"type":"FeatureCollection","features":[{"type":"Feature","properties":{"code":"186059"},"geometry":{"type":"Polygon","coordinates":[[[-75.84886796725618,1.0678255920774404],[-75.85140741192163,1.0659414473307152],[-75.85098861572982,1.0602637607131555],[-75.85346049994928,1.0588621663384288],[-75.85163805763995,1.056261999341416],[-75.85221348562737,1.0520471703908356],[-75.85681921220953,1.0522484777294494],[-75.86436672971087,1.0437936137307133],[-75.86913609075373,1.0418814675795716],[-75.86863344050113,1.0320914795029807],[-75.87431314389454,1.027842965974628],[-75.87528088876422,1.0221878022481974],[-75.87441004477705,1.0179497675206335],[-75.8711104422506,1.017013275990621],[-75.86748639490582,1.012947719301053],[-75.86832681344947,1.008428908453027],[-75.86545369266577,1.0019687313450163],[-75.86443951258792,0.9905171781654758],[-75.86187867323275,0.9866933394063722],[-75.8640352883981,0.9750982886705515],[-75.86191221691394,0.9716068816143206],[-75.85801113183726,0.9698417934874328],[-75.85874296639139,0.9673409318714903],[-75.85406496395433,0.9654625350900687],[-75.85447784968699,0.9600496323117795],[-75.8505488125711,0.9580618832941923],[-75.84927441493869,0.9550291081223463],[-75.85122743036709,0.9536345966312751],[-75.84925920735918,0.9535609858580187],[-75.8492058713017,0.9520012962140072],[-75.84370472712686,0.9474689397495695],[-75.83932505529566,0.9466570162628045],[-75.84020245560384,0.9452462893185611],[-75.83598342135184,0.9410512074928192],[-75.83409167847185,0.940673606594487],[-75.83142092432252,0.942922840207757],[-75.83131378838004,0.9348029790181727],[-75.82831607075667,0.9345639988016501],[-75.82479862045057,0.9371745756938594],[-75.82031925448689,0.932716088141774],[-75.82137275912135,0.9317236061442031],[-75.81982369328858,0.9307493975132388],[-75.82115930279127,0.928942717113955],[-75.81971732250736,0.9267643359911517],[-75.82020487830908,0.9228303530951507],[-75.82325001947379,0.9158395798660308],[-75.82215805828827,0.9144405874509403],[-75.82431053705778,0.9140271340179993],[-75.82125834900495,0.9122855581439353],[-75.8155738366143,0.9122784752603366],[-75.81412409364623,0.9098220834989093],[-75.81451305163529,0.9046052502014845],[-75.81146922482009,0.8994616173287682],[-75.81986922346738,0.8966366677641986],[-75.82868246163156,0.8821163069006275],[-75.83301607877831,0.8790555200398558],[-75.84727481003574,0.882179156051393],[-75.86442626213449,0.8891339214510481],[-75.8693716503704,0.9047608299003969],[-75.86847766334125,0.9185020098016139],[-75.86996553273036,0.9275053987599904],[-75.87778548979713,0.9345999480099181],[-75.89662424171598,0.9404745998817816],[-75.90578675952838,0.9454513607567492],[-75.90775512240447,0.948916787298117],[-75.90925822714104,0.9628998846476975],[-75.91251628058978,0.9745357779211758],[-75.93359738275615,0.9797164048997615],[-75.94359171207674,0.9797113470194745],[-75.94578211260733,0.9806083576696096],[-75.94724739225649,0.9845100567264922],[-75.94450717195724,0.9889581076438958],[-75.93585627550152,0.9908594860018525],[-75.93230064221001,0.9933878337724877],[-75.93156050298256,1.0065596092741202],[-75.92190125051894,1.017902783124157],[-75.92017622639878,1.0285636861504486],[-75.9159304279587,1.0319510806440917],[-75.91750185110334,1.0364471104618929],[-75.91596392021773,1.0385962550208205],[-75.91942092690016,1.0360804933296777],[-75.92295567355262,1.0361773685011713],[-75.92730327031853,1.0436225220332744],[-75.92625584275095,1.0484775029727302],[-75.92290973508216,1.0524813130019197],[-75.92773443456008,1.0642172089406472],[-75.93166445589549,1.0684342418435335],[-75.92928585964,1.0792269346363241],[-75.92118954258495,1.0825626128695376],[-75.91761569454798,1.089247371998738],[-75.91781414178791,1.0947404984357263],[-75.9034371530106,1.1043477878126282],[-75.88418733364546,1.1078730563388035],[-75.88232288562989,1.112648200313913],[-75.86476973313933,1.1146546474449224],[-75.81596257863043,1.1314065002598568],[-75.8410708704098,1.0886770204036225],[-75.8415337908994,1.084212046464529],[-75.8450765336924,1.0808986751496263],[-75.84878266206306,1.0817088307437643],[-75.84815306395126,1.0781541292211614],[-75.85031821724641,1.0717208098895412],[-75.84886796725618,1.0678255920774404]]]}}]}