{"type":"FeatureCollection","features":[{"type":"Feature","properties":{"code":"186057"},"geometry":{"type":"Polygon","coordinates":[[[-76.01880602470186,1.1150919288625687],[-76.01648310626746,1.1093527012731101],[-76.0132835588567,1.107612547735016],[-76.01180765333942,1.0908950438717397],[-76.00433166710059,1.0852132805080146],[-75.99124304426192,1.080667417507982],[-75.98578054072942,1.0760536361640334],[-75.98314198197312,1.0697548196303046],[-75.98297232803833,1.0661267315348937],[-75.9863401996077,1.069338046384928],[-75.99536677583103,1.0707880906866762],[-75.99812042656117,1.0694390744073416],[-76.00073847405986,1.064843619909027],[-76.00035657324338,1.0626000211323117],[-75.99632070768928,1.0587577948494413],[-75.98833264449377,1.0557743664064674],[-75.98599854586075,1.049389488774409],[-75.98782135840935,1.0382342062302996],[-75.9915366039229,1.0287352478461003],[-75.99448156758723,1.0262817511504068],[-75.99664068186792,1.0265177242009713],[-76.00030289265766,1.0316702777841442],[-76.0037143794458,1.0452705692878226],[-76.00946706523405,1.051108126266513],[-76.01462416967536,1.0521493708376966],[-76.0305632289411,1.0494312527966372],[-76.04265548638324,1.0564769037185329],[-76.04978951651299,1.0483746381519836],[-76.05467250399909,1.047468259418963],[-76.06673410356973,1.0550136315891336],[-76.08485505094728,1.0574941506120012],[-76.08262772830187,1.0627546186686345],[-76.08393888452679,1.0665407249001646],[-76.08843412141539,1.0675070556613946],[-76.09172213442315,1.0709105576218008],[-76.10041145246294,1.0688994763287951],[-76.10316613780617,1.078850703623516],[-76.11059788559004,1.0829336759587136],[-76.11529069040029,1.0823333987431738],[-76.11979942765379,1.0850445202897845],[-76.12088218736415,1.087986176482957],[-76.11942501492734,1.0973425125155245],[-76.12580344319639,1.1006804245258763],[-76.12847424259718,1.0983648543132176],[-76.1339441714847,1.1049614820892657],[-76.13141464100516,1.10757709834985],[-76.13189706179338,1.108931352486934],[-76.13687249597751,1.1135604113445083],[-76.13609996698136,1.116893411513388],[-76.13376631572083,1.1173798123741676],[-76.13731802961792,1.1318912124180542],[-76.1334932169238,1.1422819271395497],[-76.13528340624725,1.1451043127969456],[-76.13444626226453,1.1501593031805442],[-76.13632653698204,1.1522458906663928],[-76.13566766836772,1.1547052134889668],[-76.1392604644297,1.1588715143507784],[-76.123918855191,1.1597518107531641],[-76.1165265018978,1.15315051281965],[-76.10796455337868,1.153585990349086],[-76.10208259545107,1.149652488764218],[-76.09856558120458,1.1369108747726955],[-76.07379147359416,1.13262950867653],[-76.06212957615156,1.1196787968942772],[-76.05123988888789,1.1196083928047642],[-76.04773675553002,1.1216987042809592],[-76.04502460245556,1.1193772986854924],[-76.04109752040893,1.1200082841662038],[-76.03539272507493,1.1147228115866596],[-76.02795463488604,1.1144912608388609],[-76.02599600107618,1.1121124774068107],[-76.02182044526012,1.1127256019263427],[-76.02222308564842,1.114658661456076],[-76.02004053624808,1.1138884670244806],[-76.01880602470186,1.1150919288625687]]]}}]}