{"type":"FeatureCollection","features":[{"type":"Feature","properties":{"code":"186078"},"geometry":{"type":"Polygon","coordinates":[[[-76.08888228992555,1.567808400038416],[-76.08732643637217,1.5667258737844918],[-76.08913460698466,1.5497875252601148],[-76.0963455574157,1.5246579097535573],[-76.09625283509513,1.5202853043509208],[-76.09341530150783,1.5140240732774828],[-76.08374828841698,1.5055977989522944],[-76.08189477480232,1.4992909605669524],[-76.08278694457351,1.492801392628678],[-76.08654004088555,1.485737551643922],[-76.08585365114948,1.4783264405876366],[-76.0747074332977,1.463593172582307],[-76.05368788855833,1.448280317567992],[-76.04370018549281,1.436378899976546],[-76.03202701632023,1.427100411900426],[-76.0121218548702,1.4185517477732787],[-76.0207043979508,1.415626882961135],[-76.03766367425197,1.4041094477537968],[-76.05298300434038,1.4037270244885462],[-76.06667106518552,1.4075859999862814],[-76.07939031980828,1.4055623284999683],[-76.09200114779316,1.3977478838851312],[-76.11587114644317,1.3917330707245696],[-76.12040470104313,1.386125417957146],[-76.1219703196582,1.368773505956483],[-76.11927802375192,1.361366617685178],[-76.1193605531787,1.3544447027964566],[-76.12280976015307,1.350956302906127],[-76.1264983597494,1.3426717520737839],[-76.13675157787685,1.3320328690302858],[-76.13386836292977,1.3109936337304475],[-76.12829362443671,1.2991182830430716],[-76.13032592764108,1.285150225636869],[-76.14198755974553,1.2709869739543933],[-76.14105910755069,1.2597991309201575],[-76.14492827697069,1.2524138121738133],[-76.1469339897937,1.233198811758598],[-76.14309143749455,1.2217183511166922],[-76.15118301240113,1.215278761371053],[-76.15319078313763,1.2118702652937827],[-76.1528714332236,1.199743716492776],[-76.1504211606952,1.1946022834586074],[-76.14920952171065,1.181231272930006],[-76.15302649870125,1.1728669694657015],[-76.15275427408034,1.170240367382121],[-76.14882414373,1.1654573589070196],[-76.13780039795563,1.1574118541115013],[-76.13444626226453,1.1501593031805442],[-76.13556222832693,1.1475159004600073],[-76.13355878836188,1.1409267155224825],[-76.13731808926758,1.1316849335883035],[-76.13376631572083,1.1173798123741676],[-76.13609996698136,1.116893411513388],[-76.13687249597751,1.1135604113445083],[-76.13136855135372,1.1077149785530196],[-76.13560088131055,1.1043191981390237],[-76.1359275763611,1.1011235546961302],[-76.14225269942597,1.102005384506242],[-76.14345146128176,1.1045775027905052],[-76.14144464288302,1.1109680173159973],[-76.14715163497016,1.1138656592547136],[-76.1471280867218,1.1106928667761053],[-76.14954705551685,1.1110877341958485],[-76.15216402520775,1.1161373725645944],[-76.15387311566798,1.115789879321028],[-76.15394148755507,1.1124317707565297],[-76.15686371544064,1.1127104457689256],[-76.1599690050661,1.1106967697155028],[-76.16118926651274,1.1046746031909151],[-76.1660880303071,1.1082455304511427],[-76.17243567626309,1.1078071660834894],[-76.17404581512642,1.106400135361696],[-76.18002621762878,1.111101581145931],[-76.18841979982318,1.1050726598109009],[-76.1933087162804,1.106759159502758],[-76.20052942663096,1.1141200105731173],[-76.20272004313443,1.1123431159260804],[-76.21024120473936,1.113800018910979],[-76.21129124557939,1.1124131333211835],[-76.21042792464925,1.1081255903992542],[-76.21210484131376,1.1067732635634684],[-76.21409623513159,1.1104878200205235],[-76.21918870710277,1.1135720440578325],[-76.22078135524413,1.1175625172444938],[-76.2257758402975,1.1147544691042413],[-76.23237194151096,1.1197652909669955],[-76.2384714942213,1.11805781104772],[-76.24210762062347,1.1186775175993375],[-76.24710189998825,1.1164535137379517],[-76.25354082947382,1.118449326773316],[-76.25472353837034,1.1211894689109272],[-76.26512698315338,1.1255589817869236],[-76.27864227799665,1.1368664398852388],[-76.28056372229662,1.1526365126754285],[-76.28475978525648,1.1553849512588386],[-76.28470604399268,1.1656305465702985],[-76.28169234642951,1.1687839703909617],[-76.28659140332996,1.1683830444163164],[-76.28627818499024,1.1711400920920596],[-76.28893368733702,1.17278779893212],[-76.29031495351683,1.1767595143556946],[-76.29283196373717,1.1764096073575274],[-76.2968534557786,1.1725877236676752],[-76.29991978388767,1.173638634570068],[-76.29283914226596,1.1819457679432617],[-76.29589222506382,1.1839382046018159],[-76.29695916321447,1.1905517461435124],[-76.2928924341004,1.1952919744951487],[-76.28817866654629,1.1978984149915846],[-76.2866826776035,1.2055962414239048],[-76.29039770817258,1.2093559043414075],[-76.29146664458705,1.2147986103554445],[-76.30363574416879,1.2257986762408564],[-76.30176642030727,1.227686671476306],[-76.30133935338068,1.2330164925542135],[-76.29708940208968,1.2373216074449829],[-76.29175583233888,1.2382512228083442],[-76.29019234157136,1.24280316493207],[-76.28580452036158,1.246717562168726],[-76.28337080575778,1.2466992702900939],[-76.28264680485029,1.250652406899519],[-76.2748182150371,1.2609136674474826],[-76.26670102471269,1.2637095923072934],[-76.25717094257254,1.2727332734649508],[-76.25204350561262,1.2721236559344788],[-76.24961017050407,1.2793655820257754],[-76.24629106150832,1.2830013063068577],[-76.24996008778663,1.2863706670609645],[-76.24113314768277,1.2895355847552423],[-76.24375056474622,1.292953320360084],[-76.24350635592793,1.2987881550514544],[-76.24037015646257,1.2977837554619214],[-76.23612089525648,1.3024788680971255],[-76.22981095508851,1.3051558936889478],[-76.22675152885722,1.3093659331826757],[-76.226163832579,1.3131575456954465],[-76.22224996807557,1.316334733737392],[-76.22193734520403,1.3202407913336742],[-76.21905287555711,1.3183861412899773],[-76.21143128139806,1.3177810386221154],[-76.21179749949454,1.3194802642616992],[-76.21431508564268,1.3201875066983462],[-76.21119444754106,1.3269236005359062],[-76.21584081817156,1.3284767688258512],[-76.2162226233429,1.3325883976834234],[-76.22210513354406,1.336459120051586],[-76.22345580458745,1.3408285547660057],[-76.22025067273381,1.3407127583090528],[-76.21450565706982,1.3439797468664096],[-76.20901216450733,1.3518956216246352],[-76.20578494993595,1.3535517298116133],[-76.20363325381118,1.363171095160567],[-76.20374796731812,1.3717107100220005],[-76.20187116256574,1.3753922976972035],[-76.20379389961789,1.384852111502255],[-76.20168755266599,1.389178405109874],[-76.20161842384522,1.4028034255139232],[-76.19720217648427,1.4072210787558106],[-76.19756816935183,1.4103742608924676],[-76.20020819569555,1.4109965529485748],[-76.2014214853304,1.4164980334241477],[-76.20361858924929,1.418224374979161],[-76.2017415016752,1.4190756507905462],[-76.20153480118398,1.4219751459826284],[-76.20048204525568,1.420225668584692],[-76.19480533977224,1.4209838600637],[-76.19169322540222,1.4252179743683655],[-76.19096101135284,1.4334110493524008],[-76.18693123006472,1.4387728817321204],[-76.1866800576621,1.4439741372107164],[-76.18404834730455,1.4427068399454583],[-76.17736439241736,1.4484130288190613],[-76.17763939383309,1.4572047036289746],[-76.18123322553669,1.4575972282566454],[-76.18233086269652,1.4595304770198254],[-76.18670331486123,1.4591179800383998],[-76.18459742556621,1.4732946724361682],[-76.1808431650573,1.4808882466787736],[-76.1838650922175,1.4873565844781638],[-76.17386211163841,1.4992523847165558],[-76.17079577530177,1.507836322365165],[-76.16820896263084,1.5084569092636002],[-76.16603413374844,1.5067758037527597],[-76.16475295353763,1.5087550053845575],[-76.1607465240653,1.5092370374214852],[-76.1604952241359,1.5112161187255424],[-76.16388305880292,1.5127824613641678],[-76.16456946705102,1.5150371570356356],[-76.14754002423047,1.5369429528595902],[-76.14774592356497,1.538691636299916],[-76.14966848886723,1.5392451780020906],[-76.14914227905342,1.544055295193516],[-76.11706688570638,1.5596248535742916],[-76.1015862680631,1.5654648664736897],[-76.08888228992555,1.567808400038416]]]}}]}