{"type":"FeatureCollection","features":[{"type":"Feature","properties":{"code":"880020"},"geometry":{"type":"Polygon","coordinates":[[[-81.35748220451649,13.372313461815736],[-81.36259307429589,13.370971240456129],[-81.36391200760312,13.380379621850807],[-81.36795042575153,13.380135163120997],[-81.36881348957104,13.377713236525324],[-81.36669755650638,13.375918791506706],[-81.36836609959187,13.368508502175985],[-81.37743713538538,13.365402782661533],[-81.38098877112083,13.366183099024454],[-81.37863512179547,13.370608303091274],[-81.37390893065577,13.369934732891181],[-81.37057700520938,13.373106398196796],[-81.37035825959941,13.38105559140729],[-81.36659457341477,13.383424356780779],[-81.36669579786968,13.385791543494975],[-81.36441295475493,13.385752638542897],[-81.36175005893489,13.379072807710202],[-81.35450627650482,13.377526431254637],[-81.35748220451649,13.372313461815736]]]}}]}