{"type":"FeatureCollection","features":[{"type":"Feature","properties":{"code":"880027"},"geometry":{"type":"Polygon","coordinates":[[[-81.35748220451649,13.372313461815736],[-81.35817954510856,13.368145901111802],[-81.35706593315109,13.368312397728062],[-81.35383356505423,13.361878733868195],[-81.3573592644978,13.360021456153902],[-81.35056890283386,13.36189671515723],[-81.34910411478018,13.360554360100025],[-81.34973076846103,13.356922572696874],[-81.35661095532299,13.353425155422599],[-81.35537292753185,13.343656628884503],[-81.35959154115085,13.334405626963132],[-81.36861875398012,13.332192696342304],[-81.37663327900168,13.323913064550538],[-81.3811314963167,13.32388971582003],[-81.38625563403303,13.32035293593674],[-81.39036180905987,13.321460845180411],[-81.39239691477013,13.326124665395128],[-81.39090470946735,13.330493488186221],[-81.39280703502084,13.337100204983358],[-81.39638239075458,13.339276345129974],[-81.39317593323852,13.347721436867914],[-81.39332892743295,13.355837662513238],[-81.38838504689375,13.36659122615356],[-81.38181278497785,13.372139881287467],[-81.37863512179547,13.370608303091274],[-81.38088901836716,13.366111468002998],[-81.37743713538538,13.365402782661533],[-81.36836609959187,13.368508502175985],[-81.36669755650638,13.375918791506706],[-81.3688899830687,13.378524509008002],[-81.36643311205313,13.38044940476101],[-81.36334087336326,13.379133710019289],[-81.36259307429589,13.370971240456129],[-81.35748220451649,13.372313461815736]]]}}]}