{"type":"FeatureCollection","features":[{"type":"Feature","properties":{"code":"880028"},"geometry":{"type":"Polygon","coordinates":[[[-81.377742205375,13.393595309791124],[-81.36905618863574,13.39380293279521],[-81.37144736171479,13.391315487212012],[-81.371559807506,13.38730591070555],[-81.36880513039029,13.386594265506574],[-81.37066315681074,13.38299566285815],[-81.37705730482367,13.381581789908239],[-81.38134069695161,13.385955982197686],[-81.38017600328271,13.391503792980302],[-81.377742205375,13.393595309791124]]]}}]}