{"type":"FeatureCollection","features":[{"type":"Feature","properties":{"code":"200018"},"geometry":{"type":"Polygon","coordinates":[[[-73.72033424899911,10.330514082197055],[-73.72257881656867,10.313941133128935],[-73.72116146748306,10.30995426360488],[-73.71504621765456,10.304018134524483],[-73.71324643604765,10.30004146200804],[-73.71140378278596,10.282321948655635],[-73.71627511184772,10.271926709815489],[-73.71189743622341,10.266893113093147],[-73.71390016964847,10.264174528139165],[-73.71331989255458,10.256863289135879],[-73.71887728842142,10.24201708888603],[-73.71655324692779,10.233823094474303],[-73.7185976291895,10.220458479829801],[-73.73029771784508,10.20606527251391],[-73.72776294950779,10.197620022395768],[-73.72868182793121,10.190090077891796],[-73.73163733415981,10.18522458626984],[-73.72998210529113,10.179542925750297],[-73.73077706461862,10.172020318155262],[-73.72667787580178,10.161072160849073],[-73.7212948770466,10.157219473248858],[-73.71473379327244,10.155673456748161],[-73.67894467650677,10.161629317526717],[-73.67148023762059,10.160793960977117],[-73.63315575293564,10.162828119491792],[-73.62950290714349,10.161700772684469],[-73.62663576778141,10.158766088303139],[-73.62336282042816,10.150594473829074],[-73.61394017762103,10.142880254022998],[-73.60775417814637,10.140330293532827],[-73.5978520332709,10.126664327746823],[-73.5964363790585,10.116654511110255],[-73.5925929782943,10.111311565048993],[-73.58060826097261,10.107639038980778],[-73.57561895721267,10.097020349406137],[-73.56500782360519,10.095683429667702],[-73.55355739245641,10.091795887122089],[-73.54613195622431,10.085343319460321],[-73.5388239537296,10.075383422395191],[-73.53508825866504,10.065018061867079],[-73.53645357267294,10.057597135355422],[-73.53493155899218,10.050402346898522],[-73.53677310564973,10.041838810464128],[-73.52761967104169,10.032532553411556],[-73.52837869453066,10.027000256684403],[-73.53303502151317,10.016886792582397],[-73.53198857302283,10.014071179218945],[-73.5375084842168,10.013667780868559],[-73.53656370241163,10.012081880338542],[-73.53846290047147,10.010148036107125],[-73.53679345235656,10.007620721921228],[-73.54237055935272,10.001511581041257],[-73.54108467607426,10.00005621043573],[-73.54508622970059,9.997304170246593],[-73.54507894010004,9.992710404450975],[-73.54707823544175,9.992200558186084],[-73.55050741246964,9.986599719878768],[-73.54940048641697,9.98447003139546],[-73.55265012926282,9.979838481650063],[-73.5519858232729,9.9782383639307],[-73.55539245067013,9.977304654337672],[-73.55587393249033,9.972066365672447],[-73.55794551088604,9.972612065500414],[-73.55726856430914,9.970350846418],[-73.55535994057362,9.96984947760484],[-73.55809965179384,9.968885300402235],[-73.55656642294747,9.96531636317826],[-73.5667939402963,9.956586564612508],[-73.565452447074,9.9528427911319],[-73.56706886663574,9.950629195108831],[-73.56502871332964,9.949745710534671],[-73.56740317113247,9.9453171825416],[-73.56761411909122,9.94307317238787],[-73.56620697626914,9.943437157735673],[-73.56698379695592,9.939417492208122],[-73.571410670185,9.938147283422097],[-73.57285779268153,9.931076281392109],[-73.57604528674591,9.927736069784316],[-73.58021941199848,9.927654188276279],[-73.58068004214664,9.926054671167321],[-73.58555923776515,9.929290562708218],[-73.58920713572036,9.92515755561601],[-73.58830736678738,9.923175184324407],[-73.58974446916847,9.921769212898369],[-73.58848792632665,9.920578498605266],[-73.59016268017649,9.919539030154283],[-73.58675165927286,9.913971720101586],[-73.58880346997489,9.907709524349116],[-73.5873300059801,9.903745279532018],[-73.59003954063996,9.902707301294242],[-73.59142229189081,9.898688454406965],[-73.59009144716231,9.897688646813322],[-73.59380809649991,9.896108536414658],[-73.59437490716743,9.89352710249807],[-73.59178966492823,9.8899567861327],[-73.59237269104898,9.886436265925681],[-73.58993209410778,9.88527323730517],[-73.58882004846828,9.886622080806148],[-73.58706509872769,9.882715041047334],[-73.58696681150462,9.879076017522607],[-73.59009622119248,9.874502586092376],[-73.58927321623753,9.87078790930758],[-73.59052018839327,9.868325012647233],[-73.58858315496167,9.866589744211126],[-73.591310518701,9.86407021122136],[-73.58928356442618,9.863817514666948],[-73.59192111839411,9.86113625806263],[-73.59526633646004,9.860773805094198],[-73.59678689798,9.862859884529428],[-73.59772152185838,9.861188679834697],[-73.59985138209163,9.861998615342088],[-73.60192943350455,9.857642802348892],[-73.60440032630544,9.858233954193963],[-73.6037104018124,9.854607622678373],[-73.60165359185123,9.854531263906665],[-73.60504578711459,9.85155712332812],[-73.6026225348565,9.849572659155967],[-73.60522768979979,9.848666615695151],[-73.6029520550386,9.84627210737699],[-73.60587255719759,9.842371746323863],[-73.60396403733478,9.842252666049944],[-73.60463361717791,9.840184405409786],[-73.60207279324942,9.840414714827432],[-73.60197197194401,9.838418822602023],[-73.60457789410538,9.837718457360552],[-73.60522603606421,9.839480057010462],[-73.60790562042098,9.838266699498433],[-73.60927383360837,9.833674768444212],[-73.60729513282809,9.83085467415674],[-73.60929454027007,9.829521684097188],[-73.61177892623681,9.830904994820742],[-73.61028859989852,9.82760078178643],[-73.6116659466839,9.826986796460574],[-73.6130833533623,9.828675983472692],[-73.61892823490865,9.818455496556908],[-73.62793707769765,9.823182446687156],[-73.62518488221372,9.826805239332089],[-73.62790833272925,9.829234092488093],[-73.62932799581057,9.827638030946048],[-73.63184666799395,9.82817591666776],[-73.63232312587246,9.823826788550889],[-73.63522480136277,9.826783585474857],[-73.63988321711201,9.824017533784854],[-73.63757058310279,9.827073711166236],[-73.64016520062404,9.831354526017208],[-73.63721499704508,9.836105008969241],[-73.63962540199924,9.8396973556018],[-73.64002030644286,9.844381010358916],[-73.63853235580683,9.847597601119048],[-73.64385301037652,9.848371871268398],[-73.64774310140268,9.851681296449385],[-73.65073670628436,9.842008052025335],[-73.65096007988564,9.830538930990656],[-73.69257991757257,9.835965198379483],[-73.72345243940748,9.828325783368427],[-73.72463495907061,9.834972094174134],[-73.73271236718148,9.835537655284043],[-73.73327783367466,9.838008670469549],[-73.73752562935016,9.840558024178677],[-73.74159665941085,9.847201543791357],[-73.74101246909316,9.870175026472054],[-73.73528633049159,9.883311259000266],[-73.73780832043059,9.886719997789953],[-73.74422326149443,9.911715489993867],[-73.73465107903132,9.908761813364492],[-73.73387450928453,9.909668475947683],[-73.7392185310967,9.919373696706543],[-73.74113249656267,9.928009670461336],[-73.74034635304446,9.930964102995915],[-73.74367725004834,9.932930474807279],[-73.74818685016515,9.94048862640426],[-73.74801120349582,9.952977250735273],[-73.75099395110988,9.955671019371266],[-73.75135585283311,9.968759145472234],[-73.75413144229901,9.976443212372033],[-73.75303683698775,9.98064160886804],[-73.75612182824318,9.985126642578393],[-73.75491782750117,9.98811799002874],[-73.75634834682171,9.990664372567437],[-73.75382006795672,9.995432063419628],[-73.75410925468009,9.998678010043022],[-73.76944029975726,10.006084735820423],[-73.77161031450021,10.009286108716651],[-73.77171944973497,10.013238179859627],[-73.7785930381097,10.01415762906862],[-73.7830239778005,10.017508999277766],[-73.7898732774483,10.037477262875427],[-73.78909097619135,10.042059162501289],[-73.79849902231376,10.04083325181989],[-73.7994148256941,10.045865252399437],[-73.80278667939285,10.047709046203863],[-73.81085694291357,10.040733920727689],[-73.81980899510671,10.042070097930605],[-73.8219730027169,10.046574148571608],[-73.82858501187923,10.040388520364615],[-73.83916077426312,10.046433450435927],[-73.83247832501581,10.065061727479588],[-73.8286814993279,10.066672642816968],[-73.82580250305205,10.07063033028453],[-73.82194184605078,10.069944741705172],[-73.81838938447595,10.074553913569787],[-73.812523589551,10.074338992737523],[-73.80314378857395,10.080129805975332],[-73.80500989032504,10.086308525105437],[-73.80867268732703,10.088511884011723],[-73.80732638407909,10.093319357077462],[-73.81006114951919,10.095316256148124],[-73.81026473074422,10.098028652963478],[-73.80731651000247,10.104983149939642],[-73.80114243531875,10.111822996143815],[-73.8012912416952,10.117771965328984],[-73.79252452204304,10.128250611885846],[-73.78685262452836,10.138884345517681],[-73.77954738443032,10.140549129645763],[-73.76688423237539,10.147972167549938],[-73.75939290074575,10.14722922684507],[-73.75558189180708,10.150870017234013],[-73.76660311892579,10.152603028238786],[-73.76597003028007,10.15614640763772],[-73.77577937158799,10.154488791753977],[-73.7794276325834,10.158201151457831],[-73.78103506458598,10.15301659274354],[-73.7869934882433,10.155128505626351],[-73.78858780657532,10.152306946836745],[-73.7930745557278,10.163038926553952],[-73.79634465532376,10.161942192366666],[-73.80093545817653,10.166955882555555],[-73.79819395438102,10.171362042952296],[-73.79848428781781,10.177808364882651],[-73.79236652139048,10.179194172664666],[-73.79541624529509,10.185614672460304],[-73.79543621764878,10.190080818823787],[-73.79756451876318,10.191776702025209],[-73.79518509049768,10.193462984715723],[-73.79597499091636,10.196761294489932],[-73.7933514134823,10.203503387232729],[-73.79561719884947,10.20590232402435],[-73.79369883062111,10.209808519431931],[-73.79676894031331,10.213517913107523],[-73.79225349864299,10.216026142485646],[-73.7979541400976,10.220767370483372],[-73.7940490050143,10.227691434816961],[-73.79764612567703,10.228461913098727],[-73.7988461370905,10.22676894450342],[-73.80311282114127,10.230342576567466],[-73.80245274513544,10.231720725538025],[-73.79962873968111,10.23136910309779],[-73.79831238879302,10.234943571285612],[-73.80182200853784,10.238036283059046],[-73.80104910004638,10.242497234759412],[-73.80285821168377,10.24367180970404],[-73.80515156239579,10.240977369495056],[-73.81056088002344,10.244211712201547],[-73.81171133799103,10.249856363188599],[-73.81072624946671,10.25103535837917],[-73.81370494604568,10.252868569510099],[-73.81226207924425,10.254997613159958],[-73.8132268251756,10.256983973780166],[-73.80944406138224,10.259413922227452],[-73.80890189425429,10.263633240329625],[-73.80343720630987,10.265331663784025],[-73.80317915979748,10.269444975173542],[-73.79785323343145,10.27212885019253],[-73.79406370454319,10.270963788341192],[-73.78864515870083,10.27994656731147],[-73.78604037296839,10.280247066902575],[-73.7813952961186,10.286015295542654],[-73.77349229437533,10.289852455717721],[-73.77552667606204,10.297816969636415],[-73.77199141210303,10.30366407570392],[-73.76746002957367,10.305221491461452],[-73.76768024174265,10.310450602305707],[-73.76202779207603,10.312869107273116],[-73.75100169733889,10.311629641719321],[-73.74898809841864,10.312696638491161],[-73.74426260250607,10.320567294688772],[-73.74157205906579,10.322269769178263],[-73.74182488417551,10.326494282972021],[-73.73633081465675,10.330267448311304],[-73.72033424899911,10.330514082197055]]]}}]}