{"type":"FeatureCollection","features":[{"type":"Feature","properties":{"code":"201018"},"geometry":{"type":"Polygon","coordinates":[[[-73.95628907764751,10.155258384546755],[-73.95786002153795,10.156680753460307],[-73.95957521169078,10.15571237712686],[-73.9610149859655,10.158043175487876],[-73.9682593741482,10.156252356757534],[-73.96560407646149,10.152820901729513],[-73.96797691035351,10.151947040291986],[-73.96684877061705,10.150365131147396],[-73.96925972475952,10.150076025670955],[-73.96829484204534,10.148063611516477],[-73.97043343067025,10.146428352944667],[-73.96925659520895,10.139118487940607],[-73.95573620443298,10.144635304551002],[-73.95444175834211,10.147193320831377],[-73.95051837046094,10.147592538563003],[-73.95151388533554,10.149273704751977],[-73.95031281565474,10.15264560987282],[-73.95271031262683,10.153375834914414],[-73.94778837082345,10.154941742521828],[-73.94557453620166,10.159066446997599],[-73.93828500350617,10.164478257569954],[-73.93151337697958,10.175176026146744],[-73.92656662400043,10.178654733994733],[-73.92057520276495,10.189223691174504],[-73.91874953834525,10.196700405550644],[-73.91393298824585,10.199147586580807],[-73.90689512777601,10.199143982918201],[-73.89807380708203,10.203891885507915],[-73.89633427266637,10.206646066914402],[-73.89428224187765,10.206215495055744],[-73.8924966877446,10.209555018635456],[-73.88821662777042,10.2111109554927],[-73.88588259907146,10.21482982729458],[-73.8788103505691,10.212590290865819],[-73.87311134948027,10.21363887543123],[-73.8704559654044,10.210324918932542],[-73.83952757240121,10.20902795007214],[-73.82835070593399,10.210437864546805],[-73.8205387861455,10.214380301240283],[-73.80334467219421,10.218722067765611],[-73.7935339034081,10.214821068049616],[-73.79676894031331,10.213517913107523],[-73.79369883062111,10.209808519431931],[-73.79561719884947,10.20590232402435],[-73.7933514134823,10.203503387232729],[-73.79597499091636,10.196761294489932],[-73.79518509049768,10.193462984715723],[-73.79756451876318,10.191776702025209],[-73.79543621764878,10.190080818823787],[-73.79541624529509,10.185614672460304],[-73.79236652139048,10.179194172664666],[-73.79848428781781,10.177808364882651],[-73.79819395438102,10.171362042952296],[-73.80103275500943,10.167213619506754],[-73.79961112760293,10.164996285095071],[-73.79613084623787,10.161874190718834],[-73.7930745557278,10.163038926553952],[-73.78858780657532,10.152306946836745],[-73.7869934882433,10.155128505626351],[-73.78103506458598,10.15301659274354],[-73.7794276325834,10.158201151457831],[-73.77577937158799,10.154488791753977],[-73.76597003028007,10.15614640763772],[-73.76660311892579,10.152603028238786],[-73.75558189180708,10.150870017234013],[-73.75939290074575,10.14722922684507],[-73.76688423237539,10.147972167549938],[-73.77954738443032,10.140549129645763],[-73.78685262452836,10.138884345517681],[-73.79252452204304,10.128250611885846],[-73.8012912416952,10.117771965328984],[-73.80139722372519,10.111277366249908],[-73.80933361385485,10.100688171378238],[-73.81006114951919,10.095316256148124],[-73.80732638407909,10.093319357077462],[-73.80867268732703,10.088511884011723],[-73.80500989032504,10.086308525105437],[-73.80292152671899,10.080667561084852],[-73.812523589551,10.074338992737523],[-73.82335701072446,10.077128807620397],[-73.83071330373764,10.072936113838182],[-73.84441365138554,10.07110752041416],[-73.85112867037901,10.068551428349679],[-73.85553214139856,10.070112883829438],[-73.86625767380957,10.064858223387716],[-73.88665267831749,10.059583046546209],[-73.91966844247975,10.05407677661384],[-73.95943762870752,10.033046460995934],[-73.97001306301826,10.03664054775328],[-73.9777633976118,10.032419800116031],[-73.98474605334411,10.032522473646452],[-74.00976103556218,10.023140881122458],[-74.01674196865332,10.025200259104565],[-74.03104607170934,10.00398695476622],[-74.03263106926681,10.00623387027008],[-74.03650601236313,10.004713282010641],[-74.03770573889801,10.006548743373799],[-74.04024716742907,10.005595258888036],[-74.04208180089597,10.008959829156879],[-74.0455658731002,10.010798892125763],[-74.04925641542445,10.01151805009738],[-74.05083506852003,10.010310120704958],[-74.05430000552269,10.016849277056167],[-74.05379867167653,10.019476784169171],[-74.05719531289691,10.026414841491658],[-74.05656573946777,10.029316964354393],[-74.05899646130388,10.031927679057958],[-74.06205622486436,10.041756518607542],[-74.06696885309225,10.04493469703965],[-74.07029367611466,10.050804627331956],[-74.07390890662168,10.051451090872604],[-74.07321549570855,10.057294970715873],[-74.07590148314847,10.057802482416264],[-74.07811821592122,10.06162227939626],[-74.07720020550329,10.062649555661153],[-74.08160528706384,10.065190070935273],[-74.0839424442849,10.068718320916275],[-74.08464439538477,10.074372251540126],[-74.07725299031557,10.083048179258299],[-74.07850116780594,10.084890231909583],[-74.07707795351268,10.084419004689721],[-74.0748432744179,10.086518716130513],[-74.07616270137754,10.089301077890411],[-74.07234170626202,10.09102105235786],[-74.072554904453,10.092663090422718],[-74.06736915891605,10.098236681173944],[-74.0695120392316,10.09894083931141],[-74.06574363866645,10.10655878044264],[-74.06795352098362,10.115096870123807],[-74.0726073694197,10.115433809490241],[-74.07183341911599,10.118880651046823],[-74.07400038246999,10.11995429258576],[-74.07297837902985,10.124718854915841],[-74.06943916893692,10.126877246201445],[-74.06641567443029,10.124811284130317],[-74.06677135407631,10.128257004684542],[-74.06284952017182,10.129186905954896],[-74.06306096898209,10.132040457534401],[-74.06529985440676,10.132735585946591],[-74.06296786819468,10.134207990645564],[-74.06048099853922,10.14099757686381],[-74.06304038367665,10.14276070992156],[-74.06027886536128,10.144774420942042],[-74.06208490915463,10.1461159491314],[-74.06147574825258,10.147691295784284],[-74.05805374049754,10.149438221616322],[-74.06009768567117,10.150569611231163],[-74.06266758149116,10.149639692477308],[-74.06274492448233,10.154064075847032],[-74.06425164830813,10.15479983802311],[-74.06221369175529,10.157753849924745],[-74.06518566849076,10.158376694254457],[-74.06606786751178,10.161346655242653],[-74.06308482782009,10.164334537870161],[-74.06558799006189,10.165673861078801],[-74.06483953484826,10.168846034434978],[-74.06203105579056,10.169934202724562],[-74.05867182725217,10.176585778127446],[-74.06084870890584,10.179319673505233],[-74.056611717019,10.183425064858909],[-74.05065571740073,10.184885802905967],[-74.05072287366875,10.186378705492757],[-74.04702663582987,10.188158237066432],[-74.04846755681797,10.192381605175228],[-74.04621133596623,10.195561524760478],[-74.0387141524987,10.198839069251846],[-74.04097838080389,10.20136627236593],[-74.03859219567101,10.202577457807365],[-74.03704450075219,10.208006308643803],[-74.03909807009092,10.207527413356559],[-74.04001894986351,10.210248795674147],[-74.03670432076336,10.213539273858657],[-74.04214639839904,10.216560710451745],[-74.04158753244991,10.220030065643527],[-74.03879464046707,10.220178925498999],[-74.03359229072566,10.223722218508783],[-74.036310072466,10.226459688752698],[-74.02784815335156,10.228985358459056],[-74.02491908632328,10.227624208614884],[-74.02377032631426,10.229941883020842],[-74.0215373688323,10.228101657911964],[-74.02147693240767,10.230898685262162],[-74.01991418417566,10.229387437317712],[-74.01846469934662,10.23212426992734],[-74.01477966330367,10.231450011699167],[-74.01432687502972,10.233200453776192],[-74.0119263698632,10.233318611537186],[-74.01228074955787,10.235502050540333],[-74.0082332615749,10.240645402648227],[-74.01011669875311,10.24430958599072],[-74.01076742518796,10.253028492321732],[-74.00873521042968,10.253500461048702],[-74.00074695800072,10.242086257816027],[-73.97965230507577,10.207328112509288],[-73.9761814884672,10.199146137505295],[-73.97798067049206,10.199089911524368],[-73.97502859617617,10.196829285853312],[-73.96110540971705,10.162920751309457],[-73.95628907764751,10.155258384546755]]]}}]}