{"type":"FeatureCollection","features":[{"type":"Feature","properties":{"code":"201017"},"geometry":{"type":"Polygon","coordinates":[[[-73.79274748221047,10.393122684367256],[-73.78831042431511,10.384602370286586],[-73.78500473032358,10.382214875946431],[-73.78580142874739,10.37737885743013],[-73.78214473349487,10.372681107868289],[-73.7827606584633,10.370143514399444],[-73.78049825667205,10.367293605563361],[-73.77722691780286,10.350802617193267],[-73.75651978099046,10.345719659343786],[-73.74599097832044,10.345358556720385],[-73.73890424420517,10.347774004128212],[-73.7351803134946,10.337168748069757],[-73.73633081465675,10.330267448311304],[-73.74182488417551,10.326494282972021],[-73.74157205906579,10.322269769178263],[-73.74426260250607,10.320567294688772],[-73.7477149338888,10.313938414955317],[-73.75100169733889,10.311629641719321],[-73.76111018686441,10.312947311070673],[-73.76768024174265,10.310450602305707],[-73.76746002957367,10.305221491461452],[-73.77199141210303,10.30366407570392],[-73.77552667606204,10.297816969636415],[-73.77349229437533,10.289852455717721],[-73.7813952961186,10.286015295542654],[-73.78604037296839,10.280247066902575],[-73.78864515870083,10.27994656731147],[-73.79406370454319,10.270963788341192],[-73.79785323343145,10.27212885019253],[-73.80317915979748,10.269444975173542],[-73.80343720630987,10.265331663784025],[-73.80890189425429,10.263633240329625],[-73.80944406138224,10.259413922227452],[-73.81317480758145,10.257103718427913],[-73.81226207924425,10.254997613159958],[-73.81370494604568,10.252868569510099],[-73.81072624946671,10.25103535837917],[-73.81171133799103,10.249856363188599],[-73.81056088002344,10.244211712201547],[-73.80515156239579,10.240977369495056],[-73.80285821168377,10.24367180970404],[-73.80104910004638,10.242497234759412],[-73.80182200853784,10.238036283059046],[-73.79831238879302,10.234943571285612],[-73.79962873968111,10.23136910309779],[-73.80245274513544,10.231720725538025],[-73.80311282114127,10.230342576567466],[-73.7988461370905,10.22676894450342],[-73.79764612567703,10.228461913098727],[-73.7940490050143,10.227691434816961],[-73.7979541400976,10.220767370483372],[-73.79235210571164,10.21548265586597],[-73.80334467219421,10.218722067765611],[-73.8205387861455,10.214380301240283],[-73.82835070593399,10.210437864546805],[-73.83952757240121,10.20902795007214],[-73.8704559654044,10.210324918932542],[-73.87311134948027,10.21363887543123],[-73.8788103505691,10.212590290865819],[-73.88588259907146,10.21482982729458],[-73.88821662777042,10.2111109554927],[-73.8924966877446,10.209555018635456],[-73.89428224187765,10.206215495055744],[-73.89633427266637,10.206646066914402],[-73.89807380708203,10.203891885507915],[-73.90689512777601,10.199143982918201],[-73.91393298824585,10.199147586580807],[-73.91874953834525,10.196700405550644],[-73.92057520276495,10.189223691174504],[-73.92656662400043,10.178654733994733],[-73.93151337697958,10.175176026146744],[-73.93828500350617,10.164478257569954],[-73.94557453620166,10.159066446997599],[-73.94778837082345,10.154941742521828],[-73.95431945595777,10.152070396829913],[-73.95429980550654,10.154432810542346],[-73.9555849750459,10.153602182771465],[-73.96110540971705,10.162920751309457],[-73.97502859617617,10.196829285853312],[-73.97798067049206,10.199089911524368],[-73.9761814884672,10.199146137505295],[-73.97965230507577,10.207328112509288],[-74.00873521042968,10.253500461048702],[-74.00678692172312,10.25853803784355],[-74.00339782824238,10.259554319029462],[-73.9913691943683,10.267709431114838],[-73.98728002772378,10.272290849429623],[-73.98511263345239,10.272186245512614],[-73.97537934135494,10.279084743793646],[-73.9703603166347,10.285363054211928],[-73.96993298128461,10.288645835532577],[-73.96620606089164,10.288599349930735],[-73.96395513754726,10.290370549063141],[-73.96373777005027,10.298023491178583],[-73.96191537196398,10.30096674042926],[-73.9631888213724,10.307442694873885],[-73.96202127686081,10.309268513560028],[-73.95827433063505,10.308827460843645],[-73.95774230600728,10.310881798428966],[-73.96286171288801,10.315517121529922],[-73.96017894035941,10.316402131284349],[-73.96114142885943,10.319765667968454],[-73.95579288395703,10.325933987487815],[-73.95827832099206,10.329441599712823],[-73.9577572215091,10.331078916198123],[-73.96057766855239,10.331729762960776],[-73.960928747975,10.337336329692846],[-73.95818023945748,10.339458754286682],[-73.95680139320285,10.338365416016586],[-73.95340899945012,10.339515683722311],[-73.95267808740897,10.342158648326347],[-73.95474309200006,10.344021872495318],[-73.94802333394347,10.3433072283579],[-73.94877062598863,10.34663904787476],[-73.94624805909342,10.347101331758438],[-73.94367679235955,10.352029744522156],[-73.93267356607026,10.355751891913485],[-73.93142529396317,10.360874056048601],[-73.9292507910971,10.362503754860143],[-73.93288499739708,10.366047169226135],[-73.9287871198444,10.368997053987925],[-73.92322943498522,10.370357263835615],[-73.9217019962702,10.375371876537486],[-73.91847202341597,10.373672823676259],[-73.91689941756238,10.37856309150692],[-73.90976226816645,10.380144909120133],[-73.90725042895514,10.383418541416177],[-73.9007966189348,10.381395525047765],[-73.89779429491745,10.385771792734204],[-73.89331144870431,10.385292320490692],[-73.89392941615961,10.390306880742003],[-73.88921873290468,10.389969561880264],[-73.88495906283185,10.39399014992074],[-73.88505406829483,10.388028971065978],[-73.8809750688331,10.390661804482704],[-73.87296312006009,10.389560545148356],[-73.87110759995403,10.393909025346431],[-73.86834332335582,10.394893798138924],[-73.86512825674748,10.391603113237522],[-73.86202530991409,10.392987595357113],[-73.85786901271263,10.388354786798118],[-73.85494796753596,10.392303514474463],[-73.84863554573616,10.39537850104108],[-73.84356041844808,10.40141845242215],[-73.84038282622822,10.398653054821636],[-73.83852213614165,10.401631683523362],[-73.83457452124009,10.400451111730376],[-73.83116768712591,10.403274833334592],[-73.8296037489859,10.40188811126717],[-73.83109973587182,10.396887542976344],[-73.82721408257515,10.398262029663101],[-73.82368711711882,10.395749328616944],[-73.8237134668446,10.391455012372603],[-73.82058456623577,10.392241258735055],[-73.81728168092076,10.389510578268585],[-73.82010636720412,10.388064100605504],[-73.81910206325972,10.385770345715628],[-73.81405694695275,10.388955305697664],[-73.81387253692475,10.391020946894685],[-73.80720454655074,10.396913202617213],[-73.8004068438641,10.39313061982972],[-73.79882618119183,10.39660876409124],[-73.79737905766689,10.393738203100952],[-73.7956163627257,10.394656506624983],[-73.79274748221047,10.393122684367256]]]}}]}