{"type":"FeatureCollection","features":[{"type":"Feature","properties":{"code":"201058"},"geometry":{"type":"Polygon","coordinates":[[[-73.7868369613488,9.490961514887545],[-73.78951817373013,9.487833269396617],[-73.78879409466106,9.48591933786929],[-73.7810358071215,9.487105071415272],[-73.77996409596915,9.481825260411767],[-73.77260525241854,9.483210069576103],[-73.76855333390517,9.48071000088936],[-73.7645727533071,9.483041288789025],[-73.76114712543438,9.479770940309947],[-73.7572935513167,9.478923197198696],[-73.76127987988002,9.47469787196377],[-73.75775094907004,9.469408970556856],[-73.75449859113598,9.470899995207617],[-73.75166464989843,9.46808217583498],[-73.7553752417096,9.465897685763593],[-73.75423708082923,9.459148562587757],[-73.75774949279543,9.458783387332005],[-73.75828735280612,9.455697481791162],[-73.76215241256978,9.451823487947308],[-73.76029966720165,9.449655343941288],[-73.76045619409615,9.44595198928016],[-73.75770635888779,9.44646934111853],[-73.76087439584819,9.441727905375387],[-73.75603218199416,9.44025089942454],[-73.7560788054073,9.437261715817272],[-73.75300363783481,9.4364349786444],[-73.75431640460067,9.432342830545053],[-73.75279345503725,9.427618551279977],[-73.75504272258911,9.425476766255713],[-73.75375883140384,9.422550766043003],[-73.75035352246994,9.424952537222225],[-73.75037865554822,9.421269423338288],[-73.7472382250703,9.420400768905267],[-73.74861668360211,9.415463359326395],[-73.74630623091946,9.413186199384938],[-73.74789285547297,9.408931588220923],[-73.74518999849045,9.407043944712768],[-73.74702535495248,9.403276665150031],[-73.74368982995725,9.401930879208635],[-73.74354127349227,9.397273429166887],[-73.74120317730319,9.395504772344395],[-73.74553763057372,9.39290618194974],[-73.74741327832834,9.389778589519779],[-73.74573998898063,9.386028328623809],[-73.7473625791975,9.380900150156833],[-73.74188881010559,9.375048711261002],[-73.73752262218426,9.373082563650087],[-73.73773293456554,9.361129238507829],[-73.73266599162298,9.357423075170175],[-73.73308226504531,9.352484753362774],[-73.73113667600035,9.348274188334926],[-73.73203463590295,9.344678953835796],[-73.72190033247023,9.34281992674073],[-73.71679105677674,9.334270851236624],[-73.71788399189734,9.32985424083546],[-73.7164028927453,9.324586250750258],[-73.7122464659601,9.319709924486347],[-73.71116164113715,9.314245684942819],[-73.70423811879277,9.30217980190912],[-73.70659959148031,9.282800294913898],[-73.70629604050026,9.278312166619969],[-73.70483932674881,9.276658368314884],[-73.7041508348762,9.274698446895002],[-73.70657304840739,9.27754927310184],[-73.71135828037518,9.279300108043913],[-73.7138417757107,9.286688812422994],[-73.72705204273046,9.298329865392645],[-73.73014432050121,9.298726296045004],[-73.7374591837359,9.294587227312604],[-73.746548216245,9.299317496226877],[-73.74897893910958,9.292122951510862],[-73.74581938062926,9.28748865273866],[-73.74587553461924,9.280464819196311],[-73.74985110156001,9.28292208924762],[-73.75506473948656,9.281455415030393],[-73.75764862932385,9.275606964788494],[-73.75752348329598,9.27933747958815],[-73.76038138621573,9.27800535136339],[-73.76066623908235,9.280022931384622],[-73.76474997657886,9.27741477647453],[-73.76679992785682,9.278821359823894],[-73.76752911725674,9.27632776209748],[-73.76396172269659,9.275987823792718],[-73.76318388488016,9.273735885375572],[-73.76614117854183,9.270571802776658],[-73.76959557709404,9.270641502383057],[-73.77538669269393,9.267404084633426],[-73.7767671248069,9.262878992058518],[-73.77926641804794,9.261605145671297],[-73.77891463208533,9.259918663462997],[-73.7725339669538,9.261015139511187],[-73.76713875441527,9.257278680313789],[-73.77117054425162,9.25450991456404],[-73.77108960993917,9.24950552046704],[-73.77341453897873,9.247858632267196],[-73.77430426619895,9.240054367176413],[-73.77717205039448,9.23984010146205],[-73.77759986294183,9.249791340069578],[-73.77995726813924,9.256724457782695],[-73.7870677921868,9.26340264927802],[-73.79611585668817,9.263745509388002],[-73.80726082601069,9.26000653873399],[-73.80836375656418,9.266106383522015],[-73.81033732027407,9.266062523533947],[-73.80998795320824,9.264328872837893],[-73.81390156985702,9.265113294743344],[-73.8156629123963,9.262081525388226],[-73.81831161468114,9.263252937872096],[-73.81665282431607,9.261297771970419],[-73.81832809547251,9.25963124463226],[-73.83114853649778,9.261094016938614],[-73.83563483930624,9.264876273709831],[-73.84124990303042,9.265016770270734],[-73.88265294914817,9.236561952246518],[-73.88497202223601,9.233958211411732],[-73.88491845580745,9.231031087111319],[-73.89049561833951,9.230900677514626],[-73.8955152704097,9.226608680408106],[-73.90278811045465,9.214538454261628],[-73.90094782672458,9.211597139511412],[-73.9048026226319,9.21026728105926],[-73.91467211342894,9.192922360410819],[-73.90897587473677,9.177961080528405],[-73.96189206437123,9.187326870004654],[-73.96071092282108,9.190546340403841],[-73.95755568071405,9.192446226491711],[-73.9522650978036,9.203283851938181],[-73.96117906574182,9.207154340849911],[-73.96446254640341,9.211608338221993],[-73.9660844136252,9.217492519642292],[-73.96413523223049,9.222851120655605],[-73.95768367449926,9.23004137882316],[-73.95131088209524,9.243578567150792],[-73.95172506880766,9.255765330232862],[-73.94623275586872,9.261583620369379],[-73.94800798649578,9.266277918478181],[-73.9467954527662,9.271730442004468],[-73.94436647414017,9.274792319014352],[-73.94582728520663,9.280728495403082],[-73.94261632516924,9.29044331975814],[-73.95429675720294,9.298182521461456],[-73.95722347218322,9.30353823666502],[-73.97778685124342,9.305289773004915],[-73.98062538550528,9.31005536069216],[-73.98893119938668,9.316585425611493],[-73.99188559901108,9.325155078193575],[-73.9904964724451,9.328789319460554],[-73.99129192233966,9.333050273029642],[-73.99683570882667,9.334719744798747],[-73.99434088725366,9.337397642509814],[-73.99416021664263,9.354673222478311],[-73.99651222868744,9.362088841198158],[-73.99721812592122,9.384266142761646],[-74.00016926024068,9.390775450625654],[-73.99552551830925,9.392666255566098],[-73.99090259411133,9.397754186963539],[-73.98353304138874,9.393644098712855],[-73.98263879416368,9.390676050627803],[-73.97834470109132,9.38956953698056],[-73.97082838242227,9.391743989453005],[-73.96664978447319,9.390796699276564],[-73.96200087358966,9.38746571588348],[-73.9613553161069,9.384979148590162],[-73.9570715887067,9.385529190502439],[-73.94671120481195,9.37905073077178],[-73.93806243826072,9.383007418593252],[-73.93385200178818,9.383791157612848],[-73.93241636390923,9.382521396199309],[-73.92795235362081,9.384152567740557],[-73.92584508518439,9.388486942849454],[-73.92567597735257,9.393805373926455],[-73.91739089481547,9.393945176288696],[-73.91653683603863,9.396250280041784],[-73.91429820052554,9.394035269910205],[-73.91013787800006,9.394365550111331],[-73.90910973167274,9.401114345214012],[-73.91140873470488,9.413775474322449],[-73.91029093287256,9.41991392787105],[-73.90396540460137,9.431711880031344],[-73.89251286308848,9.442599490869554],[-73.88003586324328,9.44639102624916],[-73.87478183117992,9.453087509623117],[-73.87043577193555,9.453468049810112],[-73.86882477946494,9.456904997749689],[-73.86362541940593,9.458373285593211],[-73.86191006470233,9.461072145019727],[-73.85772609005579,9.46058919149823],[-73.85282228483624,9.45737077422416],[-73.8419199065919,9.458405510811133],[-73.83746021267672,9.455164576816571],[-73.83234622568807,9.458897255459249],[-73.82895576335034,9.466153768979211],[-73.82397962056933,9.467849901063687],[-73.81662187950911,9.467633092010999],[-73.81076733985913,9.461496474232263],[-73.80430114944772,9.458265992299005],[-73.7884866746802,9.458418177109195],[-73.79290816298425,9.470799173902208],[-73.79471359485433,9.472048332526754],[-73.79512231025257,9.478167253895037],[-73.79947920002508,9.48868675944476],[-73.79556725768072,9.49140498033006],[-73.78860148177546,9.492895531897261],[-73.7868369613488,9.490961514887545]],[[-73.82345678918921,9.26246698255892],[-73.82083959426939,9.261208935105685],[-73.8207863332882,9.262228071248046],[-73.82345678918921,9.26246698255892]]]}}]}