{"type":"FeatureCollection","features":[{"type":"Feature","properties":{"code":"201001"},"geometry":{"type":"Polygon","coordinates":[[[-73.57678768649004,10.424465186949703],[-73.5803947295662,10.417918321393415],[-73.57876107742158,10.415691022402143],[-73.5803600196312,10.414183389433163],[-73.58258745437684,10.415865809293564],[-73.58563108784483,10.412906176953584],[-73.58519021304903,10.411334402081536],[-73.58631911074764,10.412418673602417],[-73.58966175565047,10.409693422284022],[-73.59025613269125,10.411151954321838],[-73.59285624826623,10.40847081495997],[-73.59578081894381,10.410405626955765],[-73.5944111422827,10.411140368916847],[-73.59508490068782,10.41234089763691],[-73.59718497105501,10.41221004272461],[-73.59779049127053,10.41270605540916],[-73.59308844693277,10.413510388990176],[-73.59320892588852,10.416054303266833],[-73.59556423820538,10.417327977904108],[-73.59318100984478,10.419243227894754],[-73.58933400850327,10.419291560579381],[-73.58755459314358,10.4176118938596],[-73.58356794679156,10.419253252124008],[-73.5795011354021,10.423900518527944],[-73.5783281247185,10.432160508096047],[-73.57670919678543,10.43224836176978],[-73.57678768649004,10.424465186949703]]]}}]}