{"type":"FeatureCollection","features":[{"type":"Feature","properties":{"code":"201048"},"geometry":{"type":"Polygon","coordinates":[[[-73.92745893158298,9.573127561063757],[-73.91013543236375,9.557036260423502],[-73.91073844729328,9.540029296271143],[-73.91344790276304,9.5393162811867],[-73.91305574426087,9.535216446507945],[-73.91512348759443,9.534253875732531],[-73.91469567916084,9.533006101391607],[-73.90931241712434,9.530011438242582],[-73.90760118236147,9.531900926776586],[-73.90648822655032,9.529360953491675],[-73.90327632754497,9.527722930466382],[-73.90219277079166,9.517177122499277],[-73.89280905864769,9.512421208342346],[-73.8869724437223,9.503205230030972],[-73.88655314565057,9.497730636128153],[-73.88320375107952,9.492304145567289],[-73.88442451646301,9.486381795559794],[-73.88061702479774,9.469103320525619],[-73.88251694379574,9.460745890142618],[-73.88017476674673,9.454224839521942],[-73.8851455420862,9.44446019329746],[-73.89206826018858,9.442850135681113],[-73.89794393741766,9.43809417318738],[-73.90396540460137,9.431711880031344],[-73.90979638983237,9.42112069409501],[-73.91140864008815,9.413947251991033],[-73.90910973167274,9.401114345214012],[-73.91013787800006,9.394365550111331],[-73.91429820052554,9.394035269910205],[-73.91653683603863,9.396250280041784],[-73.91739089481547,9.393945176288696],[-73.92567597735257,9.393805373926455],[-73.92740983168022,9.384718543312772],[-73.93032668183986,9.383188432704117],[-73.93779667842944,9.383076247108818],[-73.94671120481195,9.37905073077178],[-73.9570715887067,9.385529190502439],[-73.9613553161069,9.384979148590162],[-73.96200087358966,9.38746571588348],[-73.96664978447319,9.390796699276564],[-73.97082838242227,9.391743989453005],[-73.97919309932047,9.38961612645511],[-73.98263879416368,9.390676050627803],[-73.98353304138874,9.393644098712855],[-73.99063800773297,9.397696482082267],[-73.99698159442636,9.39774440647517],[-74.0007862362774,9.395092756674103],[-74.005015834691,9.400146652794831],[-74.00843944578793,9.398864654972215],[-74.0111917194335,9.405247206267347],[-74.01650152496308,9.411275387123794],[-74.02208868704173,9.413693771763462],[-74.02377303214655,9.417646177150232],[-74.0324902580025,9.420043468433846],[-74.03475241708134,9.423469268056465],[-74.0384527296095,9.422112392419422],[-74.04464134029979,9.422771968602149],[-74.0526535729229,9.426949781849544],[-74.05682173629418,9.43283821999347],[-74.06455656917365,9.438130068916621],[-74.06987960150246,9.449646580582566],[-74.07616092628575,9.451966960820869],[-74.08024438918807,9.457821191938137],[-74.0846711318049,9.459465555311567],[-74.09133019632628,9.465707304598311],[-74.09570223402864,9.475736109369052],[-74.09765909274671,9.477040242359976],[-74.10060671904876,9.475421718604878],[-74.10450781338142,9.476208078095965],[-74.11142351133509,9.480184531554187],[-74.11436669990763,9.480035113254417],[-74.11548548390255,9.478429023369301],[-74.12061672095757,9.479930482597922],[-74.12354874372971,9.486244291766639],[-74.12680966653306,9.48699768453281],[-74.12713923093816,9.49137362517456],[-74.13075205077598,9.492739487342362],[-74.13293921994011,9.491074460501864],[-74.14027992587847,9.49377097610784],[-74.13755083949792,9.494784045467782],[-74.13757382004599,9.49613457664293],[-74.13143981965345,9.497777631837494],[-74.1288833738048,9.500472261279867],[-74.12512658846947,9.500410618492197],[-74.12206242317501,9.503934775272],[-74.1195465257295,9.503775723551144],[-74.11601534674418,9.511235104557045],[-74.11078096101824,9.513512877450239],[-74.11044652076714,9.516773402246315],[-74.10289813114662,9.519222970291594],[-74.09817152451609,9.52592283209924],[-74.09679317705616,9.533976338177524],[-74.07966865986697,9.549136569236737],[-74.07894736479182,9.55393514936003],[-74.07375648321289,9.556561597177165],[-74.06979109271083,9.5639503910308],[-74.06690236839722,9.565171987395843],[-74.06284386785171,9.562942011368762],[-74.05714762915949,9.56706448103887],[-74.05360761790985,9.567481252227424],[-74.046031492223,9.581420983241287],[-74.04139942517105,9.58549012405308],[-74.03999614209374,9.58891884445245],[-74.03634071285398,9.590376256516379],[-74.01137567283308,9.590612882627966],[-73.98906422122735,9.587281649323359],[-73.98583433476233,9.585191166097275],[-73.9795640904187,9.573770348950859],[-73.97727141230814,9.577611041825946],[-73.96410820990332,9.57665190399166],[-73.94968919587933,9.590541882041805],[-73.94778076240567,9.587487514719214],[-73.94805470658252,9.581472948384885],[-73.94535295209033,9.577839621403257],[-73.93549916561057,9.573327486175629],[-73.92745893158298,9.573127561063757]],[[-73.97469985143971,9.502506385855952],[-73.97525359060285,9.505010301946129],[-73.97549126469738,9.501022500653164],[-73.9777475914787,9.501321529571442],[-73.9809004619973,9.499648285475189],[-73.98124337661477,9.496706869937555],[-73.98305618344614,9.497083395084985],[-73.98142402871383,9.494833350030547],[-73.97737489110904,9.494214800476755],[-73.9731388309911,9.486304775499605],[-73.97101374993025,9.487652020800908],[-73.97246051658567,9.490274070997884],[-73.97156171541712,9.493159980464327],[-73.96966752381547,9.492982331417409],[-73.97134694679437,9.493782605735817],[-73.97216331006751,9.497438164559355],[-73.96793376410454,9.500756927998395],[-73.96926919054448,9.499943922590091],[-73.9723186254567,9.50452639917222],[-73.97469985143971,9.502506385855952]]]}}]}