{"type":"FeatureCollection","features":[{"type":"Feature","properties":{"code":"202007"},"geometry":{"type":"Polygon","coordinates":[[[-72.90626321479937,10.35290008045871],[-72.91847994772485,10.361637710614275],[-72.92305986554203,10.362146867822673],[-72.92805107706283,10.360350215766346],[-72.93835385994896,10.361525894229828],[-72.94321192004531,10.36371589778156],[-72.94671482920268,10.367668192096573],[-72.95612278790747,10.367382615206452],[-72.96324622096552,10.370906754502698],[-72.97507792249553,10.362263277231364],[-72.98756450639661,10.366641415654783],[-72.99426094143377,10.362067666435848],[-73.0017565277301,10.361010455294547],[-73.00544170981192,10.35457552439351],[-73.01301313963023,10.354993941090015],[-73.01744692296455,10.353209800037007],[-73.02091743412569,10.354170375633885],[-73.03328006807754,10.351351040337022],[-73.04123751762461,10.354800502365151],[-73.04729158952142,10.354084418408206],[-73.05266611493875,10.357029279228243],[-73.05523868368078,10.362194475455283],[-73.06636205879573,10.367196938137226],[-73.07464551330838,10.374242105691167],[-73.08611845089325,10.387319565814721],[-73.0949448664914,10.39077391191637],[-73.09928798644705,10.39541772275345],[-73.10695571448065,10.395385738191123],[-73.11555364511821,10.391268241040507],[-73.12274125298939,10.39370788153019],[-73.12851384325421,10.399110401152825],[-73.12343101293163,10.403700919127004],[-73.11752961641201,10.404940858792827],[-73.1163333526431,10.409057038508479],[-73.11345338346064,10.409119543130998],[-73.10929391351397,10.412861740009248],[-73.09969115956858,10.416147684819066],[-73.09856809519596,10.418299036415647],[-73.08512182324387,10.426620101071137],[-73.07148554962174,10.423546862856824],[-73.05968224750347,10.41536828788378],[-73.05083253151162,10.414083447446046],[-73.0473555946416,10.409995487164622],[-73.03898771528259,10.405977484628636],[-73.03778006151282,10.403939716280718],[-73.02539105109571,10.411262776202364],[-73.0170437827532,10.412029471872529],[-73.01378813380308,10.411146351366995],[-73.01055027690853,10.404716528739982],[-73.00664220356492,10.405401738852504],[-72.99966127150225,10.404190705620522],[-72.99313922740612,10.401002636656756],[-72.98252846403796,10.400603743912995],[-72.97486327111523,10.404495859942472],[-72.97279876531871,10.408969899602312],[-72.9698418233844,10.410813805507019],[-72.95707997787162,10.413429033016314],[-72.95441978068476,10.417472584121356],[-72.94869435685075,10.420384426794328],[-72.94342869413094,10.42553157899738],[-72.93802535586809,10.425821893922205],[-72.92675003659849,10.431534735790422],[-72.91918748223912,10.433546741653231],[-72.8991236526773,10.434713759602289],[-72.89544963948123,10.428622592812246],[-72.89620658963008,10.417700723525286],[-72.89424241457192,10.411335687634676],[-72.89942457598676,10.406966460665728],[-72.89905725539984,10.398426682281922],[-72.88743938660991,10.394093539247137],[-72.88603657764463,10.389038954069918],[-72.88758788342523,10.381430568198141],[-72.89242170518827,10.3706559893634],[-72.90626321479937,10.35290008045871]],[[-73.0258276424284,10.3950223616813],[-73.0296228740304,10.396254669275152],[-73.031164839496,10.392571012373594],[-73.03268676164538,10.392672778817712],[-73.0326362455773,10.394150925311237],[-73.03491596531217,10.392636426460001],[-73.03551095633316,10.394915839718976],[-73.03785930300887,10.393007591365006],[-73.0333911717513,10.39193764810534],[-73.03249279532946,10.38959310872383],[-73.03798601741158,10.385118860290163],[-73.0268102740036,10.386013998146495],[-73.01969020086722,10.394126031860083],[-73.02010169717403,10.395642561885325],[-73.0258276424284,10.3950223616813]]]}}]}