{"type":"FeatureCollection","features":[{"type":"Feature","properties":{"code":"203040"},"geometry":{"type":"Polygon","coordinates":[[[-73.60660456144473,9.36853145045103],[-73.59834430345313,9.366990595703328],[-73.59663064465121,9.36406116049261],[-73.5910735953695,9.363477972906367],[-73.58609308376464,9.360675262382813],[-73.58888604979535,9.360854174357144],[-73.59124640559435,9.357572152027046],[-73.59384761337526,9.358563563415998],[-73.5960738479285,9.354556028367938],[-73.6075757156014,9.355395648840272],[-73.60802932148715,9.359391716754203],[-73.61018424897833,9.361387764274411],[-73.61246245278892,9.360968653379189],[-73.61057125806877,9.361858016530789],[-73.60950731474276,9.365158181615357],[-73.61263540905264,9.365940348146296],[-73.60976981132592,9.36569669160167],[-73.60985092458736,9.367511717811965],[-73.60660456144473,9.36853145045103]]]}}]}