{"type":"FeatureCollection","features":[{"type":"Feature","properties":{"code":"204007"},"geometry":{"type":"Polygon","coordinates":[[[-73.43715388085178,8.998866578223442],[-73.43960896340587,8.975096551385377],[-73.43142610599818,8.94186920162997],[-73.43158017800039,8.924817078566605],[-73.42709556595145,8.912047893059594],[-73.42595744723718,8.900220309413442],[-73.43105223628936,8.881404785897303],[-73.43083665108327,8.877349525974239],[-73.43438360740527,8.870630319162842],[-73.4400496016599,8.869167530401398],[-73.45293439747576,8.870517313898858],[-73.4609682654442,8.856295608628955],[-73.466505434932,8.854237731144508],[-73.46689203058855,8.851330540116976],[-73.47291898142777,8.852635509231732],[-73.47904024455966,8.850467640848308],[-73.48358266639104,8.85142876049133],[-73.48756159222506,8.849510460140152],[-73.49046399071045,8.850719768673969],[-73.49983042707697,8.849948988030121],[-73.50608025786505,8.84755934013134],[-73.51182270756499,8.84033637749161],[-73.52199269178249,8.83999905245929],[-73.52283499751815,8.835234489100742],[-73.53346659610332,8.833832955404205],[-73.53257104069934,8.830888741474439],[-73.53641254295866,8.829399162813843],[-73.53620143764817,8.827692338012525],[-73.53936603652522,8.827533036380146],[-73.5397540473187,8.829487628410902],[-73.54198373023968,8.828413804837567],[-73.54402746149731,8.831792491508452],[-73.54955642709922,8.830961790718106],[-73.55067807942027,8.834795718498356],[-73.5646900153265,8.831682483125974],[-73.5712949498328,8.835819962914684],[-73.57043534260856,8.84286190938667],[-73.5684595708326,8.844362309319422],[-73.56903461829626,8.847572721196968],[-73.5723256466975,8.84979457252814],[-73.57275597275839,8.854186927112494],[-73.57468000153438,8.8548246776881],[-73.57635589284166,8.860773818623215],[-73.57862843610462,8.860016264778608],[-73.57786993403602,8.86211620967589],[-73.57966912737373,8.861827048663542],[-73.58301258783143,8.866610929257888],[-73.59120341566864,8.871722149736172],[-73.59326894579391,8.875446434231037],[-73.59699639994858,8.877065155447156],[-73.59634920621374,8.878392242246662],[-73.60069761750617,8.879674937353286],[-73.60031109795437,8.882404894824674],[-73.6041776489597,8.883749094907671],[-73.60952900253858,8.892611792929472],[-73.61480878063196,8.889082173063002],[-73.61973966679994,8.878195854977037],[-73.62460638741072,8.874880304392434],[-73.62788169915336,8.868151919759953],[-73.63248509939854,8.86626784597587],[-73.63514012557641,8.863020691960912],[-73.64691423843914,8.859246233869328],[-73.6484174974421,8.85641352573441],[-73.65066826549162,8.855686035321469],[-73.6513220937091,8.853348482150011],[-73.64930662508033,8.85158876043613],[-73.6494755436787,8.849480069663741],[-73.65237435804193,8.851368522556072],[-73.66035196917608,8.850723189273822],[-73.66331421890226,8.84779146783535],[-73.66850019686729,8.846355123416402],[-73.66960444382715,8.84297374222615],[-73.6710531367554,8.844078377937308],[-73.68057425601899,8.837622982058576],[-73.68603194746902,8.847046469216991],[-73.68370351863956,8.849840050256319],[-73.68554946600267,8.85886074790227],[-73.68913187890894,8.86144582867604],[-73.6954913982338,8.856578014830859],[-73.699018795636,8.860776825789173],[-73.69516561746872,8.887243679851338],[-73.69663267940882,8.927567286071167],[-73.6938879195643,8.942098357135137],[-73.69468847773283,9.003519013579478],[-73.69083855767144,9.03864031428094],[-73.68372589549188,9.037814458483297],[-73.6769089691577,9.032317837398693],[-73.66961611047907,9.03515095073999],[-73.65846666228936,9.031782855998642],[-73.65624842079143,9.034887087356708],[-73.6541772650856,9.035162694525127],[-73.64761269077752,9.030602749061643],[-73.63812065998212,9.040667853739535],[-73.63147442630964,9.044286413315035],[-73.61881490157151,9.040804520380505],[-73.61112675278332,9.04118238867386],[-73.60881966722144,9.043180915769028],[-73.60815896283731,9.047663357804254],[-73.602816293427,9.050494204458289],[-73.59707346628869,9.057475473850047],[-73.59139301316071,9.059376739079369],[-73.5806449815127,9.071228682414983],[-73.57189561477117,9.068207048360875],[-73.56894735906235,9.065064533230043],[-73.56545042207068,9.064017619883657],[-73.56839375771051,9.054564760406947],[-73.56770258468828,9.047294744465148],[-73.55668833040983,9.043327060536285],[-73.55491464861723,9.019902401151057],[-73.55002586174373,9.01478826709507],[-73.54901588799578,9.007351634209272],[-73.54460647052161,9.003403311739248],[-73.54148324074487,9.00301110592875],[-73.53903653382667,8.998694911626671],[-73.53399595089434,8.9965887981312],[-73.51480681683688,8.995775488303877],[-73.50963955446883,8.98976200594791],[-73.4981847534678,8.986300551251588],[-73.49301966214193,8.981317517905723],[-73.48992230592205,8.981254953633538],[-73.48680870750951,8.983480836459421],[-73.48617481770708,8.986032768473876],[-73.47701948459417,8.989008209003828],[-73.46599264115088,8.990168697371303],[-73.46426517962192,8.994673877242121],[-73.4506884445941,8.996507700296377],[-73.44407198227566,9.00017937070038],[-73.43715388085178,8.998866578223442]],[[-73.62473464139191,8.96862780118056],[-73.6267595974029,8.966986181691766],[-73.62321728141353,8.961502692789622],[-73.62358481077422,8.95975717695228],[-73.62936498271728,8.961371377135038],[-73.63389791510951,8.958180754548493],[-73.63149710243874,8.956900836236684],[-73.63242226670286,8.955110576979052],[-73.62637723481572,8.950897967407514],[-73.62243821049452,8.953256211813994],[-73.61977976268838,8.950853530463121],[-73.6198624741495,8.955534966869777],[-73.61840268946872,8.954345805524838],[-73.61700000597341,8.955362689378092],[-73.61906706436423,8.956604097659863],[-73.61946741749637,8.960182639508503],[-73.62095622893884,8.959446526633485],[-73.62250775583453,8.961171939504936],[-73.6198075254942,8.962777306394969],[-73.62473464139191,8.96862780118056]]]}}]}