{"type":"FeatureCollection","features":[{"type":"Feature","properties":{"code":"204040"},"geometry":{"type":"Polygon","coordinates":[[[-73.6616666642717,8.693261451872843],[-73.65849493623108,8.69269391718177],[-73.658416375564,8.685820199223258],[-73.66089696760628,8.683912455834559],[-73.66036146375745,8.68286380544879],[-73.6655617843818,8.680613327420076],[-73.66639154517566,8.682371610342841],[-73.66781536727848,8.679288584441053],[-73.66839200471429,8.680309100753277],[-73.66984693823179,8.679160596826478],[-73.67347749458924,8.685668708611786],[-73.67405435005486,8.689901266882941],[-73.66594742152989,8.693999623689763],[-73.6668190574178,8.695748531330594],[-73.66428921017797,8.697104899945487],[-73.6616666642717,8.693261451872843]]]}}]}