{"type":"FeatureCollection","features":[{"type":"Feature","properties":{"code":"204060"},"geometry":{"type":"Polygon","coordinates":[[[-73.80537680262023,8.623450973219974],[-73.80629072703607,8.622253709804909],[-73.80250596292206,8.623444449809028],[-73.79567226783257,8.619660080616939],[-73.79716757594645,8.618426955411223],[-73.79647058502485,8.615090156175711],[-73.79939358527076,8.612009141907492],[-73.79802318664298,8.610100360820297],[-73.79841532971847,8.609442103100832],[-73.80800214589016,8.623229745978165],[-73.80537680262023,8.623450973219974]]]}}]}