{"type":"FeatureCollection","features":[{"type":"Feature","properties":{"code":"204047"},"geometry":{"type":"Polygon","coordinates":[[[-73.44903082048285,8.870680242847982],[-73.44892459676885,8.864362660323707],[-73.44308011117295,8.847462981237982],[-73.42986985443758,8.835239399913803],[-73.4315153131023,8.825384167443815],[-73.42940096075375,8.823380184461087],[-73.43197751059682,8.815754021960345],[-73.43507185039476,8.81476823409514],[-73.4369764066401,8.811940533446773],[-73.44210560223678,8.810914091248776],[-73.44521948449949,8.805110498584213],[-73.45087032156823,8.802596412225967],[-73.45750346830965,8.796895770771357],[-73.46318630742428,8.797567392072892],[-73.47400877671339,8.794164073175239],[-73.48094009670893,8.794902998840541],[-73.48607126485831,8.792448545693276],[-73.4960277937742,8.795515518635852],[-73.51032255651529,8.790942294951037],[-73.51386299148328,8.791458457909869],[-73.5135607250279,8.789264405379924],[-73.51532961530683,8.789276088486929],[-73.5143736049663,8.785897782339816],[-73.51916269050821,8.784821142890905],[-73.51898367260429,8.781485817413511],[-73.52118731741763,8.781708337407508],[-73.52198741998609,8.777712201616396],[-73.5245370760573,8.775203639022891],[-73.52733493953127,8.775361449413651],[-73.5280030291612,8.778370891281668],[-73.5305296707457,8.777582360748397],[-73.52985717012581,8.779856359257508],[-73.53305458043303,8.780288217697773],[-73.53104643637187,8.782304865950096],[-73.5312310284342,8.785790515785152],[-73.53719912459337,8.786420760787223],[-73.53833243739575,8.78286354266578],[-73.54395391140218,8.78355872250006],[-73.54877926188419,8.781680470729043],[-73.55096371698852,8.777838771008703],[-73.55672077879973,8.778222024227091],[-73.56307167257728,8.776393163407988],[-73.56314125185588,8.773734008033443],[-73.5838639068374,8.774749617646364],[-73.58727580808784,8.771938862645413],[-73.59110440339356,8.772740621006392],[-73.59411611914805,8.763131363190496],[-73.60385388394195,8.756233975627424],[-73.6052721946213,8.748639935500307],[-73.61309718077194,8.742025790262858],[-73.61938206602326,8.725762501123313],[-73.61707711036593,8.722213226691906],[-73.61540250049802,8.712343689614897],[-73.61799692055826,8.708592444499459],[-73.61673956627527,8.706727267318172],[-73.6169829050312,8.700965964210013],[-73.61895732337683,8.697000349507448],[-73.61561015949763,8.695048997070614],[-73.61615490184562,8.692653705079294],[-73.61786196010343,8.689935465682026],[-73.62041036661697,8.689305643369778],[-73.6196825059647,8.686362953591868],[-73.628579127163,8.682672300195804],[-73.62993280640075,8.679032492997862],[-73.63285269457953,8.680159322498582],[-73.63469879929431,8.670159462214087],[-73.636656837636,8.669196577763728],[-73.63622199568397,8.671013393464023],[-73.64001321430328,8.670959021764986],[-73.63972920475953,8.669558409552906],[-73.63846856871646,8.669996583658644],[-73.639124042442,8.665976186908495],[-73.64471564225016,8.667173818505944],[-73.64600880690165,8.664110257935704],[-73.6480445502462,8.66367745127144],[-73.64694049971882,8.661317530503652],[-73.64484648379272,8.661545702817762],[-73.64654048802964,8.660020764246497],[-73.64442294750933,8.657045986033552],[-73.6487207038939,8.652390035460996],[-73.67016023370468,8.646934541792632],[-73.67729173180896,8.647015588205363],[-73.68279534835966,8.651294568314881],[-73.68534329927314,8.650214497981722],[-73.69030051048424,8.653649690369889],[-73.70413626390263,8.65716939193669],[-73.71026497295838,8.655101492279869],[-73.71867129858401,8.655995608892795],[-73.72236190055793,8.652322601513447],[-73.73100599900863,8.658282159542864],[-73.73291407047049,8.657011322378423],[-73.74433204397337,8.657099512352886],[-73.74798190728222,8.659482896008285],[-73.75110270787775,8.665579560852052],[-73.7548966467275,8.664992872447499],[-73.75703193713724,8.660912434194643],[-73.76033730408409,8.659175864778774],[-73.76604220329074,8.66249771354535],[-73.77430565665327,8.663508033878486],[-73.77786209212996,8.662341127001241],[-73.7792925425448,8.664502058539881],[-73.78586207188891,8.661916788532665],[-73.80338061317497,8.664025299327704],[-73.80349175798636,8.667342488221266],[-73.80089472773903,8.670550341333751],[-73.80332385548923,8.673273611871878],[-73.79741619472622,8.675371427893083],[-73.79902081085316,8.679530596506083],[-73.80421419051896,8.683521714526194],[-73.80355005730746,8.693144819292172],[-73.80174412355746,8.697646174385284],[-73.8057243267171,8.702100904008432],[-73.80482018896026,8.708271083980264],[-73.80310610849693,8.70984193325404],[-73.80087159189611,8.70783532054378],[-73.7975067274927,8.707552547187959],[-73.78952202524732,8.713399779753843],[-73.78201682095658,8.716605920509608],[-73.77988720137887,8.71420937793215],[-73.78098062706658,8.716192594603513],[-73.77973592159816,8.715870630388622],[-73.77427234642852,8.724045404238097],[-73.76744357243649,8.724137049779358],[-73.76496813803345,8.722399033344857],[-73.76787450939224,8.727060059281257],[-73.76741515451283,8.73097012368953],[-73.76371251564768,8.734993882418337],[-73.75939069473657,8.734382231656923],[-73.75861611502603,8.736845352517719],[-73.76028620797439,8.737929489312592],[-73.75755619908091,8.742176664837245],[-73.7360385600893,8.740967468403653],[-73.72927684774862,8.74588897209054],[-73.70558859134673,8.74975516931164],[-73.69607735541575,8.747027540234171],[-73.69539981337067,8.744179949507497],[-73.69162254660256,8.74100705418465],[-73.69428046064706,8.772072660960248],[-73.69240328771218,8.77243803470543],[-73.69170420596697,8.776625739512951],[-73.68516224093929,8.778593352654468],[-73.68169226353979,8.793800681238793],[-73.68126462685609,8.804269012517238],[-73.67274959588462,8.842545467908053],[-73.6710531367554,8.844078377937308],[-73.66960444382715,8.84297374222615],[-73.66850019686729,8.846355123416402],[-73.66331421890226,8.84779146783535],[-73.65975972306819,8.850946304735999],[-73.65237435804193,8.851368522556072],[-73.6494755436787,8.849480069663741],[-73.64930662508033,8.85158876043613],[-73.6513220937091,8.853348482150011],[-73.65066826549162,8.855686035321469],[-73.6484174974421,8.85641352573441],[-73.64691423843914,8.859246233869328],[-73.63514012557641,8.863020691960912],[-73.63248509939854,8.86626784597587],[-73.62788169915336,8.868151919759953],[-73.62460638741072,8.874880304392434],[-73.61973966679994,8.878195854977037],[-73.61480878063196,8.889082173063002],[-73.60993823524342,8.89250947215487],[-73.60761639975897,8.890835019638644],[-73.6041776489597,8.883749094907671],[-73.60031109795437,8.882404894824674],[-73.60069761750617,8.879674937353286],[-73.59634920621374,8.878392242246662],[-73.59699639994858,8.877065155447156],[-73.59326894579391,8.875446434231037],[-73.59120341566864,8.871722149736172],[-73.58301258783143,8.866610929257888],[-73.57966912737373,8.861827048663542],[-73.57786993403602,8.86211620967589],[-73.57862843610462,8.860016264778608],[-73.57635589284166,8.860773818623215],[-73.57468000153438,8.8548246776881],[-73.57275597275839,8.854186927112494],[-73.5723256466975,8.84979457252814],[-73.56903461829626,8.847572721196968],[-73.5684595708326,8.844362309319422],[-73.57043534260856,8.84286190938667],[-73.57119852306221,8.835704562408125],[-73.5634950453383,8.831428813664957],[-73.55783493480328,8.83422599631001],[-73.55067807942027,8.834795718498356],[-73.54934334100841,8.833760886266248],[-73.55010983921761,8.832495053503123],[-73.54998158215113,8.831600919406696],[-73.54955642709922,8.830961790718106],[-73.54402746149731,8.831792491508452],[-73.54198373023968,8.828413804837567],[-73.5394383206077,8.829386591132504],[-73.53932060302009,8.827520541831973],[-73.53301887393718,8.83001352763506],[-73.53341996446261,8.833861129586978],[-73.52283499751815,8.835234489100742],[-73.52199269178249,8.83999905245929],[-73.51182270756499,8.84033637749161],[-73.50608025786505,8.84755934013134],[-73.49983042707697,8.849948988030121],[-73.49046399071045,8.850719768673969],[-73.48756159222506,8.849510460140152],[-73.48358266639104,8.85142876049133],[-73.47904024455966,8.850467640848308],[-73.47291898142777,8.852635509231732],[-73.46713083802678,8.851213391258113],[-73.466505434932,8.854237731144508],[-73.4609682654442,8.856295608628955],[-73.45423520345514,8.869356603387814],[-73.45188472584658,8.871006024641531],[-73.44903082048285,8.870680242847982]],[[-73.6616666642717,8.693261451872843],[-73.66428921017797,8.697104899945487],[-73.6668190574178,8.695748531330594],[-73.66594742152989,8.693999623689763],[-73.67405435005486,8.689901266882941],[-73.67347749458924,8.685668708611786],[-73.66984693823179,8.679160596826478],[-73.66839200471429,8.680309100753277],[-73.66781536727848,8.679288584441053],[-73.66639154517566,8.682371610342841],[-73.6655617843818,8.680613327420076],[-73.66036146375745,8.68286380544879],[-73.66089696760628,8.683912455834559],[-73.658416375564,8.685820199223258],[-73.65849493623108,8.69269391718177],[-73.6616666642717,8.693261451872843]]]}}]}