{"type":"FeatureCollection","features":[{"type":"Feature","properties":{"code":"205018"},"geometry":{"type":"Polygon","coordinates":[[[-73.63723233864283,8.31355407910553],[-73.63804654630047,8.310641547376065],[-73.63425404829866,8.309510375791035],[-73.63567262020246,8.307306363823727],[-73.63433246498386,8.30536545419227],[-73.6304180986005,8.304155154239822],[-73.63025285771255,8.301714875087384],[-73.62677799623953,8.302148351267704],[-73.62727542303259,8.297811173652917],[-73.6287460999481,8.297434053037307],[-73.62711692152845,8.297548794312263],[-73.62659694613325,8.292851107485376],[-73.62374584841757,8.293144587956306],[-73.62328222550173,8.291301185988459],[-73.62063738501854,8.291232658806564],[-73.61978071913995,8.293178928680447],[-73.61803716248556,8.292933411683293],[-73.6191024139905,8.296550337063593],[-73.6164243239607,8.297189449297093],[-73.61511554240957,8.295725538504882],[-73.61055469603048,8.287866425546156],[-73.61167703329426,8.281916147153595],[-73.6075409017937,8.274655486953407],[-73.60782340364074,8.269877374893156],[-73.60304037871055,8.26673657726127],[-73.5946278279223,8.255486429122357],[-73.58064712067318,8.252480338948487],[-73.57892332657025,8.249217615342275],[-73.56863141843525,8.248033804983834],[-73.55434911218993,8.24887662288387],[-73.54229347038682,8.25164820245243],[-73.55061946231046,8.247637071969336],[-73.55003179894243,8.24337324081813],[-73.55330502603209,8.241502590265725],[-73.55414147273075,8.237827205127303],[-73.55237902770108,8.223733756923934],[-73.55529035409597,8.216571077470917],[-73.55715291389106,8.215827576264871],[-73.55619106199697,8.213999947519937],[-73.55735851086342,8.213029505045483],[-73.55657789110995,8.21140893160441],[-73.55760150714798,8.211983265329025],[-73.55783043742417,8.205210360448348],[-73.56176119820975,8.205126168030006],[-73.56289042500998,8.202106618628932],[-73.56799820946179,8.20235615272253],[-73.56997364493708,8.20020226087297],[-73.57354545048725,8.20047575664887],[-73.57659022141269,8.198586511855751],[-73.5762358581731,8.197133778176806],[-73.57945733403523,8.196322931469354],[-73.57892629979756,8.194633761940679],[-73.5811556381903,8.195289787939828],[-73.58502160298343,8.191587535769088],[-73.59149680563661,8.190395167740405],[-73.59262160499179,8.18798358213428],[-73.59435517546927,8.187741545386586],[-73.59641393330054,8.182182334318668],[-73.5995915090653,8.180964392009912],[-73.60114285804048,8.17845720650098],[-73.6039825626699,8.178980458514047],[-73.59982268854532,8.166944606001891],[-73.56837558513121,8.107376539630877],[-73.58674698808693,8.114880002768416],[-73.58801926507084,8.11228435063407],[-73.59909469008181,8.108882151710304],[-73.60317683452081,8.104669054656995],[-73.60754348729819,8.10340379782167],[-73.6171949225702,8.106221179077806],[-73.65120041250407,8.107240597013401],[-73.65502350872771,8.108874379770214],[-73.62593475050738,8.031943816668047],[-73.61612270233877,8.010267935339868],[-73.6249915884992,8.00525519234651],[-73.63383968983635,8.00455623092904],[-73.63647534838469,7.997688544785888],[-73.64207954352838,7.993708281976581],[-73.6493359716876,7.994715024358186],[-73.65636300471465,7.9928495530422765],[-73.66753165084083,7.996164500959594],[-73.67575447146788,7.995204029235424],[-73.67994246115404,7.9978697748696845],[-73.68924105013917,7.996565391967181],[-73.6993435428164,7.991546515342634],[-73.71991421867625,7.990946761604334],[-73.7222956914855,7.992362737719191],[-73.72677282470045,7.990734565116327],[-73.72691519508362,7.9926142186545235],[-73.72061229460468,7.998453172258166],[-73.72129286849832,8.002666097561587],[-73.72572319729426,8.006779417178677],[-73.72516156483476,8.008535295602826],[-73.7210582848736,8.010286952270462],[-73.72658581168434,8.014938095902721],[-73.72919265635869,8.019483824176746],[-73.73741394152108,8.023517733633184],[-73.73739047966188,8.02646985834275],[-73.7326424444031,8.030886167410245],[-73.73381291791895,8.035246408876958],[-73.74073869563779,8.036282965807175],[-73.74487078227395,8.041774718244938],[-73.7495481882143,8.04404574249827],[-73.74913157951977,8.04736938486866],[-73.74292722748828,8.047878577044116],[-73.7424259368367,8.050696938405906],[-73.74531673654735,8.053096504604355],[-73.74876984234731,8.051571263671008],[-73.74862748944764,8.056470656872193],[-73.75172721519908,8.060051441753956],[-73.75566698925485,8.059742635432599],[-73.7587335919581,8.062281279969739],[-73.76483334110094,8.063884164199521],[-73.7650714409707,8.06903929505961],[-73.76932384715394,8.073026588301957],[-73.76569454343951,8.077159294060493],[-73.76945794474557,8.079316383337869],[-73.77102334841618,8.084738109124544],[-73.77565822414459,8.087870060093849],[-73.77352817364948,8.091933869459638],[-73.77607133304929,8.09426403635689],[-73.77948929182617,8.094578513510271],[-73.78095015020102,8.098993109192577],[-73.78635680621943,8.096216699029526],[-73.79130205561563,8.104213190311441],[-73.78959249104338,8.10636616890406],[-73.7806673223377,8.103406418293218],[-73.77735476143545,8.10385492413252],[-73.77504792578515,8.111359009477837],[-73.77030184559561,8.116115893456026],[-73.77305038908014,8.121450369264778],[-73.77282124180255,8.128194209331355],[-73.77705884355578,8.142177098935576],[-73.77207145064204,8.153459705748787],[-73.74901451705006,8.15427105330781],[-73.75085617272248,8.15890758277186],[-73.75099291649667,8.171267719665252],[-73.74781365305773,8.177151271678724],[-73.75179639749888,8.181863016286343],[-73.75127676148963,8.186130292720009],[-73.74450771738219,8.183812273785747],[-73.73722085452351,8.183563154154456],[-73.72902786592857,8.186961423399339],[-73.72370163822887,8.187424646251088],[-73.68415871244054,8.18722836285417],[-73.6941552292584,8.21302712831482],[-73.69534854551108,8.222560422280992],[-73.69960961118039,8.230186610492751],[-73.69452784118204,8.232407124848692],[-73.694842317307,8.253217885472338],[-73.68903255707266,8.267357868642819],[-73.682595195962,8.303191306138842],[-73.67823348896468,8.31039758641242],[-73.67801811150395,8.314084078730048],[-73.68036876086245,8.317349343617707],[-73.6778954121408,8.323110844186829],[-73.68008255867926,8.324706797742465],[-73.65707934269687,8.315995605758758],[-73.63723233864283,8.31355407910553]],[[-73.62981263289242,8.29755418952169],[-73.62997263180881,8.298517333139557],[-73.63016026703258,8.297589947439633],[-73.62981263289242,8.29755418952169]]]}}]}