{"type":"FeatureCollection","features":[{"type":"Feature","properties":{"code":"205048"},"geometry":{"type":"Polygon","coordinates":[[[-73.46434908716174,8.183434729451847],[-73.46082265546704,8.175444205193344],[-73.46450713100887,8.16563205520896],[-73.46421187750309,8.159202078315502],[-73.46645110848442,8.156070368001792],[-73.45962081651123,8.153848216365361],[-73.45581263476106,8.149126167792133],[-73.4526204119179,8.148760706629332],[-73.45012028152468,8.142458375907552],[-73.43911224726662,8.135096171406815],[-73.43118772330678,8.121083080559629],[-73.41941771290129,8.111431730648349],[-73.41923583592717,8.108222903600733],[-73.42186543694913,8.107040487810309],[-73.43058865142586,8.109253816438411],[-73.43656060013069,8.105790292515735],[-73.44480660802276,8.108633195601385],[-73.44909935692073,8.103407185511344],[-73.44761336443923,8.097095124694931],[-73.44020761979601,8.086545876587593],[-73.43576332475067,8.088000185840428],[-73.43789890620968,8.085011992623265],[-73.43672271969558,8.08157103684323],[-73.43935826717217,8.080067535127796],[-73.44501899580109,8.080230077382566],[-73.44939827168196,8.083326761001047],[-73.46497972914261,8.08558602398574],[-73.47072899330266,8.08878739791038],[-73.47323201773315,8.087139923498341],[-73.48305801466768,8.085908997102763],[-73.48546615396293,8.083188767669185],[-73.49921572595514,8.080397787560969],[-73.5026128248324,8.076727262841928],[-73.50622688600026,8.075946893000037],[-73.50919376166092,8.070910418695519],[-73.51282172222949,8.072308989449198],[-73.51216856455648,8.069858974031433],[-73.5138664995007,8.067992019701478],[-73.51946482840827,8.06648639836601],[-73.52243664059296,8.069239077217958],[-73.53472318316818,8.071165665787362],[-73.53621642308411,8.067960198661524],[-73.54133495887407,8.067351012048391],[-73.55286017322061,8.071397432508093],[-73.55727282926028,8.070345247365367],[-73.5599878887133,8.071912888926875],[-73.56475885412652,8.069095707188637],[-73.57761779798278,8.069644043943242],[-73.5762418375379,8.067236154559453],[-73.577635426516,8.065475898055524],[-73.58560574907807,8.064051383810863],[-73.59063790598088,8.060708664860215],[-73.59343229846132,8.061447754047833],[-73.5997473808419,8.067281399859667],[-73.60380015193414,8.065487995624835],[-73.61632641314759,8.06839572144247],[-73.62262724748547,8.067144905996997],[-73.63527583679428,8.068313932494277],[-73.63875131841814,8.065948790323773],[-73.65502350872771,8.108874379770214],[-73.65120041250407,8.107240597013401],[-73.6171949225702,8.106221179077806],[-73.60754348729819,8.10340379782167],[-73.60317683452081,8.104669054656995],[-73.59909469008181,8.108882151710304],[-73.58801926507084,8.11228435063407],[-73.58674698808693,8.114880002768416],[-73.56837558513121,8.107376539630877],[-73.59982268854532,8.166944606001891],[-73.60402372402484,8.17871153005143],[-73.60114285804048,8.17845720650098],[-73.5995915090653,8.180964392009912],[-73.59641393330054,8.182182334318668],[-73.59435517546927,8.187741545386586],[-73.59262160499179,8.18798358213428],[-73.59149680563661,8.190395167740405],[-73.58502160298343,8.191587535769088],[-73.5811556381903,8.195289787939828],[-73.57892629979756,8.194633761940679],[-73.57945733403523,8.196322931469354],[-73.5762358581731,8.197133778176806],[-73.57659022141269,8.198586511855751],[-73.57354545048725,8.20047575664887],[-73.56997364493708,8.20020226087297],[-73.56799820946179,8.20235615272253],[-73.56289042500998,8.202106618628932],[-73.56176119820975,8.205126168030006],[-73.55777250011488,8.205284883450133],[-73.55760150714798,8.211983265329025],[-73.55657789110995,8.21140893160441],[-73.55735851086342,8.213029505045483],[-73.55619106199697,8.213999947519937],[-73.55715291389106,8.215827576264871],[-73.55529035409597,8.216571077470917],[-73.55237902770108,8.223733756923934],[-73.55413301996168,8.2382227554329],[-73.55300949793212,8.241923764216665],[-73.55003179894243,8.24337324081813],[-73.55061946231046,8.247637071969336],[-73.54228602137766,8.251657584933525],[-73.53408506029638,8.250161806821438],[-73.52351893236198,8.237439623194405],[-73.51672101164553,8.239984377708538],[-73.50754224958354,8.240584004948403],[-73.49885232476271,8.236566235868906],[-73.49932518103549,8.22576132723583],[-73.49495025443804,8.218901314302286],[-73.49488539262529,8.19982534594584],[-73.49740241827226,8.195208805290576],[-73.49599866622515,8.19325949945437],[-73.49688457175301,8.191546093649322],[-73.48328128131095,8.194416908664948],[-73.48137191812526,8.191332927340056],[-73.48126040204608,8.185024080406492],[-73.47888011811642,8.182416870635052],[-73.47125499537105,8.184897481189296],[-73.46434908716174,8.183434729451847]]]}}]}