{"type":"FeatureCollection","features":[{"type":"Feature","properties":{"code":"205070"},"geometry":{"type":"Polygon","coordinates":[[[-73.38796559582988,7.758174547060605],[-73.38729896967368,7.756260454067785],[-73.38915513049938,7.759667006388668],[-73.39345043404859,7.754471359007141],[-73.39593751350628,7.755241136919551],[-73.39883201252462,7.751317738753926],[-73.40015029585618,7.752160383875662],[-73.4004092545971,7.758073585886962],[-73.39632510880898,7.7598131912651525],[-73.39541793508982,7.762534715507854],[-73.39673382729256,7.7654840171427395],[-73.39433209313728,7.768805161426258],[-73.3952113610971,7.770693686309585],[-73.39286607300943,7.7662166127443015],[-73.3892016973482,7.766908723706138],[-73.38812842502006,7.764614187199925],[-73.39129003832852,7.763503073329332],[-73.38796559582988,7.758174547060605]]]}}]}