{"type":"FeatureCollection","features":[{"type":"Feature","properties":{"code":"205008"},"geometry":{"type":"Polygon","coordinates":[[[-73.69869809229164,8.331291732127056],[-73.6778954121408,8.323110844186829],[-73.68036876086245,8.317349343617707],[-73.67801811150395,8.314084078730048],[-73.67823348896468,8.31039758641242],[-73.682595195962,8.303191306138842],[-73.68903255707266,8.267357868642819],[-73.694842317307,8.253217885472338],[-73.69452784118204,8.232407124848692],[-73.69960961118039,8.230186610492751],[-73.69534854551108,8.222560422280992],[-73.6941552292584,8.21302712831482],[-73.68415871244054,8.18722836285417],[-73.72370163822887,8.187424646251088],[-73.72902786592857,8.186961423399339],[-73.73722085452351,8.183563154154456],[-73.74450771738219,8.183812273785747],[-73.75127676148963,8.186130292720009],[-73.75179639749888,8.181863016286343],[-73.74781365305773,8.177151271678724],[-73.75099291649667,8.171267719665252],[-73.75085617272248,8.15890758277186],[-73.74901451705006,8.15427105330781],[-73.77207145064204,8.153459705748787],[-73.7714057829943,8.162117798216855],[-73.77304302234637,8.172633451220861],[-73.77673681249212,8.180283300809663],[-73.78605106568529,8.18780051525215],[-73.78796761768416,8.19162544004655],[-73.78782783177701,8.195859131661337],[-73.78507843468515,8.206099160013423],[-73.77669036905638,8.215266874545875],[-73.77376691115359,8.227798728429775],[-73.76523421565344,8.237444150398346],[-73.76519700146088,8.248600439787708],[-73.76254840099188,8.259253991506853],[-73.75033605540216,8.270654681004771],[-73.75045408460784,8.274039758417416],[-73.75925346862283,8.291593454954068],[-73.75808461490391,8.305662493074294],[-73.74707005723496,8.31442268108799],[-73.74790543538188,8.320193090026237],[-73.75020702186157,8.322147355012248],[-73.74781726700473,8.322275663500932],[-73.74539639044889,8.319049452689455],[-73.74482165666018,8.315011900489594],[-73.74790442133758,8.310719747059863],[-73.74678288625893,8.310554857899263],[-73.74223142956004,8.31657389590174],[-73.74233289775583,8.320684575506846],[-73.74002280708493,8.323002833039766],[-73.73728560115069,8.321989046855379],[-73.73975340862404,8.324308475784335],[-73.73900974286721,8.326035485826992],[-73.7294822009801,8.32952912563195],[-73.727871360719,8.327358533932738],[-73.72653067482406,8.330974006123768],[-73.72337875664323,8.332535134558839],[-73.70463364750105,8.335921002843804],[-73.69869809229164,8.331291732127056]]]}}]}