{"type":"FeatureCollection","features":[{"type":"Feature","properties":{"code":"205077"},"geometry":{"type":"Polygon","coordinates":[[[-73.34853472605306,7.828627060780661],[-73.34822760020677,7.822146177011007],[-73.34513599092372,7.8189243555921735],[-73.34481239148522,7.814103648528146],[-73.34308455663165,7.8125873427033525],[-73.34852976176103,7.81133442614987],[-73.34762379851873,7.808374090355187],[-73.34961226230382,7.8053385322178315],[-73.34865489956138,7.800648933062973],[-73.35123876471607,7.799278004787311],[-73.35205934048975,7.793316679893678],[-73.3546819265053,7.78916103678165],[-73.3583147042986,7.789307389294265],[-73.36396370559748,7.7846313090163335],[-73.36701325672374,7.777846401183069],[-73.37065702136846,7.7768048470506415],[-73.37576314077188,7.765887985250345],[-73.38717391209184,7.755943213489331],[-73.39129003832852,7.763503073329332],[-73.38812842502006,7.764614187199925],[-73.3892016973482,7.766908723706138],[-73.39286607300943,7.7662166127443015],[-73.45605188545795,7.892064585564071],[-73.45244561679897,7.893457111132591],[-73.4534361437274,7.89581050848949],[-73.45576241796971,7.896346301330709],[-73.45386210096444,7.901974038552055],[-73.45532573407718,7.903308708058262],[-73.45692506812338,7.902601346322342],[-73.45701185324532,7.90519411881769],[-73.45167932633518,7.907698513133596],[-73.45271691582167,7.90968579729514],[-73.44925789853409,7.916015244960818],[-73.44978211934006,7.919391896343939],[-73.45213441523504,7.920805915332664],[-73.44712617784836,7.923100506346373],[-73.44323913718273,7.939292286849138],[-73.44019629767234,7.941610125805937],[-73.43732751177379,7.9413333205020535],[-73.42963429687774,7.944491483385832],[-73.42248924492952,7.943637122246912],[-73.42039946824343,7.941109006904242],[-73.41899872747604,7.942969301040478],[-73.417494915171,7.941955405841213],[-73.41559530367726,7.943146956258033],[-73.41067640400689,7.936206580826138],[-73.40730587905585,7.918296979414549],[-73.40350793236559,7.917931424663493],[-73.3731544181615,7.938734800041459],[-73.29692486821966,7.984536112231183],[-73.28888787892816,7.992246432183151],[-73.28170238347786,7.993366129435003],[-73.27847620969033,7.985600353805523],[-73.27515145557362,7.958174535715841],[-73.27580305207084,7.945515993140361],[-73.27949196534217,7.9430809014519355],[-73.27725941306653,7.940423022374546],[-73.27876057096142,7.936190156599082],[-73.28653592653302,7.933145784709325],[-73.28930055794387,7.927889115719381],[-73.29409532048851,7.926786135800683],[-73.2962827827588,7.923950230237949],[-73.30265936291664,7.922537064856499],[-73.30230168397838,7.915022056423197],[-73.30465552973624,7.914665918091828],[-73.30304126373312,7.911717765227252],[-73.30474791678455,7.911331029702524],[-73.30344212902963,7.90648364689639],[-73.30863993716889,7.9085366063687275],[-73.31447936488456,7.90445284110433],[-73.31609046122782,7.908540147296321],[-73.31715254821512,7.906699956126033],[-73.31996047499916,7.907806977823839],[-73.32780355762435,7.906989410244478],[-73.32986786390302,7.9037541038873655],[-73.3334525609801,7.907217678203722],[-73.33484772758902,7.905425480331985],[-73.33391737791777,7.903390676983861],[-73.33808026743577,7.903639943682492],[-73.34638580569458,7.899584941898468],[-73.34812259931095,7.898133475260693],[-73.34666745290588,7.896706927785203],[-73.34735090541017,7.895442343551338],[-73.35191023175122,7.891947948869586],[-73.3495987259434,7.882478820460619],[-73.35002824981916,7.87863139025859],[-73.3527172187139,7.875121269662259],[-73.34982964008526,7.872320226244028],[-73.35060795098525,7.869275791619316],[-73.3532021036504,7.868751382608366],[-73.35292751258328,7.861783469599516],[-73.35550961910121,7.860334547328591],[-73.35332313076606,7.856544717106715],[-73.35128080538931,7.855236974282491],[-73.34992038882467,7.856091273714867],[-73.34851283154029,7.849570056486527],[-73.34673203395386,7.848452609466904],[-73.34808537586241,7.847088608780041],[-73.3462563000989,7.84507033867385],[-73.34802098507635,7.840499658327417],[-73.34578675952474,7.834933096980819],[-73.34853472605306,7.828627060780661]]]}}]}