{"type":"FeatureCollection","features":[{"type":"Feature","properties":{"code":"205059"},"geometry":{"type":"Polygon","coordinates":[[[-73.54780442590334,8.069179270200152],[-73.51697176650043,8.010580927422211],[-73.5150459760024,8.00485729616355],[-73.5187552287814,8.004562571277177],[-73.51897524760318,8.002935179262181],[-73.51523676957316,8.001047124377067],[-73.51332894493748,8.001929367621074],[-73.50574949840973,7.988843700526218],[-73.51414990843404,7.985831719433634],[-73.52723693924366,7.974886202139373],[-73.52652310654742,7.969175499431628],[-73.52842667445952,7.966558083396649],[-73.53508915958065,7.963702732042748],[-73.53580300050447,7.958467916427878],[-73.53818246270856,7.955136668725061],[-73.5529351168554,7.95323310184142],[-73.56675984022775,7.943258353037891],[-73.57910387068284,7.945050289685241],[-73.58196560043723,7.949244791469425],[-73.58707046205546,7.949621408148175],[-73.59901884861671,7.94096629816346],[-73.60826860200888,7.938151572345987],[-73.61506041789056,7.938277361150426],[-73.61958831091442,7.940541290178828],[-73.62990181531387,7.93991242534662],[-73.6346812427521,7.941547488514345],[-73.63837292664755,7.945715076986232],[-73.64454436748997,7.937290721734769],[-73.65828393787865,7.9343723083425175],[-73.6599495612158,7.936751763347502],[-73.66042545653625,7.943414257724669],[-73.66732589548832,7.9512664718909605],[-73.67375043911994,7.950552640223179],[-73.67850935735743,7.943176315206642],[-73.68353369604023,7.939852376644808],[-73.68617920295412,7.945699266739382],[-73.68281812219078,7.951271426927065],[-73.68636146765107,7.950697267009218],[-73.68816208332481,7.952164871967],[-73.69102264888227,7.950102659597292],[-73.696719146742,7.9504379884227205],[-73.69832845873754,7.956531369449522],[-73.70292549909419,7.959179167733396],[-73.70304482002365,7.9644461067503585],[-73.70588914338839,7.968413496544656],[-73.71032148896012,7.9697183700142205],[-73.7160216563027,7.966253650012902],[-73.72358038588436,7.968119449401911],[-73.72382784149568,7.9703914136517255],[-73.72146354367652,7.973465832518116],[-73.72245269249191,7.978753863862664],[-73.72000377133702,7.983872781204752],[-73.72775063288015,7.985572539577618],[-73.72513813691421,7.988461410958507],[-73.7196677709386,7.989489677613562],[-73.71991421867625,7.990946761604334],[-73.6993435428164,7.991546515342634],[-73.68924105013917,7.996565391967181],[-73.68025425612927,7.997858780819115],[-73.67575447146788,7.995204029235424],[-73.66753165084083,7.996164500959594],[-73.65636300471465,7.9928495530422765],[-73.6493359716876,7.994715024358186],[-73.64207954352838,7.993708281976581],[-73.63647534838469,7.997688544785888],[-73.63383968983635,8.00455623092904],[-73.6249915884992,8.00525519234651],[-73.61612270233877,8.010267935339868],[-73.63875131841814,8.065948790323773],[-73.63573630239165,8.068259052744565],[-73.62262724748547,8.067144905996997],[-73.61632641314759,8.06839572144247],[-73.60380015193414,8.065487995624835],[-73.59953988742154,8.067257428921437],[-73.59100646789784,8.060693277303244],[-73.58560574907807,8.064051383810863],[-73.577635426516,8.065475898055524],[-73.57624779119163,8.06699656447654],[-73.57746236432274,8.069694710163901],[-73.56475885412652,8.069095707188637],[-73.55984955085324,8.071912716148574],[-73.55727282926028,8.070345247365367],[-73.55286017322061,8.071397432508093],[-73.54780442590334,8.069179270200152]]]}}]}