{"type":"FeatureCollection","features":[{"type":"Feature","properties":{"code":"205007"},"geometry":{"type":"Polygon","coordinates":[[[-73.63791799509937,8.487493555451579],[-73.61485873928416,8.389821255645415],[-73.62680686050726,8.394055326755506],[-73.62848593998638,8.392630957521249],[-73.63477986319054,8.394002273519732],[-73.64002500128299,8.39047634267655],[-73.6519259375633,8.391472746125487],[-73.65266178818547,8.38488452792393],[-73.64519740792048,8.373698742803185],[-73.64751228290595,8.372931659410142],[-73.64727866293185,8.36970808861065],[-73.64523228034943,8.370914011511672],[-73.64492320560458,8.362075576505788],[-73.65522065498789,8.351785089678401],[-73.65612268957972,8.347718489119643],[-73.66228328138203,8.343736589029845],[-73.66588154772973,8.339061354131616],[-73.66582539271133,8.335290972786197],[-73.68117848039697,8.332912982283347],[-73.68008255867926,8.324706797742465],[-73.69869809229164,8.331291732127056],[-73.70463364750105,8.335921002843804],[-73.71465120213907,8.33501934466193],[-73.72653067482406,8.330974006123768],[-73.7250194783017,8.332475575395677],[-73.72685814326331,8.334191488543581],[-73.72745657236766,8.330980449316144],[-73.7294822009801,8.32952912563195],[-73.74172671110955,8.326205013263348],[-73.74530332154313,8.326984553152101],[-73.74522571938445,8.32419851676707],[-73.74781726700473,8.322275663500932],[-73.75382808980834,8.324467932711514],[-73.75703965662683,8.328334742884351],[-73.75735356505146,8.335072166498094],[-73.74877097980476,8.36083037121432],[-73.7510089869395,8.409866112499685],[-73.74892900719681,8.421290703001716],[-73.74901868841289,8.451846877974788],[-73.75161590686525,8.46248424817935],[-73.74349678718272,8.468907020832887],[-73.73115766651216,8.45925671376233],[-73.72209908001543,8.455734728024709],[-73.71634497291956,8.45948956548989],[-73.70869865705924,8.457723787278042],[-73.69464341446695,8.461703127574367],[-73.69143462958556,8.459736798957636],[-73.68772646798408,8.461637469747131],[-73.67554409943693,8.461646483017319],[-73.67263962349767,8.467233386956934],[-73.67501911244125,8.472456208875144],[-73.67034913391274,8.47607808517779],[-73.66843036870557,8.475831963456415],[-73.66652839693626,8.481098876762303],[-73.66384804536136,8.481754919216542],[-73.66259787783468,8.485193868505235],[-73.65544530282943,8.486906276721015],[-73.65447951508582,8.488711261218555],[-73.65277436150359,8.487731789018824],[-73.64683755879338,8.489425017810106],[-73.64532366569478,8.48798345096003],[-73.63791799509937,8.487493555451579]]]}}]}