{"type":"FeatureCollection","features":[{"type":"Feature","properties":{"code":"470004"},"geometry":{"type":"Polygon","coordinates":[[[-74.18239177149479,11.240849550385803],[-74.17528276954215,11.229342539471816],[-74.17884177406825,11.23090354243692],[-74.18770278030212,11.230927546285272],[-74.18865977589059,11.22745254288725],[-74.19219977377054,11.227016535709879],[-74.19333677353933,11.229082538918703],[-74.19177921894197,11.230610517566049],[-74.19506378461045,11.231625539938307],[-74.19874477887436,11.226868533575441],[-74.20207878177462,11.228939535014888],[-74.20215277924228,11.230539535491857],[-74.20374678389936,11.227339533509507],[-74.20930179172268,11.233275540205227],[-74.21738579832078,11.234117545635684],[-74.22003779573544,11.2358235425408],[-74.21558785762602,11.242598974304713],[-74.21447323779489,11.248081181767475],[-74.21621394257812,11.248919913665418],[-74.20858079283897,11.246509549848952],[-74.2070200850369,11.243601225477846],[-74.19876779130414,11.243758541187674],[-74.19573178373741,11.24133754636091],[-74.18239177149479,11.240849550385803]]]}}]}