{"type":"FeatureCollection","features":[{"type":"Feature","properties":{"code":"470007"},"geometry":{"type":"Polygon","coordinates":[[[-73.8932363034948,11.295882298377933],[-73.89932791560045,11.291925075766414],[-73.8996480697565,11.285948812745175],[-73.90743855783131,11.283494260867485],[-73.90658480553037,11.277624735781501],[-73.90786543346758,11.276664262000395],[-73.91149388357474,11.280079261948174],[-73.91490888249405,11.280185982399871],[-73.91571517217272,11.27416831633974],[-73.92776320761499,11.27865208198051],[-73.93559798762374,11.27939468432777],[-73.94430093149845,11.27705356657458],[-73.95073421586301,11.27819163283823],[-73.95608121295936,11.276998966561223],[-73.96111230850948,11.279682396264604],[-73.96833421596716,11.279783097242273],[-73.97224053067407,11.28265948538791],[-73.99444711816676,11.284948715130724],[-74.00979531046602,11.284448056971314],[-74.03516434533401,11.277213420480564],[-74.05033086223392,11.275766047044044],[-74.05427996426334,11.271944684774553],[-74.05701442734136,11.273812741594895],[-74.06048932583832,11.273335124661685],[-74.06302916028346,11.270609545270133],[-74.07172087253741,11.267595016725352],[-74.07550440560573,11.25799932920853],[-74.07348413003666,11.25243239762267],[-74.06801853809122,11.247790766055289],[-74.06701777815977,11.244163125332364],[-74.06446210775675,11.243166094533478],[-74.06292757793051,11.237507022725481],[-74.06659580408058,11.238569828594052],[-74.07750791859024,11.234656301419761],[-74.08059568869737,11.234632217352896],[-74.08641707650281,11.237918074745096],[-74.10070674845343,11.23815320035908],[-74.11492715171511,11.234194170774003],[-74.11861612155076,11.235423515424998],[-74.11676962294246,11.239090328494967],[-74.13489797819153,11.237053544366574],[-74.13817678766719,11.24196743346505],[-74.14168215068838,11.24019597002291],[-74.14368616349594,11.241463100680505],[-74.14570019847582,11.238165418256187],[-74.14915460319872,11.236419705986293],[-74.14605347259482,11.244016832469413],[-74.1496912208508,11.245592402294278],[-74.1553642105714,11.233261245882659],[-74.15642447824388,11.233584391777981],[-74.15560035022969,11.241207594421155],[-74.16244471746717,11.238056998817399],[-74.16305444092728,11.240647948912624],[-74.16415251620361,11.23984532048928],[-74.16495271647415,11.240092561156132],[-74.1666397026193,11.239247940396297],[-74.16719772318868,11.23923082197058],[-74.16746032261608,11.239412782248564],[-74.16047876217505,11.24242155048671],[-74.16288382539875,11.246283381969363],[-74.16026776382256,11.246782457355721],[-74.15982902715876,11.249700276308204],[-74.15693800427613,11.251580276431525],[-74.15891025363646,11.25123056792279],[-74.15836806902502,11.25270199457293],[-74.16154029483181,11.251424199994915],[-74.15849300833594,11.25534167433159],[-74.16399546171812,11.254421423965823],[-74.16405088140016,11.250250525965896],[-74.16976076958144,11.25896354652042],[-74.17850278193055,11.254853547744233],[-74.18352477370752,11.255570541872771],[-74.18455378084116,11.258374552347732],[-74.18697540507475,11.259597438379672],[-74.18374695945766,11.264819102271645],[-74.18340251451775,11.271702234592965],[-74.19257071961727,11.272675271827893],[-74.19402931233321,11.26829269670344],[-74.1970895068111,11.267850615544546],[-74.19702906215895,11.271279146710526],[-74.20504047614185,11.270994543755421],[-74.20656741503382,11.274331989881262],[-74.19864724961343,11.279650903297807],[-74.19706387288136,11.283865405203642],[-74.19551268742856,11.28418467284223],[-74.19528952054418,11.29017956712812],[-74.1907510890698,11.291619815514878],[-74.18981755225514,11.298070350974228],[-74.19188489963835,11.304445207462436],[-74.18978279295493,11.306103745859104],[-74.18543619069288,11.305260044526904],[-74.18588596357336,11.303156903230274],[-74.183720930606,11.30019134500452],[-74.18048835579219,11.300681744449832],[-74.17756594073012,11.306070692744981],[-74.17463173868828,11.30542751507818],[-74.1729879512427,11.308444073768442],[-74.1675570404359,11.30754507925269],[-74.16938558243777,11.302007401714263],[-74.16718035382297,11.29606410233265],[-74.16225849635191,11.298847636516996],[-74.15802305638482,11.297746973679295],[-74.15178096256983,11.300569101197652],[-74.15028981759127,11.303586625595415],[-74.15440640148489,11.312016784348032],[-74.1551217346788,11.317593279420862],[-74.15855125623489,11.320446848483925],[-74.159696346761,11.324807314151087],[-74.15126797132768,11.326093163490896],[-74.15020539274491,11.331007893855372],[-74.14512114111477,11.332947036622613],[-74.14378692823703,11.332000368653894],[-74.14234327673398,11.33607893616977],[-74.1409467052726,11.332753561902223],[-74.13780683632433,11.33243663911253],[-74.14074736328763,11.329466350051177],[-74.14107593627415,11.32648866957345],[-74.14009723026408,11.327972593857112],[-74.13480572689758,11.327008554465749],[-74.13566761726418,11.325210523268083],[-74.13795367014808,11.325024760838119],[-74.13773804174735,11.323252924071369],[-74.13626218148153,11.323732337693684],[-74.13542371903554,11.32222276919589],[-74.13364698791082,11.324175776396714],[-74.12797507394112,11.324588067689604],[-74.13247258471608,11.32328099643837],[-74.1320909173561,11.321221032244068],[-74.12713099311361,11.323469473956607],[-74.12481275820642,11.326561582034287],[-74.12695237321697,11.327086723296304],[-74.12682036850589,11.328684601067891],[-74.12373403307606,11.333694458251557],[-74.11632893532322,11.330342665352532],[-74.11737353158856,11.328116386576255],[-74.1142222356155,11.32732122156034],[-74.11621031270619,11.324682384096093],[-74.11079294648738,11.32332693079502],[-74.10998469351193,11.319009177374085],[-74.10571028894316,11.318728193508264],[-74.10404026490045,11.325667827433108],[-74.10743170220161,11.329916451004863],[-74.10718764867818,11.334340532012448],[-74.11160247575998,11.339207122011032],[-74.11207456481469,11.34210898673473],[-74.11112046840566,11.345557922200271],[-74.10738126943738,11.347853365792787],[-74.10535204950372,11.347497590501632],[-74.10670315969202,11.345819381084937],[-74.10492121642068,11.34447366404919],[-74.10519284248807,11.340281245889571],[-74.10022303491297,11.33981265559629],[-74.09888024893837,11.337469062381956],[-74.09618248274631,11.338935986510705],[-74.0979765503265,11.333854165090258],[-74.09563242335048,11.331085718157624],[-74.09891810076527,11.329381452121254],[-74.09803626272759,11.327072868118705],[-74.09947555363436,11.326378947098021],[-74.09987088796697,11.322057685659672],[-74.09607438006782,11.319322110835287],[-74.09207250762432,11.319021688377347],[-74.08987755726406,11.321418566227067],[-74.08656267002488,11.320241146610385],[-74.0865271095679,11.31694257869708],[-74.08428400238671,11.315708635879616],[-74.0799421134767,11.316003595250834],[-74.07653795845533,11.318798132741733],[-74.07640792732548,11.32314647512851],[-74.07863730788438,11.324223426195488],[-74.07717218455844,11.328185274741486],[-74.08038807803456,11.332920127424131],[-74.07703351039765,11.336285318872228],[-74.07543314276671,11.342474456125046],[-74.07003335468744,11.342075408086487],[-74.0648784130608,11.345547737533991],[-74.0637442744191,11.343694431664687],[-74.06622997165005,11.339675058214823],[-74.0627094504145,11.337837435065524],[-74.06103631533318,11.331691112903172],[-74.05804563225672,11.328464665549916],[-74.05528778342426,11.32816724100195],[-74.0493307152542,11.332319514936273],[-74.05139884733904,11.336795768832872],[-74.0542843577698,11.338159984464198],[-74.05271774053699,11.339253711485583],[-74.05212626061876,11.345379517248091],[-74.0431324968539,11.349088386418032],[-74.04110003629785,11.347901592547828],[-74.04112957419545,11.345466380531661],[-74.03976972635951,11.345500095962791],[-74.04119831632181,11.345180493051885],[-74.0418131377715,11.34184022076596],[-74.03860175195894,11.341179843426517],[-74.03640071013365,11.338433558401732],[-74.03370129020601,11.340924847274664],[-74.03147637205916,11.340695097329728],[-74.03279599750823,11.344809733353202],[-74.0300370544129,11.3467506522407],[-74.03021132296925,11.345513305278473],[-74.02345954641174,11.345986678857855],[-74.02039876777849,11.34258695231],[-74.0128733844171,11.343568432029542],[-74.0102723041631,11.338668030954693],[-74.00602712690227,11.34196665954613],[-73.98024834407971,11.33858360610833],[-73.97926573615871,11.335672323936478],[-73.98055029274633,11.333013815452261],[-73.97490539081929,11.3321258931486],[-73.9715274384564,11.333601606347202],[-73.97161326712683,11.332209447932598],[-73.9691767716144,11.331659352541294],[-73.9669950223423,11.332629208803496],[-73.96648460632025,11.326131359846045],[-73.96272378023428,11.32313418009818],[-73.95793436764762,11.323806852467953],[-73.95789363721013,11.32131739113737],[-73.95366298772831,11.315577337708532],[-73.94113645911983,11.314685736666036],[-73.94000414802048,11.312164109767252],[-73.93605163876094,11.312152028652974],[-73.93530385614872,11.310083715562314],[-73.9310914820905,11.307819300080553],[-73.92112305409466,11.307259244223474],[-73.90917077076472,11.300394436690908],[-73.89931845907148,11.299568157174974],[-73.8932363034948,11.295882298377933]]]}}]}