{"type":"FeatureCollection","features":[{"type":"Feature","properties":{"code":"470002"},"geometry":{"type":"Polygon","coordinates":[[[-74.13657158429953,11.239533433982615],[-74.1468942181832,11.232269692568593],[-74.15253312943253,11.231632129169554],[-74.15476447637349,11.226850460755031],[-74.15710536889782,11.22738095300349],[-74.16133477190732,11.22403354229806],[-74.16529276482231,11.224939540507421],[-74.16975276932709,11.22828453951513],[-74.17480577275978,11.228711540621362],[-74.18070577059757,11.239144544899261],[-74.17877577376964,11.244075550366574],[-74.1815077778416,11.244225543565676],[-74.18049577394811,11.244649551904217],[-74.18290278298502,11.24909955069171],[-74.18265677336393,11.255409553594689],[-74.17850278193055,11.254853547744233],[-74.16976076958144,11.25896354652042],[-74.16405088140016,11.250250525965896],[-74.16399546171812,11.254421423965823],[-74.15849300833594,11.25534167433159],[-74.16154029483181,11.251424199994915],[-74.15836806902502,11.25270199457293],[-74.15891025363646,11.25123056792279],[-74.15693800427613,11.251580276431525],[-74.15982902715876,11.249700276308204],[-74.16026776382256,11.246782457355721],[-74.16288382539875,11.246283381969363],[-74.16047876217505,11.24242155048671],[-74.16746032261608,11.239412782248564],[-74.16305444092728,11.240647948912624],[-74.16244471746717,11.238056998817399],[-74.15560035022969,11.241207594421155],[-74.15642447824388,11.233584391777981],[-74.1553642105714,11.233261245882659],[-74.1496912208508,11.245592402294278],[-74.14605347259482,11.244016832469413],[-74.14915460319872,11.236419705986293],[-74.14570019847582,11.238165418256187],[-74.14364209781934,11.241478931496204],[-74.14168215068838,11.24019597002291],[-74.13817678766719,11.24196743346505],[-74.13657158429953,11.239533433982615]]]}}]}