{"type":"FeatureCollection","features":[{"type":"Feature","properties":{"code":"472047"},"geometry":{"type":"Polygon","coordinates":[[[-73.9780226761983,10.277227715990875],[-74.00678692172312,10.25853803784355],[-74.00796313394824,10.254202085103827],[-74.01142476039445,10.252416110337776],[-74.0082332615749,10.240645402648227],[-74.01228074955787,10.235502050540333],[-74.0119263698632,10.233318611537186],[-74.01432687502972,10.233200453776192],[-74.01477966330367,10.231450011699167],[-74.01846469934662,10.23212426992734],[-74.01991418417566,10.229387437317712],[-74.02147693240767,10.230898685262162],[-74.0215373688323,10.228101657911964],[-74.02377032631426,10.229941883020842],[-74.02491908632328,10.227624208614884],[-74.02725942965924,10.229030455663462],[-74.03159977693389,10.227071555486987],[-74.03412049057573,10.227700266052864],[-74.03640086542845,10.225920666602008],[-74.03354762341019,10.224754002437237],[-74.03412115494956,10.223168530767737],[-74.04181403457335,10.21980523473917],[-74.04177579399521,10.21531867584855],[-74.03670432076336,10.213539273858657],[-74.04006466104812,10.209890573718269],[-74.03909807009092,10.207527413356559],[-74.03701489394894,10.207587021884933],[-74.03859219567101,10.202577457807365],[-74.04097838080389,10.20136627236593],[-74.03913662948628,10.200693641133853],[-74.03892525780918,10.198539619700512],[-74.04594264713069,10.195735517694231],[-74.04846755681797,10.192381605175228],[-74.04714074564106,10.188014729225813],[-74.05896355628545,10.181144820618385],[-74.05712575830091,10.188809272034064],[-74.05378233692403,10.19434456872807],[-74.05856684898208,10.196338893607106],[-74.05970480520239,10.192449854677648],[-74.06151924520049,10.19242549293125],[-74.05975720023497,10.191135586385656],[-74.0613751532045,10.189078192269164],[-74.0663557820518,10.192129793081392],[-74.06359365489845,10.183980639791969],[-74.06743092305993,10.183077669317413],[-74.058671785086,10.176842360137698],[-74.06203105579056,10.169934202724562],[-74.06483953484826,10.168846034434978],[-74.06558799006189,10.165673861078801],[-74.06308482782009,10.164334537870161],[-74.06606786751178,10.161346655242653],[-74.06518566849076,10.158376694254457],[-74.06221369175529,10.157753849924745],[-74.06425164830813,10.15479983802311],[-74.06274492448233,10.154064075847032],[-74.06266758149116,10.149639692477308],[-74.06009768567117,10.150569611231163],[-74.05805374049754,10.149438221616322],[-74.06147574825258,10.147691295784284],[-74.06208490915463,10.1461159491314],[-74.06027886536128,10.144774420942042],[-74.06304038367665,10.14276070992156],[-74.06048099853922,10.14099757686381],[-74.06296786819468,10.134207990645564],[-74.06529985440676,10.132735585946591],[-74.06306096898209,10.132040457534401],[-74.06284952017182,10.129186905954896],[-74.06677135407631,10.128257004684542],[-74.06641567443029,10.124811284130317],[-74.06943916893692,10.126877246201445],[-74.07297837902985,10.124718854915841],[-74.07390287789167,10.120710329477674],[-74.07183341911599,10.118880651046823],[-74.0726073694197,10.115433809490241],[-74.06795352098362,10.115096870123807],[-74.06574363866645,10.10655878044264],[-74.0695120392316,10.09894083931141],[-74.06745298829418,10.097950785466594],[-74.0742941344497,10.089077281599259],[-74.07616270137754,10.089301077890411],[-74.0748432744179,10.086518716130513],[-74.07707795351268,10.084419004689721],[-74.07850116780594,10.084890231909583],[-74.07725299031557,10.083048179258299],[-74.08241728768382,10.078289261020814],[-74.08473220586387,10.073660296779906],[-74.08160528706384,10.065190070935273],[-74.07720020550329,10.062649555661153],[-74.07811821592122,10.06162227939626],[-74.07590148314847,10.057802482416264],[-74.07321549570855,10.057294970715873],[-74.07428290899963,10.051023968410107],[-74.0784523548387,10.050756210315058],[-74.07878300425068,10.056291492610853],[-74.08554456952407,10.062382867146312],[-74.08492932641303,10.065027288024964],[-74.08724320895146,10.072751626676961],[-74.08645074976778,10.07629457618691],[-74.09104922068792,10.074733800507602],[-74.09177350647394,10.079350287683837],[-74.09433664748343,10.08288176080373],[-74.09731475990702,10.081641880787572],[-74.09924059051434,10.08548424488174],[-74.09723715980522,10.091329289950465],[-74.0986580035385,10.089666797192308],[-74.10116760177362,10.09094704563421],[-74.09952713208355,10.092392540106232],[-74.10144096899421,10.094261692217856],[-74.10369894848264,10.093847918939275],[-74.10201942883015,10.099694075754314],[-74.10455028394364,10.101800439161366],[-74.10232480632413,10.10326755355203],[-74.10219037140342,10.106035173616874],[-74.1050450522128,10.106809124948995],[-74.10414778136663,10.110703567315454],[-74.10820521438882,10.111879728118481],[-74.107610649143,10.114462057808453],[-74.10918009356425,10.116072300544431],[-74.1071120818072,10.119894536990103],[-74.11036438831917,10.120823275091993],[-74.10994774568599,10.123177293628146],[-74.11319945775813,10.123610953899686],[-74.11485504863856,10.129920264660825],[-74.11303853632882,10.133804600522637],[-74.11497654163861,10.14045512485734],[-74.1120089069874,10.142933729948652],[-74.11349404689008,10.143604851427142],[-74.11258706548972,10.148160507256819],[-74.11471053292428,10.149264349010366],[-74.11378236355114,10.15286949255318],[-74.11557179491246,10.155409843276459],[-74.11443371939282,10.158145978602022],[-74.11618214469405,10.161646845272571],[-74.11401091638896,10.167782421238996],[-74.11593535139974,10.168556356116085],[-74.11798384640309,10.166924244578354],[-74.11710837545309,10.171592801799306],[-74.11913713875828,10.171963336269073],[-74.12684950942469,10.180409841087055],[-74.12580555182211,10.18321947508565],[-74.12703115397079,10.186027635326127],[-74.125128483889,10.18714332576593],[-74.12641689199387,10.190159376405575],[-74.12679556967146,10.206206589771966],[-74.13107645342808,10.208791910172806],[-74.14468854939503,10.203952686001173],[-74.15537979044711,10.196958492172257],[-74.15680358066822,10.192352938368458],[-74.15928015252871,10.19429389119449],[-74.16211068036557,10.190776266053149],[-74.17039128300706,10.198119867057187],[-74.17573799316796,10.195311181282591],[-74.18031470738669,10.198717076428693],[-74.18214158639705,10.197994384728588],[-74.18470992309813,10.192414236627883],[-74.18931150505693,10.191363962331366],[-74.19292745341687,10.187198341270005],[-74.19609567961066,10.186510064341917],[-74.20245385476125,10.190033773749235],[-74.20892525114863,10.190877750704033],[-74.21305884445309,10.196333390411155],[-74.21255523569204,10.204887308851141],[-74.20563091321941,10.214989792272377],[-74.20582412157319,10.223312934381795],[-74.20260216234306,10.22594052788395],[-74.2025516349621,10.231194411851561],[-74.1979106420576,10.235010211275494],[-74.19550822398799,10.245582061464063],[-74.19018985358912,10.254690244601306],[-74.19200603885417,10.258704912926646],[-74.18797894591478,10.265867679797282],[-74.18771069725261,10.270743058865605],[-74.19021865820719,10.282095236729958],[-74.18909424863176,10.28915535475278],[-74.19080844016685,10.293057017814135],[-74.1870036533054,10.29752667219509],[-74.18675749661702,10.305432947470877],[-74.18193567780656,10.318708621377937],[-74.1736725494319,10.322453998200388],[-74.17018752077615,10.325771815472365],[-74.16952349863641,10.332487084377362],[-74.16648906870051,10.335386588825486],[-74.16747905672503,10.341545326345909],[-74.1628827362781,10.344858878666685],[-74.15631316373941,10.359074845227326],[-74.1506667808552,10.3668409993237],[-74.15033434709545,10.370491258582945],[-74.14127632109984,10.371926077821627],[-74.13842108904527,10.375494299249567],[-74.13472135347337,10.376680378352262],[-74.12485913273645,10.375712366087498],[-74.11661518481475,10.381579659453166],[-74.11040494597836,10.392975065841881],[-74.09607723193892,10.378188696263976],[-74.09357372619735,10.370918955944774],[-74.08162592379142,10.36081276704516],[-74.05699354892982,10.324663372467],[-74.05448320096014,10.326091651839704],[-74.05581310569215,10.329070608614586],[-74.05394824527116,10.329018495375294],[-74.05247686592935,10.332335235867902],[-74.04741725783884,10.335274125550711],[-74.04469509904715,10.342193390143052],[-74.04556669174042,10.34534874435036],[-74.04141733961126,10.345905412517766],[-74.03810500188109,10.338562776192816],[-74.03555603486637,10.3376120325064],[-74.0320901938627,10.339668204833174],[-74.02564826646721,10.331747539589685],[-74.02829369521953,10.328580312013571],[-74.020407409781,10.32064671307694],[-74.00529963648933,10.289521702433035],[-74.00503270526207,10.2820753672205],[-74.00342000660532,10.278713011188358],[-73.99523166965594,10.27407745463097],[-73.99134362111658,10.275374935655691],[-73.9861132596863,10.27424785418657],[-73.9780226761983,10.277227715990875]]]}}]}