{"type":"FeatureCollection","features":[{"type":"Feature","properties":{"code":"472001"},"geometry":{"type":"Polygon","coordinates":[[[-74.19191880018906,10.583831630748591],[-74.1936071716463,10.583706848789348],[-74.19146335750497,10.587036697810333],[-74.1942275343443,10.586283019137113],[-74.19465207233065,10.590657350266326],[-74.19801359840966,10.591964644689597],[-74.19954549336614,10.595069461231446],[-74.1932257655107,10.596532414543674],[-74.19602020221424,10.599153363278731],[-74.19248209049789,10.598472936452367],[-74.1906194340292,10.595397624897885],[-74.18905309036217,10.599558417421576],[-74.18723377760341,10.598969516837201],[-74.18650952884133,10.597024979888943],[-74.18851762250881,10.595005336811994],[-74.18131716527671,10.591421082993577],[-74.17256373721568,10.5924753815857],[-74.17213063127463,10.58940469802252],[-74.17668897133933,10.583768916323777],[-74.1809834891584,10.584083590938121],[-74.1808085757686,10.586540750946085],[-74.18596861949862,10.58744669876171],[-74.18857109946288,10.585788323887414],[-74.1880706027689,10.58414192214093],[-74.18888336443638,10.5855315752695],[-74.19029304751149,10.584372568887716],[-74.19101229907136,10.586825615125576],[-74.19191880018906,10.583831630748591]]]}}]}