{"type":"FeatureCollection","features":[{"type":"Feature","properties":{"code":"472027"},"geometry":{"type":"Polygon","coordinates":[[[-74.17773760424154,10.516281733543678],[-74.16154685115288,10.504924332219844],[-74.14842985975577,10.499965200906502],[-74.13925761287715,10.50301254602357],[-74.13938636051074,10.50777023321541],[-74.13718263959271,10.511997168991286],[-74.13433614415732,10.503891515735063],[-74.13588805363366,10.497947043929003],[-74.12977995456595,10.497316265165239],[-74.12822391897822,10.49580332851815],[-74.13014364886453,10.49002375101486],[-74.13502823866406,10.488248786754411],[-74.13454694710572,10.484866431629086],[-74.13085642329344,10.48425457312237],[-74.12402817483553,10.48771135766117],[-74.12352592773243,10.480452844848969],[-74.11523896623078,10.479339627813431],[-74.11078017734508,10.473238706246093],[-74.10319056671989,10.471058267209742],[-74.09991191973819,10.471934289404999],[-74.09414916138383,10.46835559020468],[-74.09160937013331,10.470533340892246],[-74.09115827056195,10.468180501979589],[-74.08812568565196,10.467486761964835],[-74.08637872485286,10.46449993863314],[-74.08914795545866,10.459973872123157],[-74.0862513378487,10.457124982473601],[-74.08739469647759,10.454995862718931],[-74.08517056200395,10.451424814102495],[-74.0874264732945,10.447334940917983],[-74.0847006697025,10.444792307052296],[-74.08036566621519,10.44520367583226],[-74.07997694168262,10.43734730675817],[-74.07406424772194,10.438418535570975],[-74.07382841453955,10.44121890638786],[-74.0722939875576,10.441656211459645],[-74.06807499650017,10.440427627856138],[-74.06878521113566,10.437271335709283],[-74.06624168972411,10.435251739940725],[-74.05650269285604,10.436374470069552],[-74.055335630684,10.432745647666195],[-74.05287756770349,10.433673257566568],[-74.05250278473773,10.430785816749221],[-74.04824237418632,10.429290311174384],[-74.0471804589489,10.425309979459428],[-74.04005528576613,10.428114073238191],[-74.0312330333033,10.426700217771781],[-74.02837838746092,10.429937461714644],[-74.01974213808359,10.434751207251281],[-74.0155541494259,10.436523534585092],[-74.01297179299638,10.435904861618212],[-74.0000943824262,10.442872232637797],[-73.99671971388028,10.442519911885086],[-73.9928440210494,10.445426593833531],[-73.9888543829581,10.445271754613259],[-73.98399928786154,10.447414118650613],[-73.97953935329082,10.452362530507571],[-73.97902618001439,10.461013186307696],[-73.97694175431474,10.463219587346998],[-73.97608600580685,10.46825045149751],[-73.97379840306013,10.470061260065052],[-73.97524972365898,10.473176228363059],[-73.97272703643597,10.47277988615673],[-73.96769382846492,10.478057879902337],[-73.96578853071253,10.489344468845047],[-73.96237133915378,10.486940690146014],[-73.95382500444896,10.491568465507328],[-73.95023078605101,10.490887821679621],[-73.95131847302946,10.486477561910988],[-73.94879609639605,10.485386023415288],[-73.9476471985758,10.48187545441806],[-73.9441953423335,10.485904977567145],[-73.93815412493967,10.486673026667631],[-73.93543866953627,10.484622971516956],[-73.93418657985058,10.488376594391582],[-73.93082399139047,10.485634532151778],[-73.92826825105334,10.49091078474413],[-73.92136850321464,10.492236433781045],[-73.91905875604357,10.498282294592798],[-73.91381684828906,10.50179079539214],[-73.91279855032735,10.507492660693401],[-73.91493049624205,10.509696330189286],[-73.91110179809203,10.516675885167444],[-73.90915475277245,10.513681323834192],[-73.90644694075388,10.516094822343462],[-73.90238884541475,10.512530529565936],[-73.90143500714476,10.51301702607185],[-73.90287982181627,10.51566677222587],[-73.90021404018654,10.515380454857109],[-73.89981424344182,10.512640898931693],[-73.89558094880584,10.51099422567637],[-73.89511248912481,10.504528465153953],[-73.89807674328546,10.496997657786665],[-73.89975915697516,10.496116392591489],[-73.90256318081987,10.481615583448672],[-73.9015216863371,10.479612709126968],[-73.89415110928581,10.476167766075264],[-73.89727559273399,10.463189140306213],[-73.89615398360752,10.4573407476571],[-73.89751593769375,10.45293442476651],[-73.90112111208987,10.450370745881571],[-73.90240295153234,10.445483733071399],[-73.89881572140126,10.428776019980944],[-73.89949111502995,10.419894384218594],[-73.89713031700069,10.411317107792172],[-73.8974724170917,10.400993382730974],[-73.9012189488551,10.387018763861533],[-73.90480781420973,10.382706749149861],[-73.90725042895514,10.383418541416177],[-73.90976226816645,10.380144909120133],[-73.91689941756238,10.37856309150692],[-73.91847202341597,10.373672823676259],[-73.9217019962702,10.375371876537486],[-73.92322943498522,10.370357263835615],[-73.9287871198444,10.368997053987925],[-73.93288499739708,10.366047169226135],[-73.9292507910971,10.362503754860143],[-73.93142529396317,10.360874056048601],[-73.93267356607026,10.355751891913485],[-73.94367679235955,10.352029744522156],[-73.94624805909342,10.347101331758438],[-73.94877062598863,10.34663904787476],[-73.94802333394347,10.3433072283579],[-73.95474309200006,10.344021872495318],[-73.95267808740897,10.342158648326347],[-73.95340899945012,10.339515683722311],[-73.95680139320285,10.338365416016586],[-73.95818023945748,10.339458754286682],[-73.960928747975,10.337336329692846],[-73.96057766855239,10.331729762960776],[-73.9577572215091,10.331078916198123],[-73.95827832099206,10.329441599712823],[-73.95580948713308,10.325703409646678],[-73.96060059767831,10.32093509144454],[-73.96017894035941,10.316402131284349],[-73.96289376635599,10.315238007372557],[-73.95799023675903,10.31151590317586],[-73.95793854723803,10.309429694156847],[-73.96284319578047,10.308564726690292],[-73.96191537196398,10.30096674042926],[-73.96373777005027,10.298023491178583],[-73.96395513754726,10.290370549063141],[-73.96620606089164,10.288599349930735],[-73.96993298128461,10.288645835532577],[-73.97017480308784,10.285699760121929],[-73.97479034306849,10.279577314281084],[-73.98838522393612,10.274002180866148],[-73.99134362111658,10.275374935655691],[-73.99523166965594,10.27407745463097],[-74.0028677751389,10.278145493980787],[-74.00503270526207,10.2820753672205],[-74.00501853949481,10.288738471464058],[-74.00706865532356,10.293462759985061],[-74.020407409781,10.32064671307694],[-74.02829369521953,10.328580312013571],[-74.02564826646721,10.331747539589685],[-74.0320901938627,10.339668204833174],[-74.03706027706039,10.337856353424911],[-74.04141733961126,10.345905412517766],[-74.04290970843641,10.3447077109862],[-74.0454102769462,10.345520556985946],[-74.04469509904715,10.342193390143052],[-74.04741725783884,10.335274125550711],[-74.05247686592935,10.332335235867902],[-74.05394824527116,10.329018495375294],[-74.05581310569215,10.329070608614586],[-74.05448320096014,10.326091651839704],[-74.05699354892982,10.324663372467],[-74.08162592379142,10.36081276704516],[-74.09357372619735,10.370918955944774],[-74.09607723193892,10.378188696263976],[-74.11040494597836,10.392975065841881],[-74.11661518481475,10.381579659453166],[-74.12485913273645,10.375712366087498],[-74.13472135347337,10.376680378352262],[-74.13842108904527,10.375494299249567],[-74.14127632109984,10.371926077821627],[-74.15033434709545,10.370491258582945],[-74.1506667808552,10.3668409993237],[-74.15773245555295,10.356077165656416],[-74.16110706547767,10.35717625086329],[-74.1660891341445,10.363246996898681],[-74.17392764945646,10.36909306732457],[-74.17959266257691,10.37874916555495],[-74.17955780865998,10.38161816639797],[-74.18201503448819,10.381009745974552],[-74.18280528046364,10.38403361277733],[-74.18590998696214,10.385541284827184],[-74.18577995480388,10.399487777850595],[-74.17854935083625,10.404463660435681],[-74.18075495071878,10.412060603855991],[-74.1834567998277,10.414834099412928],[-74.18156415191828,10.422185963952586],[-74.18304206187003,10.426030051716452],[-74.18182933273636,10.432059456419495],[-74.18347296488719,10.443192610994345],[-74.19223379053528,10.451494728653358],[-74.19176142585798,10.455661495399681],[-74.19420124735348,10.458646354406198],[-74.19604786731799,10.466026299540374],[-74.19422863991997,10.471235482253917],[-74.19514958859821,10.480844318408401],[-74.21247788550181,10.486361479547043],[-74.2169198634661,10.492042829476873],[-74.21900706390369,10.500735670960694],[-74.2122081034318,10.501813250406087],[-74.2080772406423,10.5045316440698],[-74.20517334063084,10.512855211954388],[-74.20093174440689,10.508784642635987],[-74.1952652945522,10.509870475332548],[-74.1938158117801,10.504075992611888],[-74.18786245937287,10.5058229616385],[-74.19084158995457,10.514881752795304],[-74.19070593427256,10.517222286393178],[-74.18732792945912,10.518764774307613],[-74.18432753274305,10.511554636346148],[-74.18509183317059,10.509347232575408],[-74.17689621279123,10.506112345822885],[-74.17456937599087,10.507428463254485],[-74.18024525460652,10.512320227469047],[-74.17773760424154,10.516281733543678]]]}}]}