{"type":"FeatureCollection","features":[{"type":"Feature","properties":{"code":"472008"},"geometry":{"type":"Polygon","coordinates":[[[-73.54359123217637,10.755147382593236],[-73.54469174897525,10.750790388948019],[-73.55039847469584,10.749645315905468],[-73.55311909905134,10.745893778712286],[-73.56255205508,10.740203003106728],[-73.55815090216987,10.731813048229071],[-73.5662000661639,10.724424813848202],[-73.56613016909654,10.721852754185193],[-73.56216880186162,10.718329503463224],[-73.56376427616306,10.715446076657031],[-73.5750715882225,10.712225962452806],[-73.57856020202883,10.71284297139971],[-73.58388503413204,10.716959194309993],[-73.58607921727418,10.713982788072542],[-73.58477736742566,10.709280893887353],[-73.59390598777259,10.704909631630585],[-73.59499955230007,10.694104790874746],[-73.59909912781131,10.680325810568718],[-73.60272782783,10.675186361400165],[-73.61145031931164,10.672554132707603],[-73.61314723506933,10.670113526510477],[-73.6118520803816,10.654161068695544],[-73.61495220208337,10.645412375583874],[-73.63110483080794,10.643670825420827],[-73.6384378337118,10.638568927773974],[-73.65551859581399,10.63815071676595],[-73.65931564570235,10.63660992269638],[-73.65476894349325,10.623512180657883],[-73.65101145984545,10.619732707880587],[-73.65243895554494,10.615089034854805],[-73.65850360085932,10.61114314362294],[-73.66321261289522,10.605683410714562],[-73.66629371766635,10.60579256446124],[-73.67207758686027,10.599280817131614],[-73.68010010699396,10.594888436836186],[-73.6814568787583,10.59233971870458],[-73.68903435787553,10.589600852864123],[-73.69002541033802,10.58768784282131],[-73.69376743546633,10.587472077637756],[-73.69616637225795,10.583560444854584],[-73.70113697173377,10.579983046634027],[-73.70631053331226,10.580313601429339],[-73.71242727438243,10.577555529424842],[-73.71403584589933,10.575753819488227],[-73.71320487051486,10.57153435329036],[-73.71538120915085,10.565254889988012],[-73.71784710474952,10.564202298610496],[-73.7230600176241,10.569314923941306],[-73.73444757493951,10.57143068011385],[-73.73664181773131,10.566124019561471],[-73.74194902232972,10.567378538428443],[-73.74193674375448,10.561377913660863],[-73.7486260588841,10.56085837329681],[-73.75260297925524,10.562836755259866],[-73.75443708718802,10.559135417374534],[-73.75839772114341,10.558725858653418],[-73.75708771163193,10.555533298481123],[-73.76131696551727,10.554274117684258],[-73.76175501929521,10.550346458681304],[-73.76422802348861,10.548819968190287],[-73.78107770072751,10.547291625474259],[-73.78437227931227,10.540952768588],[-73.79293461555426,10.53676239291525],[-73.79586628454217,10.53039713488107],[-73.8000535419772,10.528918164605045],[-73.80016078282085,10.524612706214441],[-73.80232293820609,10.525476837557278],[-73.80507688307074,10.530482144911218],[-73.80798938908919,10.53070837141206],[-73.81407485213703,10.524341139796718],[-73.82142588055291,10.525462525751209],[-73.82177794213811,10.522358595726757],[-73.82519114436838,10.523233747859592],[-73.82677404698842,10.518932804331655],[-73.8302493578908,10.519219243056625],[-73.83224085455288,10.516410323825596],[-73.83586117173667,10.515966755538784],[-73.83824381491343,10.510834604198351],[-73.84132062902245,10.509476325765718],[-73.84856804391148,10.511521528724586],[-73.85188078684803,10.509889839876735],[-73.85304860595375,10.511960988383464],[-73.85632960601197,10.512419928800568],[-73.8559997577567,10.515301371741145],[-73.85855286116725,10.514208084893198],[-73.8605419111646,10.515233310443705],[-73.86046549994234,10.50712608881264],[-73.86142974605059,10.506325590293784],[-73.86326418205658,10.508030942365451],[-73.86635385169706,10.501894477824692],[-73.86967158257983,10.50953712317363],[-73.87358973774542,10.507540637536863],[-73.87520806301114,10.50974417847749],[-73.87783436376105,10.509157109549221],[-73.87954438496178,10.511807174520357],[-73.88344143031622,10.510469281875316],[-73.88599269795685,10.512074450275918],[-73.8901690806407,10.508728533897454],[-73.89205481844482,10.509785175281593],[-73.89311137446828,10.50851676627002],[-73.8973333726916,10.512670083045066],[-73.89981424344182,10.512640898931693],[-73.90021404018654,10.515380454857109],[-73.90287982181627,10.51566677222587],[-73.90143500714476,10.51301702607185],[-73.90238884541475,10.512530529565936],[-73.90644694075388,10.516094822343462],[-73.90915475277245,10.513681323834192],[-73.91079398216084,10.516847481830098],[-73.91493049624205,10.509696330189286],[-73.91279855032735,10.507492660693401],[-73.91369452842122,10.502014497066625],[-73.91905875604357,10.498282294592798],[-73.92136850321464,10.492236433781045],[-73.92826825105334,10.49091078474413],[-73.93082399139047,10.485634532151778],[-73.93418657985058,10.488376594391582],[-73.93543866953627,10.484622971516956],[-73.93815412493967,10.486673026667631],[-73.9441953423335,10.485904977567145],[-73.94729548974635,10.481891153593097],[-73.94879609639605,10.485386023415288],[-73.95131847302946,10.486477561910988],[-73.95023078605101,10.490887821679621],[-73.95382500444896,10.491568465507328],[-73.96237133915378,10.486940690146014],[-73.96578853071253,10.489344468845047],[-73.96769382846492,10.478057879902337],[-73.97272703643597,10.47277988615673],[-73.97524972365898,10.473176228363059],[-73.97379840306013,10.470061260065052],[-73.97608600580685,10.46825045149751],[-73.97694175431474,10.463219587346998],[-73.97902618001439,10.461013186307696],[-73.97953935329082,10.452362530507571],[-73.98320731924491,10.448073849099728],[-73.9888543829581,10.445271754613259],[-73.9931979862817,10.445283171353651],[-73.99671971388028,10.442519911885086],[-74.0000943824262,10.442872232637797],[-74.01297179299638,10.435904861618212],[-74.0155541494259,10.436523534585092],[-74.01974213808359,10.434751207251281],[-74.02837838746092,10.429937461714644],[-74.0312330333033,10.426700217771781],[-74.04005528576613,10.428114073238191],[-74.0471804589489,10.425309979459428],[-74.04824237418632,10.429290311174384],[-74.05250278473773,10.430785816749221],[-74.05287756770349,10.433673257566568],[-74.05550286057974,10.4328891822463],[-74.05621043828859,10.436209455438984],[-74.0621899614726,10.434787078297859],[-74.06705452749628,10.4355399445015],[-74.06901805463565,10.437951599013331],[-74.06796993492623,10.440221977404747],[-74.06985886193058,10.441269657969258],[-74.07346816655189,10.441570304627646],[-74.07406424772194,10.438418535570975],[-74.07997694168262,10.43734730675817],[-74.08036566621519,10.44520367583226],[-74.0847006697025,10.444792307052296],[-74.08749447494228,10.447550844941247],[-74.08507292887032,10.450345571665594],[-74.08739469647759,10.454995862718931],[-74.0862513378487,10.457124982473601],[-74.08914795545866,10.459973872123157],[-74.08633875237746,10.463825275198644],[-74.08794527317997,10.467345451905885],[-74.09115827056195,10.468180501979589],[-74.09182287068643,10.470614749316667],[-74.09414916138383,10.46835559020468],[-74.09991191973819,10.471934289404999],[-74.10319056671989,10.471058267209742],[-74.11035656392846,10.47306922817495],[-74.11523896623078,10.479339627813431],[-74.12335292518878,10.4803048303732],[-74.12402817483553,10.48771135766117],[-74.13085642329344,10.48425457312237],[-74.1348432516798,10.485219026975983],[-74.13502823866406,10.488248786754411],[-74.13014364886453,10.49002375101486],[-74.12822391897822,10.49580332851815],[-74.12977995456595,10.497316265165239],[-74.13588805363366,10.497947043929003],[-74.13433614415732,10.503891515735063],[-74.13718263959271,10.511997168991286],[-74.13890201859186,10.509749055351904],[-74.139785029054,10.50257624985386],[-74.14572975899915,10.499922781766372],[-74.15250198305085,10.500642362427868],[-74.16437643282256,10.50666277957174],[-74.17773760424154,10.516281733543678],[-74.18367094932802,10.527707253757796],[-74.18689356881822,10.525747755027794],[-74.20004553548847,10.526566909493965],[-74.2043795393297,10.529856060987584],[-74.20966220323271,10.530637077719803],[-74.21234666446395,10.535112264093073],[-74.21620544352919,10.536146907091734],[-74.21390059894361,10.542223159408366],[-74.20955371283145,10.54566947440236],[-74.20883051308073,10.55196656726639],[-74.1878334819765,10.554183756667669],[-74.19408108207273,10.573727442169684],[-74.19191880018906,10.583831630748591],[-74.18300697552507,10.574247352773057],[-74.15852167308583,10.575497166515504],[-74.14836100964288,10.57046046389678],[-74.13644149352001,10.573750733307406],[-74.1264295870883,10.571438003652986],[-74.10795029742701,10.578913911730183],[-74.09507858648533,10.581203081823332],[-74.08781742440516,10.588180960440184],[-74.07605504401471,10.588860461668276],[-74.06967334015621,10.59107590477413],[-74.06592593010288,10.594880941547103],[-74.05439854985639,10.614233730634112],[-74.05099482163865,10.616830629240837],[-74.041315414787,10.61764273681888],[-74.03688239764239,10.60643667595383],[-74.03177892030777,10.604231348608607],[-74.00993837299103,10.615490299187059],[-73.97539679916673,10.625589794982716],[-73.96857513788314,10.630467435596188],[-73.96408372268695,10.630984129231365],[-73.9569782194958,10.635203647879791],[-73.9477669781906,10.635044742197806],[-73.93852828364089,10.638211306428502],[-73.92620327011639,10.638346562046365],[-73.9164829096552,10.642911236288455],[-73.91553518341908,10.64832973790783],[-73.90751685830247,10.655211756425956],[-73.89507588582711,10.656352914187835],[-73.88630726767008,10.661671800864838],[-73.87631778848436,10.664084464278801],[-73.87057662433762,10.669571182490415],[-73.85861504080191,10.672059630805109],[-73.85728700680681,10.675015571036454],[-73.8598417372134,10.680814165470338],[-73.85658343899536,10.684586248888081],[-73.85294779184744,10.684187801459984],[-73.8503523443731,10.679908368835697],[-73.84732579127842,10.680197805470641],[-73.84288420515071,10.675092570527795],[-73.84311558723391,10.670520177824585],[-73.8489847513365,10.663651726520186],[-73.84731709888229,10.654405995366744],[-73.84504512126267,10.653053069977375],[-73.83601486218663,10.660900351733346],[-73.83314458401804,10.66598116219484],[-73.82617307660263,10.668954801921927],[-73.82249256159292,10.67673045574179],[-73.8168532225115,10.678144405824924],[-73.81240917634926,10.675494123852332],[-73.8038127595791,10.68352957253694],[-73.79852293257392,10.68388687712212],[-73.79081600751061,10.681378075929956],[-73.78274523799621,10.685383687790477],[-73.77179827368337,10.68440897522271],[-73.75951279965994,10.685640966056269],[-73.75399637077237,10.684470438032974],[-73.74730286371107,10.680533729764306],[-73.7378813007686,10.680132554906606],[-73.71143957875631,10.68617908729135],[-73.7046403611738,10.689296680174664],[-73.69628998384962,10.696866692799176],[-73.68263631926453,10.705001599074421],[-73.67630657129365,10.711943448264435],[-73.6676685766493,10.713750218138216],[-73.6583882373767,10.712437946053171],[-73.63512581994098,10.716730112852701],[-73.62380131026572,10.716844619642757],[-73.58056146375264,10.728727891394385],[-73.57278145447867,10.735077045047149],[-73.5702476004268,10.744573055915055],[-73.56544401384537,10.749216730997716],[-73.55025787220535,10.756345848257581],[-73.54359123217637,10.755147382593236]]]}}]}