{"type":"FeatureCollection","features":[{"type":"Feature","properties":{"code":"473008"},"geometry":{"type":"Polygon","coordinates":[[[-74.23617721000204,9.313265456837826],[-74.23297844832138,9.314799178308192],[-74.22192015099216,9.312126609986251],[-74.21562953011687,9.312705283738296],[-74.2149283236094,9.304530236323103],[-74.20596646624529,9.300485195004853],[-74.20369206355826,9.292143148065065],[-74.20672000505033,9.288832930983347],[-74.22033311711846,9.282377966022011],[-74.22015363538696,9.280341542876954],[-74.22643093690317,9.280640811422359],[-74.23435703849384,9.277660639028397],[-74.24016133666993,9.277333695094796],[-74.24153699578113,9.276407507530394],[-74.24175984384834,9.272405436597467],[-74.24423095262216,9.27013953810166],[-74.25077147885878,9.268315770129902],[-74.25773720334195,9.259007804834312],[-74.25810038033387,9.25391053415035],[-74.25611210578222,9.254234712601999],[-74.25777940753756,9.238609422921115],[-74.26343442419676,9.225957696862622],[-74.26601393698269,9.222981781192232],[-74.27363490379179,9.221452129268926],[-74.27784221996973,9.214771671086282],[-74.28413304036286,9.213971438934038],[-74.29371740472754,9.209238353115666],[-74.29851375313058,9.204176909255295],[-74.32197767022359,9.216346232009073],[-74.34524369235032,9.231835708656263],[-74.35388210351385,9.232611341491918],[-74.36171005466429,9.23062867503728],[-74.37794110213088,9.224264149254168],[-74.38678334545943,9.217615916289446],[-74.39688722447715,9.213440292596147],[-74.4046776868409,9.215326383156082],[-74.41126061370568,9.224942508911113],[-74.41505412369492,9.236983101514795],[-74.41039487182184,9.23835147102551],[-74.40796705225051,9.231795452330744],[-74.40289043474922,9.225633922588884],[-74.39906698371294,9.229738642369625],[-74.3946508988459,9.231360921996838],[-74.38326995030212,9.248568252462917],[-74.37904689175457,9.250192436765701],[-74.37447827754914,9.256877694689535],[-74.36153052253911,9.268168126921921],[-74.35195875453837,9.273045297537124],[-74.29154112676969,9.322330416592877],[-74.2517423779617,9.344215851311787],[-74.24350548618412,9.349777887511323],[-74.24195701993335,9.35408673564848],[-74.23617561900147,9.344099549889563],[-74.24031154995578,9.337388542850363],[-74.24295098288815,9.326246199141622],[-74.23617721000204,9.313265456837826]],[[-74.35019696668348,9.249793214920317],[-74.35561553720851,9.247826743350004],[-74.3557431988068,9.245200832379851],[-74.35398689152208,9.244724552421872],[-74.3529290118932,9.241714131476556],[-74.35637640983714,9.238282487215088],[-74.35780502242523,9.231953908583364],[-74.3567789823482,9.232282784960432],[-74.35655559949095,9.232129526456333],[-74.35422864544807,9.232590512445597],[-74.35087515561895,9.232828231791586],[-74.3490794188765,9.237339780806963],[-74.34689209955974,9.237293630477382],[-74.34456374683509,9.239806893053128],[-74.34400945745517,9.241859550163383],[-74.34716430464027,9.243149592463396],[-74.34836203599667,9.248601808485432],[-74.35019696668348,9.249793214920317]]]}}]}