{"type":"FeatureCollection","features":[{"type":"Feature","properties":{"code":"473029"},"geometry":{"type":"Polygon","coordinates":[[[-74.11709609893472,9.250555088223507],[-74.12255260973268,9.2428722729382],[-74.12216337714949,9.231939507302798],[-74.1059589735433,9.240696869156466],[-74.10114333875771,9.241295273578203],[-74.10174333212314,9.212588854290857],[-74.09685207081696,9.202842505087233],[-74.09610218606821,9.195154572271974],[-74.09435222633073,9.19474095428825],[-74.09715909381896,9.187787982492353],[-74.09384401631792,9.18430610704138],[-74.09545010620297,9.159717986061366],[-74.0997965963648,9.154272539247984],[-74.10003006927161,9.148567374703134],[-74.113431034217,9.136117523683538],[-74.1316114605392,9.124697232071185],[-74.1762115045587,9.088283043369302],[-74.19561107955275,9.097026154094976],[-74.20035641000771,9.101145254587436],[-74.21058269528248,9.115887171794384],[-74.2237633215604,9.12248246979425],[-74.2250789350552,9.126559619087914],[-74.22121632607002,9.133438231404398],[-74.22195608580216,9.134783999862293],[-74.22463151010896,9.136585546276478],[-74.22496662296152,9.137114323082812],[-74.22584938351213,9.137745791931536],[-74.22627602774878,9.138181848474119],[-74.22661457868463,9.138672218094598],[-74.22404279567269,9.136548808252826],[-74.22429929232214,9.137580703253093],[-74.21967150359109,9.138773923860583],[-74.21709999928703,9.142697700493045],[-74.21984408035951,9.144370502358981],[-74.21865690493712,9.14528000550041],[-74.2233847981492,9.15228920739105],[-74.21416125564309,9.167232357888736],[-74.20055856169768,9.174951689054069],[-74.1882069331092,9.188255379792281],[-74.169172719519,9.22348203106003],[-74.15963069407593,9.236140717617502],[-74.15272276909076,9.248708063052675],[-74.15080421779965,9.248291457443429],[-74.12921945545014,9.280007873957743],[-74.1175097446864,9.287687149343867],[-74.12020699357191,9.276962802727098],[-74.1142913078719,9.261894314911217],[-74.11709609893472,9.250555088223507]]]}}]}