{"type":"FeatureCollection","features":[{"type":"Feature","properties":{"code":"473001"},"geometry":{"type":"Polygon","coordinates":[[[-74.34983494977467,9.249521334827648],[-74.34836203599667,9.248601808485432],[-74.34716430464027,9.243149592463396],[-74.34400945745517,9.241859550163383],[-74.34456374683509,9.239806893053128],[-74.34689209955974,9.237293630477382],[-74.3490794188765,9.237339780806963],[-74.35087515561895,9.232828231791586],[-74.35780502242523,9.231953908583364],[-74.35637640983714,9.238282487215088],[-74.3529290118932,9.241714131476556],[-74.35398689152208,9.244724552421872],[-74.3557431988068,9.245200832379851],[-74.35561553720851,9.247826743350004],[-74.34983494977467,9.249521334827648]]]}}]}