{"type":"FeatureCollection","features":[{"type":"Feature","properties":{"code":"473040"},"geometry":{"type":"Polygon","coordinates":[[[-73.97300311257413,9.032523156691525],[-73.96260738728068,9.03196392256001],[-73.95870620347353,9.025183795956025],[-73.96142804344805,9.024779066800988],[-73.96172795682696,9.021968407445172],[-73.9548124810168,9.021570336426976],[-73.95459975385245,9.018587794501457],[-73.95183956737014,9.01541222317121],[-73.95582956130261,9.003149970351387],[-73.96303440278513,9.005492948557162],[-73.96620139484793,9.004345707557775],[-73.96649487429039,8.994566329922634],[-73.96815296942833,8.990591917922814],[-73.97828368771047,8.987108306460868],[-73.9898671149889,8.994483537214535],[-74.00190360616386,8.995969108034672],[-74.00368423200035,9.001952690481232],[-74.00117470267094,9.007375914708689],[-73.99728230176288,9.009471542204267],[-73.98939073424356,9.008277320922161],[-73.98575414915604,9.010011227700375],[-73.9956795553444,9.01841995782462],[-74.00108794326002,9.025542975391943],[-73.99686793507294,9.029057577940705],[-73.9922560717743,9.024778732557138],[-73.99205455051964,9.026217369374478],[-73.99085577220876,9.025492597135155],[-73.98604679144631,9.019294594707787],[-73.9832563152749,9.020027207792907],[-73.98493842865946,9.014537393969249],[-73.9800183061709,9.010044792978874],[-73.97875062221124,9.011557550676912],[-73.98175179540141,9.016924646625455],[-73.98083286349896,9.020222313623151],[-73.97557936314041,9.014668187175062],[-73.96993328570363,9.016222782943203],[-73.9757743517282,9.01644496560806],[-73.97656304064162,9.025562341993009],[-73.98201560839101,9.024956885540917],[-73.9825478644184,9.026139278705614],[-73.97300311257413,9.032523156691525]]]}}]}