{"type":"FeatureCollection","features":[{"type":"Feature","properties":{"code":"473020"},"geometry":{"type":"Polygon","coordinates":[[[-74.22466815660124,9.152686918454322],[-74.21865690493712,9.14528000550041],[-74.21984408035951,9.144370502358981],[-74.21709999928703,9.142697700493045],[-74.21967150359109,9.138773923860583],[-74.22429929232214,9.137580703253093],[-74.22404279567269,9.136548808252826],[-74.23303824814008,9.146741163152],[-74.22676311046695,9.152113176084185],[-74.22466815660124,9.152686918454322]]]}}]}