{"type":"FeatureCollection","features":[{"type":"Feature","properties":{"code":"474001"},"geometry":{"type":"Polygon","coordinates":[[[-74.70334762933737,9.439393720353166],[-74.69939351879282,9.436778265558075],[-74.70231526433889,9.43524552213654],[-74.70291083334456,9.430548963511114],[-74.70489978049767,9.430008100448276],[-74.70524929977296,9.428576456011683],[-74.70613372845736,9.426459305271067],[-74.70326151681684,9.425629012772447],[-74.71094155530733,9.422937172466163],[-74.7114933003204,9.425092335470708],[-74.7062951167996,9.426020299155311],[-74.70534493155748,9.428694327865628],[-74.70808371615095,9.434245440977122],[-74.70332952977748,9.437003309350018],[-74.70334762933737,9.439393720353166]]]}}]}