{"type":"FeatureCollection","features":[{"type":"Feature","properties":{"code":"474047"},"geometry":{"type":"Polygon","coordinates":[[[-74.21316788507113,9.549629648803261],[-74.21058353449155,9.548834464246852],[-74.20869497155581,9.545355531169946],[-74.20859557361484,9.534024149441791],[-74.20273108686877,9.522891564624047],[-74.2009419208456,9.509572222019187],[-74.19725165620082,9.505977546992767],[-74.1983002417947,9.501462347006452],[-74.20703892404697,9.492677030028176],[-74.21719704620841,9.478327727951864],[-74.22797512483305,9.470821564124265],[-74.2360709801174,9.462536080494544],[-74.23718312037363,9.45785953638898],[-74.23357772177707,9.451290400938376],[-74.234537563066,9.449032267183554],[-74.2433899478662,9.441169246143204],[-74.24951390963133,9.444442646011225],[-74.25354618180722,9.432143515299572],[-74.2589524141074,9.426380386705944],[-74.26027767542143,9.4227044410664],[-74.26496388791509,9.419326238791939],[-74.2675700167934,9.414807695338993],[-74.27552981838852,9.41122193073852],[-74.27967345032039,9.401983939643458],[-74.27944518133268,9.398836590832786],[-74.28155176071266,9.397821687759802],[-74.28095565383148,9.396210472117218],[-74.28243251374346,9.394799157932312],[-74.28042529116681,9.390328280733172],[-74.28481537186474,9.387495873931869],[-74.28909211922559,9.377013479730465],[-74.29171280262244,9.376794887358471],[-74.2954810900589,9.372004173791993],[-74.29681096496608,9.358184933046743],[-74.30271818247036,9.35592780202336],[-74.30483588548458,9.352471569758166],[-74.31081509910734,9.351595211262236],[-74.31207783008784,9.343329618739233],[-74.31420713084833,9.339621275103468],[-74.32367774021452,9.340481788385489],[-74.33314219846596,9.33688243497403],[-74.34856318186979,9.339329210797871],[-74.35854793844749,9.338550804252748],[-74.36736521119167,9.34189361884853],[-74.36924420241286,9.338880205135524],[-74.37190149630652,9.337981814315526],[-74.37523360892948,9.338503439332555],[-74.37657223382558,9.340509498740744],[-74.38529932553064,9.340667180576133],[-74.39571980954929,9.338663352888204],[-74.40138284908858,9.332917130861176],[-74.4091991510706,9.32922235855284],[-74.41146495494974,9.32601512456273],[-74.41300906574645,9.33145203221784],[-74.44293778793877,9.328952274120809],[-74.44922945165479,9.323579851868487],[-74.4535607074975,9.325423222983034],[-74.4603839237862,9.32521029218708],[-74.47517000951393,9.31630338244986],[-74.4762203352326,9.306831669564872],[-74.47979069376407,9.302878945360874],[-74.4791265595241,9.366306462370119],[-74.47651326137299,9.3682679562786],[-74.47494946207269,9.401295688426444],[-74.4595181469353,9.401441376565174],[-74.45915029155833,9.395499584880326],[-74.45466194009236,9.395544933024723],[-74.45099748832638,9.399357458916143],[-74.4494261412865,9.39797012492545],[-74.44446636308282,9.398882784356942],[-74.44190793542538,9.392770187910116],[-74.43759088751602,9.393422138191625],[-74.42760603632166,9.404547012775765],[-74.40228957234984,9.415648622961726],[-74.39316307059448,9.435250116189252],[-74.36266192038153,9.435726841462838],[-74.35217183240161,9.429080728118095],[-74.34391529531507,9.429470142735624],[-74.33603728986725,9.418381319175523],[-74.32348946941329,9.419185712406204],[-74.30187135364446,9.427448909686518],[-74.29817403902621,9.42655727470543],[-74.29733449054493,9.43910254462196],[-74.28849398836957,9.438890854127635],[-74.28212231902472,9.444659471519003],[-74.27809730251079,9.452230332608622],[-74.27612414195033,9.471386405324381],[-74.2795525517601,9.482874689328526],[-74.2776730524883,9.49669067711011],[-74.27947233221516,9.504739703292785],[-74.28448025078472,9.50953881717777],[-74.28465210661489,9.515346604859303],[-74.27260798028266,9.526719255928867],[-74.26540624161123,9.526351383068345],[-74.2613147743408,9.520285738107816],[-74.25031621718057,9.517278294503626],[-74.24931736706691,9.519754927042186],[-74.24695388685956,9.51972890538957],[-74.24081539011632,9.528648662430783],[-74.23396491084497,9.53327517075087],[-74.22969598684637,9.54107393058888],[-74.22456936749825,9.54577185190061],[-74.2136130546429,9.552111255918305],[-74.21316788507113,9.549629648803261]],[[-74.46588837440373,9.32791668186968],[-74.46341354678174,9.327970411820615],[-74.46458881283979,9.329956706620465],[-74.46072428786619,9.332156946260568],[-74.45908236087308,9.331560674828665],[-74.45903975661332,9.329672393686167],[-74.45609864755153,9.329985118373486],[-74.45484575979441,9.327303447306804],[-74.45168578788025,9.325862148880276],[-74.45048686558744,9.32698089585125],[-74.4517588803185,9.330088708246194],[-74.45039557383035,9.3306162005278],[-74.45086269550768,9.33231585399949],[-74.4528231404048,9.332031747782139],[-74.45334051795425,9.3343707839677],[-74.45792593588203,9.333131060274809],[-74.46007759703974,9.33672025884482],[-74.46273855218874,9.337680919802494],[-74.4639496286153,9.333747001698384],[-74.46283071915042,9.333082229824015],[-74.46588837440373,9.32791668186968]]]}}]}