{"type":"FeatureCollection","features":[{"type":"Feature","properties":{"code":"474007"},"geometry":{"type":"Polygon","coordinates":[[[-74.53041382579266,9.556260820935051],[-74.52542207228265,9.53496565051529],[-74.53106212201789,9.529263716308435],[-74.53173449408246,9.523716250054122],[-74.53663530036363,9.519735238538601],[-74.53696292512615,9.516543298517206],[-74.54194592453342,9.514911713542062],[-74.54068049697668,9.513971997844749],[-74.54175266475755,9.509977836663268],[-74.55456310829305,9.510370878597541],[-74.56035368807443,9.512524968936475],[-74.56021101635758,9.508978805543677],[-74.5522529209486,9.501369221536379],[-74.55735481962392,9.488438276419345],[-74.56350840464734,9.491506086514107],[-74.5696543380584,9.488325288638919],[-74.57573083103057,9.490006281021067],[-74.5796622129954,9.484601039111112],[-74.58160226901964,9.47616874325496],[-74.58819763901045,9.471613941032558],[-74.59924499988199,9.459045639145813],[-74.59405521359434,9.433613239877332],[-74.60514673373075,9.428950980838408],[-74.60955925093066,9.424444259332176],[-74.610666299368,9.421239808307519],[-74.60891037672076,9.41798546033715],[-74.6091858203668,9.414283906478886],[-74.62290770771483,9.401196745057007],[-74.62417085212917,9.392395731989097],[-74.63011367842722,9.387827720450957],[-74.63136050248721,9.39044087256326],[-74.63996912687008,9.38841233243005],[-74.64525008458702,9.390268611526722],[-74.64187233894108,9.382741857251403],[-74.64599473147803,9.38806038294507],[-74.65232301597518,9.391138782912435],[-74.65257734878162,9.388050948013415],[-74.65415559872775,9.389699482749734],[-74.654750576379,9.383686294528331],[-74.6601352422395,9.38629820633895],[-74.66950311842561,9.401825103895533],[-74.67137189001352,9.411633549430007],[-74.67552037310872,9.414434859214907],[-74.69027417088364,9.418947043807748],[-74.69788922723359,9.426729173730223],[-74.72221384684212,9.41748003431826],[-74.73535188017314,9.419407518661103],[-74.73873274508526,9.42373288975574],[-74.74020829476143,9.43753183418795],[-74.74788425136359,9.447203337458802],[-74.75548855329015,9.452609872121059],[-74.7602857203334,9.453371338160991],[-74.7710399997697,9.450900341487397],[-74.79765002434334,9.44089563826708],[-74.8016907143213,9.44269210108996],[-74.80540040213145,9.448932634757625],[-74.80600964016668,9.456430540191832],[-74.80207404570126,9.463356974056978],[-74.79661679442466,9.470713646565457],[-74.78686008057736,9.47831957651647],[-74.77462091320677,9.49156933161521],[-74.77374736338737,9.495023419577763],[-74.77527195023129,9.499151972485436],[-74.78435223275142,9.506081481393721],[-74.77946350655606,9.509386555234414],[-74.7756266744542,9.509102727724951],[-74.77670224535132,9.516902537602789],[-74.7740892403063,9.516123537646308],[-74.7714048304972,9.518072624424235],[-74.77352645393432,9.524374232150933],[-74.77287230689967,9.52686396087654],[-74.76473294541142,9.53529679975037],[-74.7619791990362,9.5408655568217],[-74.75506582741946,9.54343292061617],[-74.75050653604546,9.547377838941486],[-74.74916861768935,9.554295336669554],[-74.74492108015295,9.554708092818487],[-74.74021603173452,9.550496184644715],[-74.73178725212335,9.551759630392723],[-74.73149358447591,9.547878354147372],[-74.72593987146172,9.549365725770315],[-74.7228598167303,9.543673519601214],[-74.71952686901204,9.547919738674352],[-74.7144832789138,9.54944102524621],[-74.71151392984888,9.55462566726436],[-74.70042752724248,9.557400697257549],[-74.69218625121442,9.566023253951244],[-74.68485757393978,9.569123720181267],[-74.66695673588697,9.571509879603013],[-74.66910079582607,9.57300962441792],[-74.66197220307185,9.57863774010616],[-74.65532831321991,9.594340802667148],[-74.6591322475025,9.603517580863468],[-74.65901765638017,9.612842210013241],[-74.66326809823823,9.612926548470398],[-74.66411480673639,9.614620293539815],[-74.66714741015835,9.615068326295557],[-74.67240252722854,9.620564058805883],[-74.67330200305543,9.616884020993496],[-74.67476235337966,9.616515415881906],[-74.67592654619705,9.62126320122917],[-74.6784818288773,9.622518746481774],[-74.67764897555674,9.624909273698961],[-74.68013555930514,9.623633591541818],[-74.6802538898445,9.621982360229254],[-74.68638358106284,9.623128828868289],[-74.68701137940019,9.62493816470618],[-74.68060537447343,9.634349449394108],[-74.67619780202517,9.636065727639107],[-74.67243072917933,9.640349557883553],[-74.65150813571614,9.648678576513532],[-74.64428569141148,9.648038387500662],[-74.63895493856472,9.64469529831075],[-74.63116958653183,9.643148291419891],[-74.62608876475753,9.648887018157893],[-74.60134991627035,9.65887473047934],[-74.59793337057351,9.661940222464636],[-74.599681675547,9.66715522924818],[-74.59047105130736,9.668224562641399],[-74.59078557885442,9.666409126082556],[-74.58646222453552,9.65918958507109],[-74.58660294941069,9.654628321144344],[-74.57759390813226,9.649271158922147],[-74.57593773926715,9.650252250918868],[-74.57119978480193,9.64849487302547],[-74.5682879421289,9.6435243671379],[-74.5631277965831,9.641085975177532],[-74.56273565967825,9.633563469398268],[-74.55579947206428,9.628935125308203],[-74.55708863813123,9.6257158986499],[-74.55613286124708,9.619734401884728],[-74.55318796648845,9.619721468191585],[-74.54831186339652,9.613579231002973],[-74.54145935912186,9.610535926636544],[-74.54048484195818,9.607428360039364],[-74.53427346566428,9.604150231392623],[-74.53899193011534,9.596723591882778],[-74.5381400084421,9.594102840608684],[-74.54016888384757,9.583273710097444],[-74.53830184312841,9.581890666768913],[-74.53716904968951,9.576837090493825],[-74.52306470102388,9.563552739617194],[-74.52941114987283,9.560445863104917],[-74.52801183041299,9.558298123398515],[-74.53041382579266,9.556260820935051]],[[-74.69939351879282,9.436778265558075],[-74.70334762933737,9.439393720353166],[-74.70332952977748,9.437003309350018],[-74.70808371615095,9.434245440977122],[-74.70534493155748,9.428694327865628],[-74.70616435136179,9.426732440063631],[-74.7062951167996,9.426020299155311],[-74.7114933003204,9.425092335470708],[-74.71094155530733,9.422937172466163],[-74.70326151681684,9.425629012772447],[-74.70613372845736,9.426459305271067],[-74.70524929977296,9.428576456011683],[-74.70489978049767,9.430008100448276],[-74.70291083334456,9.430548963511114],[-74.70231526433889,9.43524552213654],[-74.69939351879282,9.436778265558075]]]}}]}