{"type":"FeatureCollection","features":[{"type":"Feature","properties":{"code":"474027"},"geometry":{"type":"Polygon","coordinates":[[[-74.4503091774597,9.608634885607728],[-74.44644033405598,9.609674156597748],[-74.4411301665146,9.607923584936941],[-74.43078782561543,9.598236554240941],[-74.42298168156015,9.595146626461371],[-74.42066105141032,9.590072421686216],[-74.41145315871404,9.588965924494062],[-74.3999390680018,9.599024653856759],[-74.39464585844911,9.599743752178767],[-74.38899756163335,9.604517991124453],[-74.38001426638493,9.591287735295907],[-74.36929943388986,9.589013505387186],[-74.36269214733557,9.585168581499602],[-74.36000589352903,9.581743807234147],[-74.36251581058133,9.577917978438734],[-74.35961672059557,9.577089631753381],[-74.36145234445263,9.570925456857367],[-74.36007108238653,9.570052837778405],[-74.41086683540658,9.534800352034608],[-74.43080906603876,9.49299347664902],[-74.43785859521739,9.489626448402532],[-74.44221439175556,9.482116819752036],[-74.45897562499471,9.472294073724356],[-74.46559798748791,9.464696941070656],[-74.47769767439877,9.462046793824072],[-74.48141265765946,9.459473785937007],[-74.48213020509013,9.45403484607948],[-74.47958176566641,9.447635671039507],[-74.48156523636311,9.440006243233768],[-74.478231354819,9.432885799858127],[-74.4743022230864,9.413656778686061],[-74.47583538611252,9.40985559343028],[-74.47451441340377,9.401319401225578],[-74.47599965820757,9.397066762614259],[-74.47651326137299,9.3682679562786],[-74.4791265595241,9.366306462370119],[-74.48035152403838,9.301808034336773],[-74.47886850375573,9.2993030805481],[-74.4791630589491,9.294649929396087],[-74.4804920247131,9.29226500307692],[-74.48635633662394,9.291762256150719],[-74.4905968951494,9.289188663079926],[-74.49305361498398,9.286186441906807],[-74.49238020933467,9.284297601291598],[-74.49495140716283,9.2834063108387],[-74.49349606329685,9.282186292104484],[-74.50019914824333,9.276846466337815],[-74.500644587267,9.274957557845369],[-74.49549792563107,9.272629775906296],[-74.49493583757157,9.270076318711574],[-74.50018030409103,9.260960148689719],[-74.5027507953792,9.259624746932445],[-74.50330446563669,9.255069582698297],[-74.50744022175576,9.253731103840948],[-74.51134323721902,9.2448390232164],[-74.50748989552937,9.235473646145692],[-74.51177775006943,9.234507892340673],[-74.52956528152464,9.24192923948533],[-74.5319269691567,9.25281286099505],[-74.5351783192171,9.25914093877526],[-74.55959840091708,9.292763337984695],[-74.56664081224511,9.315910142026155],[-74.56629375403276,9.318674639739527],[-74.55616264597091,9.320438317871776],[-74.55579761572551,9.321975464055754],[-74.56275133828444,9.3238039350951],[-74.56214815571877,9.3272433471829],[-74.56424471601173,9.328893394758154],[-74.565749651376,9.327260012065494],[-74.56718306370533,9.328771795828516],[-74.57380159422166,9.323308030397016],[-74.57596603274925,9.324004057667935],[-74.57785524360378,9.321717921480172],[-74.57948029796893,9.322532452068799],[-74.57993935460001,9.320588534242916],[-74.59576903489017,9.325487700158305],[-74.61475815024744,9.340064216040275],[-74.61476445254323,9.358728138901597],[-74.61662404013941,9.367457704010917],[-74.61979662590107,9.37190552352871],[-74.6258108569632,9.37789275077563],[-74.63080418296181,9.37858347128315],[-74.63906534186907,9.382595945940636],[-74.64560649751252,9.38128146476106],[-74.654750576379,9.383686294528331],[-74.65415559872775,9.389699482749734],[-74.65257734878162,9.388050948013415],[-74.65232301597518,9.391138782912435],[-74.64599473147803,9.38806038294507],[-74.6429706754418,9.382530960714746],[-74.64157110607044,9.384369678126916],[-74.64525008458702,9.390268611526722],[-74.63996912687008,9.38841233243005],[-74.63136050248721,9.39044087256326],[-74.63011367842722,9.387827720450957],[-74.62417085212917,9.392395731989097],[-74.62407857820949,9.398542613624159],[-74.62154355276158,9.402891757167595],[-74.60989256298035,9.412789986762391],[-74.60884036858164,9.41762504882712],[-74.61066769496449,9.421811633660809],[-74.60955925093066,9.424444259332176],[-74.60514673373075,9.428950980838408],[-74.59405521359434,9.433613239877332],[-74.59924499988199,9.459045639145813],[-74.58819763901045,9.471613941032558],[-74.58160226901964,9.47616874325496],[-74.5796622129954,9.484601039111112],[-74.57515630910103,9.490594771256951],[-74.5696543380584,9.488325288638919],[-74.56350840464734,9.491506086514107],[-74.55735481962392,9.488438276419345],[-74.5522529209486,9.501369221536379],[-74.56021101635758,9.508978805543677],[-74.56035368807443,9.512524968936475],[-74.55456310829305,9.510370878597541],[-74.54175266475755,9.509977836663268],[-74.54068049697668,9.513971997844749],[-74.5418596299786,9.515031611427787],[-74.53696292512615,9.516543298517206],[-74.53663530036363,9.519735238538601],[-74.53173449408246,9.523716250054122],[-74.53106212201789,9.529263716308435],[-74.52542207228265,9.53496565051529],[-74.5261108665174,9.537600197317317],[-74.52123206684922,9.540435085750403],[-74.52032112183139,9.542980124114706],[-74.52155164404905,9.544142644684598],[-74.51691270185887,9.552639021765629],[-74.51657474536279,9.55773409569639],[-74.50765033564767,9.56840556082733],[-74.50260772668355,9.571857485975272],[-74.5016006222902,9.57878065350701],[-74.50542944076795,9.588554935209402],[-74.50338931214446,9.596177831376679],[-74.50481675642186,9.597177354091798],[-74.50341018130007,9.599240471490873],[-74.50465878970789,9.60016109312437],[-74.50056491896731,9.60923414569362],[-74.49633773327992,9.609073155358658],[-74.48504061514268,9.613218200370511],[-74.48454597645735,9.615234925756056],[-74.48005959754414,9.61697940492337],[-74.47803600421946,9.620871642309055],[-74.47493072076469,9.617624962406126],[-74.4644951062997,9.613707307063578],[-74.46237265496632,9.61130245055682],[-74.4503091774597,9.608634885607728]]]}}]}