{"type":"FeatureCollection","features":[{"type":"Feature","properties":{"code":"474028"},"geometry":{"type":"Polygon","coordinates":[[[-73.96659452728511,9.751862044723737],[-73.9590710043762,9.748576409475106],[-73.95198349481535,9.743544684518156],[-73.9489814721316,9.745408269670463],[-73.94791067320779,9.742385885881731],[-73.94674831616027,9.743312108413193],[-73.9411656771718,9.7403172889409],[-73.93897014162775,9.740937908749515],[-73.93721056698115,9.738465577157513],[-73.93452074550748,9.741487563967382],[-73.93074293572175,9.739351094962501],[-73.91985866835017,9.74235115332101],[-73.91259182309665,9.73970540472311],[-73.90672580499972,9.741284662542853],[-73.90300058256526,9.733710819998407],[-73.90055160073223,9.732234710849468],[-73.89477370370406,9.732209032696687],[-73.89248898676698,9.728257955029164],[-73.88567905692724,9.731204917985735],[-73.88234450689549,9.730622081098431],[-73.88284417672168,9.729379262822022],[-73.88108059526303,9.729646055209571],[-73.8791369458607,9.726245476082795],[-73.87218929008412,9.727994134840515],[-73.8675556382023,9.72728266139137],[-73.86812470630116,9.725340347935855],[-73.86579163405378,9.72456360438224],[-73.86017211614501,9.726463180908922],[-73.85867144058966,9.72967624719655],[-73.85365824096777,9.732641840389363],[-73.85572415881586,9.735183759487484],[-73.85452350976806,9.73843660798866],[-73.85052343812737,9.739834169840208],[-73.84433584353832,9.739073841257664],[-73.83599395189333,9.734487563551966],[-73.83504925647736,9.731816405224777],[-73.83899006411792,9.731247371064455],[-73.83597017018855,9.729665287084629],[-73.83602609997803,9.727907979125348],[-73.83306025790216,9.728750052433043],[-73.83263620534063,9.72677425391754],[-73.83462818537072,9.725781219646308],[-73.8325014001806,9.724267507553577],[-73.83361404025987,9.723151765691682],[-73.8315545851446,9.72294572751747],[-73.82943884645556,9.724946771211478],[-73.82937226714381,9.721051139965482],[-73.82537813990086,9.719944057589544],[-73.82907374833297,9.71659596194138],[-73.82696062908707,9.71437368894874],[-73.82374682129233,9.716346772376028],[-73.82520380243886,9.712533661300824],[-73.8223756945273,9.713648137150017],[-73.82512321265466,9.710694908921596],[-73.8227220523703,9.709834189951039],[-73.82085276347584,9.711372002565781],[-73.81986545043031,9.709518965119969],[-73.81864209645698,9.710962348199473],[-73.8176130451003,9.710075530443135],[-73.81866025052432,9.706644113467462],[-73.81584515549594,9.706423848847919],[-73.81811252569304,9.70423198278678],[-73.8151884229568,9.704339344986636],[-73.81574052483944,9.699680275147898],[-73.81311731764464,9.700359676617097],[-73.81339402833186,9.698343752388269],[-73.81193739994109,9.698737025722096],[-73.8108315763788,9.696379871464671],[-73.81308087889772,9.693186742563682],[-73.80977208312356,9.692338810218985],[-73.81110337522455,9.69049430987451],[-73.81517000046591,9.69012794573922],[-73.80967074451155,9.689443295099409],[-73.81075549220128,9.686849419085263],[-73.81376997446608,9.687495898052475],[-73.81440717379655,9.686133483224012],[-73.81355209789007,9.682120822418483],[-73.8102915021314,9.68304387426167],[-73.81355995621936,9.680045960205803],[-73.80995324430171,9.676665155971818],[-73.80987454068105,9.674665869886098],[-73.81197824247886,9.673878675299648],[-73.81801751303095,9.677795882241242],[-73.82153276041322,9.684700325948427],[-73.82650649663873,9.685997987979079],[-73.83067067890903,9.682176674046332],[-73.83479840392044,9.684578946077067],[-73.83433143239569,9.679088468907992],[-73.83890065852444,9.679668057973856],[-73.83664876227346,9.676660314064407],[-73.84496831203319,9.67696334773791],[-73.87237530242561,9.67038452950095],[-73.8736003708126,9.667372296439908],[-73.8843079743852,9.66303313907332],[-73.88875406200583,9.668623066633927],[-73.89480155187056,9.669288734281679],[-73.9145877317772,9.668131418659414],[-73.91920543457246,9.663685390688443],[-73.92594126204341,9.663559658448321],[-73.92923433293146,9.676785976370468],[-73.93179874098217,9.703760212549241],[-73.93795233526151,9.705960892362782],[-73.9469717422121,9.705711375752628],[-73.93654143553897,9.719586369395302],[-73.94361266896851,9.71940622431839],[-73.94446967423318,9.731146403720174],[-73.95927978232129,9.730440057057024],[-73.96038533951696,9.7194024077682],[-73.96160969313638,9.718548408641084],[-73.97345430367687,9.716962197521411],[-73.97684865249886,9.71424979247854],[-73.97912186630634,9.719562191740124],[-73.98456365083587,9.718857336318592],[-73.98651803717814,9.708328413320771],[-73.98698134539057,9.686767735038188],[-73.99260530925636,9.684592577054218],[-73.9927243977578,9.682133402327395],[-73.9957186145628,9.680642403387651],[-73.99455269807572,9.679241877564777],[-73.99685421667823,9.673846018135862],[-73.99528790077909,9.670186160422645],[-73.99886236999532,9.66635703958275],[-74.000848524927,9.667397163151577],[-74.00352415492233,9.66631289780139],[-74.004981652347,9.668105620178778],[-74.00702594307734,9.666206311047176],[-74.01691410010608,9.673715806000132],[-74.06075160130632,9.67029460762933],[-74.06183644361278,9.669606407834408],[-74.05979814253163,9.663317009777302],[-74.06026030505916,9.638983860266535],[-74.06941512909304,9.637162521476057],[-74.0706787990415,9.634367699106576],[-74.0862076352123,9.633146138737004],[-74.08927609116893,9.626800267872795],[-74.09864886994052,9.62069608100046],[-74.11913607020648,9.600712187133354],[-74.11703013771688,9.5962958081318],[-74.1370261116698,9.585710456549805],[-74.14574951640839,9.585055731530474],[-74.15204388698504,9.589386367222346],[-74.15728440737058,9.585088456571384],[-74.1573545286384,9.575206409519637],[-74.16474256452989,9.574979777812416],[-74.16810530005728,9.571755767867955],[-74.17098996613674,9.564803494384535],[-74.17727352264029,9.570976948917405],[-74.19624967345123,9.569789017589756],[-74.2010381213588,9.561362141625693],[-74.20665652649274,9.559815177929408],[-74.21560282249311,9.550405633366267],[-74.22149793934273,9.548045858637295],[-74.22889024944129,9.541900441504367],[-74.23396491084497,9.53327517075087],[-74.24081539011632,9.528648662430783],[-74.24695388685956,9.51972890538957],[-74.24931736706691,9.519754927042186],[-74.25031621718057,9.517278294503626],[-74.2613147743408,9.520285738107816],[-74.26540624161123,9.526351383068345],[-74.27370600722219,9.5266497548119],[-74.28465210661489,9.515346604859303],[-74.28448025078472,9.50953881717777],[-74.27947233221516,9.504739703292785],[-74.2776730524883,9.49669067711011],[-74.2795525517601,9.482874689328526],[-74.27612414195033,9.471386405324381],[-74.27809730251079,9.452230332608622],[-74.28212231902472,9.444659471519003],[-74.28849398836957,9.438890854127635],[-74.29733449054493,9.43910254462196],[-74.29817403902621,9.42655727470543],[-74.30187135364446,9.427448909686518],[-74.32348946941329,9.419185712406204],[-74.33603728986725,9.418381319175523],[-74.34391529531507,9.429470142735624],[-74.35217183240161,9.429080728118095],[-74.36266192038153,9.435726841462838],[-74.39316307059448,9.435250116189252],[-74.40228957234984,9.415648622961726],[-74.42760603632166,9.404547012775765],[-74.43759088751602,9.393422138191625],[-74.44190793542538,9.392770187910116],[-74.44446636308282,9.398882784356942],[-74.4494261412865,9.39797012492545],[-74.45099748832638,9.399357458916143],[-74.45466194009236,9.395544933024723],[-74.45915029155833,9.395499584880326],[-74.4595181469353,9.401441376565174],[-74.47451441340377,9.401319401225578],[-74.47583538611252,9.40985559343028],[-74.474454936516,9.417331750390531],[-74.478231354819,9.432885799858127],[-74.48163406487868,9.440470644680659],[-74.47958176566641,9.447635671039507],[-74.48213020509013,9.45403484607948],[-74.48110767920122,9.460015461469425],[-74.46559798748791,9.464696941070656],[-74.45897562499471,9.472294073724356],[-74.44221439175556,9.482116819752036],[-74.43785859521739,9.489626448402532],[-74.43080906603876,9.49299347664902],[-74.41086683540658,9.534800352034608],[-74.35639408876403,9.572681309570441],[-74.35466964365702,9.568295459885064],[-74.35107701111741,9.568703933599295],[-74.32426031896279,9.587270533916637],[-74.31831579573458,9.58967761288767],[-74.30972200149284,9.590502436128986],[-74.30000442502552,9.595042900834244],[-74.29498005857482,9.594433446826088],[-74.28291452006937,9.587169419505074],[-74.27815664467255,9.57850165144987],[-74.27328981298996,9.576175170490558],[-74.27251345818769,9.568496249917075],[-74.2703037990425,9.567127811500768],[-74.2650555848785,9.570810314489847],[-74.25956022260749,9.57785515602751],[-74.25190457465976,9.575803256879396],[-74.2432128788609,9.577569398131459],[-74.24041085328003,9.58038920754035],[-74.23395054658829,9.578848328110041],[-74.22941078945149,9.580369294836316],[-74.22493219070594,9.58538670798714],[-74.21660152656796,9.582475400104272],[-74.21063047363657,9.587392706717196],[-74.20609371440969,9.58843866361201],[-74.20449533681506,9.590968502624321],[-74.1978054951229,9.592860470733228],[-74.19590088642701,9.595705689871409],[-74.19646717978793,9.60014804733106],[-74.19131835636585,9.605235366805232],[-74.18999686120827,9.609133720338548],[-74.18371641574333,9.612268402851214],[-74.17453312236364,9.622054670022749],[-74.16837883902775,9.621456176126514],[-74.16479969245489,9.624328779603673],[-74.16138277651874,9.631861987355762],[-74.16053981566517,9.643134247008845],[-74.15475494785358,9.65138675054385],[-74.1492355364827,9.65287853418522],[-74.14578913509956,9.655721539086699],[-74.14185708156174,9.656052231693252],[-74.14050636835225,9.659577362408129],[-74.13528956899341,9.663860365784785],[-74.12549002360049,9.66369678171776],[-74.12491849958087,9.665696093514555],[-74.10431975855306,9.680053189128273],[-74.10100278563243,9.696716207135353],[-74.0952004600091,9.69785226690766],[-74.09108341125949,9.702974275747977],[-74.08978995350185,9.701152472101455],[-74.08551566206177,9.707744697115118],[-74.08179765106632,9.708240852753192],[-74.07869702954144,9.706624733496653],[-74.0709209396619,9.707907333986554],[-74.06103186937617,9.716313995912913],[-74.04632677041144,9.723013427831575],[-74.04118213480723,9.72966036701564],[-74.03198561565677,9.733144518409915],[-74.02948508108557,9.736792235359246],[-74.02229838647133,9.740760142460147],[-74.01147274649395,9.739329613883626],[-74.00152307626126,9.743470539983207],[-73.99876513281208,9.740577868507216],[-73.99540729987018,9.740659544326718],[-73.98965744127037,9.745872483940786],[-73.98096733955742,9.746162773154538],[-73.97881918538866,9.74466356312979],[-73.976968551413,9.746306237800582],[-73.97065829242786,9.746617293325698],[-73.9699290526342,9.750434652896956],[-73.96659452728511,9.751862044723737]]]}}]}