{"type":"FeatureCollection","features":[{"type":"Feature","properties":{"code":"475057"},"geometry":{"type":"Polygon","coordinates":[[[-74.6615354492452,10.011926653395392],[-74.65790235366319,10.00985937491788],[-74.65226701728005,10.003072821576552],[-74.64205467254368,10.002607702276805],[-74.6339302532968,9.997045536493545],[-74.62565849937471,9.994530018543344],[-74.62046072620245,9.99500637357761],[-74.61516330209241,9.989282036807367],[-74.60976681428514,9.989875979845408],[-74.60617331991074,9.98692539779961],[-74.60388732873338,9.988182295454124],[-74.59684911345084,9.985069679204173],[-74.58937162877129,9.978005786797269],[-74.58058366972426,9.975157663337427],[-74.57063571390523,9.965644721220315],[-74.56932094887554,9.959626612929867],[-74.55416503418957,9.948503487726441],[-74.55296596174412,9.942617496247351],[-74.55481699269859,9.936182410051458],[-74.55720621070839,9.934289502974536],[-74.55985905864503,9.92714462483309],[-74.56557459811802,9.922847713828219],[-74.57063053569715,9.906217921713619],[-74.57430383515413,9.899694163203833],[-74.57146700810688,9.893137032762695],[-74.5716536498552,9.88946396573374],[-74.57635020230992,9.889448024874696],[-74.5803281727209,9.887130023423936],[-74.5860201382344,9.88966872761074],[-74.58915579365367,9.893979820837956],[-74.598833122023,9.895196841662198],[-74.60362524044189,9.89859433546144],[-74.60958545358915,9.897984994581975],[-74.6149674742955,9.89501000142451],[-74.62246744792765,9.886104263083325],[-74.62403375559921,9.888108685211023],[-74.62953083228388,9.888693151151301],[-74.63400994730756,9.891901944260269],[-74.64032066292123,9.8921198115803],[-74.64987564571157,9.885098398991659],[-74.65437052881595,9.883828533705412],[-74.65548479691978,9.881360802336872],[-74.65995695864359,9.880485236770085],[-74.68467325750004,9.884254654464883],[-74.69416443571657,9.888983819860357],[-74.69714309938536,9.883556260747696],[-74.70514745619568,9.875741819218206],[-74.71211491360447,9.874219069172625],[-74.71511803877854,9.87166516460536],[-74.71863156351958,9.871768105530862],[-74.72318205656785,9.867393991402992],[-74.72895436195404,9.86758294200473],[-74.73080852965819,9.866139738902689],[-74.73440315223405,9.86723349163509],[-74.73339522817201,9.855382195189804],[-74.7345195174197,9.851117441525616],[-74.74133300567058,9.844979219376569],[-74.74614699289123,9.8436080494169],[-74.74949978440787,9.846640135532311],[-74.75334690504872,9.84649125922175],[-74.75975473751782,9.849188318873814],[-74.76224274257379,9.843582716820833],[-74.76753095595268,9.839908409490135],[-74.77560333189433,9.841186934262396],[-74.77612507826763,9.835128793846934],[-74.78747925542422,9.828993958359092],[-74.7887528169328,9.826446386940916],[-74.7972142022856,9.82725917226253],[-74.80517234911667,9.821430412581151],[-74.81631724850513,9.819803996558107],[-74.81864018750838,9.817118431808069],[-74.83079033906523,9.81373552543755],[-74.83591361494672,9.809996145463401],[-74.85252262429492,9.819403587890065],[-74.86301596112474,9.827732735075358],[-74.8762381868741,9.845590275698157],[-74.8802298314568,9.859825990412048],[-74.8805654790994,9.877559823798038],[-74.87883038241318,9.887448290388022],[-74.86758573027112,9.905354074220952],[-74.86871634444026,9.925652358852176],[-74.86664405024857,9.937724780723443],[-74.86278042927597,9.945024773707814],[-74.85509708845655,9.952584434029916],[-74.84887795770612,9.956180986992365],[-74.83252988170841,9.960798146770003],[-74.79686572482257,9.990733313183227],[-74.79337606817552,9.994846226565471],[-74.79256911617983,9.998332998431295],[-74.79289608479604,10.020734212499974],[-74.78773862862744,10.016666917742555],[-74.7830065589103,10.008616340668539],[-74.77832541355292,10.006716377447447],[-74.77414825542337,10.007518435085217],[-74.77096207159474,10.014925721363738],[-74.76278495392478,10.018242289078046],[-74.74469452660736,9.999730325797941],[-74.74256275244261,9.99984509792614],[-74.74027093616684,10.003337528282714],[-74.73170788515728,10.008439418730461],[-74.71897943728686,10.009442008261146],[-74.70415295742231,10.016350562653145],[-74.69126908514778,10.011680161434754],[-74.685312584678,10.010082972719658],[-74.68194276729542,10.010841741154877],[-74.67400511012465,10.00813252428378],[-74.66806297391156,10.011264303503197],[-74.6615354492452,10.011926653395392]],[[-74.85704547897893,9.903419094589026],[-74.86119750197327,9.902789131380132],[-74.86124189366615,9.901326729313098],[-74.85934940722223,9.894006352598069],[-74.85660259254956,9.891257651761805],[-74.85548554148028,9.891894155865032],[-74.85580925713282,9.896458478379827],[-74.85276140087984,9.897038708165383],[-74.85704547897893,9.903419094589026]]]}}]}