{"type":"FeatureCollection","features":[{"type":"Feature","properties":{"code":"475028"},"geometry":{"type":"Polygon","coordinates":[[[-74.27377887648845,9.818299796530198],[-74.27854903148892,9.807339308198266],[-74.27508917910603,9.803448010809007],[-74.27480029371634,9.799483722797333],[-74.27016759828598,9.791621752825279],[-74.26999968858973,9.78689562030678],[-74.26785698105255,9.78560735926925],[-74.27096397892103,9.780585603005647],[-74.26810160330473,9.776885944566914],[-74.2669139044051,9.77186323185174],[-74.25662151393055,9.767820560065104],[-74.25237051157131,9.763945195307372],[-74.23959618899391,9.763848552563843],[-74.23480814732113,9.760894350400406],[-74.23276406330774,9.761649061629896],[-74.23256692630355,9.754004925039283],[-74.22662840917963,9.745785775952015],[-74.21759966191411,9.739194058989028],[-74.20816554271693,9.738310531220293],[-74.20699375896527,9.734929598430938],[-74.20320218964713,9.73242321305031],[-74.20395713227617,9.72997501591891],[-74.19791974068852,9.72900752096075],[-74.19256075195239,9.719399736902972],[-74.19614521660151,9.713246081945499],[-74.19302021893208,9.694875576820095],[-74.1837204307829,9.68385845935768],[-74.18002968277017,9.682790401233149],[-74.17740625137492,9.679747708790046],[-74.17029551135442,9.677705210634997],[-74.16775268722688,9.671054987633966],[-74.16869992495276,9.663114366491868],[-74.17612770089158,9.649193549564359],[-74.17537724638566,9.645506084340127],[-74.17950453225217,9.639478963807903],[-74.17897266189073,9.63343286953966],[-74.18155907655444,9.6299705190699],[-74.1802710047503,9.62389522320484],[-74.18144246968478,9.618680371716096],[-74.18371641574333,9.612268402851214],[-74.18999686120827,9.609133720338548],[-74.19131835636585,9.605235366805232],[-74.1962936609662,9.600469055094436],[-74.19590088642701,9.595705689871409],[-74.19966407381702,9.591613267177934],[-74.20449533681506,9.590968502624321],[-74.20609371440969,9.58843866361201],[-74.21063047363657,9.587392706717196],[-74.21762967392368,9.582224108402329],[-74.22493219070594,9.58538670798714],[-74.22941078945149,9.580369294836316],[-74.23395054658829,9.578848328110041],[-74.24041085328003,9.58038920754035],[-74.2432128788609,9.577569398131459],[-74.25190457465976,9.575803256879396],[-74.25956022260749,9.57785515602751],[-74.26966327475742,9.567116799966698],[-74.272444559738,9.568301947300426],[-74.27328981298996,9.576175170490558],[-74.27815664467255,9.57850165144987],[-74.28291452006937,9.587169419505074],[-74.29498005857482,9.594433446826088],[-74.2997152033351,9.595054403963843],[-74.30972200149284,9.590502436128986],[-74.31831579573458,9.58967761288767],[-74.32426031896279,9.587270533916637],[-74.35107701111741,9.568703933599295],[-74.35466964365702,9.568295459885064],[-74.35639408876403,9.572681309570441],[-74.35960127955957,9.569580429906523],[-74.36145234445263,9.570925456857367],[-74.35961672059557,9.577089631753381],[-74.36251581058133,9.577917978438734],[-74.36000589352903,9.581743807234147],[-74.36326674742679,9.585750298413018],[-74.36929943388986,9.589013505387186],[-74.38001426638493,9.591287735295907],[-74.38899756163335,9.604517991124453],[-74.39464585844911,9.599743752178767],[-74.3999390680018,9.599024653856759],[-74.40158864557878,9.596675839239765],[-74.40065362883536,9.604217000966287],[-74.38680187593673,9.612602055315335],[-74.38379265518381,9.616790935632707],[-74.38380234825456,9.62755542853165],[-74.37778140763345,9.633541003071457],[-74.34645625487627,9.648517571780303],[-74.33742228517963,9.656298885119384],[-74.32621991642327,9.662372854293665],[-74.32279735228076,9.670411329684555],[-74.32330140635742,9.679926571399164],[-74.31674042645597,9.702426171421394],[-74.32397409209693,9.810445072964114],[-74.26583363661098,9.831640726143576],[-74.26642542711886,9.827728056690319],[-74.27377887648845,9.818299796530198]]]}}]}