{"type":"FeatureCollection","features":[{"type":"Feature","properties":{"code":"475010"},"geometry":{"type":"Polygon","coordinates":[[[-74.23217790146572,9.857024424544989],[-74.22814833409365,9.850587421332307],[-74.22851025947102,9.847181500475074],[-74.233278079907,9.843081483762035],[-74.2322783237355,9.841225196437847],[-74.23398674673649,9.84155446979372],[-74.23507533154526,9.837453794877433],[-74.2364082136184,9.840337348182118],[-74.24042824424305,9.83857136942396],[-74.24098123367156,9.841561787162277],[-74.24360832735067,9.84125843672848],[-74.24587374659228,9.844505260613346],[-74.23998750520161,9.848479383620827],[-74.24107864260475,9.850916549677777],[-74.23797511675821,9.854969955319007],[-74.23665409057043,9.85393354854142],[-74.2364633062557,9.855859580723461],[-74.23453898848737,9.856623321678285],[-74.23213680284579,9.854339261915982],[-74.23217790146572,9.857024424544989]]]}}]}