{"type":"FeatureCollection","features":[{"type":"Feature","properties":{"code":"475027"},"geometry":{"type":"Polygon","coordinates":[[[-74.38969642843409,9.940152177604887],[-74.38411404038561,9.939677012478626],[-74.38194473321113,9.933999007043838],[-74.37553626310762,9.928658164147464],[-74.37211316931729,9.927800021425412],[-74.369527659683,9.919017860737313],[-74.36032654750818,9.910193833182632],[-74.3544642945393,9.922938462567629],[-74.34947571171756,9.925461451124306],[-74.35073420345799,9.93055053746275],[-74.34931441079294,9.935392794511358],[-74.33664110903885,9.9325815324882],[-74.33437290991708,9.93437292817481],[-74.32827784841521,9.930284200675203],[-74.32305124285693,9.923606749658518],[-74.316152296175,9.924271694311244],[-74.30479534530895,9.91135537981745],[-74.30207515084243,9.911817560856946],[-74.3011059065035,9.90455674639037],[-74.30235397189364,9.90122550485819],[-74.29161259221183,9.893350764715365],[-74.28619427879744,9.886023311287374],[-74.28107682801436,9.885147857820812],[-74.2792852934881,9.881768983973416],[-74.2734202668097,9.884542574147076],[-74.26860445307517,9.879511642119326],[-74.2708434423725,9.876762917628923],[-74.27018930356536,9.870860624307397],[-74.27304446671428,9.856760679432625],[-74.27014738424828,9.854367601678007],[-74.26848200465196,9.84754936613649],[-74.26684082019437,9.847147957822358],[-74.26449073853615,9.837315980494623],[-74.26583363661098,9.831640726143576],[-74.32397409209693,9.810445072964114],[-74.31674042645597,9.702426171421394],[-74.32330140635742,9.679926571399164],[-74.32279735228076,9.670411329684555],[-74.32621991642327,9.662372854293665],[-74.33742228517963,9.656298885119384],[-74.34645625487627,9.648517571780303],[-74.37778140763345,9.633541003071457],[-74.38380234825456,9.62755542853165],[-74.38379265518381,9.616790935632707],[-74.38680187593673,9.612602055315335],[-74.40065362883536,9.604217000966287],[-74.40158864557878,9.596675839239765],[-74.41128005332615,9.588954714470617],[-74.42066105141032,9.590072421686216],[-74.42298168156015,9.595146626461371],[-74.43078782561543,9.598236554240941],[-74.4411301665146,9.607923584936941],[-74.44644033405598,9.609674156597748],[-74.4503091774597,9.608634885607728],[-74.44891121040177,9.620055151509007],[-74.45533050280585,9.624133667602791],[-74.45677271448938,9.62715062327186],[-74.4554015198471,9.631802584515867],[-74.42519446819898,9.644880267811459],[-74.42928420357225,9.65443025339971],[-74.42869803967335,9.65918981852758],[-74.43576648190992,9.668773924753225],[-74.4350971437508,9.670209847510705],[-74.44310546417859,9.674258679668071],[-74.43646821806527,9.686796401844958],[-74.43659438122285,9.691322364482232],[-74.42852414135632,9.698275284856038],[-74.43221835419189,9.708933085071237],[-74.43798399012837,9.714021213929641],[-74.4336855200047,9.717170122887637],[-74.42589405902328,9.717180350748492],[-74.42403877957275,9.71975776962546],[-74.42213059601067,9.731423613202026],[-74.41763396352559,9.737855158470268],[-74.41212191168938,9.75446315068882],[-74.41335908587325,9.76021305248321],[-74.41206573198832,9.770875893095194],[-74.41896450589195,9.768388516417588],[-74.42261330064906,9.770805600077495],[-74.42688842821292,9.770776433447622],[-74.4275600155758,9.775100709251035],[-74.43587618690185,9.786240662859427],[-74.43782546291322,9.785542467631615],[-74.4366771944998,9.798508352026374],[-74.43061847712806,9.808867633430737],[-74.43047063440224,9.812762593103798],[-74.43872257846454,9.816070932249488],[-74.44357719224996,9.821781852987044],[-74.44969307148534,9.82322404821548],[-74.45494897222869,9.821850397652497],[-74.46431974348047,9.826697143852698],[-74.46971081962323,9.826867310980276],[-74.4759978738598,9.83211843872192],[-74.47943139400041,9.83273259682619],[-74.48148588688059,9.836963505475524],[-74.47691855617143,9.837828946025638],[-74.47433631184214,9.843036086252368],[-74.46899553785141,9.842204827017724],[-74.46572811837666,9.843884518420111],[-74.45962842065592,9.852149077358376],[-74.45393188063008,9.856316481739043],[-74.4462090332197,9.875062201776075],[-74.44020814928462,9.873915905915396],[-74.4304978109958,9.88316024661458],[-74.42128684222791,9.888054022462711],[-74.41076684611113,9.901167007047718],[-74.40961166656393,9.905128063693041],[-74.41398044718886,9.911951900132522],[-74.4128694526176,9.91792788238888],[-74.41416495183364,9.92200066080187],[-74.41101729346173,9.9270022019993],[-74.4105571549091,9.93821226761952],[-74.40062115884814,9.951982062905415],[-74.38969642843409,9.940152177604887]],[[-74.38947593858563,9.812235735371189],[-74.39186042164607,9.809329219001995],[-74.3960984121506,9.812167181449752],[-74.39845788451748,9.81043142758881],[-74.39592815452005,9.799990616403761],[-74.39226889536036,9.80158948662239],[-74.38830527480786,9.7999662916813],[-74.3856854902698,9.807006622470055],[-74.38592397683391,9.80923140383402],[-74.38947593858563,9.812235735371189]]]}}]}