{"type":"FeatureCollection","features":[{"type":"Feature","properties":{"code":"475037"},"geometry":{"type":"Polygon","coordinates":[[[-74.58091042031066,9.887323631841866],[-74.57921502664789,9.872254230769045],[-74.58764522242438,9.866416044383527],[-74.5889728512131,9.861654173487523],[-74.59078826514627,9.861284094617815],[-74.59745198645533,9.839794254427488],[-74.6076636483059,9.82319434885244],[-74.61002916380102,9.808637276704758],[-74.61445707678541,9.80355354855186],[-74.63013915500528,9.794728677674357],[-74.63115497853431,9.789988727002196],[-74.6393863948839,9.78392042660306],[-74.62928745341873,9.76269898728441],[-74.63409730321513,9.754917096989061],[-74.63589285586636,9.747140103108563],[-74.63225523513722,9.734587926172082],[-74.62681445436755,9.725028610553352],[-74.62620387832862,9.720245532144133],[-74.6255884511263,9.712472435032339],[-74.62737622463834,9.699911437144408],[-74.62553892750526,9.681974137718896],[-74.62312137281873,9.677791923765994],[-74.6291102969958,9.654460044294126],[-74.62849987316633,9.649676946344528],[-74.62683641881443,9.648443074489592],[-74.63133520485815,9.643097083210023],[-74.64860472935715,9.648735341398321],[-74.65951311370577,9.646338421382495],[-74.67279715399275,9.640159159234713],[-74.67619780202517,9.636065727639107],[-74.68043425912185,9.634498843011215],[-74.68707988909858,9.624732358959989],[-74.68627977830255,9.62302623247109],[-74.68035179037315,9.621970857099711],[-74.67755046310475,9.62486986995225],[-74.6784818288773,9.622518746481774],[-74.67592654619705,9.62126320122917],[-74.67476235337966,9.616515415881906],[-74.67330200305543,9.616884020993496],[-74.67240252722854,9.620564058805883],[-74.66714741015835,9.615068326295557],[-74.66411480673639,9.614620293539815],[-74.66326809823823,9.612926548470398],[-74.65901765638017,9.612842210013241],[-74.6591322475025,9.603517580863468],[-74.65532831321991,9.594340802667148],[-74.66051802134587,9.581068257282197],[-74.66343136348809,9.576699924029754],[-74.66910079582607,9.57300962441792],[-74.66695673588697,9.571509879603013],[-74.68485757393978,9.569123720181267],[-74.69218625121442,9.566023253951244],[-74.70042752724248,9.557400697257549],[-74.71151392984888,9.55462566726436],[-74.7144832789138,9.54944102524621],[-74.71952686901204,9.547919738674352],[-74.7228598167303,9.543673519601214],[-74.72593987146172,9.549365725770315],[-74.73115086320564,9.547585160611902],[-74.73178725212335,9.551759630392723],[-74.74021603173452,9.550496184644715],[-74.74492108015295,9.554708092818487],[-74.74874240334162,9.554674738370693],[-74.75050653604546,9.547377838941486],[-74.75506582741946,9.54343292061617],[-74.7619791990362,9.5408655568217],[-74.76473294541142,9.53529679975037],[-74.77287230689967,9.52686396087654],[-74.77352645393432,9.524374232150933],[-74.7714048304972,9.518072624424235],[-74.7740892403063,9.516123537646308],[-74.77670224535132,9.516902537602789],[-74.7756266744542,9.509102727724951],[-74.77946350655606,9.509386555234414],[-74.78482744107231,9.506328051515993],[-74.79392732570682,9.514265277769368],[-74.79861365030075,9.520924211678562],[-74.80519102151908,9.538895654367195],[-74.80534672051732,9.545493754872894],[-74.80191318392161,9.55095688267005],[-74.79592252784732,9.555904235231196],[-74.78449206082473,9.561794887611825],[-74.77490173252187,9.563530742260127],[-74.75927944280784,9.575080470562568],[-74.75701349288983,9.583628253314487],[-74.75852100141731,9.596236941110476],[-74.75968961345222,9.60071652921772],[-74.7769807229028,9.618223085034572],[-74.78442620553648,9.628958312573275],[-74.78352435914962,9.63611572948588],[-74.77759300204252,9.645551381062432],[-74.77556019798669,9.659162632678033],[-74.77648308527904,9.66240521115219],[-74.81604718978417,9.688327726015814],[-74.82420963466467,9.69152285420904],[-74.82944453666875,9.697038559073064],[-74.83141836160303,9.712369017937988],[-74.83059861372556,9.721731034058621],[-74.82774021098271,9.725618996208766],[-74.81846194710704,9.728220206046501],[-74.81487099504255,9.732141264505344],[-74.79987327949857,9.77023790186405],[-74.79968044241252,9.77673048622421],[-74.80162540205066,9.785025503516067],[-74.81452829022737,9.789458141165426],[-74.82469183125244,9.801964860942576],[-74.83591361494672,9.809996145463401],[-74.83079033906523,9.81373552543755],[-74.81864018750838,9.817118431808069],[-74.81631724850513,9.819803996558107],[-74.80517234911667,9.821430412581151],[-74.7972142022856,9.82725917226253],[-74.7887528169328,9.826446386940916],[-74.78747925542422,9.828993958359092],[-74.77612507826763,9.835128793846934],[-74.77560333189433,9.841186934262396],[-74.76753095595268,9.839908409490135],[-74.76224274257379,9.843582716820833],[-74.75975473751782,9.849188318873814],[-74.75334690504872,9.84649125922175],[-74.74949978440787,9.846640135532311],[-74.74614699289123,9.8436080494169],[-74.74133300567058,9.844979219376569],[-74.7345195174197,9.851117441525616],[-74.73339522817201,9.855382195189804],[-74.73440315223405,9.86723349163509],[-74.73080852965819,9.866139738902689],[-74.72895436195404,9.86758294200473],[-74.72318205656785,9.867393991402992],[-74.71863156351958,9.871768105530862],[-74.71511803877854,9.87166516460536],[-74.71211491360447,9.874219069172625],[-74.70514745619568,9.875741819218206],[-74.69714309938536,9.883556260747696],[-74.69416443571657,9.888983819860357],[-74.68467325750004,9.884254654464883],[-74.65995695864359,9.880485236770085],[-74.65548479691978,9.881360802336872],[-74.65437052881595,9.883828533705412],[-74.64987564571157,9.885098398991659],[-74.64032066292123,9.8921198115803],[-74.63400994730756,9.891901944260269],[-74.62953083228388,9.888693151151301],[-74.62403375559921,9.888108685211023],[-74.62246744792765,9.886104263083325],[-74.6149674742955,9.89501000142451],[-74.60958545358915,9.897984994581975],[-74.60362524044189,9.89859433546144],[-74.598833122023,9.895196841662198],[-74.58915579365367,9.893979820837956],[-74.5860201382344,9.88966872761074],[-74.58091042031066,9.887323631841866]],[[-74.78004527077786,9.800073237361914],[-74.78354279809554,9.802686814220976],[-74.78301519885588,9.804356458768439],[-74.78686608976699,9.803406236502326],[-74.78654197816411,9.801545826152108],[-74.78992660511892,9.800230096443329],[-74.79023909634981,9.801878744308283],[-74.79171428401423,9.801277248388374],[-74.7950607176993,9.794564556760292],[-74.79758843606311,9.793546566302894],[-74.80195956462228,9.795486763223721],[-74.80354377336437,9.79313512347511],[-74.80124946311548,9.790846064453717],[-74.79408047725298,9.789822605767426],[-74.78851383568787,9.785216850388906],[-74.78781848616057,9.780732026480791],[-74.78563990963363,9.780298117326197],[-74.78203386620362,9.784625026970843],[-74.76932140032994,9.787410188151284],[-74.76862417389503,9.795447433524942],[-74.77096886754288,9.79709148116649],[-74.77033056777896,9.79915512615662],[-74.77666366641557,9.798523061839717],[-74.77624301182811,9.799827946622145],[-74.77779995347368,9.798598572146318],[-74.77966426162106,9.799834362046568],[-74.77808195755455,9.799640961374052],[-74.7765642551048,9.802330238801574],[-74.77846681000102,9.803389779365148],[-74.78004527077786,9.800073237361914]]]}}]}