{"type":"FeatureCollection","features":[{"type":"Feature","properties":{"code":"475001"},"geometry":{"type":"Polygon","coordinates":[[[-74.22069802086543,10.03429050106206],[-74.2140045569987,10.034506614887619],[-74.2104596421351,10.039470397846458],[-74.21163432095244,10.037462006959117],[-74.20757334597425,10.034464045594916],[-74.21146667967969,10.033206692340343],[-74.2105722277945,10.031694286369657],[-74.21248696356389,10.027486990760565],[-74.21653248207946,10.026766648023113],[-74.21818821385648,10.03352739465629],[-74.22069802086543,10.03429050106206]]]}}]}