{"type":"FeatureCollection","features":[{"type":"Feature","properties":{"code":"475018"},"geometry":{"type":"Polygon","coordinates":[[[-73.83719600476525,9.781231676766538],[-73.83677494291453,9.775092515649476],[-73.83275302818322,9.768334845087907],[-73.83257806954191,9.760745881353046],[-73.83056023241005,9.759489973060283],[-73.8289369438807,9.756231764316738],[-73.8299360963565,9.755442528271885],[-73.82775006464976,9.752911697841],[-73.8293014907581,9.750931712535987],[-73.82833623574771,9.749844957326445],[-73.83084848839297,9.749522459349862],[-73.83185408611803,9.745368840212734],[-73.83373364606791,9.746363598153607],[-73.83313142098223,9.744238519149633],[-73.83633149495552,9.742633774467379],[-73.8364579244797,9.739555400211088],[-73.83844966179737,9.737390357987692],[-73.8369828333137,9.73600038809883],[-73.84487909670156,9.739234703037368],[-73.85328774866417,9.738966901747688],[-73.85573489472733,9.735258368878476],[-73.85365824096777,9.732641840389363],[-73.85867144058966,9.72967624719655],[-73.86017211614501,9.726463180908922],[-73.86422463732572,9.724761508604558],[-73.86807179190515,9.72526685749034],[-73.8675556382023,9.72728266139137],[-73.872328222384,9.72801115247887],[-73.8782474212436,9.72597485788907],[-73.88108059526303,9.729646055209571],[-73.88284417672168,9.729379262822022],[-73.88234450689549,9.730622081098431],[-73.88567905692724,9.731204917985735],[-73.89248898676698,9.728257955029164],[-73.89477370370406,9.732209032696687],[-73.90055160073223,9.732234710849468],[-73.90300058256526,9.733710819998407],[-73.90693882218483,9.74133108849503],[-73.91259182309665,9.73970540472311],[-73.91985866835017,9.74235115332101],[-73.93074293572175,9.739351094962501],[-73.93452074550748,9.741487563967382],[-73.93721056698115,9.738465577157513],[-73.93897014162775,9.740937908749515],[-73.9411656771718,9.7403172889409],[-73.94674831616027,9.743312108413193],[-73.94791067320779,9.742385885881731],[-73.94909651062642,9.745454660655582],[-73.95205692458273,9.743572963602105],[-73.96625901745381,9.751901508120056],[-73.9699290526342,9.750434652896956],[-73.97051981675645,9.746703113768547],[-73.97462644635493,9.74633460533056],[-73.98398722423076,9.754776366971669],[-73.99373981710892,9.767037490561563],[-73.99722145601811,9.767819781534115],[-74.0118808211725,9.781674127136284],[-74.01763332698334,9.803294366638909],[-74.02763517833256,9.8125968523928],[-74.03048091580581,9.812314736211704],[-74.03634013178396,9.823528522736922],[-74.03935384477376,9.824801398274417],[-74.0422225432547,9.829194466597869],[-74.04924104432257,9.830214486172338],[-74.0615318117396,9.846954581832449],[-74.06828346899783,9.850160974556559],[-74.07973486893945,9.862377639604858],[-74.07991041790672,9.869889504089372],[-74.08607531271252,9.875460875461613],[-74.08762361338404,9.878845519899983],[-74.0853120407275,9.887644644747468],[-74.091782103225,9.890414339180836],[-74.1017847505887,9.898706752456235],[-74.1018733395988,9.900434223241177],[-74.10413233930223,9.899592635358374],[-74.10647992698733,9.903623398809145],[-74.10997916151962,9.902737516935474],[-74.11104371059827,9.905122095641104],[-74.10673535919886,9.9065733298508],[-74.10551088010942,9.905666308341154],[-74.10415034835921,9.907752457710501],[-74.10038620965986,9.908614127990347],[-74.09834859969209,9.907022068118124],[-74.09721163489036,9.910790978790715],[-74.09618687316743,9.908143591883857],[-74.08146769173925,9.916805000050601],[-73.99755448935986,9.916751416138482],[-73.97600246850641,9.926002310073386],[-73.95752519664933,9.930924631372022],[-73.9552864829746,9.92649145893256],[-73.95283219437817,9.92701490429289],[-73.95143738875254,9.924604945682802],[-73.95033819144544,9.914113573178156],[-73.94854850091656,9.914587523713806],[-73.94492229898475,9.910229436834186],[-73.93745260372884,9.90649692377076],[-73.93593029179976,9.902912623672478],[-73.93064022722433,9.898807957370764],[-73.93175327250998,9.894882399475875],[-73.92659485783292,9.89237684199145],[-73.92380721399223,9.888515039305219],[-73.92103592341607,9.881572501058656],[-73.92247345774297,9.877223331804146],[-73.91768953395405,9.877505832622717],[-73.91731466459908,9.87502389434917],[-73.91548208184656,9.875030908327119],[-73.91533753939274,9.871198589031053],[-73.91230482489897,9.87028507702064],[-73.91127039684477,9.863963754050872],[-73.9085250333045,9.863991749284708],[-73.90419251144897,9.861194695194968],[-73.90336906632064,9.859193937408008],[-73.90592941613716,9.858802007220106],[-73.90601285882087,9.855072620621911],[-73.90107845640796,9.848662203676724],[-73.90141884311367,9.845070839206812],[-73.89836521524131,9.844347062499821],[-73.89691779758175,9.840558084856752],[-73.89761842404761,9.835748629982334],[-73.89501406923262,9.83567489888128],[-73.89544202473354,9.833499628797028],[-73.89216209425553,9.831158457564811],[-73.88602127837447,9.833062626087326],[-73.8862989794518,9.830743762801774],[-73.8837221724981,9.83039532030574],[-73.88486453045243,9.828470247660618],[-73.88083461958053,9.824770116138325],[-73.87919925096537,9.82037860487685],[-73.88002904672624,9.819009382787328],[-73.87580530734971,9.816687832181458],[-73.87452742843942,9.81296215106164],[-73.87289765249466,9.814458569893418],[-73.87140679136627,9.813371598711],[-73.8692604297728,9.816363979746086],[-73.8655340092028,9.814299131478208],[-73.86650271052406,9.810519485922555],[-73.86023717130496,9.807557925252866],[-73.85817320852613,9.809940008956971],[-73.85438311296605,9.806212596968408],[-73.85238500650388,9.80721481728824],[-73.85330697951088,9.805289702476955],[-73.8516597375268,9.803927906770866],[-73.85313384944038,9.802706103688877],[-73.85157976892191,9.800923979411607],[-73.8425126782339,9.79727645992324],[-73.84229769672356,9.791991831694986],[-73.84100081836618,9.79315043184198],[-73.83947269059462,9.791103824030642],[-73.84092978384137,9.789735144958797],[-73.83719600476525,9.781231676766538]]]}}]}