{"type":"FeatureCollection","features":[{"type":"Feature","properties":{"code":"476001"},"geometry":{"type":"Polygon","coordinates":[[[-74.8184581758083,10.408213209649432],[-74.82150257649448,10.403942926049865],[-74.82016815998509,10.403317529125786],[-74.82106121421691,10.401158504319596],[-74.82273433181473,10.401154770044798],[-74.82092909534873,10.40008185767158],[-74.82230904923591,10.39706032954706],[-74.82689520661381,10.397222249594051],[-74.8274897008971,10.399484917751977],[-74.82530856149145,10.405509738686703],[-74.82103111478972,10.410264773525284],[-74.8184581758083,10.408213209649432]]]}}]}