{"type":"FeatureCollection","features":[{"type":"Feature","properties":{"code":"476008"},"geometry":{"type":"Polygon","coordinates":[[[-74.57491012670152,10.364099332005821],[-74.56658621840245,10.357800628600842],[-74.56433202975313,10.350700459940981],[-74.5652049326822,10.32563100523646],[-74.54864089301157,10.305696208186816],[-74.54916686114137,10.297900179892167],[-74.53152725880113,10.279301732823797],[-74.52128928013497,10.274511916059225],[-74.51422964445169,10.263596990816154],[-74.50507258046997,10.259374699486727],[-74.50488437857439,10.25130280588462],[-74.49467110412593,10.233293512397495],[-74.49469894406491,10.2318909955099],[-74.50743947202113,10.230330892431994],[-74.51618564956243,10.222439264234595],[-74.52139264375029,10.221321402752665],[-74.52883647161997,10.214225672850716],[-74.53648583886928,10.213500947919727],[-74.54258347661965,10.210664869578636],[-74.54924677112507,10.211723311765638],[-74.55306538745305,10.205782700732755],[-74.55759781282313,10.209203597769942],[-74.56093651673422,10.209694746949822],[-74.56849730628619,10.206398470406441],[-74.57597267957328,10.205896740609887],[-74.57993777696919,10.208614229244176],[-74.5828653877229,10.216804875047046],[-74.59079600520465,10.222279049345275],[-74.59582691152133,10.222525454916763],[-74.59716984559162,10.229328526073346],[-74.60011482673946,10.229948767415067],[-74.60230943154306,10.22828297438491],[-74.60637472186602,10.232636280035251],[-74.61309475657367,10.233151951398554],[-74.61705495961166,10.235330925932715],[-74.61910775453322,10.232832417393354],[-74.62106530230778,10.235064365973187],[-74.62464761236981,10.235322904081102],[-74.63273433508454,10.231432029381722],[-74.63627746560041,10.239736499088792],[-74.64066950136754,10.241446572740074],[-74.64006436476109,10.24312469679603],[-74.64240420107495,10.246942469801184],[-74.65761615765064,10.243474794056056],[-74.66761344168663,10.239324114207648],[-74.6747790007787,10.24758202940717],[-74.67618496294875,10.246517322976786],[-74.67741899215542,10.247666350380825],[-74.67931259754482,10.252745363124802],[-74.69065027334113,10.26357513949796],[-74.69424693017635,10.260140826428142],[-74.70070790844102,10.274009212327655],[-74.71209696522561,10.277604791355031],[-74.7203738880998,10.283003769021605],[-74.72314222293221,10.28901228708554],[-74.72733093561345,10.291729569002882],[-74.73497409004142,10.301872102032632],[-74.7249017245594,10.301023663694195],[-74.71946132945567,10.302733265290385],[-74.71016166471964,10.31208555234474],[-74.71019611445871,10.31593044229379],[-74.70674104124816,10.32289797272199],[-74.7019879655926,10.325976336693827],[-74.69963071466157,10.338064194458866],[-74.70191945075203,10.34588062396773],[-74.70056161146431,10.35438551243908],[-74.70373544061295,10.359549181428974],[-74.70529897663198,10.372041566774271],[-74.70252658665072,10.370436826205776],[-74.7021756450394,10.374046507236983],[-74.70478263780944,10.373795834657471],[-74.70618640219783,10.376904171558124],[-74.7003206700079,10.378157533427213],[-74.70017358215887,10.38191176411135],[-74.6931463958939,10.383077398805142],[-74.68441114246906,10.381109718814912],[-74.68000134858494,10.38222883088298],[-74.67560717674263,10.38437391926459],[-74.66591605181691,10.394049013856716],[-74.66380487632739,10.392389477870836],[-74.65155252123839,10.39118217891371],[-74.64296185963252,10.397909787072024],[-74.63847636517994,10.399051087787427],[-74.62879482636691,10.405299992977234],[-74.62850515524713,10.40740121622855],[-74.62818467301787,10.407879766987548],[-74.62719178272857,10.408244035157054],[-74.62870796514022,10.400892440069299],[-74.62755201837496,10.395197838657623],[-74.62485940570832,10.39162920379573],[-74.626113115191,10.387250392770909],[-74.62508360720585,10.359535431152494],[-74.61903373855358,10.352379953882405],[-74.6136573362287,10.352225046784895],[-74.61179022660389,10.356335875514219],[-74.60564698154161,10.359385788652219],[-74.59921962409129,10.3583938486438],[-74.59074347853146,10.361898135914146],[-74.58092844170886,10.361893190134083],[-74.57491012670152,10.364099332005821]]]}}]}