{"type":"FeatureCollection","features":[{"type":"Feature","properties":{"code":"476037"},"geometry":{"type":"Polygon","coordinates":[[[-74.71677734439334,10.247590869899057],[-74.70443597451901,10.242290059127754],[-74.70336291919227,10.244015375325603],[-74.69186394247129,10.224446744950342],[-74.70302256745356,10.221534911533297],[-74.70424190535886,10.212373590828008],[-74.70924604131676,10.205169024968086],[-74.70936841260675,10.200364947819537],[-74.7172949718543,10.20041854201611],[-74.72528328496134,10.186947515452573],[-74.72910897697386,10.190802416261079],[-74.74221401786895,10.183035323196691],[-74.74924668367561,10.181301174734472],[-74.75628770763461,10.180630130389204],[-74.75932654033295,10.186627765474384],[-74.76873585246813,10.188391287283366],[-74.77137861035521,10.19202327111907],[-74.77545064726115,10.193187627458826],[-74.78542909640083,10.201834672397354],[-74.78721255662492,10.210811134673634],[-74.79349762185365,10.215429466875776],[-74.79535315018728,10.21931155250536],[-74.80713494654401,10.220175986210279],[-74.81206144743311,10.226417338518218],[-74.82603703920915,10.23448451054071],[-74.83572371612098,10.2305579540282],[-74.84316813020291,10.224804743734182],[-74.85071851911573,10.221478265947837],[-74.84989081829224,10.219317420798347],[-74.85915835448395,10.21855300827059],[-74.86326887262362,10.220311575043524],[-74.86263418166448,10.217563825516606],[-74.86864658518425,10.217558396368531],[-74.87591840192891,10.213627507027638],[-74.87668217785074,10.216181746867164],[-74.8700223132011,10.229329681014292],[-74.87178121627477,10.234072581259625],[-74.85504743936553,10.243469252807756],[-74.85556835064347,10.244659079554992],[-74.85309453603736,10.247304698569167],[-74.85230721186718,10.255773718050762],[-74.84420637583571,10.270610674659281],[-74.83688225661831,10.276750189560573],[-74.82722068707369,10.280264350907544],[-74.81260108973464,10.27959257431121],[-74.81113814670681,10.279036465616514],[-74.81099969674653,10.274638784728324],[-74.79912405809523,10.27653438940996],[-74.79137338720102,10.268442384614445],[-74.77216583990872,10.258000618006292],[-74.76287632281503,10.257480103707167],[-74.75025832144354,10.26328986496992],[-74.74507242883931,10.255227587305342],[-74.74673142386445,10.251723351457144],[-74.73500629880425,10.255101079619578],[-74.73331985156295,10.253656936520997],[-74.7322511815151,10.243537315133665],[-74.72865837619719,10.24346762478325],[-74.72319567931743,10.246233511922469],[-74.71764289704373,10.244816029139315],[-74.71677734439334,10.247590869899057]],[[-74.83404416150142,10.262439695762737],[-74.83625275620858,10.260513437323368],[-74.83629830284241,10.256414747301108],[-74.83052576399973,10.253359637443054],[-74.82572839538176,10.248370888013653],[-74.82406008678117,10.248999632518121],[-74.82440708020164,10.250670783733824],[-74.82129020105748,10.25255040333343],[-74.82394025677263,10.256071489183853],[-74.82194766379081,10.257778992757267],[-74.82358685718373,10.257180880413216],[-74.82774833567862,10.260835601056101],[-74.83404416150142,10.262439695762737]]]}}]}