{"type":"FeatureCollection","features":[{"type":"Feature","properties":{"code":"476048"},"geometry":{"type":"Polygon","coordinates":[[[-74.72166124205108,10.173833017000163],[-74.71941151170006,10.165110720922542],[-74.72280584303849,10.164472332712592],[-74.72818801081212,10.156026061351042],[-74.73071651387761,10.154536173129259],[-74.7277164380356,10.152081996633058],[-74.72519603498341,10.15277848567473],[-74.72498555085218,10.151334756010044],[-74.72931319583324,10.152367021249574],[-74.73082709818789,10.14803026015403],[-74.73952403287291,10.143673593553501],[-74.74156782275179,10.141392375377905],[-74.73981755345312,10.142763277942493],[-74.73741990015776,10.1406413182047],[-74.73936877199122,10.14050183465963],[-74.7382722702319,10.134982647489267],[-74.73731284957597,10.135395938428246],[-74.73867280848373,10.13255902499185],[-74.73542738636598,10.124625848745097],[-74.73600758735512,10.1174669498468],[-74.7322274512324,10.108639769087404],[-74.7324441049903,10.105197219221452],[-74.73731383173856,10.09939946913886],[-74.7384480732245,10.089644936618129],[-74.74495653673722,10.084878935496988],[-74.7558409594036,10.080248471786888],[-74.75348740572343,10.087961367987418],[-74.75524512814508,10.090614534741235],[-74.7591309202815,10.09278949423583],[-74.76330779353242,10.092445540891447],[-74.77238654264477,10.097473414331148],[-74.78141635023457,10.088668264867351],[-74.78104357478855,10.085550126909538],[-74.78347512452092,10.087860476747892],[-74.78647678519286,10.083510152552435],[-74.78961295894715,10.084204082829046],[-74.79206768771695,10.081690176448262],[-74.79650535650711,10.080468003126953],[-74.79694249805658,10.077819360491787],[-74.79992770981886,10.076479476782026],[-74.80134323753282,10.069742486142559],[-74.80215924496486,10.071351022692397],[-74.8060954791215,10.07234172137072],[-74.80446745152904,10.077891395691097],[-74.79636936143908,10.089251216940227],[-74.78917105879412,10.093975103340256],[-74.78860869099827,10.095662205699455],[-74.79299515672074,10.094537470107696],[-74.78905858523495,10.102073193430215],[-74.78590932763495,10.102748033756825],[-74.78107296870417,10.099711250744406],[-74.7783736053409,10.104885030352705],[-74.7728624050551,10.108934075397656],[-74.77321388454186,10.116680686000848],[-74.77186420286017,10.114993583641649],[-74.76798386763977,10.11566842499667],[-74.76621241036833,10.116933751766055],[-74.77026145541328,10.11803036768248],[-74.76798386763977,10.11887391886205],[-74.76359740191725,10.116511976176298],[-74.76191030058652,10.119211339539618],[-74.76325998226815,10.12157328222537],[-74.7595483568723,10.12123586154786],[-74.75634286300692,10.125959747947888],[-74.76165723482126,10.128996531988719],[-74.76157287990901,10.134395258715358],[-74.7643697787039,10.136865281453879],[-74.76114319559622,10.13900052044147],[-74.761997291397,10.146924627882072],[-74.7587232590368,10.150910406228604],[-74.76066869792913,10.150625708656833],[-74.76194984111606,10.153615042416732],[-74.76085849699598,10.154374238684056],[-74.76236291813899,10.159635754723581],[-74.7611041631173,10.172702523158705],[-74.76282898154898,10.186708865366086],[-74.75932654033295,10.186627765474384],[-74.75628770763461,10.180630130389204],[-74.74221401786895,10.183035323196691],[-74.72910897697386,10.190802416261079],[-74.72528328496134,10.186947515452573],[-74.7172949718543,10.20041854201611],[-74.70936841260675,10.200364947819537],[-74.70924604131676,10.205169024968086],[-74.70424190535886,10.212373590828008],[-74.70302256745356,10.221534911533297],[-74.69708994433375,10.222258162706169],[-74.6942562272967,10.224389075036072],[-74.68955876158498,10.223945902699711],[-74.68196370535668,10.214698088950115],[-74.68204326978372,10.209079398937604],[-74.69031485092745,10.199925342121844],[-74.69705920007311,10.19742317952614],[-74.69742248093775,10.191184592700154],[-74.70203560819226,10.184338507963616],[-74.70900915603767,10.183722187044793],[-74.71045064472611,10.180132846549725],[-74.71850458172179,10.1750941508094],[-74.71832808967275,10.173250228449604],[-74.71669902026798,10.174271628193992],[-74.71777128266552,10.172271608828737],[-74.71913921303127,10.174443156979464],[-74.72166124205108,10.173833017000163]]]}}]}