{"type":"FeatureCollection","features":[{"type":"Feature","properties":{"code":"478029"},"geometry":{"type":"Polygon","coordinates":[[[-74.0999247516155,10.852435458331286],[-74.09422767474263,10.843394226802047],[-74.0935867020566,10.838141729174936],[-74.09052177057248,10.834709846314809],[-74.09425400698484,10.83165062680041],[-74.0932056034253,10.827517989947523],[-74.09780042851673,10.828578931249808],[-74.1000669821305,10.825297096096278],[-74.1027586990237,10.812851466833195],[-74.09872511764041,10.807934823565631],[-74.09679516812082,10.809737403564611],[-74.08975171395213,10.809638237023194],[-74.08687005503862,10.806468476393093],[-74.08731288284679,10.802862419593339],[-74.09378959525355,10.797746399373807],[-74.09180013182231,10.795708959099045],[-74.09198118090023,10.793096229676621],[-74.08377282840252,10.791930201089315],[-74.08204347968154,10.789975186368679],[-74.0818154873449,10.78565157391074],[-74.08373159814192,10.783076093647878],[-74.08786675982122,10.781687191282344],[-74.09247369996552,10.774700967882893],[-74.08667533076056,10.756015460069989],[-74.08938322916833,10.753129174193589],[-74.09102586167302,10.747585008211274],[-74.09596057159024,10.742392646703593],[-74.10015898042758,10.742668897676992],[-74.10529964932891,10.746833419333313],[-74.10852961806938,10.75058250060573],[-74.11020229138,10.756638712691426],[-74.11250941293736,10.756234961585221],[-74.11245173685245,10.753120336787049],[-74.11631618057908,10.753235688956806],[-74.1171236735355,10.757100132683433],[-74.115624038764,10.759349585354983],[-74.11862330213643,10.76200278399051],[-74.12219935412571,10.761599023628321],[-74.12479487564792,10.759291901042559],[-74.13062037310965,10.761772076565592],[-74.1320623245972,10.761714375798078],[-74.13431177006964,10.761945098649619],[-74.13690729056339,10.761714375798078],[-74.13944513394381,10.761829737223877],[-74.14578973673844,10.755600495854992],[-74.14988488480458,10.756581027350535],[-74.14953881801085,10.75415854539591],[-74.15207665419217,10.752485880312804],[-74.1574984015761,10.75363944109148],[-74.16059521477831,10.758143782781701],[-74.16653108057739,10.753695560114409],[-74.17023910128228,10.756817258540252],[-74.17323988057893,10.764624978169422],[-74.19696063370753,10.770337089843451],[-74.20812109445973,10.770934585122006],[-74.21464053762475,10.77896673867673],[-74.21890553400135,10.790967244647959],[-74.22636415395976,10.799876881814782],[-74.23382687123319,10.82297736686212],[-74.23777468051043,10.828279137170284],[-74.22165314777385,10.825139322729513],[-74.19608480691636,10.835443275983266],[-74.191089222458,10.833335931442036],[-74.18782907098654,10.828017962135789],[-74.18195831588332,10.826032275145451],[-74.17278503541996,10.825954932154275],[-74.17240865528294,10.828059751869091],[-74.1717585335723,10.826183309128453],[-74.1659239282236,10.827624482085014],[-74.16102725319604,10.825958719908101],[-74.15765656060887,10.828371054220383],[-74.151522440917,10.825059635917796],[-74.13381684753415,10.82734862603354],[-74.1341648570558,10.831223806700052],[-74.11761090743477,10.831074460391278],[-74.1111468777811,10.834827394209356],[-74.11008767660354,10.837329547549018],[-74.1118966144341,10.840781164164241],[-74.10668138345011,10.84648694063236],[-74.10827061510548,10.849494885088063],[-74.0999247516155,10.852435458331286]],[[-74.13660668401423,10.76666568889135],[-74.14674292708958,10.76449076642075],[-74.14635631497794,10.761837714852504],[-74.14154117075947,10.760193388502955],[-74.13926670122368,10.762221647871343],[-74.13669474543337,10.761786863512157],[-74.1345381662635,10.762224471974491],[-74.13250472868702,10.761823694095597],[-74.13531318614741,10.762702483829685],[-74.13493564181346,10.765382268732765],[-74.13660668401423,10.76666568889135]]]}}]}