{"type":"FeatureCollection","features":[{"type":"Feature","properties":{"code":"478001"},"geometry":{"type":"Polygon","coordinates":[[[-74.2193604367531,11.003829903206793],[-74.25003012504072,11.005274615034068],[-74.25198855933274,11.006483782671296],[-74.26060794019588,11.006302542303104],[-74.26354775650543,11.00438197217926],[-74.26514169431368,11.006392445662755],[-74.24810153306527,11.020734704964696],[-74.24513860765234,11.027241526054638],[-74.24174174531686,11.027469862919531],[-74.24279248858318,11.019886628638005],[-74.23943474922953,11.019740344002571],[-74.23788174137661,11.016094511159963],[-74.23359296123829,11.017252731811652],[-74.23222342958758,11.015526687476495],[-74.23028384459008,11.017256576129796],[-74.22933598671335,11.013418370028717],[-74.22389916339051,11.014145326679966],[-74.22387176156803,11.00592869213466],[-74.21728102985293,11.006848255500813],[-74.2193604367531,11.003829903206793]]]}}]}