{"type":"FeatureCollection","features":[{"type":"Feature","properties":{"code":"478067"},"geometry":{"type":"Polygon","coordinates":[[[-74.36725235196656,10.767963709848402],[-74.35557115271473,10.763098084528906],[-74.33742805371372,10.752060512373305],[-74.33132135949853,10.740220235689605],[-74.32723426105196,10.73675757463019],[-74.3254729102851,10.73704941576375],[-74.31951877111936,10.730796879143384],[-74.31829816720136,10.725445859808303],[-74.31515661674956,10.722937200541253],[-74.31270078548937,10.715978964148121],[-74.30933226805814,10.712384471155985],[-74.30214572873871,10.708041143454977],[-74.29965841273923,10.704474162328665],[-74.29160602663484,10.70499726110387],[-74.27891417280608,10.696333465922066],[-74.27838499902094,10.692571811939843],[-74.27322262998246,10.691498067556608],[-74.2703461235659,10.684108083795024],[-74.26307691700839,10.68290659862339],[-74.26211268838364,10.6801339474178],[-74.26407572495594,10.676568594315995],[-74.26260122634801,10.670703213853415],[-74.25545016109635,10.662702992410402],[-74.25225314673952,10.65482483269625],[-74.25173406300394,10.652073377690897],[-74.25403833886082,10.651000787220198],[-74.2541262789237,10.646986739045701],[-74.25155998368098,10.640043796621228],[-74.22239280569022,10.603344410524471],[-74.21543165571939,10.604284238322009],[-74.20744223086598,10.60053799966471],[-74.20145921817652,10.601019541134576],[-74.20211459728534,10.595955373958418],[-74.19989956247116,10.592517382149708],[-74.1949541300122,10.59112972317115],[-74.1942275343443,10.586283019137113],[-74.19146335750497,10.587036697810333],[-74.1936071716463,10.583706848789348],[-74.19241724102642,10.583190724911333],[-74.19408108207273,10.573727442169684],[-74.1878334819765,10.554183756667669],[-74.20883051308073,10.55196656726639],[-74.20955371283145,10.54566947440236],[-74.21390059894361,10.542223159408366],[-74.21620544352919,10.536146907091734],[-74.22005679518253,10.535897752493383],[-74.22588422817307,10.540100174313352],[-74.23083520805102,10.547704442301324],[-74.23583414831734,10.550195023605795],[-74.23618146158344,10.55276461089295],[-74.23863332099864,10.552329494346793],[-74.24651100762924,10.56012979582016],[-74.245368201274,10.565301599790303],[-74.24790165011956,10.567798869056503],[-74.2443581586204,10.568911611980013],[-74.25374953060424,10.57819809619673],[-74.2580248823686,10.577536900217012],[-74.25721703459948,10.580949051379037],[-74.25970975300748,10.580806379662135],[-74.26269856637549,10.585182587698966],[-74.26078887511665,10.588243909349842],[-74.26655600949391,10.593123639758517],[-74.26385447920222,10.59573573154654],[-74.26975535018767,10.602374813429776],[-74.27503501618082,10.602588553610019],[-74.27713981121298,10.601050370755956],[-74.27994236232797,10.604611742756731],[-74.28240933470596,10.604949190173784],[-74.28757424605442,10.60935083467939],[-74.28537347162415,10.611715253854811],[-74.29011126153858,10.616097966790505],[-74.28886678129908,10.618732987704561],[-74.29168959787387,10.619736895698509],[-74.29438069461622,10.616951706750172],[-74.29522419848746,10.618398744914373],[-74.2968210416459,10.61744725046492],[-74.30592820765344,10.62449704601022],[-74.30905118957554,10.624228073324502],[-74.31232193503342,10.620733789714563],[-74.31742849461023,10.623403741678715],[-74.31938070065434,10.621878931662764],[-74.32171856338698,10.624177925438858],[-74.32831177159164,10.624387547735239],[-74.33237143530562,10.622047315471036],[-74.3425742494652,10.625451780053595],[-74.3474400989852,10.617577911001604],[-74.35350375288101,10.619771818521144],[-74.35593238286503,10.618582009257466],[-74.3740642893261,10.621439352704499],[-74.38778274681829,10.629710751813946],[-74.39593340471913,10.639135349690264],[-74.4118005069472,10.644289025304204],[-74.41923679633322,10.643560112555235],[-74.41982787927265,10.650152207985116],[-74.42408617946,10.654162697748518],[-74.4206505911215,10.663222731263886],[-74.43752069734256,10.677169207832264],[-74.44643921408203,10.67619269960386],[-74.44832110962494,10.671534655122343],[-74.45055828886348,10.672104972778868],[-74.45111936082174,10.684460283191527],[-74.4405408236999,10.691098175166758],[-74.43639801143678,10.698629056581865],[-74.43677687012024,10.702639218272111],[-74.43387156731319,10.711876131559393],[-74.42866334105122,10.716838442816993],[-74.42633803251641,10.727982221203092],[-74.39973664994523,10.733466503034379],[-74.39941983822735,10.734863608257456],[-74.38000282393347,10.741872303125945],[-74.37485536114082,10.74557699270548],[-74.37413308287461,10.75504304504284],[-74.37537275617382,10.758236517443606],[-74.36976553535226,10.762575536998952],[-74.36845742948782,10.76546744948439],[-74.3709995213643,10.767046026475214],[-74.36725235196656,10.767963709848402]],[[-74.26740704053594,10.617490801920269],[-74.27347278011314,10.614527325262145],[-74.27273977004921,10.613344047636929],[-74.274585347173,10.612002422773969],[-74.27056352088772,10.606121783309732],[-74.26567209091701,10.607438750234849],[-74.26365705012034,10.604814435407434],[-74.26268851129299,10.60553106032512],[-74.26488854421615,10.60899364425137],[-74.2627705912904,10.610267887617397],[-74.2634035853194,10.61244655464725],[-74.2645728864108,10.611635182405621],[-74.26622154353174,10.613457354234527],[-74.26740704053594,10.617490801920269]]]}}]}