{"type":"FeatureCollection","features":[{"type":"Feature","properties":{"code":"478040"},"geometry":{"type":"Polygon","coordinates":[[[-74.2755040723585,11.000608340955523],[-74.27509960237097,10.996768377246156],[-74.27967715271348,10.995257901662],[-74.28063184047693,10.992813878978836],[-74.28422660600631,10.991404890102444],[-74.28398836215462,10.99007386642495],[-74.28910516913271,10.988912035940018],[-74.28601215499714,10.991682796868304],[-74.2883156050147,10.992377334954426],[-74.28704453747918,10.99431959904473],[-74.2755040723585,11.000608340955523]]]}}]}