{"type":"FeatureCollection","features":[{"type":"Feature","properties":{"code":"478008"},"geometry":{"type":"Polygon","coordinates":[[[-73.86540153655045,10.946279270818195],[-73.86552451359307,10.938650446708209],[-73.86769460444071,10.933562188266023],[-73.86442223095838,10.929905285268148],[-73.86864276467958,10.922766437913594],[-73.86695175012505,10.91931296290278],[-73.86765181506132,10.915701701155399],[-73.87166840554573,10.91055937440467],[-73.87863868808608,10.908019212914837],[-73.87813268408246,10.905560960700939],[-73.8826601544165,10.894939151860115],[-73.8767114012042,10.89135982325297],[-73.87780653204959,10.884054746677236],[-73.86995165421718,10.884381639188689],[-73.86337677388661,10.876003403413563],[-73.86192678923453,10.868556447021717],[-73.85883050156644,10.867450157574979],[-73.85771406139207,10.865235613327854],[-73.85554591738605,10.864395478634322],[-73.84502281948664,10.86960166240948],[-73.84180503059099,10.864643926692679],[-73.83407593642079,10.86626845655212],[-73.8305202774182,10.863696965617862],[-73.8262493366438,10.863450490112257],[-73.8181342577119,10.865817908226006],[-73.81450162801434,10.863173857586673],[-73.80422140298634,10.862776076589284],[-73.79704146318255,10.865040906533352],[-73.7906377588817,10.870200337311587],[-73.77272828705395,10.879897922913187],[-73.76945763621279,10.879586143364577],[-73.76482826676556,10.875391183923455],[-73.77993740171513,10.861609584174403],[-73.78502407429892,10.861741148712042],[-73.78732256928043,10.859930745350823],[-73.79408478864326,10.86107734254523],[-73.80813953141245,10.85364307816252],[-73.8167530676368,10.84196468861569],[-73.81915792311514,10.835118613135137],[-73.81864599116881,10.828341313719648],[-73.82426466472629,10.820527157068739],[-73.82714416082518,10.810947833100784],[-73.82934124726052,10.810036542526234],[-73.83041202870089,10.806894717480304],[-73.8337473377232,10.806282635801551],[-73.83347325470663,10.803189484883148],[-73.83834323136642,10.802992149389524],[-73.85746148619393,10.793376205668835],[-73.86061023985707,10.788888775687383],[-73.86833156208718,10.783120675602618],[-73.86638664564362,10.778550483766367],[-73.87119766889293,10.772966750515081],[-73.87697939172728,10.772467760489405],[-73.88594552227005,10.76789563106746],[-73.88562363621679,10.765494100543776],[-73.89786285603793,10.75579087907721],[-73.898984526871,10.75298445073389],[-73.90250024733683,10.75329609247126],[-73.91050597506103,10.747788193485974],[-73.91426891253951,10.748444555785852],[-73.91414629956552,10.746896213976584],[-73.91713954243545,10.744469315889773],[-73.92319545935817,10.742961566706754],[-73.9248765988076,10.7438325916998],[-73.92754761932355,10.740896872705264],[-73.929524286873,10.741555517119082],[-73.9371738947778,10.737351932130593],[-73.94338385799165,10.731918031641385],[-73.94433604149759,10.72735745677113],[-73.94732085730953,10.727388097159121],[-73.94888326924087,10.729438737493581],[-73.95280070038291,10.729074182388615],[-73.95907756172573,10.716913768003906],[-73.96736248999645,10.720510510199802],[-73.96948771503929,10.716298472442247],[-73.96423016878788,10.71334136698556],[-73.9700458662208,10.7116585048949],[-73.97605385772215,10.713986295061545],[-73.979445131501,10.709456971474083],[-73.98597791973617,10.712798398700954],[-73.99830395141873,10.700383539409529],[-74.01192239801821,10.692923873525103],[-74.03010766624783,10.678857851826763],[-74.03244864927507,10.67959170212822],[-74.03614229235353,10.67749930599905],[-74.0383880189778,10.681083192663436],[-74.04114303342271,10.678269569336294],[-74.04082502356925,10.672992126835936],[-74.04649887718159,10.67217683417141],[-74.04744388318721,10.666569551643306],[-74.04969551204312,10.66336604061513],[-74.05725438766359,10.66184219630668],[-74.05817204532576,10.659215964462419],[-74.0619188866504,10.65660236497763],[-74.06470709099221,10.656382101386498],[-74.06674983905879,10.658092045454055],[-74.06949404765817,10.656774453235869],[-74.07217202147399,10.658368006406647],[-74.0765746214027,10.653453378886468],[-74.08040415567643,10.653160719112691],[-74.07986486613072,10.650575071667106],[-74.08280154157677,10.652626134691445],[-74.08486255683937,10.649017811204374],[-74.08755412666528,10.649565838397734],[-74.08757058483087,10.645184572480616],[-74.08393139778383,10.642733496738629],[-74.08867636622705,10.640907221424015],[-74.08613842720143,10.636514633383229],[-74.08860536564089,10.632030374090107],[-74.08651302093381,10.630157930962412],[-74.08913073110335,10.627822024327429],[-74.08659924658303,10.627214078015982],[-74.0890128829036,10.622753644650686],[-74.08700294729556,10.620743190707628],[-74.09817247171168,10.615817931148683],[-74.0993466424784,10.613349708184558],[-74.1010892005151,10.613120225634702],[-74.10069942388583,10.609655470666326],[-74.10240070949578,10.607547753828953],[-74.1077140220143,10.613640713194343],[-74.10906178873603,10.611297991070785],[-74.11094365856786,10.611194911305574],[-74.11183155413192,10.61418396635753],[-74.1179429956378,10.619308207946574],[-74.11976219732475,10.624497313405243],[-74.11950850112424,10.632745732995033],[-74.13109462600738,10.629314306763376],[-74.13324566598584,10.632427379641797],[-74.1404270620643,10.628317093930207],[-74.13992534872284,10.636361104398702],[-74.14761902950335,10.634664472491181],[-74.15153748908796,10.63702064150067],[-74.14972597912259,10.646544471738707],[-74.15589761639751,10.64506943834067],[-74.15431374806991,10.650256881836242],[-74.1476854195817,10.653572872594282],[-74.14986008699861,10.656265339222045],[-74.14968073382244,10.658821647259458],[-74.14751038483564,10.657858141629788],[-74.13827246264623,10.66787016941771],[-74.13485786481954,10.666711311131678],[-74.13739484636511,10.676058903345961],[-74.13492748626425,10.679035937961771],[-74.129465917586,10.681967107126582],[-74.12152571913373,10.682366033808933],[-74.1209669735124,10.68663889571394],[-74.12481586924503,10.68722716174932],[-74.12962005026628,10.695375423379062],[-74.13025833460352,10.699905788778779],[-74.12739868230301,10.709534417309499],[-74.12916035085857,10.711274466974885],[-74.12594990401402,10.71426060125009],[-74.12611238456225,10.715872093543737],[-74.12253458216378,10.715744862862891],[-74.12277182842621,10.720830165561267],[-74.120011300501,10.722760725975718],[-74.12008350642179,10.724582366099867],[-74.11481599867614,10.723565895680508],[-74.11246895092336,10.724871389300915],[-74.11178424063388,10.722409043885762],[-74.10935453387054,10.725814172842206],[-74.10921590393275,10.733808301791726],[-74.09796722749508,10.735846682062913],[-74.09763421677911,10.737514655391237],[-74.09980317016937,10.737578942304651],[-74.10011067653932,10.739076283649354],[-74.09202808919196,10.74620517876565],[-74.08667533076056,10.756015460069989],[-74.09247369996552,10.774700967882893],[-74.08786675982122,10.781687191282344],[-74.08373159814192,10.783076093647878],[-74.0818154873449,10.78565157391074],[-74.08204347968154,10.789975186368679],[-74.08377282840252,10.791930201089315],[-74.09198118090023,10.793096229676621],[-74.09180013182231,10.795708959099045],[-74.09378959525355,10.797746399373807],[-74.08731288284679,10.802862419593339],[-74.08687005503862,10.806468476393093],[-74.08975171395213,10.809638237023194],[-74.09679516812082,10.809737403564611],[-74.09872511764041,10.807934823565631],[-74.1027586990237,10.812851466833195],[-74.1000669821305,10.825297096096278],[-74.09780042851673,10.828578931249808],[-74.0932056034253,10.827517989947523],[-74.09425400698484,10.83165062680041],[-74.09061555218886,10.835122266163012],[-74.09417603664377,10.83938476239581],[-74.09422767474263,10.843394226802047],[-74.09992813519136,10.852423137589938],[-74.09910052075702,10.854184961440296],[-74.10301681444167,10.856944326197038],[-74.1081823027464,10.854636276984536],[-74.11155908268483,10.857335722623247],[-74.1103847144571,10.86045367134767],[-74.10736090936086,10.861355750162545],[-74.10487519567482,10.864861390863268],[-74.1039443204694,10.8690121653284],[-74.10911436683136,10.870822121317133],[-74.10921580828762,10.873082246136676],[-74.10549809039827,10.876668209226523],[-74.1049438771231,10.879885532237722],[-74.10266277104773,10.877778160957064],[-74.09901460569745,10.87890053730166],[-74.0986997757883,10.882499804323913],[-74.10016384804601,10.882903116285206],[-74.09658601993647,10.886461920264992],[-74.10467616325104,10.89235579578451],[-74.11393489288952,10.89014906770052],[-74.11348569799372,10.881353844763908],[-74.11537177209857,10.877484304076177],[-74.11517174825622,10.873233034321856],[-74.12000105515659,10.869393634199014],[-74.1251759526819,10.86830919607047],[-74.1312518512143,10.864634457822433],[-74.13235375538216,10.860246229349457],[-74.13503545935896,10.8582987202023],[-74.14473613028815,10.873558290581286],[-74.14266711888496,10.886305824287945],[-74.14587025967387,10.894516132883325],[-74.14861149504588,10.894496349763017],[-74.15088401979688,10.899873760990033],[-74.14954406820988,10.902777202316088],[-74.14417527841653,10.905329984852528],[-74.13687808382429,10.903150966095325],[-74.12831066913316,10.910527997651855],[-74.12423029155838,10.904080978437491],[-74.12272545903835,10.904450800196571],[-74.12244283994892,10.908980513563733],[-74.12004740808936,10.90766001496695],[-74.11662681752807,10.908696091614502],[-74.11487117975946,10.905701451091204],[-74.10927192731054,10.904178181682141],[-74.10745501390818,10.907517528369794],[-74.10457461895055,10.908974243149657],[-74.10454685511633,10.915675085063015],[-74.09825876523809,10.917016357170212],[-74.09465735905536,10.915937924117543],[-74.0914266426372,10.91986090370699],[-74.09366327680118,10.921654233893946],[-74.09342957969392,10.923280781557594],[-74.08484256494523,10.927944767351562],[-74.08536313580873,10.934242537959221],[-74.08059328934098,10.938154540981657],[-74.07755233496573,10.937026293258725],[-74.0794210139938,10.934251874160395],[-74.07320823284749,10.930766131765552],[-74.0666113747003,10.93227337392642],[-74.06764835329193,10.935062180935574],[-74.06401402666421,10.936355219088625],[-74.06233689299836,10.939977267141103],[-74.05533948117278,10.938373385322109],[-74.05073622079578,10.942867094973565],[-74.03744357861558,10.943455295188642],[-74.0344320603221,10.942164706785661],[-74.03033193562254,10.943636389517962],[-74.02852599055967,10.937525470460912],[-74.02705906231711,10.936806309403948],[-74.0228367072242,10.940098472177283],[-74.02233297402165,10.94438667535934],[-74.01564089443855,10.943161633711838],[-74.015568577446,10.949933366168011],[-73.99822378946664,10.954657626921119],[-73.99993906498014,10.95913710704184],[-73.99896477921601,10.960817354831647],[-73.99312456679871,10.961450056782951],[-73.98747128615054,10.95650187015491],[-73.97954975598691,10.962277422334182],[-73.97156241681489,10.959620577869941],[-73.96196347530594,10.963865089728415],[-73.94852833727253,10.965461937000612],[-73.9441410457107,10.967763140899706],[-73.93274142065081,10.966741187853245],[-73.9281474070005,10.962927913255726],[-73.92423276396607,10.964864999137887],[-73.91917255937892,10.96367454195547],[-73.91039871981917,10.967064949785708],[-73.90219185650625,10.966217050351133],[-73.89992603205826,10.968648337830643],[-73.89339019449108,10.970300123473692],[-73.887258691157,10.968456421200642],[-73.88357902461235,10.970696965503066],[-73.88010253614328,10.970527714717775],[-73.87587706692648,10.968364635791204],[-73.87205570157164,10.963154216889734],[-73.87429699046646,10.947942037142013],[-73.86540153655045,10.946279270818195]]]}}]}