{"type":"FeatureCollection","features":[{"type":"Feature","properties":{"code":"478028"},"geometry":{"type":"Polygon","coordinates":[[[-74.0999247516155,10.852435458331286],[-74.10824512207233,10.849528674567011],[-74.10670920487718,10.84640938578201],[-74.11199330962819,10.840449672457794],[-74.11029130719379,10.836007031148085],[-74.11601765765448,10.831684169453126],[-74.13412390344627,10.831234152831769],[-74.13369142896897,10.827381358273556],[-74.15147982328745,10.825061415123344],[-74.15765656060887,10.828371054220383],[-74.16102725319604,10.825958719908101],[-74.1659239282236,10.827624482085014],[-74.1717585335723,10.826183309128453],[-74.17240865528294,10.828059751869091],[-74.17278503541996,10.825954932154275],[-74.18229445512145,10.826099853074936],[-74.18782907098654,10.828017962135789],[-74.191089222458,10.833335931442036],[-74.19608480691636,10.835443275983266],[-74.22148103688994,10.825179670586408],[-74.22747580981957,10.825571732414915],[-74.24030092614453,10.8291301599848],[-74.24755975880242,10.836652447734195],[-74.26418923518514,10.833444120509682],[-74.26987947085837,10.834746983374146],[-74.27174255721604,10.839794942296237],[-74.27589323603604,10.840485072477748],[-74.27241168865822,10.843081861041128],[-74.27149802958058,10.850799590921497],[-74.26850871536107,10.851039870060902],[-74.26849280124156,10.85484704496588],[-74.27119241863016,10.855622866006513],[-74.27220430630967,10.859424869902512],[-74.26896133188512,10.86368945181681],[-74.26634792163378,10.863756574146237],[-74.2660992411474,10.865629215763306],[-74.26274825866113,10.862604919071543],[-74.25617573037863,10.863569285507594],[-74.25296651457978,10.861314391346696],[-74.24757518029799,10.865731381243108],[-74.24423928506343,10.866019060269764],[-74.24167923658058,10.86440669791375],[-74.2246591258475,10.864476138352643],[-74.2217704097614,10.866256203687954],[-74.2185318041607,10.865612379130823],[-74.21664800599916,10.871043454488472],[-74.20968091471593,10.872546227038129],[-74.20484813682202,10.867665815800535],[-74.20025289521135,10.868925073730622],[-74.19342274002099,10.866150277193867],[-74.19149913804864,10.86822959564796],[-74.19254941234516,10.871208890780451],[-74.18955010063593,10.871448219638978],[-74.19023539713766,10.875319728765703],[-74.18561245648459,10.878391153835935],[-74.18815530838009,10.881399835684931],[-74.18552295730285,10.882636403087702],[-74.18501588680431,10.886834910655466],[-74.18199967161388,10.887919286049055],[-74.18102461451787,10.891481230892282],[-74.17916601011268,10.889643226190799],[-74.17506971430464,10.890163887557208],[-74.17205999064339,10.893680960424945],[-74.1725006216983,10.898334240132272],[-74.17032619802228,10.89971691733524],[-74.16368697524246,10.898010019514459],[-74.15083761544196,10.900041688169779],[-74.14861149504588,10.894496349763017],[-74.14587025967387,10.894516132883325],[-74.14266711888496,10.886305824287945],[-74.14473613028815,10.873558290581286],[-74.13503545935896,10.8582987202023],[-74.13235375538216,10.860246229349457],[-74.1312518512143,10.864634457822433],[-74.1251759526819,10.86830919607047],[-74.12000105515659,10.869393634199014],[-74.11517174825622,10.873233034321856],[-74.11537177209857,10.877484304076177],[-74.11348569799372,10.881353844763908],[-74.11405208597142,10.89005977420726],[-74.11007507201202,10.891994850512788],[-74.10362540661504,10.891825889748247],[-74.09658027197122,10.8864336586646],[-74.10016384804601,10.882903116285206],[-74.0986997757883,10.882499804323913],[-74.09901460569745,10.87890053730166],[-74.10266277104773,10.877778160957064],[-74.1049438771231,10.879885532237722],[-74.10549809039827,10.876668209226523],[-74.10921580828762,10.873082246136676],[-74.10911436683136,10.870822121317133],[-74.1039443204694,10.8690121653284],[-74.10487519567482,10.864861390863268],[-74.10736090936086,10.861355750162545],[-74.1103847144571,10.86045367134767],[-74.11155908268483,10.857335722623247],[-74.1081823027464,10.854636276984536],[-74.10274419695571,10.856917219537593],[-74.09910052075702,10.854184961440296],[-74.0999247516155,10.852435458331286]]]}}]}